{"type":"Topology","objects":{"geometrias":{"type":"GeometryCollection","geometries":[{"type":"Polygon","arcs":[[0,1,2,3,4,5]],"properties":{"code_meso":4301,"code_state":43,"code_region":4,"name_meso":"Noroeste Rio-Grandense","abbrev_state":"RS","name_state":"Rio Grande do Sul","name_region":"Sul","year":2020}},{"type":"Polygon","arcs":[[6,7,8,9,10,11,-6]],"properties":{"code_meso":4302,"code_state":43,"code_region":4,"name_meso":"Nordeste Rio-Grandense","abbrev_state":"RS","name_state":"Rio Grande do Sul","name_region":"Sul","year":2020}},{"type":"Polygon","arcs":[[12,13,14,15,-4,16,17]],"properties":{"code_meso":4303,"code_state":43,"code_region":4,"name_meso":"Centro Ocidental Rio-Grandense","abbrev_state":"RS","name_state":"Rio Grande do Sul","name_region":"Sul","year":2020}},{"type":"Polygon","arcs":[[18,19,20,21,22,-7,-5,-16]],"properties":{"code_meso":4304,"code_state":43,"code_region":4,"name_meso":"Centro Oriental Rio-Grandense","abbrev_state":"RS","name_state":"Rio Grande do Sul","name_region":"Sul","year":2020}},{"type":"Polygon","arcs":[[-11,23,-9,24,-22,25,26,27,28,29]],"properties":{"code_meso":4305,"code_state":43,"code_region":4,"name_meso":"Metropolitana de Porto Alegre","abbrev_state":"RS","name_state":"Rio Grande do Sul","name_region":"Sul","year":2020}},{"type":"Polygon","arcs":[[30,31,32,-18,33,-2]],"properties":{"code_meso":4306,"code_state":43,"code_region":4,"name_meso":"Sudoeste Rio-Grandense","abbrev_state":"RS","name_state":"Rio Grande do Sul","name_region":"Sul","year":2020}},{"type":"MultiPolygon","arcs":[[[34,-27,35,-20,36,-14,37,-32]],[[38,-29]]],"properties":{"code_meso":4307,"code_state":43,"code_region":4,"name_meso":"Sudeste Rio-Grandense","abbrev_state":"RS","name_state":"Rio Grande do Sul","name_region":"Sul","year":2020}}]}},"arcs":[[[-51.304154,-27.7289391],[-51.3020007,-27.7025595],[-51.3133938,-27.678758],[-51.3308702,-27.6709395],[-51.3601128,-27.6787943],[-51.3779345,-27.6600239],[-51.3701089,-27.6366712],[-51.3812886,-27.6254965],[-51.4052908,-27.631861],[-51.4126477,-27.6489618],[-51.4380008,-27.6473272],[-51.4366062,-27.6298497],[-51.457684,-27.6071136],[-51.4775744,-27.5959462],[-51.4777967,-27.5710291],[-51.5084583,-27.5561136],[-51.554876,-27.5639917],[-51.5717093,-27.5826241],[-51.5867222,-27.560268],[-51.5778171,-27.5319054],[-51.593921,-27.5244056],[-51.6083281,-27.5413715],[-51.6311317,-27.5414631],[-51.6194935,-27.5002824],[-51.6436426,-27.4925564],[-51.6474327,-27.5163319],[-51.6647179,-27.5172667],[-51.677578,-27.5029806],[-51.6732478,-27.4880457],[-51.6996498,-27.4790642],[-51.7166827,-27.5103401],[-51.7303892,-27.511502],[-51.75968,-27.4867563],[-51.8017881,-27.4939626],[-51.7984337,-27.5094318],[-51.8370708,-27.522233],[-51.8551292,-27.5154503],[-51.8463267,-27.4793449],[-51.8740397,-27.4797936],[-51.8739134,-27.5114993],[-51.8947903,-27.5170212],[-51.902342,-27.4955225],[-51.9004867,-27.4640604],[-51.9183845,-27.4584344],[-51.9449946,-27.4730915],[-51.9637942,-27.463136],[-51.9335484,-27.4381325],[-51.9512992,-27.4173062],[-51.9995823,-27.409739],[-52.0064474,-27.3746257],[-52.0228896,-27.3621543],[-52.010832,-27.3466054],[-52.0198518,-27.3319461],[-52.0383697,-27.3442034],[-52.0660571,-27.3395366],[-52.103287,-27.3466956],[-52.1111215,-27.335403],[-52.1056867,-27.3133503],[-52.1263285,-27.3025235],[-52.1612892,-27.3142878],[-52.1683643,-27.3055814],[-52.1593055,-27.2815636],[-52.1737838,-27.2720469],[-52.1910065,-27.2917198],[-52.2056261,-27.3273864],[-52.2271795,-27.3290007],[-52.2348009,-27.3106581],[-52.2778953,-27.2949224],[-52.2597603,-27.2789379],[-52.2571493,-27.2562013],[-52.2939566,-27.2566509],[-52.3060917,-27.265723],[-52.2910463,-27.3068335],[-52.3130843,-27.3092657],[-52.3502253,-27.2882432],[-52.3785034,-27.3026838],[-52.3811387,-27.260818],[-52.3997418,-27.263265],[-52.3936592,-27.2851463],[-52.4156089,-27.2852581],[-52.4390853,-27.2644049],[-52.44174,-27.248985],[-52.4301649,-27.223725],[-52.4462101,-27.217412],[-52.4798149,-27.2355428],[-52.4763924,-27.2605782],[-52.4930183,-27.2671533],[-52.5291471,-27.2626863],[-52.5438602,-27.2410847],[-52.5636001,-27.2489161],[-52.5874994,-27.2468901],[-52.6178894,-27.2657059],[-52.6461956,-27.2606121],[-52.6574574,-27.2395345],[-52.6767383,-27.2466088],[-52.6809898,-27.2740514],[-52.7072601,-27.2721932],[-52.7122882,-27.2400034],[-52.7236915,-27.2351438],[-52.7397649,-27.2552421],[-52.7639082,-27.2429623],[-52.7635597,-27.2112333],[-52.8075153,-27.2023721],[-52.8339914,-27.2112922],[-52.8466916,-27.2023335],[-52.8430785,-27.1785255],[-52.8599769,-27.1704273],[-52.9033596,-27.1990902],[-52.9293114,-27.2040764],[-52.9360669,-27.1780364],[-52.9566923,-27.1632578],[-52.9677099,-27.1903744],[-52.9681942,-27.2111029],[-52.991719,-27.2176533],[-53.0025644,-27.1976227],[-52.9837257,-27.156503],[-53.0030057,-27.1356146],[-53.0193158,-27.1538174],[-53.0375501,-27.1577479],[-53.0413939,-27.1249055],[-53.0213514,-27.1057905],[-53.034338,-27.082315],[-53.0610241,-27.0894163],[-53.0790453,-27.1184736],[-53.069718,-27.1515543],[-53.0774788,-27.1631158],[-53.1321831,-27.1802287],[-53.1545929,-27.1406169],[-53.1723622,-27.1480209],[-53.1811367,-27.1882679],[-53.1972164,-27.1926527],[-53.2320857,-27.1711117],[-53.293067,-27.1969193],[-53.3078492,-27.2165417],[-53.320727,-27.1982383],[-53.3090173,-27.181611],[-53.2929369,-27.1408089],[-53.3122408,-27.119688],[-53.3533047,-27.1153807],[-53.3776178,-27.0919808],[-53.4011986,-27.1295012],[-53.4179383,-27.1444445],[-53.4525555,-27.1561351],[-53.4763393,-27.1389083],[-53.5043642,-27.1356415],[-53.5051496,-27.1614501],[-53.4917069,-27.1766918],[-53.4930806,-27.2034785],[-53.518249,-27.2021778],[-53.5540029,-27.173178],[-53.5914418,-27.1874727],[-53.6182319,-27.1873364],[-53.6307258,-27.2133786],[-53.6508192,-27.2155074],[-53.6501258,-27.1788221],[-53.6750504,-27.1606825],[-53.700899,-27.1700094],[-53.7352636,-27.1907901],[-53.7510579,-27.1890231],[-53.7620333,-27.1571237],[-53.7778656,-27.1481458],[-53.8148466,-27.1758898],[-53.8415965,-27.1656115],[-53.8586307,-27.1326179],[-53.8850032,-27.1354033],[-53.8977469,-27.1703311],[-53.9168985,-27.1747524],[-53.9465845,-27.1512593],[-53.9607107,-27.1651098],[-53.9552027,-27.1784811],[-53.9677443,-27.1989031],[-54.0080173,-27.1983946],[-54.0159091,-27.2330074],[-54.0277768,-27.2548537],[-54.0564013,-27.2650766],[-54.0722781,-27.2909545],[-54.1010469,-27.303263],[-54.1548951,-27.2968585],[-54.1573283,-27.2632057],[-54.1865574,-27.2649093],[-54.1933396,-27.3084602],[-54.2119743,-27.3456102],[-54.2144362,-27.3815781],[-54.2675105,-27.4042904],[-54.2678077,-27.4313537],[-54.2942248,-27.4459101],[-54.3106418,-27.4219623],[-54.341542,-27.4043517],[-54.3350661,-27.4512946],[-54.3572144,-27.4649427],[-54.3987584,-27.411613],[-54.4114043,-27.405286],[-54.4391199,-27.4247486],[-54.4566459,-27.4221597],[-54.4720566,-27.4344595],[-54.4426327,-27.4649219],[-54.4495063,-27.4754245],[-54.5005991,-27.4803532],[-54.520919,-27.5033165],[-54.5733512,-27.4536101],[-54.5893943,-27.4581845],[-54.59495,-27.4873672],[-54.6157921,-27.532241],[-54.634082,-27.5463835],[-54.6480251,-27.5402344],[-54.6567412,-27.5132169],[-54.680116,-27.526641],[-54.6716648,-27.5664167],[-54.6808563,-27.5745014],[-54.7448607,-27.5626414],[-54.7587251,-27.5815035],[-54.7781274,-27.5837166],[-54.7877189,-27.5701781],[-54.7951866,-27.5349829],[-54.8097871,-27.5300474],[-54.8265535,-27.5540257],[-54.8477222,-27.6213131],[-54.8788586,-27.6259787],[-54.903167,-27.6363877],[-54.9021982,-27.7024887],[-54.9066386,-27.7297869],[-54.9374074,-27.7704522],[-54.9494242,-27.7792846],[-54.9776622,-27.77086],[-54.9930424,-27.7755487],[-55.0057782,-27.7962255],[-55.0243129,-27.7941998],[-55.0579123,-27.7680858],[-55.083869,-27.7841284],[-55.0827106,-27.7968583],[-55.0342675,-27.8246638],[-55.0246941,-27.835311],[-55.0363835,-27.8577803],[-55.0853093,-27.8430957],[-55.1138325,-27.8489913],[-55.1262762,-27.8598184],[-55.124006,-27.8814864],[-55.1393124,-27.8950654],[-55.1715604,-27.861276],[-55.2026827,-27.8578592],[-55.2322671,-27.8840687],[-55.2501219,-27.9142136],[-55.2664617,-27.9297895],[-55.2858009,-27.9322843],[-55.3093708,-27.9222498],[-55.3303065,-27.9314514],[-55.3399894,-27.9665261],[-55.3771528,-27.9765257],[-55.3871865,-27.9861896],[-55.369395,-28.0272605],[-55.3905088,-28.0452307],[-55.4139679,-28.0546489],[-55.4384353,-28.0863349]],[[-55.4384353,-28.0863349],[-55.4283438,-28.0984685],[-55.418144,-28.0908073],[-55.4148668,-28.0878178],[-55.4088379,-28.0896915],[-55.4032108,-28.1137811],[-55.3653273,-28.1240399],[-55.3549823,-28.1335688],[-55.3662023,-28.1648398],[-55.3384956,-28.1848373],[-55.3265272,-28.2092926],[-55.3514376,-28.25412],[-55.3809054,-28.2872336],[-55.3837235,-28.3049122],[-55.4097736,-28.2945639],[-55.4435716,-28.2487684],[-55.4607268,-28.2516861],[-55.4862251,-28.2722703],[-55.4902595,-28.3052806],[-55.5041627,-28.3311968],[-55.5253334,-28.343352],[-55.4999836,-28.366129],[-55.5026872,-28.3997818],[-55.5244367,-28.4151842],[-55.5287579,-28.4577616],[-55.568031,-28.4693202],[-55.5903785,-28.4884472],[-55.6242109,-28.4884479],[-55.6350567,-28.496178],[-55.6792661,-28.4983274],[-55.6971347,-28.5314123],[-55.7283485,-28.550472],[-55.7341922,-28.5732189],[-55.7723749,-28.5852084],[-55.7695137,-28.5945053],[-55.7545572,-28.5986028],[-55.733219,-28.6227483],[-55.699765,-28.6261406],[-55.7199851,-28.6531486],[-55.6966144,-28.654836],[-55.6756802,-28.6715277],[-55.6416941,-28.6691854],[-55.5909107,-28.6907839],[-55.5729666,-28.6762805],[-55.5617213,-28.697009]],[[-55.5617213,-28.697009],[-55.5498372,-28.7074737]],[[-55.5498372,-28.7074737],[-55.5360586,-28.6979955],[-55.5316054,-28.6863746],[-55.5262313,-28.6904108],[-55.5223079,-28.7034291],[-55.5120004,-28.6971433],[-55.4891046,-28.6905374],[-55.4950342,-28.6801961],[-55.4945452,-28.6724226],[-55.4814988,-28.6686986],[-55.4720064,-28.6646758],[-55.4555289,-28.6680988],[-55.4460969,-28.6752535],[-55.4358553,-28.6679985],[-55.4272651,-28.650993],[-55.303217,-28.671337],[-55.2749674,-28.6722555],[-55.2554389,-28.6827144],[-55.2230006,-28.6692551],[-55.2220358,-28.7131262],[-55.2075342,-28.7114981],[-55.1830061,-28.7492404],[-55.1647979,-28.7516683],[-55.1553734,-28.7367317],[-55.132632,-28.7449994],[-55.1121488,-28.742536],[-55.0986068,-28.7534756],[-55.0560092,-28.766692],[-55.0078475,-28.796472],[-54.9964296,-28.7777398],[-54.9645784,-28.8082729],[-54.92197,-28.8253452],[-54.90212,-28.8175634],[-54.8610183,-28.8321182],[-54.7941941,-28.8746516],[-54.7721268,-28.8720034],[-54.7537277,-28.8536461],[-54.7404355,-28.8547839],[-54.7079318,-28.8366984],[-54.7154441,-28.8034886],[-54.7101541,-28.7857202],[-54.675543,-28.7377263],[-54.6173219,-28.7533041],[-54.6117378,-28.7796731],[-54.5828513,-28.7892653],[-54.5787046,-28.8130697],[-54.5651176,-28.8375656],[-54.5385771,-28.8473746],[-54.5287827,-28.8664169],[-54.4838218,-28.8711743],[-54.457394,-28.8862852],[-54.410382,-28.9222081],[-54.389294,-28.9877424],[-54.3777217,-29.004479],[-54.3511012,-28.9729186],[-54.3570987,-28.96107],[-54.3432958,-28.929486],[-54.2924824,-28.9281193],[-54.2610988,-28.9125509],[-54.2330912,-28.9253322],[-54.2158135,-28.9202626],[-54.1860386,-28.8941349],[-54.1492349,-28.8949627],[-54.1348661,-28.882605],[-54.0952653,-28.9049402],[-54.0481768,-28.9117876],[-54.0237492,-28.9039921],[-53.9529096,-28.8983641],[-53.9550945,-28.8749016],[-53.9253411,-28.8405121],[-53.8921838,-28.8118442],[-53.8739577,-28.8149112],[-53.8437365,-28.7989512],[-53.8183043,-28.8085198],[-53.7871075,-28.8091961],[-53.7831787,-28.8305499],[-53.7604087,-28.8649503],[-53.7416586,-28.8622676],[-53.7167248,-28.8854477],[-53.6833221,-28.9013159],[-53.6678409,-28.9376785],[-53.6359477,-28.9467303],[-53.6088223,-28.9380207],[-53.5820706,-28.9438941],[-53.5457521,-28.9750311],[-53.5259282,-29.016413],[-53.5071341,-29.0337255],[-53.4943805,-29.0730784],[-53.4408929,-29.0956324],[-53.4290835,-29.0949267],[-53.3857798,-29.1237437],[-53.3484542,-29.1184864],[-53.3321161,-29.1282236],[-53.2787486,-29.1313934],[-53.2758749,-29.1456784],[-53.2614367,-29.144295]],[[-53.2614367,-29.144295],[-53.2584727,-29.1394322],[-53.2403703,-29.1378612],[-53.1414219,-29.1307891],[-53.1150981,-29.1480052],[-53.0942656,-29.1398567],[-53.0725352,-29.1777897],[-53.0566109,-29.1802619],[-53.0423306,-29.1633513],[-53.0088677,-29.1545337],[-52.9994526,-29.1389851],[-52.9735289,-29.1598159],[-52.9192173,-29.183361],[-52.8956177,-29.2132573],[-52.8994457,-29.2236196],[-52.8859645,-29.2628813],[-52.8964142,-29.2664769],[-52.8825789,-29.3009345],[-52.8901656,-29.3196909],[-52.8579671,-29.3172714],[-52.8245664,-29.3279248],[-52.8106039,-29.3180827],[-52.7760238,-29.3517423],[-52.7436436,-29.3657725],[-52.7404985,-29.3351773],[-52.7199514,-29.3114492],[-52.7218024,-29.292502],[-52.6979309,-29.2872535],[-52.6931424,-29.2721607],[-52.6947024,-29.2606504],[-52.6758426,-29.2538062],[-52.6740293,-29.2331482],[-52.6195487,-29.2308491],[-52.5984465,-29.2142618],[-52.5801065,-29.2282877],[-52.5587416,-29.2199299],[-52.5356057,-29.2245462],[-52.5010067,-29.2472842],[-52.4809542,-29.2370878],[-52.4564348,-29.2402916],[-52.4394396,-29.229373],[-52.4385978,-29.1898569],[-52.4128,-29.1520942],[-52.3730666,-29.1435762],[-52.3104878,-29.1584952],[-52.2866566,-29.1480893],[-52.2810558,-29.1249282],[-52.2692357,-29.1188139],[-52.2468929,-29.101983],[-52.2121426,-29.0949778]],[[-52.2121426,-29.0949778],[-52.2062449,-29.0853046],[-52.209138,-29.0507726],[-52.2197608,-29.0113161],[-52.240957,-28.9718038],[-52.2676516,-28.9454233],[-52.2607506,-28.9325906],[-52.2803367,-28.9124671],[-52.2781905,-28.8999664],[-52.299423,-28.8755933],[-52.3061496,-28.8411676],[-52.329545,-28.8216142],[-52.3044775,-28.7720552],[-52.3008129,-28.7479839],[-52.2777524,-28.7351771],[-52.2784913,-28.6960762],[-52.2598245,-28.6823284],[-52.2522273,-28.6724289],[-52.243464,-28.6596517],[-52.2104784,-28.6699489],[-52.1920238,-28.6697543],[-52.1952089,-28.6549465],[-52.1626325,-28.6593616],[-52.1335381,-28.6730021],[-52.1022844,-28.6648636],[-52.1058842,-28.6496826],[-52.0925651,-28.6332906],[-52.0929839,-28.6159208],[-51.9964698,-28.6104894],[-51.9943679,-28.6725012],[-51.8568095,-28.661967],[-51.8493164,-28.6489235],[-51.8562612,-28.605884],[-51.8403893,-28.5790409],[-51.7823514,-28.5131796],[-51.790343,-28.4879644],[-51.784745,-28.474511],[-51.7381534,-28.4497088],[-51.6871219,-28.4667013],[-51.641682,-28.4656133],[-51.6219783,-28.4761399],[-51.5846461,-28.4243257],[-51.547814,-28.4217765],[-51.5191468,-28.4126359],[-51.4987499,-28.3981547],[-51.5388697,-28.3675291],[-51.5297919,-28.3339944],[-51.5447456,-28.3136277],[-51.5940081,-28.301363],[-51.6399711,-28.2455204],[-51.6523731,-28.2124377],[-51.6667875,-28.2020018],[-51.6500968,-28.1867111],[-51.6576675,-28.173376],[-51.6962678,-28.1473676],[-51.6794724,-28.1350912],[-51.6335034,-28.1336925],[-51.6196339,-28.1097631],[-51.6240329,-28.071348],[-51.6136843,-28.063044],[-51.6393426,-28.0449259],[-51.6632175,-27.9778658],[-51.636232,-27.9662543],[-51.574333,-27.9878393],[-51.5437442,-27.9908033],[-51.5257348,-27.98396],[-51.5092376,-27.9553827],[-51.4601508,-27.949232],[-51.4583686,-27.9290089],[-51.4321865,-27.9122168],[-51.4173548,-27.9162572],[-51.403106,-27.8852137],[-51.3826966,-27.8739209],[-51.3782097,-27.8264301],[-51.3504364,-27.7870845],[-51.3311922,-27.7874815],[-51.3356211,-27.752633],[-51.3075034,-27.7543984],[-51.3012105,-27.7465851],[-51.3018492,-27.7390918],[-51.3067148,-27.7351367],[-51.304154,-27.7289391]],[[-52.2121426,-29.0949778],[-52.2050528,-29.0945711],[-52.2036071,-29.1014465],[-52.1996134,-29.1104254],[-52.184157,-29.1080704],[-52.1709156,-29.10542],[-52.1655346,-29.0888016],[-52.1267396,-29.0812791],[-52.0953256,-29.0835971],[-52.0784323,-29.0676695],[-52.046061,-29.0577056],[-52.0485884,-29.020557],[-52.0210972,-29.0396772],[-51.9700279,-29.0391018],[-51.9551472,-29.0745114],[-51.9258515,-29.0748655],[-51.9132693,-29.0416651],[-51.918325,-29.0228589],[-51.8140991,-29.0145116],[-51.805329,-29.0457027],[-51.8083994,-29.0817241],[-51.7585114,-29.1036534],[-51.7321281,-29.1289815],[-51.7563924,-29.1388787],[-51.7468316,-29.1650459],[-51.7337965,-29.1777585],[-51.7569225,-29.1926403],[-51.7468549,-29.2155197],[-51.7542752,-29.2244842],[-51.7547847,-29.2605618],[-51.8014838,-29.2597738],[-51.7970018,-29.2994147],[-51.761584,-29.2952918],[-51.7153064,-29.2969671],[-51.7018885,-29.3344499],[-51.7289575,-29.3340626],[-51.7274541,-29.3694054],[-51.6910799,-29.3713727]],[[-51.6910799,-29.3713727],[-51.6912295,-29.4235255]],[[-51.6912295,-29.4235255],[-51.6803343,-29.4134075],[-51.6694576,-29.4182931],[-51.6575304,-29.3993035],[-51.610879,-29.4010901],[-51.6168875,-29.3783719],[-51.5612643,-29.3747066],[-51.5622428,-29.3587752],[-51.5339219,-29.3515301],[-51.3544815,-29.3516848],[-51.3364537,-29.3329693],[-51.2987161,-29.3175801],[-51.2506562,-29.3076608],[-51.2165229,-29.3366523],[-51.2122985,-29.3585712],[-51.1796075,-29.3251053],[-51.1369115,-29.3387977],[-51.1259633,-29.3139012],[-51.0998207,-29.3176496],[-51.0886247,-29.2909419],[-51.0698846,-29.2917037],[-51.0490953,-29.3077082],[-51.0306763,-29.2936705],[-51.0010575,-29.3174954],[-50.9843518,-29.3040389],[-50.9636043,-29.3059354],[-50.9306793,-29.2865666],[-50.9218307,-29.3052482],[-50.9074693,-29.3022073],[-50.8820578,-29.2701455],[-50.8162391,-29.2574132],[-50.7967911,-29.2768633],[-50.7617756,-29.2768326],[-50.7613626,-29.3093803],[-50.7429856,-29.3269588],[-50.7114511,-29.334368],[-50.6919246,-29.3227399],[-50.6739625,-29.3365352],[-50.68237,-29.3596062],[-50.6443653,-29.3837746],[-50.6453176,-29.4082381],[-50.657206,-29.4221208],[-50.6844388,-29.4076537],[-50.7046205,-29.4185132],[-50.7214972,-29.4411385],[-50.7154758,-29.4551719],[-50.6812125,-29.4785826],[-50.6607147,-29.5064603],[-50.6511525,-29.5024802]],[[-50.6511525,-29.5024802],[-50.6308646,-29.5585958],[-50.6290491,-29.5607457],[-50.6232966,-29.5572623]],[[-50.6232966,-29.5572623],[-50.5724982,-29.5525636],[-50.5527589,-29.538637],[-50.4328876,-29.5372576],[-50.4055578,-29.5188947],[-50.3572775,-29.4986777],[-50.3181609,-29.4727408],[-50.3147819,-29.457086],[-50.2693133,-29.4714822],[-50.2947362,-29.4854376],[-50.2553237,-29.497043],[-50.2151325,-29.496884],[-50.2105797,-29.5157619],[-50.1864147,-29.5035429],[-50.2115404,-29.4606641],[-50.2220462,-29.4321783],[-50.2200357,-29.3894407],[-50.2449657,-29.3739548],[-50.2390064,-29.3539728],[-50.2496775,-29.3349874],[-50.2125987,-29.3342867],[-50.1756507,-29.349859],[-50.1608526,-29.3396104],[-50.1368761,-29.338983],[-50.1055,-29.3280979],[-50.0601323,-29.3648022],[-50.0421584,-29.3532484]],[[-50.0421584,-29.3532484],[-50.0906541,-29.3108993],[-50.134067,-29.3021625],[-50.1552287,-29.2476875],[-50.1406832,-29.2377834],[-50.1330356,-29.1973491],[-50.0889976,-29.2235466],[-50.0876318,-29.1837495],[-50.0628447,-29.1859154],[-50.0386135,-29.1774386],[-50.0049122,-29.1406371],[-49.9682774,-29.1147769],[-49.9697599,-29.1005732],[-49.9569425,-29.0629374],[-49.9609987,-29.0508076],[-49.9469385,-29.0318308],[-49.9591547,-29.0104812],[-49.9336567,-28.9658216],[-49.9580268,-28.9625515],[-49.9631796,-28.9189189],[-49.9435899,-28.8796583],[-49.9567607,-28.8703633],[-49.9661441,-28.8213279],[-49.9569943,-28.7836107],[-49.9613329,-28.7721804],[-49.9217437,-28.7455426],[-49.9346778,-28.7256765],[-49.9108345,-28.7127498],[-49.8975361,-28.7213093],[-49.8689623,-28.7160439],[-49.8476143,-28.7037902],[-49.8381736,-28.6716646],[-49.8240798,-28.6649572],[-49.8140127,-28.6355045],[-49.7981923,-28.6240162],[-49.7789039,-28.6294802],[-49.6913518,-28.6208914],[-49.7101947,-28.6043446],[-49.7079683,-28.5822272],[-49.7259776,-28.5695039],[-49.7467201,-28.5353911],[-49.7354803,-28.5236153],[-49.7392665,-28.5003347],[-49.7639017,-28.5013738],[-49.7642734,-28.4621023],[-49.7909263,-28.4964202],[-49.8172655,-28.4698688],[-49.8439264,-28.4851968],[-49.8666498,-28.4886323],[-49.8635729,-28.462846],[-49.9016491,-28.4648422],[-49.9285138,-28.4512235],[-49.9284437,-28.4714096],[-49.9423245,-28.4824344],[-49.9525054,-28.4503368],[-49.9886396,-28.4452528],[-50.0138764,-28.4507755],[-50.0258232,-28.4730834],[-50.0728184,-28.4808072],[-50.1261868,-28.4745281],[-50.1113576,-28.4444705],[-50.1269337,-28.4397298],[-50.1472781,-28.4495265],[-50.1392568,-28.4939534],[-50.1620146,-28.4813851],[-50.1780074,-28.4522534],[-50.1990863,-28.4448338],[-50.2226487,-28.4632721],[-50.2357086,-28.4570291],[-50.2468002,-28.4282705],[-50.2729133,-28.4570719],[-50.3038899,-28.437901],[-50.3404469,-28.4409658],[-50.3599941,-28.4198395],[-50.3768372,-28.4436738],[-50.395171,-28.4331574],[-50.4287806,-28.433541],[-50.4704404,-28.4149022],[-50.531594,-28.4078106],[-50.5370015,-28.4297226],[-50.5592689,-28.4173972],[-50.5922669,-28.3819459],[-50.6115593,-28.3932666],[-50.6332902,-28.378916],[-50.6284503,-28.3645961],[-50.6516748,-28.3434574],[-50.6649077,-28.3127962],[-50.695224,-28.2885195],[-50.7107406,-28.2665167],[-50.7533452,-28.2456844],[-50.7614854,-28.193141],[-50.7888221,-28.198335],[-50.782816,-28.175983],[-50.7940761,-28.1386404],[-50.8137868,-28.1415602],[-50.8367577,-28.1194],[-50.858991,-28.1397055],[-50.8759188,-28.0950754],[-50.8993599,-28.0896556],[-50.8813874,-28.0672564],[-50.8753996,-28.0401999],[-50.8923361,-28.021156],[-50.9232384,-28.0119878],[-50.9239682,-27.9716546],[-50.9470437,-27.9672425],[-50.9936288,-27.9460069],[-51.002258,-27.964213],[-51.0189557,-27.957048],[-51.0199085,-27.9224875],[-51.0509794,-27.9076595],[-51.0582788,-27.8968387],[-51.0529908,-27.869788],[-51.0721612,-27.8645116],[-51.0765643,-27.8418454],[-51.0982717,-27.8274176],[-51.1289232,-27.8320476],[-51.1346065,-27.8036571],[-51.1577918,-27.8028892],[-51.1912823,-27.7761507],[-51.2262537,-27.7711841],[-51.2704828,-27.7523073],[-51.276128,-27.7240242],[-51.304154,-27.7289391]],[[-53.7506661,-30.5145579],[-53.7331388,-30.4988327]],[[-53.7331388,-30.4988327],[-53.7117749,-30.4830234],[-53.7188528,-30.4297568],[-53.7174414,-30.4196365],[-53.7118378,-30.4238052],[-53.7166578,-30.4112801],[-53.715147,-30.401846],[-53.7056111,-30.4009842],[-53.6925771,-30.4222648],[-53.6559506,-30.4323113],[-53.6343518,-30.3942996],[-53.6140435,-30.3778142],[-53.5501702,-30.3655136],[-53.5467434,-30.3928172],[-53.52759,-30.4032137],[-53.5011972,-30.3795835],[-53.4827191,-30.3433086],[-53.4660604,-30.3284727],[-53.4624998,-30.3010434],[-53.4815761,-30.2961077],[-53.4728168,-30.2700993],[-53.4198065,-30.2303189],[-53.4141964,-30.2114538],[-53.3845967,-30.2040243],[-53.3408053,-30.1699379],[-53.339501,-30.1584645],[-53.3111588,-30.1408741]],[[-53.3111588,-30.1408741],[-53.3035081,-30.137415]],[[-53.3035081,-30.137415],[-53.298183,-30.1336109],[-53.2625126,-30.0921544],[-53.259248,-30.0909272],[-53.2453405,-30.0908169],[-53.2094096,-30.0558868],[-53.2050256,-30.0430964],[-53.1534504,-29.9844528],[-53.1256589,-29.9682751],[-53.0954,-29.9669879],[-53.0897178,-29.9616272],[-53.0986988,-29.9556005],[-53.0945258,-29.9275963],[-53.119945,-29.9197601],[-53.1208881,-29.8958289],[-53.1092322,-29.8558329],[-53.1200569,-29.8350416],[-53.1602787,-29.8141808],[-53.1760066,-29.7634751],[-53.2089738,-29.7588384],[-53.2208315,-29.7305777],[-53.2099464,-29.719587],[-53.2038592,-29.6694707],[-53.1875615,-29.6696622],[-53.1868337,-29.6319608],[-53.1540954,-29.6325788],[-53.1366714,-29.6082199],[-53.1365262,-29.5590715],[-53.0728865,-29.5594635],[-53.0517037,-29.5406118],[-53.1801161,-29.4709221],[-53.2353071,-29.46532],[-53.2577021,-29.4328129],[-53.2382415,-29.4119081],[-53.2258184,-29.3875583],[-53.2199187,-29.3698815],[-53.239481,-29.3403532],[-53.2385149,-29.3323024],[-53.2340007,-29.3337271],[-53.2284988,-29.3275818],[-53.2300005,-29.3092301],[-53.2457232,-29.2965784],[-53.2107798,-29.2641165],[-53.2493802,-29.2384633],[-53.247753,-29.2218332],[-53.2434064,-29.2068963],[-53.2424871,-29.1991952],[-53.2480379,-29.1922981],[-53.2603154,-29.1971433],[-53.2665604,-29.190666],[-53.2444176,-29.1758664],[-53.2437663,-29.1672488],[-53.2516658,-29.170144],[-53.2586759,-29.1623774],[-53.2614367,-29.144295]],[[-55.5498372,-28.7074737],[-55.5477228,-28.7085949]],[[-55.5477228,-28.7085949],[-55.5376613,-28.7223529],[-55.534324,-28.7301172],[-55.5200545,-28.7263082],[-55.4788641,-28.7981005],[-55.4327733,-28.8274423],[-55.4311503,-28.8578478],[-55.3675076,-28.8799911],[-55.375861,-28.900697],[-55.3730301,-28.9205678],[-55.3423163,-28.9427698],[-55.3292986,-28.939111],[-55.3209727,-28.9420301],[-55.322323,-28.9602332],[-55.2975159,-28.9683294],[-55.2931616,-28.9923514],[-55.2795611,-29.008236],[-55.2728855,-29.0570405],[-55.2740392,-29.089555],[-55.2854893,-29.104814],[-55.2695585,-29.1214553],[-55.2793322,-29.1831343],[-55.297445,-29.1944599],[-55.2789312,-29.2109658],[-55.2427898,-29.1900781],[-55.2097854,-29.1896957],[-55.2064392,-29.2058248],[-55.1814087,-29.2083566],[-55.1554001,-29.1954967],[-55.1173299,-29.2000931],[-55.1141906,-29.2139876],[-55.0855103,-29.2091263],[-55.069879,-29.2229265],[-55.0499011,-29.2242855],[-55.04285,-29.2445491],[-54.9976447,-29.2678847],[-54.984916,-29.2777393],[-54.9777942,-29.2775751],[-54.9683868,-29.2901786],[-54.9595864,-29.3143109],[-54.9322869,-29.3210384],[-54.8956734,-29.3493156],[-54.8941556,-29.364302],[-54.8656808,-29.397663],[-54.8699299,-29.4122083],[-54.8480605,-29.4670676],[-54.8500009,-29.4770859],[-54.833254,-29.4879126],[-54.8419691,-29.5196393],[-54.8589971,-29.5282917],[-54.8622495,-29.5449127],[-54.8428918,-29.5504343],[-54.8328499,-29.574565],[-54.7969962,-29.5774877],[-54.7833057,-29.6039866],[-54.8102791,-29.6337279],[-54.8197316,-29.6350741],[-54.8326686,-29.6661462],[-54.8490745,-29.6614303],[-54.8705497,-29.6701245],[-54.8832461,-29.6634558],[-54.9239528,-29.6629171],[-54.9633864,-29.6964711],[-54.980916,-29.6942041],[-55.0071034,-29.7107316],[-55.0393455,-29.7061092],[-55.0720559,-29.6802674],[-55.0749048,-29.6587764],[-55.124101,-29.6602542],[-55.129083,-29.7196031],[-55.126409,-29.7491679],[-55.1354291,-29.7571273],[-55.1118851,-29.8001824],[-55.1250751,-29.8201415],[-55.1500934,-29.8265467],[-55.1413358,-29.851965],[-55.1485727,-29.8700093],[-55.171746,-29.8801939],[-55.1944,-29.915504],[-55.2291906,-29.9285335],[-55.2668484,-30.0292711],[-55.2871686,-30.0581964],[-55.3048112,-30.0711312],[-55.3079905,-30.0877753],[-55.2850528,-30.0915699],[-55.2740936,-30.0810182],[-55.1880284,-30.0789721],[-55.1772295,-30.0453404],[-55.13683,-30.0418612],[-55.115474,-30.0466513],[-55.0989883,-30.0360118],[-55.0948329,-30.0355053],[-55.0987276,-30.0606927],[-55.0869166,-30.0776916],[-55.0770636,-30.1242617],[-55.0605453,-30.1449224],[-55.0432343,-30.1350479],[-55.0065617,-30.1299978],[-55.0016099,-30.1120567],[-54.9744662,-30.0874413],[-54.9497369,-30.0834663],[-54.9384983,-30.0661332],[-54.9146914,-30.073287],[-54.8915704,-30.0999677],[-54.8769896,-30.0960691],[-54.8172088,-30.1079459],[-54.7895796,-30.0942509],[-54.7724431,-30.0509195],[-54.7557936,-30.0285354],[-54.749427,-30.0219136],[-54.6787168,-30.0308666],[-54.6583895,-30.031377],[-54.6530116,-30.0245757],[-54.6380198,-30.0206961],[-54.6426383,-30.0158786],[-54.6326347,-29.9975415],[-54.6278296,-29.9912886],[-54.5885056,-29.9711191],[-54.5763996,-29.9630863],[-54.5326972,-29.9503133],[-54.4994483,-29.9329689],[-54.4771942,-29.9410706],[-54.4703936,-29.9589785],[-54.4050498,-29.9484092],[-54.3689386,-29.9340771],[-54.3199239,-29.9255456],[-54.2860571,-29.9328145],[-54.2465984,-29.8927157],[-54.2211956,-29.9149958],[-54.1877828,-29.928418],[-54.1371305,-29.9205201],[-54.105759,-29.925867],[-54.0710485,-29.9085618],[-54.0515265,-29.9116546],[-54.0299523,-29.9338205],[-54.0334838,-29.957573],[-54.008209,-29.981269],[-53.9514826,-29.9909903],[-53.9078401,-29.9828752],[-53.8758922,-29.9926286],[-53.8725022,-30.0097557],[-53.9018349,-30.0437548],[-53.9165118,-30.0868703],[-53.9405489,-30.1038319],[-53.9745279,-30.1749966],[-53.9643747,-30.2005051],[-53.9669634,-30.217985],[-53.9878007,-30.2256309],[-53.9898718,-30.2476253],[-54.0183702,-30.2652142],[-53.9928702,-30.3079255],[-53.9655312,-30.3423337],[-53.9716676,-30.3591855],[-53.9518188,-30.3719355],[-53.9392151,-30.3941973],[-53.9404351,-30.4243748],[-53.9678,-30.4421798],[-53.9591522,-30.4714683],[-53.9456253,-30.4891424],[-53.8806078,-30.4943777],[-53.8588932,-30.4762784],[-53.825628,-30.5118051],[-53.8048475,-30.5212744],[-53.7860135,-30.5174928],[-53.756159,-30.5180327],[-53.7506661,-30.5145579]],[[-53.3035081,-30.137415],[-53.3030859,-30.1414846]],[[-53.3030859,-30.1414846],[-53.3069153,-30.1727228],[-53.3284975,-30.2058904],[-53.3298885,-30.2188707],[-53.3518469,-30.2484976],[-53.3447976,-30.2617287],[-53.3365451,-30.3187911],[-53.280705,-30.345543],[-53.2680451,-30.3452996],[-53.2554696,-30.3366658],[-53.219031,-30.3226651],[-53.2164521,-30.2977279],[-53.17941,-30.3243664],[-53.1704925,-30.3737914],[-53.1768021,-30.3943058],[-53.1996187,-30.404541],[-53.1984067,-30.4288073],[-53.2157458,-30.4440174],[-53.1858016,-30.4904534],[-53.1925778,-30.5048787],[-53.1892322,-30.5323062],[-53.1555346,-30.5466212],[-53.1209215,-30.6014537],[-53.0894744,-30.6351683],[-53.0543353,-30.6563235],[-53.0353574,-30.6713151],[-53.0257313,-30.6654212],[-52.9916769,-30.6714706],[-52.9883224,-30.6784282],[-52.9775112,-30.6751805],[-52.9746764,-30.6721538],[-52.9714993,-30.6554501],[-52.9745952,-30.6040981],[-52.9313226,-30.6064864],[-52.9059256,-30.5741952],[-52.9118351,-30.5433306],[-52.8880636,-30.5037248],[-52.8838878,-30.4845994],[-52.8919673,-30.4502751],[-52.8765459,-30.4265057],[-52.8817548,-30.4106255],[-52.8842835,-30.36093],[-52.8621981,-30.3585777],[-52.8385463,-30.3345417],[-52.7932089,-30.3322201],[-52.7646771,-30.3417841],[-52.7497242,-30.3625572],[-52.7195202,-30.3681049],[-52.6958692,-30.34394],[-52.684527,-30.3232452],[-52.6916666,-30.2946116],[-52.6883593,-30.272691],[-52.6712209,-30.2568497],[-52.6616881,-30.2146255],[-52.6427413,-30.2240311],[-52.6261545,-30.244261],[-52.6216762,-30.2749141],[-52.6018175,-30.3261611],[-52.6089774,-30.3396129],[-52.5790054,-30.3738439],[-52.56197,-30.3603094],[-52.5546079,-30.3286045],[-52.5593622,-30.2851918],[-52.5321665,-30.2794467],[-52.5052279,-30.3140323],[-52.5090704,-30.3521616],[-52.5015037,-30.3623478],[-52.4189032,-30.362983],[-52.4050852,-30.3804388],[-52.3687213,-30.3644634],[-52.3569853,-30.3620248],[-52.3452775,-30.3591842]],[[-52.3452775,-30.3591842],[-52.3414945,-30.3585383],[-52.3339431,-30.3598231]],[[-52.3339431,-30.3598231],[-52.3193798,-30.3467491],[-52.3140602,-30.3433014],[-52.290332,-30.3471086],[-52.2636806,-30.3734936],[-52.2637811,-30.3946386],[-52.2521503,-30.4179539],[-52.2127844,-30.4478054],[-52.1587231,-30.4427263],[-52.1735576,-30.4214769],[-52.1797864,-30.3863838],[-52.1602322,-30.3378266],[-52.1746604,-30.2809464],[-52.1664754,-30.2553958],[-52.1390338,-30.2321251],[-52.1359811,-30.2172078],[-52.1629248,-30.1996143],[-52.1480449,-30.1623936],[-52.1695945,-30.1255252],[-52.1627964,-30.0663012],[-52.1525255,-30.0534601],[-52.1463122,-30.02027],[-52.1549734,-29.9772961],[-52.1405981,-29.9248372],[-52.1799283,-29.9333719],[-52.1954148,-29.9137127],[-52.1842271,-29.8793732],[-52.1866957,-29.8526815],[-52.1747044,-29.8399116],[-52.1867118,-29.8162723],[-52.204266,-29.8096458],[-52.2125736,-29.7897506],[-52.2326122,-29.7754008],[-52.1856379,-29.7576135],[-52.1792771,-29.7680432],[-52.1362611,-29.748905],[-52.1359318,-29.734067],[-52.1183737,-29.722987],[-52.0826834,-29.7199363],[-52.0580302,-29.7262763],[-52.0360884,-29.7024248],[-52.0069957,-29.7055464],[-52.0013539,-29.7235843],[-51.97266,-29.7367327],[-51.9582,-29.7557332],[-51.9251068,-29.7611139],[-51.9079021,-29.774199],[-51.9210367,-29.7882834],[-51.9044102,-29.8114854],[-51.8864485,-29.8040247],[-51.8714321,-29.8158798],[-51.8407752,-29.8237739],[-51.8155438,-29.8618223],[-51.769753,-29.8616712],[-51.7480047,-29.8519996],[-51.7583398,-29.8187882],[-51.7576956,-29.7920658],[-51.7364127,-29.7565225],[-51.7187438,-29.7428396],[-51.7242257,-29.7157428],[-51.7035315,-29.6941662],[-51.6795142,-29.6552831],[-51.6654635,-29.653307],[-51.6380421,-29.6291966],[-51.6627373,-29.5901039],[-51.6649968,-29.5007743],[-51.6705336,-29.4707945],[-51.6908851,-29.4707363]],[[-51.6908851,-29.4707363],[-51.6910799,-29.3713727]],[[-50.6232966,-29.5572623],[-50.6294964,-29.5607016],[-50.6511525,-29.5024802]],[[-51.6912295,-29.4235255],[-51.6908851,-29.4707363]],[[-52.3339431,-30.3598231],[-52.3429449,-30.359014]],[[-52.3429449,-30.359014],[-52.3463935,-30.3653806],[-52.3543327,-30.3743091],[-52.3558686,-30.3791498],[-52.3585942,-30.3921231],[-52.3480348,-30.4309323],[-52.3733509,-30.4594116],[-52.404563,-30.4846559],[-52.4021851,-30.5095686],[-52.4212462,-30.5302676],[-52.4347512,-30.5565511],[-52.4526515,-30.5708322],[-52.4409075,-30.574149],[-52.413476,-30.5843558],[-52.3570338,-30.6134921],[-52.3389452,-30.6537139],[-52.3411786,-30.7110082],[-52.3246695,-30.7145906],[-52.3160748,-30.7324827],[-52.2939817,-30.7515079],[-52.2673512,-30.7961592],[-52.2626002,-30.7997346],[-52.2403703,-30.7565874],[-52.2106491,-30.7555858],[-52.1896012,-30.7641863],[-52.18382,-30.8061777],[-52.1554954,-30.8629282],[-52.1408913,-30.8644014],[-52.0979537,-30.9070654],[-52.08191,-30.9029223],[-52.0557265,-30.9269692],[-52.0333944,-30.9165937],[-51.9754763,-30.9233749],[-51.9415338,-30.9437378],[-51.8823019,-30.9123264],[-51.8786166,-30.9235226],[-51.8649285,-30.9551869],[-51.8548813,-31.0040927],[-51.8104625,-31.0297821],[-51.8173214,-31.0474893],[-51.7885979,-31.1221615],[-51.7915577,-31.1401907],[-51.808959,-31.1466017],[-51.8203871,-31.1590866],[-51.8180011,-31.1722857],[-51.7897744,-31.1763883],[-51.7802871,-31.2333614],[-51.7997193,-31.2557001],[-51.8117421,-31.2857497]],[[-51.8117421,-31.2857497],[-51.7904754,-31.2732673],[-51.7571475,-31.2861321],[-51.7066713,-31.2656211],[-51.6390705,-31.270668],[-51.6344574,-31.2554865],[-51.6425696,-31.2260765],[-51.6413103,-31.1876779],[-51.6286663,-31.1529541],[-51.6019634,-31.1317418],[-51.5672721,-31.1286268],[-51.5544882,-31.11407],[-51.4707147,-31.0981384],[-51.441814,-31.0880529],[-51.4657538,-31.0650351],[-51.4876868,-31.0195494],[-51.4997768,-30.9724141],[-51.5004336,-30.929376],[-51.4876289,-30.8999113],[-51.4435383,-30.8705558],[-51.3900842,-30.8798935],[-51.3726968,-30.8725352],[-51.3905801,-30.8402937],[-51.4058305,-30.7567506],[-51.391074,-30.6687385],[-51.3809298,-30.6434732],[-51.3640972,-30.6332405],[-51.3346126,-30.6337885],[-51.3176642,-30.6481622],[-51.3165991,-30.7041477],[-51.2970396,-30.7399923],[-51.2933503,-30.7647755],[-51.298081,-30.7919086],[-51.2811428,-30.8016678],[-51.2941413,-30.7515578],[-51.2930997,-30.7076756],[-51.30223,-30.6344481],[-51.2999424,-30.5639497],[-51.2791548,-30.5104036],[-51.2449136,-30.4427908],[-51.2282114,-30.4230493],[-51.1978793,-30.4080321],[-51.1527572,-30.414158],[-51.131912,-30.4352982],[-51.1196561,-30.3925903],[-51.0977155,-30.3575685],[-51.1291606,-30.3594523],[-51.1782153,-30.386402],[-51.1915395,-30.3773474],[-51.207356,-30.3408157],[-51.211874,-30.2995652],[-51.2385203,-30.3168479],[-51.2571972,-30.3057702],[-51.2952733,-30.3029469],[-51.3009389,-30.2740921],[-51.2918591,-30.2545274],[-51.2987036,-30.2400939],[-51.3297964,-30.2303527],[-51.3148213,-30.1887451],[-51.3245623,-30.1684427],[-51.306971,-30.0972797],[-51.311383,-30.0807074],[-51.301706,-30.0426554],[-51.2993723,-30.0026256],[-51.281123,-30.022104],[-51.2340372,-30.0478013],[-51.2503711,-30.092295],[-51.2650966,-30.0984964],[-51.2611492,-30.1227041],[-51.2328715,-30.135954],[-51.2321246,-30.1656355],[-51.2229627,-30.1878679],[-51.2066948,-30.1904099],[-51.1780059,-30.2184992],[-51.1839953,-30.2331669],[-51.1550408,-30.2406119],[-51.1573337,-30.2609768],[-51.1426863,-30.2656623],[-51.1282055,-30.2477705],[-51.0764992,-30.2433844],[-51.0484225,-30.2679247],[-51.0307625,-30.2744752],[-51.0198014,-30.2965085],[-51.0316023,-30.3338706],[-51.0498171,-30.3445907],[-51.0412947,-30.3663749],[-51.0474,-30.381496],[-51.0130056,-30.3896626],[-50.9734084,-30.4076171],[-50.930037,-30.4357706],[-50.9376096,-30.4068671],[-50.9385533,-30.3750991],[-50.9270362,-30.3381587],[-50.914836,-30.3263913],[-50.844017,-30.3207571],[-50.79698,-30.3383821],[-50.7948677,-30.3123488],[-50.7820086,-30.2847728],[-50.7507312,-30.2967072],[-50.6732441,-30.2966408],[-50.6549662,-30.2814689],[-50.6688927,-30.2548818],[-50.6588881,-30.1999233],[-50.644324,-30.1922431],[-50.6230631,-30.1997321],[-50.5982278,-30.1960157],[-50.5773911,-30.2353553],[-50.5604688,-30.2516815],[-50.5459026,-30.2512455],[-50.5377796,-30.2738662],[-50.5430121,-30.2999224],[-50.5553832,-30.3168313],[-50.5453163,-30.3559794],[-50.5656371,-30.387912],[-50.5645145,-30.4375764],[-50.57442,-30.4814758],[-50.5826612,-30.4901355],[-50.6110979,-30.4857109],[-50.6492172,-30.4536054],[-50.6564259,-30.4308461],[-50.6501842,-30.4135717],[-50.6196463,-30.4067191],[-50.5967321,-30.3910186],[-50.6206633,-30.3567733],[-50.6309712,-30.3614274],[-50.6296377,-30.3915319],[-50.6434419,-30.3959193],[-50.7055849,-30.3476309],[-50.7294942,-30.3681373],[-50.7005131,-30.4247626],[-50.68643,-30.5008003],[-50.6795415,-30.6091725],[-50.6832753,-30.6636005],[-50.6901159,-30.7069243],[-50.7019874,-30.7463272],[-50.7207657,-30.7797483],[-50.7537767,-30.8189372],[-50.7904835,-30.8293965],[-50.8569299,-30.8654119],[-50.8823419,-30.8915879],[-50.9196389,-30.9063873],[-50.9680875,-30.8978204],[-50.9521651,-30.9548699],[-50.9569856,-31.0095653],[-50.9723935,-31.0329255],[-50.9949517,-31.0481032],[-51.0485298,-31.0615924],[-51.1036155,-31.0993805],[-51.1246526,-31.0981745],[-51.1626912,-31.0754245],[-51.1768912,-31.079768],[-51.1808397,-31.1253939],[-51.167168,-31.1805708],[-51.1569866,-31.2465796],[-51.157477,-31.2847123],[-51.1791108,-31.3649811],[-51.2022383,-31.4110955],[-51.2375439,-31.4574351]],[[-51.2375439,-31.4574351],[-51.1859619,-31.5043878]],[[-51.1859619,-31.5043878],[-51.1040088,-31.4214322],[-51.0400803,-31.3599453],[-50.970369,-31.3048742],[-50.8791407,-31.2270415],[-50.833645,-31.1821099],[-50.7570711,-31.0965073],[-50.6678539,-30.9629043],[-50.5583124,-30.8181972],[-50.4649102,-30.6807062],[-50.37398,-30.5628916],[-50.3400977,-30.5111926],[-50.3040508,-30.4423891],[-50.2642914,-30.3360488],[-50.1579692,-30.0665181],[-50.1099159,-29.9566682],[-50.0527831,-29.8383021],[-49.9763975,-29.6971509],[-49.91159,-29.5907784],[-49.8285526,-29.4757689],[-49.715804,-29.3324012],[-49.7435636,-29.3197173],[-49.7420974,-29.2988203],[-49.7759297,-29.2974099],[-49.7905422,-29.2858847],[-49.8173798,-29.2856538],[-49.8522,-29.2536409],[-49.8575699,-29.232622],[-49.912866,-29.2079428],[-49.9650151,-29.1994445],[-49.9692819,-29.2117801],[-49.9965852,-29.2282623],[-50.0099322,-29.2254095],[-50.0365467,-29.2378462],[-50.1156489,-29.2607666],[-50.1091795,-29.279675],[-50.0641366,-29.3108354],[-50.0336971,-29.3498465],[-50.0421584,-29.3532484]],[[-55.4384353,-28.0863349],[-55.4545376,-28.095596],[-55.4878785,-28.0764551],[-55.4994061,-28.0810628],[-55.5132429,-28.1146478],[-55.5305813,-28.1154587],[-55.5475954,-28.1364832],[-55.5493331,-28.1559629],[-55.5641642,-28.1635054],[-55.5890965,-28.1417757],[-55.5834062,-28.1251731],[-55.6107303,-28.1174554],[-55.6207849,-28.1309814],[-55.6196824,-28.1535491],[-55.6342309,-28.1778382],[-55.6530168,-28.1821016],[-55.69258,-28.2187903],[-55.7712461,-28.2414545],[-55.7825587,-28.2560574],[-55.7731786,-28.2742401],[-55.7329098,-28.2859753],[-55.6802024,-28.3222263],[-55.6707807,-28.3456874],[-55.6887689,-28.3881561],[-55.6907378,-28.4132957],[-55.704337,-28.4275562],[-55.7197035,-28.4186791],[-55.7343525,-28.3812095],[-55.7565667,-28.3694314],[-55.8096431,-28.3657443],[-55.8505849,-28.35539],[-55.8710892,-28.3572625],[-55.9003859,-28.3983461],[-55.9009504,-28.4187544],[-55.8826016,-28.4638382],[-55.884006,-28.4791631],[-55.9287913,-28.486352],[-55.9492936,-28.4945927],[-55.9882152,-28.4981152],[-56.0112241,-28.5068934],[-56.0232301,-28.522765],[-56.0208968,-28.5531966],[-56.0023709,-28.5782987],[-56.0033733,-28.5977984],[-56.017674,-28.6129435],[-56.0562722,-28.6292036],[-56.0820049,-28.6541993],[-56.1191509,-28.6812475],[-56.1434536,-28.709132],[-56.1606775,-28.7396514],[-56.1941555,-28.775198],[-56.2609311,-28.7790068],[-56.2891127,-28.793722],[-56.2997424,-28.8081133],[-56.2981677,-28.8844444],[-56.3038116,-28.9030324],[-56.3441939,-28.9400565],[-56.3789902,-28.9480299],[-56.406336,-28.9725956],[-56.4161742,-29.0007364],[-56.3991173,-29.0173516],[-56.4131021,-29.0619185],[-56.4304202,-29.0795035],[-56.5030254,-29.0886616],[-56.5501313,-29.1166534],[-56.5887534,-29.1198128],[-56.6169245,-29.1710693],[-56.645843,-29.200294],[-56.6547606,-29.223794],[-56.6492068,-29.2549564],[-56.6645228,-29.2949909],[-56.6999653,-29.3564409],[-56.7129681,-29.3673526],[-56.758703,-29.3709046],[-56.7731516,-29.3869927],[-56.7795004,-29.4373726],[-56.7969515,-29.4490669],[-56.8220924,-29.4900248],[-56.8608157,-29.5073469],[-56.9019617,-29.5338167],[-56.9295372,-29.5662151],[-56.9678003,-29.6017949],[-56.9711484,-29.6434064],[-57.0009237,-29.6519146],[-57.0211046,-29.6833173],[-57.0997221,-29.7483201],[-57.1319054,-29.7701601],[-57.172021,-29.7806849],[-57.2210531,-29.7763015],[-57.2354002,-29.7807884],[-57.2978169,-29.8347292],[-57.329688,-29.8876354],[-57.3240796,-29.9217294],[-57.3281407,-29.9720368],[-57.3519807,-30.0080586],[-57.3963322,-30.0227942],[-57.4175216,-30.0383726],[-57.4537611,-30.0815588],[-57.4646043,-30.110343],[-57.5256147,-30.1513855],[-57.5880191,-30.1783448],[-57.6033674,-30.1896711],[-57.5578464,-30.2133834],[-57.5679792,-30.252231],[-57.5508317,-30.2726194],[-57.5254088,-30.2854722],[-57.5002731,-30.2888531],[-57.4867597,-30.2668292],[-57.4635234,-30.2653999],[-57.4522953,-30.2760374],[-57.4164045,-30.2779779],[-57.4213809,-30.3008757],[-57.389445,-30.3024616],[-57.3787505,-30.2794207],[-57.352036,-30.284485],[-57.3069794,-30.2623328],[-57.2845645,-30.2937221],[-57.270061,-30.2849845],[-57.2202614,-30.2892854],[-57.2029119,-30.2844296],[-57.1962531,-30.2645065],[-57.1679137,-30.2490263],[-57.1682194,-30.1976361],[-57.1447777,-30.1716128],[-57.129165,-30.1408381],[-57.1144833,-30.1454574],[-57.0806721,-30.0934226],[-57.067139,-30.0911852],[-57.044805,-30.1057389],[-57.0238981,-30.0875422],[-56.9934426,-30.0857118],[-56.9555809,-30.1011449],[-56.9177737,-30.0962017],[-56.9026295,-30.1123408],[-56.8888888,-30.0891085],[-56.8745412,-30.0862486],[-56.8241669,-30.0956445],[-56.8046451,-30.1059758],[-56.8008819,-30.1211528],[-56.780271,-30.1266304],[-56.7840054,-30.1511656],[-56.7297856,-30.1717041],[-56.7083946,-30.1881321],[-56.6636787,-30.1974266],[-56.6411633,-30.2348189],[-56.6241255,-30.2465843],[-56.6076822,-30.282946],[-56.5370237,-30.3341373],[-56.5519926,-30.3441509],[-56.546144,-30.3606494],[-56.5215767,-30.3589506],[-56.4913648,-30.3981094],[-56.4621782,-30.3844822],[-56.4445371,-30.4116076],[-56.4399785,-30.4325237],[-56.3981877,-30.4484393],[-56.4062363,-30.4686105],[-56.3892667,-30.4930602],[-56.3682596,-30.5031673],[-56.3504861,-30.4966128],[-56.3312845,-30.5293528],[-56.2973315,-30.5262641],[-56.2789601,-30.5532644],[-56.2379619,-30.5734285],[-56.2140956,-30.6084648],[-56.1876747,-30.6046947],[-56.1718754,-30.6188294],[-56.1666943,-30.6634195],[-56.151942,-30.6804522],[-56.1507922,-30.704701],[-56.130307,-30.7165151],[-56.1267853,-30.7405517],[-56.1073301,-30.7320019],[-56.0956878,-30.7540221],[-56.0727324,-30.7453832],[-56.0621349,-30.7750214],[-56.0391271,-30.7752235],[-56.0229805,-30.7861433],[-56.0043757,-30.8398411],[-55.9903804,-30.8664108],[-56.0076947,-30.8935271],[-56.005484,-30.9223194],[-56.0152926,-30.9445104],[-56.0070591,-30.9837524],[-56.0176399,-31.0030238],[-56.0184383,-31.0477292],[-56.0076546,-31.071737],[-55.9792988,-31.0731996],[-55.9302837,-31.0862639],[-55.9258535,-31.0768346],[-55.8707577,-31.0715702],[-55.8552817,-31.0451157],[-55.8323066,-31.044374],[-55.807156,-31.016512],[-55.7808851,-31.0171475],[-55.7523329,-30.9985831],[-55.7243594,-30.9660351],[-55.7039537,-30.9552217],[-55.6661864,-30.9539785],[-55.6634682,-30.9331682],[-55.6421179,-30.9116009],[-55.6631488,-30.8718906],[-55.6378614,-30.8462234],[-55.5672775,-30.8454456],[-55.5635603,-30.8686611],[-55.5459085,-30.8905441],[-55.5101745,-30.9017558],[-55.5041596,-30.9247543],[-55.4783597,-30.9538495],[-55.4443563,-30.9584503],[-55.4267274,-30.9812511],[-55.4370495,-31.0047158],[-55.4066897,-31.0187487],[-55.3872421,-31.0205731],[-55.3488292,-31.0428691],[-55.3601032,-31.0674343],[-55.3455474,-31.0755763],[-55.3298022,-31.1165402],[-55.3395545,-31.1270512],[-55.3186327,-31.1451068],[-55.2896985,-31.1452773],[-55.2906187,-31.1636709],[-55.2719144,-31.1728355],[-55.250105,-31.2060085],[-55.2467621,-31.2522405],[-55.2137078,-31.2632037],[-55.1741937,-31.2681749],[-55.1476319,-31.2943357],[-55.1090404,-31.307681],[-55.0744643,-31.3320897],[-55.0432115,-31.3083903],[-55.0318935,-31.2697414],[-55.0024077,-31.2692158],[-54.9856526,-31.2924387],[-54.9828462,-31.3113966],[-54.9530712,-31.3319713],[-54.9592089,-31.3524541],[-54.935053,-31.3564763],[-54.9406467,-31.3806458],[-54.8859789,-31.3772778],[-54.8783856,-31.3980773],[-54.8364553,-31.4419383],[-54.8048848,-31.4289888],[-54.7889074,-31.4333381],[-54.7520227,-31.4244629],[-54.6703379,-31.4540783],[-54.5864586,-31.456553],[-54.5770731,-31.481337],[-54.5156442,-31.5101774],[-54.4902596,-31.5510233],[-54.4729407,-31.570353],[-54.4573188,-31.6012051],[-54.4657385,-31.6100249],[-54.4515116,-31.6400362],[-54.4562268,-31.6517005],[-54.1585091,-31.8735442],[-54.1405204,-31.8948926],[-54.0809081,-31.9294635],[-54.0404409,-31.8968187],[-54.0068824,-31.9125759],[-53.9632615,-31.9219603],[-53.9721785,-31.9415094],[-53.9475107,-31.9546349]],[[-53.9475107,-31.9546349],[-53.9511932,-31.9322569],[-53.9525085,-31.9232206],[-53.9437976,-31.9157084],[-53.9303304,-31.8969687],[-53.9315306,-31.8746443],[-53.915745,-31.8633537],[-53.9068207,-31.8380626],[-53.9277849,-31.8056654],[-53.9063976,-31.7973506],[-53.9240709,-31.7756963],[-53.8998351,-31.7353451],[-53.9032726,-31.7256483],[-53.8808535,-31.6623772],[-53.8615833,-31.6299527],[-53.8492743,-31.6251372],[-53.8375515,-31.5881929],[-53.8391228,-31.5511087],[-53.8269647,-31.5461009],[-53.8218863,-31.5151611],[-53.8326267,-31.4702309],[-53.8057059,-31.4628469],[-53.7812105,-31.4385898],[-53.8009337,-31.3739403],[-53.7911588,-31.3439273],[-53.7776646,-31.3363232],[-53.7652507,-31.3121912],[-53.7404689,-31.3291138],[-53.7190302,-31.3267066],[-53.6862453,-31.3370269],[-53.6170914,-31.3290531],[-53.6023883,-31.3064418],[-53.60312,-31.2874896],[-53.5675931,-31.2647694],[-53.5627124,-31.252091],[-53.5547799,-31.2368313],[-53.5300739,-31.2420349],[-53.5275979,-31.2084151],[-53.5171718,-31.1791984],[-53.4920836,-31.149536],[-53.4806892,-31.1220297],[-53.4868624,-31.070335],[-53.4750912,-31.0586239],[-53.4893806,-31.0355582],[-53.4714672,-31.0320579],[-53.4388216,-30.9768539],[-53.4537372,-30.9675953],[-53.4635194,-30.9444851],[-53.4967063,-30.9614652],[-53.5021823,-30.9398829],[-53.5283919,-30.945272],[-53.5926037,-30.8955126],[-53.6100768,-30.8635872],[-53.6472145,-30.8691967],[-53.6522711,-30.8405474],[-53.6723973,-30.8423488],[-53.7011199,-30.8159497],[-53.7071427,-30.8010952],[-53.7452796,-30.7727154],[-53.7576607,-30.7750139],[-53.7684838,-30.7978332],[-53.7854742,-30.7999055],[-53.8051884,-30.7879068],[-53.8035387,-30.765323],[-53.8209056,-30.7514304],[-53.803895,-30.7291815],[-53.7947071,-30.6712544],[-53.798445,-30.6385544],[-53.7743383,-30.620683],[-53.7627842,-30.5873512],[-53.7404295,-30.5654337],[-53.7439147,-30.5155878]],[[-53.7439147,-30.5155878],[-53.7506661,-30.5145579]],[[-55.5477228,-28.7085949],[-55.5617213,-28.697009]],[[-53.9475107,-31.9546349],[-53.9132435,-31.9656762],[-53.8921252,-31.9953876],[-53.8572436,-31.9966804],[-53.8511367,-32.0268271],[-53.8376176,-32.0333952],[-53.8333169,-32.055143],[-53.8066922,-32.0698594],[-53.7562909,-32.0761537],[-53.7453664,-32.0914399],[-53.7442283,-32.1152625],[-53.7176117,-32.1530026],[-53.7113277,-32.1990057],[-53.6851896,-32.2196225],[-53.677794,-32.2585979],[-53.6555154,-32.290539],[-53.6428639,-32.2962995],[-53.6449773,-32.3323926],[-53.6341498,-32.34754],[-53.6452054,-32.3838542],[-53.6143752,-32.398404],[-53.6150311,-32.416573],[-53.5888356,-32.435173],[-53.5840398,-32.4513054],[-53.5551652,-32.4733766],[-53.5106304,-32.4866035],[-53.4709373,-32.4806894],[-53.4565768,-32.5167487],[-53.4368959,-32.5481619],[-53.4033945,-32.5799895],[-53.3849646,-32.5852533],[-53.369697,-32.569866],[-53.3555381,-32.5905746],[-53.3388153,-32.5846223],[-53.3071926,-32.6033634],[-53.2888051,-32.6210966],[-53.271797,-32.6052235],[-53.2455852,-32.6071117],[-53.2370648,-32.6297685],[-53.1667213,-32.648587],[-53.1283785,-32.6384631],[-53.0846437,-32.6582422],[-53.0769654,-32.6278228],[-53.0629964,-32.6180597],[-53.0201046,-32.6130717],[-53.0007997,-32.5978724],[-52.9918651,-32.5452278],[-52.9781366,-32.4989648],[-52.9399494,-32.4748543],[-52.8924389,-32.4610807],[-52.8023888,-32.4470194],[-52.766388,-32.426221],[-52.7235563,-32.3816226],[-52.7241868,-32.3700112],[-52.7716795,-32.3526357],[-52.7725641,-32.3678373],[-52.7901137,-32.3788209],[-52.8169514,-32.3472802],[-52.8205222,-32.3310969],[-52.806916,-32.3182543],[-52.7784338,-32.2521706],[-52.7767632,-32.2306006],[-52.736366,-32.1892758],[-52.736739,-32.1686895],[-52.7188884,-32.1541562],[-52.6749516,-32.1640385],[-52.6336521,-32.1466679],[-52.6284941,-32.1620369],[-52.6566138,-32.205916],[-52.6879575,-32.2808999],[-52.6949048,-32.3179361],[-52.614973,-32.4434743],[-52.5882909,-32.5049176],[-52.5864091,-32.5306965],[-52.6116771,-32.620476],[-52.6884998,-32.7577727],[-52.7226639,-32.8328129],[-52.761257,-32.885828],[-52.8077793,-32.9105803],[-52.8322257,-32.9150415],[-52.8674249,-32.9098804],[-52.9077896,-32.8876856],[-52.9484615,-32.8548774],[-52.9987567,-32.8018521],[-53.0041578,-32.7819173],[-53.0414155,-32.8015149],[-53.0700944,-32.8338099],[-53.1012812,-32.8219888],[-53.1239055,-32.7938378],[-53.1413716,-32.8072649],[-53.1556383,-32.8521139],[-53.1591882,-32.9050299],[-53.1544623,-32.9524869],[-53.1744375,-33.0035061],[-53.2074946,-33.0450315],[-53.2411918,-33.0761348],[-53.2601624,-33.1074109],[-53.2773734,-33.1093609],[-53.337157,-33.0825922],[-53.350704,-33.1035121],[-53.4082671,-33.1612805],[-53.4322027,-33.1621027],[-53.4517042,-33.2202313],[-53.4696818,-33.2600809],[-53.4247745,-33.4407202],[-53.440037,-33.5188979],[-53.4656299,-33.5579681],[-53.5011438,-33.5434151],[-53.5146339,-33.5540763],[-53.5125006,-33.6026003],[-53.5339639,-33.6514051],[-53.53235,-33.6888045],[-53.439516,-33.6934614],[-53.4310511,-33.7393548],[-53.3969018,-33.7507722],[-53.369913,-33.7438377],[-53.3413691,-33.7219091],[-53.2649755,-33.6713115],[-53.1504134,-33.5853674],[-53.086162,-33.5306713],[-52.802024,-33.3049126],[-52.7555709,-33.2628364],[-52.7130228,-33.2180913],[-52.6501111,-33.1416911],[-52.6238585,-33.1042389],[-52.593206,-33.0502341],[-52.5482005,-32.9619305],[-52.5114733,-32.8991571],[-52.4879128,-32.8510658],[-52.45584,-32.7616901],[-52.4332308,-32.6681891],[-52.4157339,-32.6052336],[-52.3681675,-32.4817519],[-52.3407579,-32.4245715],[-52.293031,-32.3383187],[-52.2509215,-32.2798444],[-52.1990058,-32.2266002],[-52.141,-32.1792274],[-52.0994219,-32.1593338],[-52.1048078,-32.1059604],[-52.0992658,-32.0830655],[-52.1577651,-32.1128094],[-52.1498998,-32.0749573],[-52.1341208,-32.0575467],[-52.099535,-32.0472517],[-52.0723171,-32.0510871],[-52.0799993,-32.0282902],[-52.1097285,-32.0241113],[-52.1363413,-32.0457209],[-52.1711627,-32.0554776],[-52.2171572,-32.0846317],[-52.2402236,-32.0797642],[-52.1978792,-32.0527845],[-52.2033568,-32.0387877],[-52.1542737,-32.0265481],[-52.1132543,-32.010722],[-52.0961427,-31.9961824],[-52.1212129,-31.9786897],[-52.1331974,-31.9832105],[-52.1882474,-31.9828594],[-52.2038675,-32.0383895],[-52.2424605,-32.0311492],[-52.2341607,-32.0165357],[-52.2394,-31.9852354],[-52.2186316,-31.9599975],[-52.1875318,-31.9637077],[-52.1669866,-31.9441496],[-52.1420227,-31.9523],[-52.1129189,-31.9430992],[-52.1376202,-31.9192941],[-52.185815,-31.9040422],[-52.2214187,-31.8725091],[-52.2344834,-31.8946859],[-52.2487331,-31.8778427],[-52.2568273,-31.8493499],[-52.2477192,-31.8390361],[-52.2218846,-31.8370124],[-52.2126163,-31.8076394],[-52.2257675,-31.7518981],[-52.1929286,-31.7225792],[-52.1523643,-31.6993368],[-52.1041442,-31.6846629],[-52.0572191,-31.6832052],[-52.030653,-31.6923453],[-52.0211971,-31.6624382],[-52.0099329,-31.5976409],[-52.0179349,-31.5403383],[-52.0011499,-31.4409157],[-51.9870681,-31.3945445],[-51.9672691,-31.3779242],[-51.9601307,-31.3527831],[-51.9327295,-31.3351486],[-51.9194628,-31.3107659],[-51.892088,-31.3156825],[-51.8750396,-31.3090397],[-51.8439353,-31.3232485],[-51.8117421,-31.2857497]],[[-52.3429449,-30.359014],[-52.3452775,-30.3591842]],[[-53.3030859,-30.1414846],[-53.3111588,-30.1408741]],[[-53.7331388,-30.4988327],[-53.7439147,-30.5155878]],[[-51.2375439,-31.4574351],[-51.282406,-31.4969314],[-51.3432066,-31.5279111],[-51.3648721,-31.5318094],[-51.3993089,-31.5204054],[-51.4281762,-31.4919981],[-51.4551162,-31.5288507],[-51.4467703,-31.5361716],[-51.4621579,-31.5670493],[-51.4751526,-31.5659556],[-51.4984103,-31.5831574],[-51.5298012,-31.6209752],[-51.5614819,-31.6700457],[-51.613264,-31.7294055],[-51.6560543,-31.7649289],[-51.6896312,-31.7813386],[-51.7345903,-31.7886855],[-51.8022987,-31.7884648],[-51.8275028,-31.8023177],[-51.8047766,-31.8147534],[-51.8096979,-31.84354],[-51.8604104,-31.8701763],[-51.9081596,-31.8689086],[-51.929573,-31.8603197],[-51.9869115,-31.8265293],[-52.0153984,-31.8165537],[-52.0625298,-31.8161521],[-52.0970015,-31.8347491],[-52.0820162,-31.8660223],[-52.048521,-31.8895458],[-52.0429331,-31.902682],[-52.0152082,-31.9224186],[-52.0046527,-31.9449178],[-52.0152468,-31.9667097],[-52.0380238,-31.9709222],[-52.0538326,-31.9849292],[-52.0390526,-32.0300227],[-52.0496934,-32.0772102],[-52.0897707,-32.1314027],[-52.0757538,-32.1414871],[-51.9689076,-32.0318384],[-51.9207816,-31.9877447],[-51.8476723,-31.9307776],[-51.7480209,-31.8699809],[-51.6123956,-31.8033063],[-51.5023749,-31.7428838],[-51.4272386,-31.6956174],[-51.2938104,-31.598729],[-51.2494298,-31.563923],[-51.1859619,-31.5043878]]],"bbox":[-57.6033674,-33.7507722,-49.6913518,-27.082315]}
