{"type":"Topology","objects":{"geometrias":{"type":"GeometryCollection","geometries":[{"type":"Polygon","arcs":[[0,1,2,3]],"properties":{"code_meso":1701,"code_state":17,"code_region":1,"name_meso":"Ocidental do Tocantins","abbrev_state":"TO","name_state":"Tocantins","name_region":"Norte","year":2020}},{"type":"Polygon","arcs":[[4,-4,5,-2]],"properties":{"code_meso":1702,"code_state":17,"code_region":1,"name_meso":"Oriental do Tocantins","abbrev_state":"TO","name_state":"Tocantins","name_region":"Norte","year":2020}}]}},"arcs":[[[-47.6034561,-7.4550623],[-47.5798641,-7.4186803],[-47.4929962,-7.3758749],[-47.4782024,-7.3367537],[-47.4997864,-7.2938583],[-47.5428977,-7.2653836],[-47.5919031,-7.2639953],[-47.6073727,-7.2721222],[-47.6270111,-7.3008237],[-47.6539303,-7.2982028],[-47.6910091,-7.2382985],[-47.73507,-7.2188998],[-47.7498258,-7.1952617],[-47.7451291,-7.1625048],[-47.7106552,-7.1376528],[-47.6940629,-7.1369639],[-47.6603749,-7.1513681],[-47.6274527,-7.1215814],[-47.6184295,-7.0911604],[-47.5972327,-7.063401],[-47.574782,-7.0503378],[-47.5449368,-7.0127728],[-47.5283161,-6.9734044],[-47.5295707,-6.946013],[-47.5076246,-6.9071901],[-47.5070392,-6.8720101],[-47.5296459,-6.8313891],[-47.516702,-6.7902601],[-47.4941187,-6.7548332],[-47.4986441,-6.6712316],[-47.4687902,-6.6212462],[-47.4651301,-6.5772858],[-47.4564977,-6.5382745],[-47.4166526,-6.4856784],[-47.4342057,-6.4311886],[-47.4099549,-6.3696555],[-47.4086249,-6.3280669],[-47.3772358,-6.2667683],[-47.3853684,-6.2303915],[-47.4014776,-6.2092485],[-47.423204,-6.1601861],[-47.4344778,-6.0931153],[-47.428042,-6.0392245],[-47.4456221,-6.0015723],[-47.4463681,-5.9845441],[-47.4288701,-5.9194832],[-47.4316732,-5.8660363],[-47.4422786,-5.8307859],[-47.4665086,-5.7783003],[-47.4826225,-5.7593056],[-47.4930942,-5.7100384],[-47.4737045,-5.6619797],[-47.4844013,-5.595604],[-47.4832614,-5.5648989],[-47.5001205,-5.5256048],[-47.5602606,-5.4632127],[-47.5805091,-5.4700166],[-47.6186197,-5.4597262],[-47.6667723,-5.4217873],[-47.7443137,-5.3801324],[-47.7683377,-5.3782023],[-47.8275409,-5.3865882],[-47.8437594,-5.3762087],[-47.8676241,-5.3428159],[-47.8657451,-5.317225],[-47.8729236,-5.2723581],[-47.8855715,-5.2607002],[-47.9281041,-5.2412355],[-48.0040589,-5.2346202],[-48.0492647,-5.2661013],[-48.0738428,-5.2722461],[-48.1122927,-5.2656258],[-48.1785442,-5.2607761],[-48.2064996,-5.248984],[-48.2349277,-5.2283067],[-48.2934032,-5.2040481],[-48.3286879,-5.1965942],[-48.3639098,-5.1683805],[-48.4725988,-5.1870923],[-48.4863222,-5.1938198],[-48.5330131,-5.1987179],[-48.5610735,-5.2301992],[-48.5685726,-5.2829328],[-48.6061317,-5.3365008],[-48.6301017,-5.3329578],[-48.6386591,-5.3200089],[-48.6794384,-5.3058201],[-48.6992101,-5.3201232],[-48.712127,-5.3530136],[-48.7304354,-5.3479944],[-48.7368801,-5.3739624],[-48.6504881,-5.3849182],[-48.6291243,-5.4100587],[-48.5967334,-5.4225444],[-48.5575365,-5.416711],[-48.5139025,-5.4298196],[-48.4645898,-5.4122918],[-48.3935104,-5.3942126],[-48.3734856,-5.4027369],[-48.3515976,-5.4278364],[-48.328787,-5.4910438],[-48.2786891,-5.5404233],[-48.1947353,-5.5630933],[-48.138152,-5.6026901],[-48.1322491,-5.6181301],[-48.1412274,-5.6543538],[-48.1759831,-5.7122958],[-48.2306488,-5.7292609],[-48.27571,-5.7265134],[-48.2902384,-5.7435391],[-48.3000139,-5.7887008],[-48.2919698,-5.8368374],[-48.2703991,-5.871435],[-48.2456023,-5.8962332],[-48.2301253,-5.9225184],[-48.2316293,-5.9461389],[-48.2608262,-5.9629425],[-48.2968282,-5.9698603],[-48.321462,-5.9855016],[-48.3347163,-6.0042748],[-48.3351601,-6.0357197],[-48.2984849,-6.0501309],[-48.2831587,-6.0815576],[-48.2880473,-6.0975637],[-48.3245162,-6.1327193],[-48.3654883,-6.1473739],[-48.4082705,-6.1534022],[-48.4349388,-6.1831683],[-48.436132,-6.2013716],[-48.4127108,-6.2813296],[-48.4171226,-6.2985866],[-48.3848765,-6.324503],[-48.3752974,-6.3467488],[-48.3826793,-6.3796079],[-48.4243737,-6.3570057],[-48.447707,-6.3511789],[-48.5002152,-6.3509276],[-48.5112392,-6.3569323],[-48.5405762,-6.4008421],[-48.607185,-6.4480111],[-48.6462681,-6.5088892],[-48.6643572,-6.5705715],[-48.6539295,-6.6015438],[-48.6519604,-6.6399512],[-48.676189,-6.6733797],[-48.7444027,-6.6985804],[-48.7690982,-6.7307016],[-48.8258553,-6.7546541],[-48.8511291,-6.7486772],[-48.913853,-6.7573695],[-48.9637126,-6.7794597],[-49.0188835,-6.7842105],[-49.0437712,-6.8157714],[-49.1504653,-6.8888509],[-49.1719412,-6.8929351],[-49.2095281,-6.9254206],[-49.2174451,-6.9614693],[-49.1952789,-7.0262647],[-49.1913048,-7.0749287],[-49.193796,-7.1298147],[-49.1831997,-7.2145997],[-49.1852842,-7.2351718],[-49.2067867,-7.2707293],[-49.231475,-7.3257861],[-49.2694453,-7.3728486],[-49.3779974,-7.4964458],[-49.384052,-7.5434922],[-49.3815774,-7.5691029],[-49.3401424,-7.6604679],[-49.328079,-7.677795],[-49.2965276,-7.6964425],[-49.2399968,-7.7407245],[-49.2211632,-7.7615992],[-49.1856373,-7.7836514],[-49.1607401,-7.791369],[-49.1500554,-7.8121134],[-49.164913,-7.8328703],[-49.1677757,-7.8543473],[-49.1627769,-7.9005312],[-49.1696421,-7.9547897],[-49.1820284,-7.9769635],[-49.1737507,-8.0144182],[-49.1767186,-8.0615113],[-49.193163,-8.0764651],[-49.2073277,-8.1225007],[-49.2038625,-8.1400069],[-49.215854,-8.1942117],[-49.2486603,-8.2553764],[-49.2674375,-8.3341894],[-49.2833241,-8.3795572],[-49.2991332,-8.3953662],[-49.3494094,-8.4183765],[-49.3770137,-8.4552851],[-49.3914974,-8.4897785],[-49.4005772,-8.5587983],[-49.4098882,-8.5800019],[-49.4540257,-8.6153915],[-49.4876063,-8.6885047],[-49.5434457,-8.761395],[-49.5620082,-8.7969918],[-49.5924113,-8.8394912],[-49.6843583,-8.8564749],[-49.7676841,-8.9336881],[-49.7936636,-8.9794338],[-49.8425897,-9.0273259],[-49.8516138,-9.0654349],[-49.8968794,-9.1436736],[-49.9054199,-9.1697448],[-49.943475,-9.2008857],[-49.9661483,-9.2308641],[-49.9969316,-9.2376524],[-50.0050057,-9.2687597],[-50.0377849,-9.2894054],[-50.055468,-9.3346989],[-50.0528335,-9.372673],[-50.0655334,-9.4008017],[-50.0901168,-9.4315957],[-50.1053376,-9.4754105],[-50.0895623,-9.5456929],[-50.1073321,-9.5725075],[-50.1073697,-9.5942802],[-50.1377529,-9.6248242],[-50.1510053,-9.6956082],[-50.1978964,-9.7588349],[-50.2037848,-9.7909143],[-50.2254493,-9.8539582],[-50.2437871,-9.8712422],[-50.2642803,-9.9084975],[-50.2779318,-9.9707729],[-50.2906705,-9.9908185],[-50.2942791,-10.016107],[-50.3124518,-10.0456588],[-50.3398411,-10.0609382],[-50.3572811,-10.0902957],[-50.3778102,-10.1107158],[-50.3982581,-10.1554697],[-50.3815645,-10.2189129],[-50.3980942,-10.2544301],[-50.4062032,-10.2882508],[-50.4230666,-10.3274417],[-50.4182853,-10.3562814],[-50.4482858,-10.3915721],[-50.4737254,-10.4049055],[-50.4878673,-10.4679723],[-50.4826205,-10.4900386],[-50.5161464,-10.5039094],[-50.5230342,-10.5407962],[-50.5197293,-10.5624786],[-50.541428,-10.6093227],[-50.5631719,-10.6113215],[-50.5825666,-10.6440813],[-50.6028977,-10.658234],[-50.5876039,-10.6860094],[-50.5705877,-10.7525041],[-50.5968989,-10.8047216],[-50.6121984,-10.8103215],[-50.6220066,-10.8394178],[-50.6190437,-10.8640944],[-50.6049528,-10.8724723],[-50.6007891,-10.9006838],[-50.6326193,-10.9318615],[-50.6202415,-10.9689077],[-50.6174251,-11.0320006],[-50.6094574,-11.0674457],[-50.6576348,-11.1278124],[-50.6644814,-11.1515989],[-50.6547324,-11.2150298],[-50.6560371,-11.2402367],[-50.6713266,-11.2867414],[-50.6968135,-11.3046578],[-50.7122605,-11.3598453],[-50.7285111,-11.3825659],[-50.7281426,-11.4169059],[-50.742064,-11.4603495],[-50.7347961,-11.5118226],[-50.7389352,-11.5445116],[-50.7092853,-11.5817386],[-50.6729005,-11.5809849],[-50.6574739,-11.5928064],[-50.6637021,-11.6775273],[-50.7215915,-11.7317126],[-50.7005871,-11.8034665],[-50.6880448,-11.825041],[-50.6863045,-11.8589954],[-50.6653727,-11.8644579],[-50.6392882,-11.8845665],[-50.640571,-11.9026897],[-50.6678955,-11.9277674],[-50.6547364,-11.9479861],[-50.6568339,-11.9668494],[-50.682238,-11.9908876],[-50.6778492,-12.0195134],[-50.6870762,-12.0356338],[-50.6676227,-12.0645602],[-50.6790353,-12.1553342],[-50.6813773,-12.2169497],[-50.6437098,-12.222965],[-50.6464236,-12.2560953],[-50.6312602,-12.284883],[-50.6489155,-12.2990896],[-50.6378161,-12.325286],[-50.6445669,-12.345909],[-50.6268725,-12.384032],[-50.6326753,-12.4171039],[-50.618255,-12.4289922],[-50.6235737,-12.4552838],[-50.6530391,-12.4600739],[-50.6470935,-12.4855232],[-50.659598,-12.5060873],[-50.6637105,-12.5374332],[-50.6864785,-12.5692042],[-50.7064888,-12.609701],[-50.6963941,-12.649685],[-50.6562041,-12.6459931],[-50.6463495,-12.6637937],[-50.6547658,-12.6791794],[-50.6347107,-12.7253575],[-50.6229618,-12.7346385],[-50.6302565,-12.776069],[-50.6253595,-12.8000195],[-50.583698,-12.8097437],[-50.5978467,-12.826775],[-50.5669545,-12.8434234],[-50.496249,-12.8453518],[-50.4838415,-12.8105787],[-50.4932856,-12.7836871],[-50.4749808,-12.7707892],[-50.4833995,-12.7393087],[-50.4608311,-12.6927772],[-50.4389381,-12.6975408],[-50.4181009,-12.6244473],[-50.386478,-12.5898503],[-50.3695501,-12.557338],[-50.3104161,-12.4953762],[-50.2616921,-12.477218],[-50.2530304,-12.4616048],[-50.2283186,-12.4541338],[-50.2117812,-12.4355973],[-50.1791191,-12.4383606],[-50.2176095,-12.4873571],[-50.2184498,-12.514831],[-50.2295244,-12.531189],[-50.207071,-12.5665508],[-50.2447603,-12.5974743],[-50.2363815,-12.6236716],[-50.2684329,-12.6517489],[-50.271462,-12.6832418],[-50.2954765,-12.6836702],[-50.2882198,-12.7348842],[-50.3024772,-12.7473437],[-50.3107784,-12.7916062],[-50.3075478,-12.8177422],[-50.2960416,-12.8314538],[-50.2504494,-12.85349],[-50.185178,-12.8936382],[-50.1578672,-12.8931307],[-50.1470251,-12.9032391],[-50.0917026,-12.9085261],[-50.0558533,-12.9202356],[-50.0374525,-12.9356091],[-50.0093375,-12.9310255],[-49.9499656,-12.9592881],[-49.9330662,-12.9566911],[-49.9092331,-12.9748676],[-49.3683159,-13.2723014],[-49.3372447,-13.2472816],[-49.3489569,-13.2105459],[-49.3470578,-13.1676757],[-49.3557086,-13.1557731],[-49.3410799,-13.1274961],[-49.3543037,-13.1123772],[-49.3372722,-13.0643396],[-49.3069216,-13.0331474],[-49.2757252,-12.979242],[-49.2797504,-12.9669855],[-49.2492919,-12.9265398],[-49.2488814,-12.9060402],[-49.2261652,-12.8782885],[-49.2106839,-12.8779345],[-49.1441475,-12.8177577],[-49.137934,-12.8010694],[-49.1176838,-12.7900847],[-49.1046307,-12.8354203],[-49.0737183,-12.8458037],[-49.0732435,-12.869707],[-49.0874736,-12.887177],[-49.0754895,-12.9052517],[-49.0330387,-12.9022575],[-49.0091156,-12.9164814],[-49.0029909,-12.9337856],[-48.9762335,-12.9578931],[-48.8703122,-12.8032618],[-48.8463582,-12.8094029],[-48.8428259,-12.8425068],[-48.8248181,-12.8453398],[-48.805945,-12.8692098],[-48.7736691,-12.8884402],[-48.7333252,-12.9356951],[-48.7325583,-12.9837304],[-48.7157524,-13.0022834],[-48.6749137,-12.9927556],[-48.6561079,-13.0117733],[-48.6385121,-13.0136178],[-48.6270522,-13.0519085],[-48.6022054,-13.057559],[-48.6022296,-13.0772677],[-48.578367,-13.1174367],[-48.5907997,-13.1514697],[-48.5774783,-13.1952471],[-48.5844342,-13.2270548],[-48.5999452,-13.2386606],[-48.5889337,-13.2635269],[-48.5998625,-13.2879857],[-48.5876603,-13.3100071],[-48.5535925,-13.3026334],[-48.5537521,-13.2035451],[-48.5296886,-13.1914152],[-48.5173926,-13.1463231],[-48.4946538,-13.1368825],[-48.4701744,-13.1458577],[-48.4772668,-13.1788007],[-48.476282,-13.2300904],[-48.458876,-13.2523081],[-48.4577023,-13.2824783],[-48.435071,-13.2901429],[-48.430047,-13.2711776],[-48.3854841,-13.2662822],[-48.3621149,-13.2429505],[-48.2920688,-13.2199679],[-48.2625454,-13.1976362],[-48.2447494,-13.1926502],[-48.2307606,-13.1712946],[-48.193604,-13.1730343],[-48.1797662,-13.1515657],[-48.1645252,-13.1582759],[-48.1427556,-13.1428228]],[[-48.1427556,-13.1428228],[-48.127463,-13.1010943],[-48.1517934,-13.0588247],[-48.1453784,-13.0273033],[-48.1489887,-13.0057386],[-48.1399201,-12.9873327],[-48.1627733,-12.95995],[-48.1863949,-12.9125507],[-48.188895,-12.8834817],[-48.2070572,-12.849583],[-48.2295138,-12.8286094],[-48.2414771,-12.7913067],[-48.2237179,-12.7584243],[-48.2455191,-12.740319],[-48.2702801,-12.7316004],[-48.2441,-12.704883],[-48.2400623,-12.6910263],[-48.2849726,-12.6777149],[-48.2882754,-12.6526805],[-48.2723295,-12.6359968],[-48.2747872,-12.6064221],[-48.2671445,-12.5835707],[-48.2933915,-12.5606645],[-48.2500016,-12.5504125],[-48.2325675,-12.5406923],[-48.2310073,-12.4951001],[-48.209678,-12.4851703],[-48.2115787,-12.4638288],[-48.2623029,-12.4616666],[-48.2609966,-12.4348492],[-48.2281603,-12.390952],[-48.2567516,-12.3448002],[-48.2558132,-12.3123442],[-48.312714,-12.2693244],[-48.2877734,-12.2438814],[-48.2819463,-12.2225507],[-48.2533124,-12.1757499],[-48.2198235,-12.1595916],[-48.1942321,-12.1840146],[-48.1552253,-12.17978],[-48.152009,-12.1624433],[-48.1167143,-12.1355874],[-48.1143148,-12.0878099],[-48.1458951,-12.0706536],[-48.1651267,-12.0499948],[-48.1815985,-12.0659268],[-48.2110304,-12.0568376],[-48.2077565,-12.0341837],[-48.2161365,-12.0016959],[-48.2776772,-11.96416],[-48.3028628,-11.9422811],[-48.3222314,-11.9351997],[-48.3365928,-11.915954],[-48.3407738,-11.9103522],[-48.3385891,-11.9083715],[-48.3491004,-11.8850498],[-48.3425548,-11.8570754],[-48.3652289,-11.8173219],[-48.3803135,-11.7504652],[-48.3743452,-11.7266801],[-48.3819306,-11.6540759],[-48.4064806,-11.6240549],[-48.4122166,-11.5996333],[-48.4113549,-11.5957828],[-48.4131314,-11.5944639],[-48.4368179,-11.5729493],[-48.4451436,-11.5684164],[-48.4499625,-11.5586261],[-48.4643609,-11.5286146],[-48.4572462,-11.5082948],[-48.4757432,-11.4763311],[-48.4617126,-11.4559366],[-48.4657236,-11.4393349],[-48.4639565,-11.435834],[-48.4656132,-11.4326664],[-48.4655036,-11.4293245],[-48.4668166,-11.4291757],[-48.4714358,-11.422034],[-48.4733638,-11.421037],[-48.4780809,-11.4170422],[-48.4767849,-11.4156253],[-48.4795315,-11.4048287],[-48.4749872,-11.3689976],[-48.4731017,-11.3633079],[-48.4519453,-11.2751067],[-48.4620905,-11.2481665],[-48.488799,-11.2201063],[-48.5176647,-11.1588713],[-48.5212625,-11.1250037],[-48.5389093,-11.0997749],[-48.5419021,-11.0730221],[-48.5534348,-11.0553469],[-48.5536243,-11.0137476],[-48.5311183,-10.9952018],[-48.510585,-10.9516605],[-48.4644871,-10.9313425],[-48.4467461,-10.9181895],[-48.4190509,-10.881428],[-48.3967244,-10.829404],[-48.3962125,-10.7675917],[-48.4147748,-10.7508994],[-48.4609408,-10.7684655],[-48.4690901,-10.7804977],[-48.505572,-10.7831547],[-48.5273252,-10.7928272],[-48.5462388,-10.8084864],[-48.5367014,-10.8126767],[-48.5347733,-10.8279357],[-48.546434,-10.8303089],[-48.5469352,-10.8334865],[-48.5474645,-10.8567607],[-48.5602975,-10.854828],[-48.5824524,-10.8664454],[-48.5928018,-10.8673174],[-48.5932862,-10.8645622],[-48.5832647,-10.8481583],[-48.6069059,-10.8457853],[-48.617858,-10.8610477],[-48.635551,-10.8701917],[-48.6504144,-10.8379621],[-48.690221,-10.8368521],[-48.7186597,-10.8123136],[-48.7607129,-10.8022818],[-48.7890206,-10.7943997],[-48.7738125,-10.7667722],[-48.7742715,-10.7111211],[-48.8035242,-10.664998],[-48.8087908,-10.6451507],[-48.8239966,-10.6375326],[-48.8220067,-10.6258394],[-48.8282387,-10.5624961],[-48.8093408,-10.5475734],[-48.803972,-10.4846589],[-48.8096807,-10.4724941],[-48.8005926,-10.4676966],[-48.7676401,-10.4584546],[-48.7579388,-10.416506],[-48.7147401,-10.4058475],[-48.698236,-10.3803948],[-48.6675706,-10.3715175],[-48.6445651,-10.3488844],[-48.5965525,-10.3223395],[-48.5977282,-10.2940189],[-48.6402971,-10.2483692],[-48.6634846,-10.2472255],[-48.6921935,-10.2232271],[-48.6997245,-10.1905663],[-48.6911703,-10.1440165],[-48.676282,-10.1213319],[-48.6719384,-10.0907181],[-48.624295,-10.0777413],[-48.6150392,-10.0626753],[-48.5701921,-10.0267958],[-48.5607344,-10.0397886],[-48.5209499,-10.0331556],[-48.5079521,-10.0445536],[-48.4849442,-10.0289612],[-48.4648824,-10.0329542],[-48.4382873,-10.0182619],[-48.3988264,-10.0477793],[-48.3589357,-10.053841],[-48.3323986,-10.0413832],[-48.3300772,-10.0288498],[-48.3370416,-10.000005],[-48.3497494,-9.9702352],[-48.3683767,-9.9479104],[-48.361705,-9.9078143],[-48.334454,-9.8794958],[-48.3338889,-9.8272712],[-48.3750014,-9.7919933],[-48.3750004,-9.7576699],[-48.3619002,-9.7464058],[-48.3605779,-9.7229968],[-48.3719252,-9.6759563],[-48.3835062,-9.6688745],[-48.4032115,-9.6347764],[-48.4002294,-9.6017393],[-48.3827366,-9.5683284],[-48.3706698,-9.4916227],[-48.3773118,-9.4379266],[-48.3614937,-9.4072247],[-48.3599414,-9.3761989],[-48.3673473,-9.342422],[-48.3369077,-9.2500046],[-48.3184179,-9.2208245],[-48.3162701,-9.1942436],[-48.2869263,-9.144988],[-48.2775727,-9.121898],[-48.2224831,-9.0565172],[-48.1940773,-9.0329316],[-48.1857374,-9.0168997],[-48.1815007,-8.9678472],[-48.1705448,-8.8971415],[-48.1391355,-8.8348684],[-48.1229782,-8.8176285]],[[-48.1229782,-8.8176285],[-48.1130831,-8.7921389],[-48.1122566,-8.7648067]],[[-48.1122566,-8.7648067],[-48.1275234,-8.7414533],[-48.1233159,-8.674421],[-48.1353641,-8.5997988],[-48.1334605,-8.5389988],[-48.1263793,-8.526283],[-48.0962628,-8.5101585],[-48.0850893,-8.4733018],[-48.0812189,-8.4266196],[-48.0856149,-8.4144949],[-48.1228762,-8.3787819],[-48.1281599,-8.367162],[-48.132502,-8.2884067],[-48.1448244,-8.2311145],[-48.1617781,-8.1965826],[-48.1596366,-8.1686834],[-48.1346654,-8.1150962],[-48.1109009,-8.0866848],[-48.0654437,-8.0906252],[-47.9922272,-8.0757951],[-47.9497495,-8.0547255],[-47.9458634,-8.0320175],[-47.9588193,-7.9479966],[-47.9540122,-7.924448],[-47.9369399,-7.8937103],[-47.9358937,-7.8685218],[-47.9185179,-7.8585956],[-47.908307,-7.8132549],[-47.8947016,-7.7928885],[-47.8409015,-7.7709495],[-47.7871298,-7.7526232],[-47.775161,-7.7373515],[-47.7181327,-7.6968701],[-47.6656106,-7.6681515],[-47.6431056,-7.6446207],[-47.6287855,-7.6145567],[-47.6319169,-7.5713919],[-47.6236373,-7.5210624],[-47.6337826,-7.5029006],[-47.6300443,-7.4911632],[-47.6034561,-7.4550623]],[[-48.1427556,-13.1428228],[-48.1659237,-13.1892998],[-48.1543121,-13.2210279],[-48.1667655,-13.2325899],[-48.1532145,-13.2783113],[-48.1698794,-13.3003456],[-48.1430995,-13.3061551],[-48.0792374,-13.2853782],[-48.0760426,-13.2427307],[-48.0541503,-13.2395873],[-48.034061,-13.2537272],[-48.0252513,-13.2798336],[-47.9885408,-13.2763636],[-47.9705718,-13.3115825],[-47.9439503,-13.303586],[-47.9363044,-13.2898552],[-47.9064982,-13.2991233],[-47.8986464,-13.3125729],[-47.8740603,-13.3204879],[-47.8236019,-13.3117114],[-47.7982282,-13.3289841],[-47.6797484,-13.4681748],[-47.6709903,-13.4412691],[-47.6377011,-13.3898225],[-47.6287514,-13.365694],[-47.6500735,-13.3491826],[-47.6614696,-13.3027767],[-47.639661,-13.2642926],[-47.6652143,-13.2183676],[-47.6661664,-13.1726605],[-47.6516952,-13.1498235],[-47.6458713,-13.1198323],[-47.6156147,-13.1036851],[-47.5609943,-13.1255621],[-47.5685676,-13.1434514],[-47.5652595,-13.179662],[-47.5410293,-13.1917981],[-47.4774514,-13.1871897],[-47.4878931,-13.2112802],[-47.4651907,-13.227158],[-47.4421239,-13.2223176],[-47.4321613,-13.2379692],[-47.4544222,-13.2505276],[-47.4171999,-13.2708326],[-47.3914681,-13.2583855],[-47.3797227,-13.2306025],[-47.3381852,-13.2463509],[-47.3238054,-13.2582586],[-47.3063623,-13.249093],[-47.2821518,-13.2651268],[-47.2523793,-13.2126088],[-47.2296138,-13.1947384],[-47.1969246,-13.1936844],[-47.1679426,-13.2111178],[-47.1335041,-13.1993901],[-47.1321165,-13.1778641],[-47.0854035,-13.1717336],[-47.0712409,-13.1589459],[-47.0078393,-13.1386366],[-46.9275007,-13.0897505],[-46.8916768,-13.0523851],[-46.8614231,-13.0667377],[-46.8228182,-13.0067893],[-46.750611,-12.969155],[-46.4546499,-12.9711526],[-46.4459259,-12.9357678],[-46.4325688,-12.9306408],[-46.4179848,-12.8224367],[-46.4091181,-12.8455928],[-46.3829617,-12.8485596],[-46.3657643,-12.863354],[-46.3652006,-12.9346972],[-46.3724272,-12.9445488],[-46.3706226,-12.987923],[-46.304931,-12.97854],[-46.2810157,-12.968555],[-46.1960974,-12.9570335],[-46.254501,-12.9392031],[-46.2942225,-12.9529523],[-46.3080359,-12.9399232],[-46.3112453,-12.9090544],[-46.2903724,-12.9003262],[-46.2998758,-12.8563612],[-46.2775822,-12.8435595],[-46.2735822,-12.815966],[-46.3097625,-12.7966012],[-46.2824396,-12.7670996],[-46.2951944,-12.7560431],[-46.2737155,-12.7388185],[-46.2728226,-12.7142207],[-46.2946262,-12.7074643],[-46.301703,-12.6843133],[-46.2688648,-12.6673292],[-46.2744064,-12.6438603],[-46.305393,-12.6399891],[-46.2757846,-12.5944306],[-46.2716121,-12.5700454],[-46.2549312,-12.5398977],[-46.2244444,-12.528641],[-46.2053289,-12.5033552],[-46.2508606,-12.502217],[-46.2659518,-12.4827186],[-46.2638259,-12.4602543],[-46.2904543,-12.416632],[-46.3100667,-12.4296701],[-46.3155489,-12.4634304],[-46.3370353,-12.4530633],[-46.3248555,-12.4075111],[-46.3135813,-12.4055048],[-46.2898836,-12.376653],[-46.3000205,-12.3637318],[-46.3487602,-12.3518799],[-46.3563495,-12.332222],[-46.3491463,-12.2991233],[-46.3843873,-12.2945067],[-46.3695687,-12.2674682],[-46.3828769,-12.2552194],[-46.366521,-12.215083],[-46.3810937,-12.1810752],[-46.3980695,-12.1627045],[-46.3715438,-12.1232291],[-46.3711652,-12.0997193],[-46.3980347,-12.0894981],[-46.3844223,-12.0517563],[-46.4525443,-12.0501117],[-46.4448951,-12.0261783],[-46.3969376,-12.0139181],[-46.3635629,-11.9903413],[-46.3648267,-11.9807722],[-46.3154903,-11.941993],[-46.2966545,-11.9377059],[-46.2330576,-11.9364818],[-46.2025928,-11.9233524],[-46.1951004,-11.904136],[-46.2477131,-11.9192975],[-46.2880029,-11.9096549],[-46.3067835,-11.9137471],[-46.3530272,-11.8843192],[-46.3706583,-11.8895899],[-46.3807875,-11.8615878],[-46.3721335,-11.8299619],[-46.337911,-11.814101],[-46.3462438,-11.7843342],[-46.3436773,-11.7600875],[-46.3737917,-11.7663207],[-46.3785453,-11.7485209],[-46.3423999,-11.7374137],[-46.3077347,-11.6864407],[-46.3320947,-11.6723541],[-46.343791,-11.6551257],[-46.3506712,-11.6204826],[-46.3043291,-11.6061903],[-46.2360793,-11.610525],[-46.2385496,-11.6231161],[-46.2142962,-11.6427527],[-46.1572177,-11.6514962],[-46.1444858,-11.6243474],[-46.1073456,-11.625734],[-46.1043079,-11.6079673],[-46.2093463,-11.5853507],[-46.2504813,-11.536689],[-46.3481413,-11.5066007],[-46.4404346,-11.520789],[-46.5240555,-11.4636343],[-46.5319213,-11.3748773],[-46.5683079,-11.3715657],[-46.5765096,-11.3422773],[-46.5522029,-11.262799],[-46.4661796,-11.1337357],[-46.3415579,-10.9390123],[-46.2672663,-10.9348023],[-46.260537,-10.8120374],[-46.2264451,-10.7829371],[-46.206199,-10.8004666],[-46.195922,-10.745224],[-46.1651513,-10.7224792],[-46.1503463,-10.691554],[-46.1607629,-10.659439],[-46.1497049,-10.6359108],[-46.1272996,-10.6204473],[-46.0607652,-10.6001785],[-45.9746323,-10.5518698],[-45.9292229,-10.5216007],[-45.8708973,-10.5032789],[-45.8212513,-10.458074],[-45.7981846,-10.3232473],[-45.7268896,-10.3125357],[-45.6995761,-10.2596862],[-45.7019773,-10.1793504],[-45.7234839,-10.1554127],[-45.734997,-10.1721653],[-45.7268217,-10.2071033],[-45.7440252,-10.2399559],[-45.7937433,-10.2676724],[-45.8670709,-10.2541064],[-45.8967285,-10.2642902],[-45.9156318,-10.3126645],[-45.8871714,-10.3404619],[-45.9109369,-10.3710886],[-45.9711149,-10.3589393],[-45.9820642,-10.3260795],[-45.9973317,-10.3167634],[-45.9998711,-10.2966799],[-46.0282068,-10.2771033],[-46.0198746,-10.2556523],[-46.0180794,-10.2187425],[-46.0282782,-10.1768696],[-46.0584106,-10.1855633],[-46.0928346,-10.2099009],[-46.135913,-10.2063543],[-46.1633034,-10.2136326],[-46.2020098,-10.1740091],[-46.2408341,-10.1718858],[-46.2682935,-10.1812102],[-46.3130818,-10.1728238],[-46.3275253,-10.1836944],[-46.3678895,-10.1688141],[-46.3839691,-10.1201424],[-46.420695,-10.0808792],[-46.4452004,-10.0773873],[-46.4565293,-10.0499237],[-46.457085,-10.0180174],[-46.4775839,-9.9883014],[-46.4786115,-9.9238687],[-46.4708399,-9.8980472],[-46.4803335,-9.8552553],[-46.5143077,-9.7977511],[-46.5624781,-9.8106895],[-46.579665,-9.7963455],[-46.5708079,-9.7811042],[-46.5750865,-9.7585754],[-46.5961386,-9.7472513],[-46.6236666,-9.7502102],[-46.6443936,-9.7403333],[-46.6533374,-9.6934421],[-46.6130575,-9.6658082],[-46.5923881,-9.5872005],[-46.5391662,-9.5601446],[-46.540479,-9.5501624],[-46.5745282,-9.5206835],[-46.5591976,-9.4929926],[-46.5732556,-9.4777617],[-46.6275914,-9.4657229],[-46.6495644,-9.444091],[-46.6337571,-9.4137633],[-46.6659757,-9.3919186],[-46.7002276,-9.3989695],[-46.7233119,-9.3963646],[-46.7543134,-9.4138029],[-46.7659532,-9.4018957],[-46.7586743,-9.3812175],[-46.7991716,-9.3388432],[-46.8187517,-9.3034377],[-46.8470632,-9.2924222],[-46.8189454,-9.2600573],[-46.8288944,-9.2400898],[-46.8196135,-9.2116185],[-46.8523673,-9.1861361],[-46.8478096,-9.1680103],[-46.861117,-9.1464228],[-46.8846186,-9.1439041],[-46.8999976,-9.1280193],[-46.9263087,-9.1349438],[-46.9302566,-9.1059806],[-46.9121494,-9.0827243],[-46.9402883,-9.0637411],[-46.9759264,-9.0817295],[-47.0073415,-9.0821934],[-47.0411236,-9.0681621],[-47.0577274,-9.0529545],[-47.0358639,-8.989814],[-47.0215615,-8.9886406],[-47.0112552,-8.9466044],[-46.9714187,-8.9164052],[-46.9929219,-8.8788894],[-46.9597282,-8.8754498],[-46.9415578,-8.859479],[-46.9181468,-8.856995],[-46.9180873,-8.8396966],[-46.9028067,-8.8145359],[-46.9075097,-8.7720788],[-46.9248679,-8.7442212],[-46.9143685,-8.7085831],[-46.8869493,-8.6864898],[-46.8891737,-8.6697885],[-46.9163941,-8.6484068],[-46.9170946,-8.6329114],[-46.8977279,-8.6010165],[-46.9022558,-8.5862755],[-46.8624212,-8.55537],[-46.8433518,-8.5228537],[-46.8491469,-8.4746502],[-46.8234833,-8.4744962],[-46.8005095,-8.4540934],[-46.7954804,-8.429969],[-46.8026138,-8.4060856],[-46.7857303,-8.3953681],[-46.7824337,-8.3680837],[-46.7365293,-8.3792104],[-46.7025988,-8.3481655],[-46.6621744,-8.3350169],[-46.6338866,-8.3183546],[-46.6117205,-8.327711],[-46.5439995,-8.3174359],[-46.519411,-8.291932],[-46.5068685,-8.2658847],[-46.5091024,-8.2355974],[-46.4891624,-8.2077175],[-46.5109326,-8.1813686],[-46.5138952,-8.164658],[-46.4908179,-8.1181075],[-46.4825614,-8.0887668],[-46.4655932,-8.0719288],[-46.4800166,-8.0422919],[-46.4763892,-8.0146165],[-46.5102664,-7.9658306],[-46.5598218,-7.9408804],[-46.577697,-7.9111659],[-46.6091661,-7.8929592],[-46.6494081,-7.9100205],[-46.694513,-7.9167979],[-46.70928,-7.9134842],[-46.7461334,-7.927386],[-46.7861749,-7.952884],[-46.8139012,-7.9511515],[-46.8378081,-7.9593901],[-46.8832574,-7.9642485],[-46.9416367,-7.9979071],[-46.970654,-8.0435818],[-47.0031523,-8.0638818],[-47.0453176,-8.0532451],[-47.0607044,-8.0246004],[-47.0624465,-8.0045961],[-47.0997545,-7.9846888],[-47.1036372,-7.9540427],[-47.1470843,-7.8968663],[-47.1877127,-7.8586617],[-47.2073757,-7.8337771],[-47.2403072,-7.8138036],[-47.235753,-7.8042997],[-47.2632039,-7.7520021],[-47.2889445,-7.7295401],[-47.3058134,-7.7348062],[-47.3161674,-7.7175096],[-47.3029899,-7.6902464],[-47.3316711,-7.6854401],[-47.3387494,-7.6669041],[-47.3230007,-7.655917],[-47.3369882,-7.6362198],[-47.3884071,-7.6324683],[-47.383018,-7.6003894],[-47.4051568,-7.5871964],[-47.3990893,-7.5691277],[-47.439975,-7.5559998],[-47.4251086,-7.5285591],[-47.4610895,-7.5183631],[-47.4802534,-7.5260026],[-47.4805071,-7.4915047],[-47.4963582,-7.4813961],[-47.501525,-7.4397949],[-47.5284919,-7.4335397],[-47.5628339,-7.4506335],[-47.5915697,-7.4400683],[-47.6034561,-7.4550623]],[[-48.1122566,-8.7648067],[-48.1229782,-8.8176285]]],"bbox":[-50.742064,-13.4681748,-45.6995761,-5.1683805]}
