{"type":"Topology","objects":{"geometrias":{"type":"GeometryCollection","geometries":[{"type":"Polygon","arcs":[[0,1,2,3,4,5,6,7]],"properties":{"code_meso":1301,"code_state":13,"code_region":1,"name_meso":"Norte Amazonense","abbrev_state":"AM","name_state":"Amazonas","name_region":"Norte","year":2020}},{"type":"Polygon","arcs":[[8,9,10,11,12,-2]],"properties":{"code_meso":1302,"code_state":13,"code_region":1,"name_meso":"Sudoeste Amazonense","abbrev_state":"AM","name_state":"Amazonas","name_region":"Norte","year":2020}},{"type":"Polygon","arcs":[[13,14,-11,15,16,-8,17,-6,18,-4]],"properties":{"code_meso":1303,"code_state":13,"code_region":1,"name_meso":"Centro Amazonense","abbrev_state":"AM","name_state":"Amazonas","name_region":"Norte","year":2020}},{"type":"Polygon","arcs":[[19,-16,-10]],"properties":{"code_meso":1304,"code_state":13,"code_region":1,"name_meso":"Sul Amazonense","abbrev_state":"AM","name_state":"Amazonas","name_region":"Norte","year":2020}}]}},"arcs":[[[-60.7620092,-0.8485891],[-60.7779021,-0.7888959],[-60.7712078,-0.7560625],[-60.7926101,-0.7417466],[-60.8185079,-0.6891733],[-60.8551557,-0.6863394],[-60.8576966,-0.6554596],[-60.8915103,-0.6452966],[-60.9276695,-0.6055239],[-60.9336309,-0.5478676],[-60.9948083,-0.5610602],[-61.0568653,-0.543861],[-61.0790494,-0.5061397],[-61.1616292,-0.5017422],[-61.168861,-0.516303],[-61.2230998,-0.4998854],[-61.2340453,-0.5619397],[-61.3595274,-0.5969244],[-61.4287185,-0.6495475],[-61.4581344,-0.6547267],[-61.4846186,-0.716877],[-61.5356323,-0.7544012],[-61.5567415,-0.86492],[-61.5764824,-0.9111396],[-61.5807825,-0.9779761],[-61.5509756,-0.9831549],[-61.5428642,-1.0622039],[-61.5727688,-1.0757856],[-61.5661233,-1.129135],[-61.6269031,-1.29397],[-61.5821752,-1.3534073],[-61.6191215,-1.3947977],[-61.548014,-1.429518],[-61.5235688,-1.4906328],[-61.473291,-1.5278497],[-61.4827365,-1.5806331],[-61.5446819,-1.5256267],[-61.5596818,-1.4950728],[-61.6049547,-1.4481315],[-61.7180136,-1.4097932],[-61.7407891,-1.3920181],[-61.7980094,-1.38063],[-61.8171838,-1.3995172],[-61.8966239,-1.3953553],[-61.906898,-1.3561901],[-61.9499562,-1.2970205],[-61.966905,-1.2428579],[-62.0174603,-1.141744],[-62.062179,-1.0997992],[-62.0996815,-1.0967433],[-62.1719075,-1.0059124],[-62.2274549,-0.9734411],[-62.2591241,-0.9759149],[-62.2721852,-0.9520217],[-62.3127423,-0.930355],[-62.3649621,-0.8773045],[-62.3760672,-0.8364693],[-62.4332906,-0.8039684],[-62.5010732,-0.7814661],[-62.4949568,-0.7506342],[-62.5082918,-0.7142492],[-62.4866273,-0.6814673],[-62.4271271,-0.6897596],[-62.4050896,-0.7222027],[-62.3558105,-0.671608],[-62.3080217,-0.6577317],[-62.2867171,-0.632373],[-62.2906262,-0.5984635],[-62.3123217,-0.5759385],[-62.3072399,-0.5081186],[-62.2804137,-0.4507057],[-62.232796,-0.4244911],[-62.1871572,-0.3278407],[-62.2421259,-0.2992467],[-62.253389,-0.2700021],[-62.2530225,-0.2129053],[-62.241564,-0.1704673],[-62.2778209,-0.1498469],[-62.3197948,-0.0963412],[-62.326538,-0.0016922],[-62.3658734,0.0557716],[-62.4092644,0.0750728],[-62.4281258,0.1281387],[-62.4241258,0.1532502],[-62.4527436,0.2074142],[-62.4666294,0.2679859],[-62.4668891,0.3329678],[-62.4463713,0.3791138],[-62.485246,0.4540804],[-62.5186613,0.4437009],[-62.5330086,0.5088084],[-62.5188492,0.5937719],[-62.5382905,0.6751955],[-62.5333109,0.7013007],[-62.5004942,0.7479483],[-62.4630261,0.7768688],[-62.4660739,0.8290772],[-62.4846856,0.8760203],[-62.4427354,0.9585339],[-62.4746958,1.0162997],[-62.4716209,1.0862816],[-62.5210879,1.0838159],[-62.5452401,1.1207622],[-62.5546935,1.1749041],[-62.5869072,1.2554775],[-62.6021975,1.3257722],[-62.6205211,1.3626934],[-62.6202536,1.4037833],[-62.6399648,1.4382383],[-62.6769036,1.4546309],[-62.7308005,1.499632],[-62.7363493,1.5296296],[-62.8052823,1.5913457],[-62.7929928,1.6353122],[-62.7286068,1.7],[-62.7223724,1.7224945],[-62.7310733,1.8182323],[-62.7041791,1.8739468],[-62.7033106,1.9338206],[-62.7295838,1.9605494],[-62.8132455,1.9916842],[-62.8385715,2.0163864],[-62.9484827,2.0310414],[-63.0237762,2.0146794],[-63.0772673,2.0460662],[-63.1198323,2.0964525],[-63.1463394,2.1732586],[-63.1941336,2.1812129],[-63.2763514,2.1543897],[-63.3597912,2.1971016],[-63.3888586,2.1829859],[-63.3977409,2.1468868],[-63.4441372,2.1251611],[-63.4666357,2.1409856],[-63.4924661,2.1154656],[-63.5619064,2.1323587],[-63.6174619,2.1065552],[-63.668021,2.0168828],[-63.7033005,2.0462687],[-63.7849696,1.9815483],[-63.8296883,1.9682281],[-63.9066373,1.9915269],[-63.9755238,1.9913059],[-64.0191381,1.9512979],[-64.0619156,1.9307373],[-64.0560847,1.8410087],[-64.0624667,1.7896248],[-64.0780269,1.7590416],[-64.0613558,1.7016127],[-64.065248,1.6760096],[-64.1121903,1.5893265],[-64.1441374,1.582435],[-64.1938566,1.5426979],[-64.2155218,1.5084945],[-64.2402475,1.5112846],[-64.3021953,1.4682845],[-64.3260851,1.4359802],[-64.3427474,1.3843245],[-64.3999729,1.3948723],[-64.3913578,1.429611],[-64.3571906,1.4838108],[-64.3513625,1.5182727],[-64.3974674,1.5268362],[-64.4385855,1.4718185],[-64.4535773,1.4802195],[-64.5005247,1.4426544],[-64.5313556,1.4352188],[-64.5827463,1.3754932],[-64.5908,1.3374136],[-64.634971,1.3202018],[-64.6602494,1.2913363],[-64.7019142,1.2913088],[-64.7224702,1.2384823],[-64.7638611,1.2307695],[-64.7935823,1.2693605],[-64.8033094,1.3105007],[-64.8616387,1.2693133],[-64.8688597,1.2410053],[-64.9066365,1.2416119],[-64.9608037,1.1896693],[-65.022249,1.1149409],[-65.1030858,1.1566564],[-65.1514751,1.1164774],[-65.1472772,1.009346],[-65.1649762,0.9504778],[-65.2408088,0.921048],[-65.3027514,0.9421604],[-65.3291401,0.9315675],[-65.3519192,0.8729742],[-65.3735819,0.8646456],[-65.3980261,0.8213317],[-65.3974706,0.7499208],[-65.4235867,0.7079645],[-65.452757,0.6854416],[-65.5305331,0.6679567],[-65.5641402,0.675712],[-65.5913674,0.721611],[-65.5735861,0.764372],[-65.5485837,0.7745993],[-65.5035907,0.8524478],[-65.5083615,0.915535],[-65.5419203,0.9755243],[-65.5855583,1.0089346],[-65.6527545,1.0117712],[-65.7394209,0.9995908],[-65.767201,0.9640511],[-65.8622852,0.9309006],[-65.8815576,0.9016085],[-65.9365849,0.8821381],[-65.9713703,0.8060344],[-66.0700558,0.8050584],[-66.08853,0.7590606],[-66.1510876,0.744472],[-66.2129729,0.7806478],[-66.3185201,0.7550422],[-66.5993098,0.9996884],[-66.8569331,1.2302063],[-67.0881602,1.1668967],[-67.0888285,1.3249804],[-67.072331,1.4426041],[-67.078717,1.4998321],[-67.0815227,1.6381769],[-67.0995477,1.6817408],[-67.0973816,1.7326009],[-67.1240535,1.7989282],[-67.1570501,1.8488441],[-67.2439499,1.8581853],[-67.278087,1.8757471],[-67.3001994,1.9266702],[-67.3260885,2.0297139],[-67.336873,2.0980903],[-67.3434869,2.2054799],[-67.3892608,2.2440111],[-67.4309917,2.241616],[-67.4481787,2.2081033],[-67.5219342,2.1703146],[-67.5509126,2.1417181],[-67.5580226,2.1060894],[-67.5863565,2.0854913],[-67.6198315,2.0236732],[-67.6706442,2.0200117],[-67.7499272,2.0401289],[-67.7794222,2.031064],[-67.8182306,1.9668342],[-67.8826199,1.9028001],[-67.9412948,1.8307309],[-67.9735795,1.8327501],[-68.0434404,1.8996897],[-68.0875265,1.9013133],[-68.1406947,1.9847824],[-68.1829182,1.978796],[-68.2432559,1.9267464],[-68.2669026,1.8273363],[-68.2365907,1.7725223],[-68.2025902,1.7863312],[-68.1695326,1.7706642],[-68.1568127,1.7316353],[-69.0007639,1.7321173],[-69.1786162,1.7334428],[-69.3848865,1.729737],[-69.4261623,1.7568641],[-69.4868981,1.7621574],[-69.5523449,1.7917466],[-69.5673754,1.7772693],[-69.6575812,1.7367307],[-69.7111159,1.7494561],[-69.7522569,1.7389191],[-69.7950949,1.7099626],[-69.8425454,1.7207748],[-69.8455758,1.4996463],[-69.8443766,1.0853793],[-69.8020646,1.0735832],[-69.7547522,1.1186755],[-69.7105853,1.1265092],[-69.7092201,1.0901973],[-69.684761,1.0764769],[-69.6069069,1.105173],[-69.5664707,1.0807469],[-69.4934233,1.0879038],[-69.4373989,1.0806241],[-69.4165087,1.0523523],[-69.3859886,1.0825802],[-69.3215783,1.0956949],[-69.2898073,1.0624061],[-69.265356,1.0643609],[-69.213045,1.0201808],[-69.2061373,0.9722809],[-69.1718296,0.9026969],[-69.1358289,0.877186],[-69.1659125,0.8284801],[-69.1450214,0.7830299],[-69.1873348,0.7492421],[-69.1803573,0.7244394],[-69.1445521,0.7025014],[-69.115159,0.6498419],[-69.1932214,0.6515253],[-69.212809,0.6096125],[-69.2389516,0.6023902],[-69.3115405,0.6374274],[-69.3688512,0.6275135],[-69.4100205,0.674732],[-69.4814747,0.7356074],[-69.5664838,0.6840547],[-69.6067941,0.629207],[-69.6798001,0.6705732],[-69.7180314,0.6430104],[-69.7252278,0.61686],[-69.81315,0.5828062],[-69.831598,0.5900167],[-69.8873226,0.5749305],[-69.9148269,0.5852725],[-69.9423858,0.5542955],[-69.9914495,0.5609718],[-70.0042258,0.5409198],[-70.0435655,0.5588281],[-70.0463531,-0.0210809],[-70.0416633,-0.1241509],[-70.0574332,-0.1867765],[-69.9971611,-0.2347713],[-69.9231595,-0.3315149],[-69.8925192,-0.3491759],[-69.8448846,-0.3457965],[-69.8235482,-0.3810107],[-69.7753282,-0.4002804],[-69.7177421,-0.4551373],[-69.6449955,-0.48302],[-69.6111023,-0.5134525],[-69.6146924,-0.540342],[-69.593214,-0.567686],[-69.6049651,-0.6000017],[-69.573801,-0.6498361],[-69.5852481,-0.6844086],[-69.6226049,-0.7321441],[-69.6120784,-0.7702015],[-69.5595997,-0.8229638],[-69.5232685,-0.8862752],[-69.5273769,-0.921957],[-69.4635765,-0.967341],[-69.4250746,-1.0836273],[-69.4008846,-1.1139529],[-69.3983811,-1.1444042],[-69.4307987,-1.241949],[-69.4111889,-1.2817651],[-69.3999899,-1.3707265],[-69.4296539,-1.3873204],[-69.435329,-1.457894],[-69.4574972,-1.4934757],[-69.4533231,-1.5314554],[-69.5344634,-2.0005089],[-69.6134115,-2.4402489]],[[-69.6134115,-2.4402489],[-69.5067708,-2.4494275],[-69.4317167,-2.4914569],[-69.4418526,-2.5311511],[-69.3755711,-2.5314159],[-69.3458264,-2.5515495],[-69.3087695,-2.6155863],[-69.2392155,-2.5934905],[-69.2045799,-2.6070597],[-69.183465,-2.6428723],[-69.1719674,-2.7060558],[-69.0948561,-2.7866461],[-69.0666057,-2.8381255],[-69.0376563,-2.8256924],[-69.0126602,-2.7854652],[-68.9570481,-2.8160776],[-68.8878489,-2.7942718],[-68.840327,-2.8058483],[-68.8144043,-2.7827323],[-68.7756306,-2.7819783],[-68.7366057,-2.7514651],[-68.6533504,-2.7118738],[-68.6126304,-2.6467167],[-68.5627118,-2.6560228],[-68.5459334,-2.6092281],[-68.491988,-2.5932645],[-68.4026544,-2.6196105],[-68.3574062,-2.61625],[-68.3381794,-2.5961113],[-68.3082687,-2.5300812],[-68.2447914,-2.5420075],[-68.2140176,-2.5716684],[-68.1739573,-2.5542374],[-68.1094019,-2.5430336],[-68.0586536,-2.5539097],[-68.055961,-2.6090185],[-68.0151004,-2.6644828],[-67.9690435,-2.6891795],[-67.8970137,-2.6899391],[-67.8238739,-2.7330458],[-67.7965144,-2.7082091],[-67.7567876,-2.7096355],[-67.7357642,-2.6576416],[-67.7434819,-2.6330845],[-67.641119,-2.5612178],[-67.6312904,-2.4935581],[-67.5717312,-2.47479],[-67.5589908,-2.3927371],[-67.4897049,-2.3453685],[-67.465149,-2.3378375],[-67.3381833,-2.257386],[-67.346232,-2.2333848],[-67.314429,-2.1791865],[-67.2838756,-2.1765543],[-67.2094065,-2.2219647],[-67.2040938,-2.2458645],[-67.1326447,-2.2474644],[-67.0785136,-2.2741269],[-67.0410901,-2.2568025],[-66.9690097,-2.2512677],[-66.9217869,-2.2295011],[-66.848263,-2.2168468],[-66.7857583,-2.1956719],[-66.7788462,-2.1536568],[-66.7141517,-2.1658471],[-66.6722572,-2.1506756],[-66.6211712,-2.1510187],[-66.5998146,-2.1178049],[-66.5584824,-2.1078925],[-66.529177,-2.0643073],[-66.5338156,-2.0000635],[-66.4600613,-1.9343748],[-66.4261749,-1.94023],[-66.4050379,-1.9958622],[-66.3373667,-2.0563927],[-66.30522,-2.029785],[-66.256043,-2.0250115],[-66.176616,-1.9863332],[-66.1567205,-2.0647059],[-66.090108,-2.0783462],[-66.0564824,-2.0739326],[-66.0138738,-2.1401983],[-65.9574588,-2.1637731],[-65.9385696,-2.2548576],[-65.9012952,-2.2605332],[-65.8972734,-2.3052088],[-65.862268,-2.2879863],[-65.8550012,-2.2527237],[-65.7999782,-2.2525005],[-65.6603039,-2.2734003],[-65.6501997,-2.2496006],[-65.6077041,-2.2375479],[-65.5947762,-2.31642],[-65.6158475,-2.3595144],[-65.5876855,-2.3844026],[-65.5550573,-2.357796],[-65.4721036,-2.400848],[-65.4267564,-2.3924979],[-65.4300898,-2.364875],[-65.3954897,-2.3491201],[-65.3723585,-2.3550163],[-65.3700624,-2.3340437],[-65.3661393,-2.3292345],[-65.3278987,-2.3513187],[-65.280169,-2.316698],[-65.2748808,-2.3636657],[-65.2581013,-2.377599]],[[-65.2581013,-2.377599],[-65.2478814,-2.3864993]],[[-65.2478814,-2.3864993],[-65.2294875,-2.3880113],[-65.216029,-2.380429],[-65.2193259,-2.3048007],[-65.202094,-2.2799923],[-65.19093,-2.2879225],[-65.1884451,-2.315774],[-65.1390395,-2.3373976],[-65.116355,-2.3949688],[-65.0558362,-2.5070174],[-64.998094,-2.5603055],[-64.9807754,-2.5979293],[-65.0036087,-2.7032218],[-64.9726635,-2.7227888],[-64.9167406,-2.7104827],[-64.8663941,-2.7354179],[-64.8924568,-2.8750011],[-64.8106116,-2.9472432],[-64.8038294,-3.0145754],[-64.7190136,-3.1194531],[-64.7825422,-3.1384267],[-64.7790076,-3.1685425],[-64.7031678,-3.2218687],[-64.6754685,-3.2632151],[-64.6206099,-3.2887168],[-64.5438736,-3.3117684],[-64.5220188,-3.3269986],[-64.4628827,-3.4139141],[-64.4441449,-3.4635473],[-64.3870631,-3.5034261],[-64.3549691,-3.5367643],[-64.2915463,-3.5705496],[-64.2157973,-3.6245886],[-64.1773806,-3.662553],[-64.1296407,-3.6877362],[-64.071599,-3.7043105],[-63.9878083,-3.7067875],[-63.977743,-3.7645047],[-63.9551322,-3.8022605],[-63.942111,-3.8128695],[-63.8670227,-3.8111903],[-63.7860269,-3.7994845],[-63.7594365,-3.7988903],[-63.7890422,-3.7797084],[-63.8815927,-3.7920382],[-63.9264843,-3.7368674],[-63.9196218,-3.6565087],[-63.9863536,-3.6027814],[-64.0202038,-3.6228991],[-64.0625985,-3.543609],[-64.1071928,-3.5406559],[-64.1583617,-3.5112206],[-64.1432566,-3.4583877],[-64.1510244,-3.4184706],[-64.1275143,-3.363439],[-64.0837908,-3.3601484],[-64.08744,-3.3303166],[-64.1629514,-3.2375977],[-64.1922188,-3.2536378],[-64.2508818,-3.1858707],[-64.2913828,-3.151763],[-64.2873761,-3.1335926],[-64.2825581,-3.1318759],[-64.273281,-3.1379861],[-64.2693049,-3.1078353],[-64.2619522,-3.098693],[-64.2581587,-3.1074979],[-64.2549376,-3.1095165],[-64.2454603,-3.1026871],[-64.255686,-3.0892384],[-64.3212432,-3.0961756],[-64.3408289,-3.0167685],[-64.362058,-3.0121196],[-64.4045005,-2.9628549],[-64.4102958,-2.9589041],[-64.4482712,-2.9246506],[-64.4487511,-2.9045061],[-64.4498925,-2.8819264],[-64.4528871,-2.8487502],[-64.4999836,-2.7624203],[-64.4949804,-2.7377439],[-64.4784877,-2.7411305],[-64.445297,-2.7414354],[-64.4050446,-2.7150731],[-64.3575997,-2.7194163],[-64.338703,-2.6822034],[-64.3388524,-2.6775409],[-64.341161,-2.6702715],[-64.3479513,-2.6611876],[-64.4276381,-2.6353283],[-64.4200359,-2.6077466],[-64.4347014,-2.5521288],[-64.4649976,-2.5223948],[-64.4613309,-2.4708133],[-64.490335,-2.4602879],[-64.4918861,-2.4300701],[-64.5293301,-2.3367907],[-64.5168663,-2.3127761],[-64.5101267,-2.315639],[-64.4480571,-2.3239718],[-64.450331,-2.283717],[-64.417198,-2.2844175],[-64.3672163,-2.2651189],[-64.3139435,-2.2670701],[-64.2864396,-2.2169336],[-64.260026,-2.20516],[-64.2538833,-2.12416],[-64.2332472,-2.106812],[-64.2111403,-2.1022652],[-64.201582,-2.1033766],[-64.1852715,-2.1136254],[-64.1556669,-2.171616],[-64.0858002,-2.1917968],[-64.0287772,-2.1606626],[-63.9929451,-2.2159133],[-64.0068359,-2.3284588],[-63.9772737,-2.3735014],[-63.974442,-2.4227329],[-63.9570554,-2.4665937],[-63.9881669,-2.5279292],[-63.9646079,-2.5753802],[-63.9114684,-2.5621664],[-63.7884706,-2.5571956],[-63.7673264,-2.5931525],[-63.7295286,-2.693559],[-63.7145286,-2.7712514],[-63.7246662,-2.824412],[-63.6915554,-2.8346003],[-63.6296666,-2.8067521],[-63.5639944,-2.7628517],[-63.5250505,-2.753819],[-63.4972486,-2.73321],[-63.4630817,-2.7034447],[-63.4086592,-2.7074877],[-63.3049101,-2.7001944],[-63.2835521,-2.7107928],[-63.2407555,-2.7962541],[-63.1890164,-2.8371298],[-63.0955685,-2.831803],[-63.0497713,-2.8147603],[-63.0096618,-2.840806],[-62.9288574,-2.8536175],[-62.9104606,-2.9253342],[-62.9334612,-3.0009415],[-62.8280763,-3.0030413],[-62.7799878,-3.0201961],[-62.7602428,-3.0400753]],[[-62.7602428,-3.0400753],[-62.7414352,-3.0670813],[-62.7279102,-3.0788392],[-62.7111308,-3.0884618],[-62.6919934,-3.0927211],[-62.6342398,-3.0918641]],[[-62.6342398,-3.0918641],[-62.5830899,-3.1067603],[-62.5507986,-3.091096],[-62.5056603,-3.0095621],[-62.4896574,-2.9431036]],[[-62.4896574,-2.9431036],[-62.488489,-2.901631],[-62.484519,-2.8820884],[-62.4739934,-2.8588168],[-62.4588289,-2.8391478]],[[-62.4588289,-2.8391478],[-62.4494876,-2.8299556],[-62.4275855,-2.8167953],[-62.3857667,-2.806624],[-62.3543264,-2.7740409],[-62.2442614,-2.7653908],[-62.1584581,-2.7293458],[-62.0930414,-2.7119582],[-62.0609338,-2.6627379],[-62.0387893,-2.6483369],[-61.9638723,-2.6360101],[-61.9241553,-2.6095497],[-61.8611243,-2.6237583],[-61.8102941,-2.6100698],[-61.7601243,-2.640338],[-61.7462825,-2.6927936],[-61.7086485,-2.7342727],[-61.7055171,-2.7715875],[-61.7329879,-2.8226631],[-61.7169027,-2.8437327],[-61.6621529,-2.8611368],[-61.6405997,-2.8281664],[-61.6080988,-2.8344461],[-61.5395116,-2.8265019],[-61.4491214,-2.7610612],[-61.4042629,-2.7615549],[-61.3682349,-2.7456684],[-61.2506264,-2.7410293],[-61.2219531,-2.7645133],[-61.1656543,-2.7854918],[-61.1441237,-2.8079512],[-61.0613424,-2.8137643],[-61.0164517,-2.8522223],[-61.0005079,-2.8836754],[-60.9135681,-2.8118731],[-60.8625807,-2.8375119],[-60.7564315,-2.8217883],[-60.8027272,-2.5392258],[-60.7918145,-2.4844828],[-60.7438421,-2.4304352],[-60.7689269,-2.3994846],[-60.69531,-2.3461769],[-60.71137,-2.3200781],[-60.6920593,-2.2426657],[-60.7389514,-2.1893529],[-60.7001694,-2.1731506],[-60.6639797,-2.1306854],[-60.6820321,-2.1080968],[-60.6681733,-2.0746064],[-60.6222036,-2.0463373],[-60.5989812,-1.9988342],[-60.5425305,-2.0026808],[-60.5036232,-2.0174548],[-60.4166408,-1.9968324],[-60.3577562,-1.954464],[-60.4445902,-1.9496221],[-60.4815028,-1.9182267],[-60.5734093,-1.9139602],[-60.6162428,-1.864287],[-60.6092662,-1.8359504],[-60.6253321,-1.7867937],[-60.6162305,-1.7231829],[-60.6275075,-1.6920902],[-60.6036531,-1.6309716],[-60.5812118,-1.6042767],[-60.5895983,-1.5509025],[-60.6709242,-1.4880099],[-60.7503987,-1.4456228],[-60.8062898,-1.4477014],[-60.854241,-1.4342898],[-60.8364174,-1.4069033],[-60.847612,-1.3593353],[-60.9187158,-1.310207],[-60.9548295,-1.3177346],[-60.9629756,-1.3145736],[-60.9556822,-1.2926309],[-60.9059154,-1.2512771],[-60.8556914,-1.2612225],[-60.856398,-1.2173926],[-60.8267592,-1.124906],[-60.8277603,-1.0913902],[-60.7835032,-1.0882942],[-60.7582,-1.0675396],[-60.7949965,-1.023586],[-60.7620092,-0.8485891]],[[-69.6134115,-2.4402489],[-69.7123019,-3.0006097],[-69.8940261,-4.0006775],[-69.9351666,-4.2164712],[-69.9512441,-4.227073],[-69.9575556,-4.2842592],[-69.9809463,-4.3274264],[-70.0327789,-4.3551675],[-70.0793069,-4.3249745],[-70.1037271,-4.2762463],[-70.1681391,-4.3147638],[-70.1523918,-4.3355861],[-70.2056966,-4.3609937],[-70.2089486,-4.3281441],[-70.2555001,-4.3184365],[-70.2556147,-4.2776837],[-70.2895923,-4.2823148],[-70.3159161,-4.2595045],[-70.2848931,-4.233844],[-70.2988341,-4.1660642],[-70.3758354,-4.1418254],[-70.4191694,-4.140455],[-70.4733106,-4.1773737],[-70.520951,-4.1426805],[-70.624947,-4.1927938],[-70.6534993,-4.127195],[-70.6810338,-4.1997918],[-70.7299472,-4.1844437],[-70.7590075,-4.1599719],[-70.8081727,-4.183532],[-70.830202,-4.2189279],[-70.8498925,-4.2786538],[-70.8794739,-4.2925811],[-70.9155014,-4.3540325],[-70.9493684,-4.3795118],[-70.9884771,-4.3696929],[-71.0432845,-4.4010013],[-71.1005362,-4.3773914],[-71.1848414,-4.3926988],[-71.2171471,-4.3800231],[-71.2715899,-4.3970196],[-71.2665943,-4.4287341],[-71.3199826,-4.444544],[-71.3887583,-4.4281756],[-71.4178389,-4.4662349],[-71.4599855,-4.4394544],[-71.5375641,-4.4673765],[-71.6064534,-4.53443],[-71.6539535,-4.5082536],[-71.7149524,-4.5122609],[-71.7411775,-4.4855264],[-71.7770367,-4.4875548],[-71.8564553,-4.5131742],[-71.9364248,-4.5769228],[-71.9454618,-4.604907],[-71.9767889,-4.6081153],[-72.0059011,-4.6416792],[-72.0393326,-4.6232419],[-72.1003473,-4.7031959],[-72.1412369,-4.7137233],[-72.2165389,-4.7679288],[-72.2472341,-4.7809445],[-72.3206825,-4.7778577],[-72.3241226,-4.7968614],[-72.3716546,-4.8073656],[-72.3856879,-4.8722773],[-72.4581265,-4.9255647],[-72.5476795,-4.9585074],[-72.6066747,-4.9955799],[-72.6110959,-5.0372389],[-72.6526505,-5.0637014],[-72.7075402,-5.0528985],[-72.739266,-5.0915009],[-72.8145777,-5.1097384],[-72.8160149,-5.1384917],[-72.8850672,-5.1668175],[-72.8635207,-5.2397924],[-72.8701065,-5.299351],[-72.8986544,-5.3370326],[-72.9569091,-5.4654078],[-72.9537678,-5.5401488],[-72.986267,-5.6623082],[-72.9921899,-5.703779],[-73.0425194,-5.7490234],[-73.064046,-5.7892817],[-73.1146581,-5.8537511],[-73.1510448,-5.8634491],[-73.1878491,-5.9387877],[-73.1817802,-5.962788],[-73.2374686,-6.032191],[-73.2317769,-6.0735718],[-73.2507967,-6.1049176],[-73.2502476,-6.1449404],[-73.2205261,-6.1785345],[-73.2192172,-6.2216958],[-73.1654897,-6.274208],[-73.1335201,-6.387364],[-73.1088656,-6.4100313],[-73.1384161,-6.4979764],[-73.1842126,-6.527574],[-73.212964,-6.5778386],[-73.2934088,-6.5928142],[-73.3544914,-6.5949159],[-73.3806914,-6.6350228],[-73.4586391,-6.6655406],[-73.5164161,-6.6773499],[-73.5597748,-6.7209528],[-73.5845542,-6.7247215],[-73.6428058,-6.762149],[-73.6667812,-6.8064476],[-73.7071961,-6.8396508],[-73.721445,-6.8890873],[-73.7545814,-6.9419073],[-73.7267824,-7.0225233],[-73.8015581,-7.1118244],[-72.5847656,-7.5520042],[-70.0549793,-7.8451491],[-69.8017091,-8.061126]],[[-69.8017091,-8.061126],[-69.7872843,-7.9984196],[-69.8005384,-7.951813],[-69.7848663,-7.90847],[-69.7924475,-7.8677798],[-69.7306744,-7.820315],[-69.704926,-7.7874143],[-69.6819748,-7.7933703],[-69.6252241,-7.7523929],[-69.5983659,-7.6909165],[-69.5698152,-7.6865556],[-69.5552812,-7.6587077],[-69.5873935,-7.6271855],[-69.5553127,-7.5704615],[-69.5656729,-7.5572717],[-69.5337802,-7.4892564],[-69.5087599,-7.4589268],[-69.5247019,-7.4364638],[-69.4911211,-7.4049014],[-69.5117578,-7.3602125],[-69.4888668,-7.3378017],[-69.4925641,-7.2792359],[-69.4744451,-7.2522225],[-69.4910373,-7.2031529],[-69.4564151,-7.170541],[-69.4543881,-7.1461628],[-69.4865335,-7.1058382],[-69.4138663,-7.0746364],[-69.3900601,-7.0265136],[-69.3610575,-7.012564],[-69.2863925,-7.0121543],[-69.2362504,-6.9929094],[-69.1928086,-6.9449469],[-69.132638,-6.9614985],[-69.1270046,-7.01591],[-69.0524523,-7.0499613],[-69.0126945,-7.0347895],[-68.9962736,-7.058076],[-68.9030302,-7.1051193],[-68.8405608,-7.1085551],[-68.8065549,-7.0995043],[-68.7297829,-7.1220796],[-68.6885538,-7.1022177],[-68.6565303,-7.1039263],[-68.6055353,-7.1420692],[-68.5989142,-7.1788935],[-68.54289,-7.2237622],[-68.5341662,-7.2470215],[-68.4927227,-7.2484869],[-68.4767239,-7.2204171],[-68.4876098,-7.1615562],[-68.4571373,-7.1575209],[-68.387244,-7.1794443],[-68.3196051,-7.1589261],[-68.2731419,-7.177793],[-68.2023357,-7.1422236],[-68.1725273,-7.1686309],[-68.1148069,-7.1465375],[-68.0772238,-7.1440687],[-68.0415469,-7.1172309],[-68.0005241,-7.1506666],[-67.9145763,-7.1549544],[-67.8821662,-7.2095679],[-67.8763279,-7.2405552],[-67.8394117,-7.2522504],[-67.7246612,-7.2628652],[-67.6918265,-7.3093344],[-67.6980477,-7.3313746],[-67.6550255,-7.3566343],[-67.6417787,-7.3993804],[-67.5985772,-7.401951],[-67.5651375,-7.3493172],[-67.5229085,-7.3253608],[-67.5031945,-7.2922515],[-67.5005522,-7.2066318],[-67.4448548,-7.0003587],[-67.4151081,-6.9546411],[-67.416469,-6.9519815],[-67.4226165,-6.9173125],[-67.3797506,-6.8241414],[-67.3655259,-6.8117422],[-67.2324325,-6.8350252],[-67.1784259,-6.8245563],[-67.158227,-6.7852219],[-67.129447,-6.7751706],[-67.0733952,-6.7849218],[-67.0212886,-6.7456334],[-66.9165652,-6.8104681],[-66.8910807,-6.800319],[-66.7994589,-6.8131385],[-66.7845403,-6.7933018],[-66.688219,-6.7946404],[-66.678868,-6.7808825],[-66.621869,-6.772375],[-66.5716856,-6.7301927],[-66.5377601,-6.741898],[-66.4639421,-6.7369065],[-66.422889,-6.7158711],[-66.3923165,-6.6430076],[-66.3620316,-6.6362673],[-66.3592047,-6.6201093],[-66.3884197,-6.6339615],[-66.4212875,-6.6256942],[-66.4747867,-6.569997],[-66.5235686,-6.5777065],[-66.5371177,-6.5610859],[-66.6207526,-6.5520649],[-66.6303941,-6.5347506],[-66.6991672,-6.5254378],[-66.7469795,-6.5001004],[-66.7792448,-6.4965251],[-66.8230432,-6.4386737],[-66.867198,-6.4073061],[-66.9298847,-6.4004309],[-66.9909843,-6.3771961],[-67.0465986,-6.3868728],[-67.0914741,-6.3327424],[-67.1228993,-6.3399643],[-67.2062114,-6.3326959],[-67.2225082,-6.3434468],[-67.2456644,-6.4137105],[-67.3020944,-6.4207852],[-67.3505486,-6.4513801],[-67.3732636,-6.4926074],[-67.4348206,-6.5174909],[-67.4545058,-6.5026046],[-67.5093277,-6.5425742],[-67.5321379,-6.5362921],[-67.6405272,-6.5692188],[-67.7104142,-6.5484873],[-67.7414121,-6.5094417],[-67.7971938,-6.5197188],[-67.7543244,-6.3832165],[-67.7007136,-6.3298844],[-67.696854,-6.3012283],[-67.6664957,-6.2545238],[-67.6215507,-6.2394604],[-67.6449916,-6.1782165],[-67.6783961,-6.1414876],[-67.6692396,-6.0435905],[-67.6921861,-6.0247519],[-67.7028278,-5.9976643],[-67.6993256,-5.9453101],[-67.6594966,-5.9353792],[-67.5882969,-5.9910781],[-67.565848,-5.9886789],[-67.5621866,-5.9442023],[-67.5449942,-5.9125771],[-67.5005749,-5.8922926],[-67.4479386,-5.8908197],[-67.4252933,-5.920364],[-67.3660212,-5.9009615],[-67.35796,-5.8778284],[-67.3887766,-5.8247307],[-67.3323756,-5.7980778],[-67.3088766,-5.8245668],[-67.3004313,-5.8482637],[-67.2652959,-5.8187916],[-67.2234077,-5.75047],[-67.1853264,-5.7234706],[-67.2029058,-5.694287],[-67.1974877,-5.6474182],[-67.1580166,-5.6215222],[-67.121154,-5.6255649],[-67.1110164,-5.5738378],[-67.0390711,-5.5223398],[-66.9912647,-5.4994776],[-66.976625,-5.444409],[-66.9581868,-5.4198788]],[[-66.9581868,-5.4198788],[-66.9744552,-5.3843119],[-66.9677626,-5.368469],[-66.9333763,-5.3197198],[-66.9384026,-5.2775497],[-66.9095746,-5.263746],[-66.8817474,-5.2150566],[-66.839083,-5.1935983],[-66.7909325,-5.1522026],[-66.7637102,-5.0784269],[-66.7238913,-5.058254],[-66.6899898,-5.058902],[-66.6257379,-5.0856487],[-66.6047347,-5.0734999],[-66.5290907,-4.9508081],[-66.4725986,-4.9149703],[-66.460707,-4.8921235],[-66.4086221,-4.8543223],[-66.3874847,-4.8243331],[-66.36318,-4.828001],[-66.3047014,-4.7845427],[-66.2547629,-4.7685374],[-66.2385085,-4.6681846],[-66.1996514,-4.6389156],[-66.2105416,-4.4924258],[-66.1532952,-4.4441605],[-66.1507945,-4.4249172],[-66.100516,-4.3954738],[-66.0594244,-4.4008684],[-65.9501758,-4.2946423],[-65.9254582,-4.2609105],[-65.9028179,-4.1957217],[-65.8659301,-4.1697963],[-65.8627618,-4.1462007],[-65.9209248,-4.034586],[-65.9551151,-3.9987656],[-65.9482849,-3.9577822],[-65.9809781,-3.9027267],[-65.9829767,-3.7934614],[-65.9495074,-3.7518019],[-65.9915048,-3.728058],[-65.9925362,-3.642294],[-65.9781163,-3.4873379],[-65.9425092,-3.4617589],[-65.9145619,-3.3819612],[-65.8707333,-3.3405849],[-65.8690043,-3.3042407],[-65.8394827,-3.267451],[-65.8023389,-3.1837669],[-65.7523417,-3.1563477],[-65.7319459,-3.0763109],[-65.7022842,-3.0435953],[-65.6574764,-2.9540788],[-65.6147795,-2.9288198],[-65.5892275,-2.8716338],[-65.5598163,-2.8885457],[-65.4971977,-2.8589063],[-65.449258,-2.8552732],[-65.4267276,-2.873406],[-65.3811731,-2.8540584],[-65.3461158,-2.819853],[-65.3383915,-2.7739796],[-65.3769515,-2.71775],[-65.3862398,-2.6872781],[-65.357729,-2.6490409],[-65.3130824,-2.6384698],[-65.2618665,-2.6067259],[-65.2564813,-2.5639885],[-65.314561,-2.4766691],[-65.3095609,-2.4314677],[-65.3249004,-2.4012196],[-65.3536162,-2.393973],[-65.369016,-2.3977176],[-65.3876783,-2.4006161],[-65.3895082,-2.3989677],[-65.3849163,-2.3827132],[-65.3741865,-2.3714608]],[[-65.3741865,-2.3714608],[-65.3633141,-2.3657392],[-65.3530422,-2.3631048],[-65.3200283,-2.3615155],[-65.3048266,-2.366154],[-65.2760484,-2.3800825]],[[-65.2760484,-2.3800825],[-65.2581013,-2.377599]],[[-65.2478814,-2.3864993],[-65.2760484,-2.3800825]],[[-65.2760484,-2.3800825],[-65.3107613,-2.3638341],[-65.326256,-2.3613703],[-65.3560812,-2.3635523],[-65.3701246,-2.3690259],[-65.3741865,-2.3714608]],[[-66.9581868,-5.4198788],[-66.9034052,-5.4524796],[-66.9032367,-5.4969114],[-66.7856524,-5.5471589],[-66.7150401,-5.5458098],[-66.6852906,-5.5593766],[-66.6695753,-5.5293649],[-66.6421005,-5.5202949],[-66.6305392,-5.4871719],[-66.5840392,-5.4669388],[-66.5647885,-5.3935813],[-66.5178208,-5.4447883],[-66.4949033,-5.4335092],[-66.4285382,-5.4320824],[-66.2943161,-5.3601854],[-66.2685954,-5.3565766],[-66.0845424,-5.3791217],[-66.0748277,-5.4184978],[-65.997871,-5.4170256],[-65.9648746,-5.3983945],[-65.9129014,-5.4383415],[-65.8756511,-5.4481643],[-65.8447624,-5.4922706],[-65.7854867,-5.4916561],[-65.7530981,-5.4514585],[-65.729985,-5.4459104],[-65.710176,-5.5141326],[-65.6652815,-5.552935],[-65.6096824,-5.527205],[-65.5947902,-5.582854],[-65.5294547,-5.6425071],[-65.4527341,-5.6738782],[-65.398647,-5.6449014],[-65.3566223,-5.6459369],[-65.3237069,-5.6867605],[-65.2583751,-5.7074222],[-65.2409518,-5.7404513],[-65.1968162,-5.7346265],[-65.1464791,-5.6964668],[-65.125512,-5.6996788],[-65.0692887,-5.7521652],[-64.9613795,-5.7453619],[-64.9068975,-5.7592536],[-64.8558113,-5.7844238],[-64.812894,-5.7870052],[-64.7637586,-5.8048393],[-64.7233383,-5.8026],[-64.6702264,-5.7686259],[-64.6037818,-5.6984076],[-64.5506479,-5.6838034],[-64.5244257,-5.6997597],[-64.4766662,-5.6703412],[-64.4739464,-5.6345543],[-64.4432559,-5.5632751],[-64.4053627,-5.5492008],[-64.2986679,-5.480566],[-64.2323588,-5.473851],[-64.1643412,-5.4257812],[-64.1112267,-5.4233452],[-64.0862253,-5.3739576],[-64.0490875,-5.325531],[-64.0372535,-5.2808957],[-64.0091396,-5.2586164],[-63.9449769,-5.2361211],[-63.9268002,-5.2101885],[-63.8830055,-5.1937572],[-63.8251963,-5.152422],[-63.7022788,-5.1100188],[-63.637055,-5.1432269],[-63.6035053,-5.1363868],[-63.5541368,-5.1561353],[-63.450609,-5.1530147],[-63.3721324,-5.1217777],[-63.3405045,-5.0450955],[-63.3409114,-5.0006374],[-63.2782484,-4.9266428],[-63.248439,-4.9066421],[-63.2068531,-4.7898891],[-63.1778591,-4.7681808],[-63.1292502,-4.760639],[-63.093775,-4.7344864],[-63.0311476,-4.7051686],[-62.9901756,-4.7440639],[-62.9998805,-4.7918749],[-62.9438743,-4.8209567],[-62.9147383,-4.7843584],[-62.8786422,-4.8024952],[-62.8260188,-4.7915527],[-62.7997545,-4.8002027],[-62.7567566,-4.8445676],[-62.7061608,-4.8507949],[-62.6968861,-4.9093174],[-62.7366043,-4.9443518],[-62.6936585,-4.9624272],[-62.6791077,-4.9165124],[-62.6501086,-4.9004667],[-62.5771848,-5.0006846],[-62.1028197,-5.4599315],[-62.0811621,-5.4156039],[-62.0102512,-5.3213873],[-61.942076,-5.2945065],[-61.8608713,-5.2155444],[-61.7839175,-5.1671686],[-61.7009731,-5.0973989],[-61.5247099,-4.9401862],[-61.443789,-4.89148],[-61.4191927,-4.8545975],[-61.3187055,-4.7630563],[-61.2714876,-4.6624675],[-61.2486071,-4.62765],[-61.1678288,-4.544239],[-61.0093905,-4.4234954],[-60.8489643,-4.2821915],[-60.8070978,-4.181597],[-60.7067013,-4.2058854],[-60.6391995,-4.2008186],[-60.6179394,-4.174389],[-60.5776861,-4.1795838],[-60.489663,-4.1312018],[-60.4497384,-4.1730648],[-60.4038209,-4.1641459],[-60.385434,-4.1796038],[-60.3209408,-4.1893224],[-60.2870022,-4.1645078],[-60.2618285,-4.2344308],[-60.2154373,-4.2952675],[-60.1844074,-4.2939688],[-60.1666487,-4.3369149],[-60.1236897,-4.3380884],[-60.1250197,-4.3784724],[-60.1008529,-4.4073881],[-60.06423,-4.3785953],[-60.039388,-4.4210304],[-59.9969781,-4.3967844],[-59.9540449,-4.3885138],[-59.9889155,-4.2637087],[-59.9390596,-4.2464634],[-59.9289188,-4.2128426],[-59.6944041,-4.2122098],[-59.675436,-4.188732],[-59.620154,-4.1985888],[-59.5861452,-4.1407835],[-59.5875088,-4.0767949],[-59.558708,-4.0214449],[-59.5575082,-3.9826557],[-59.5004286,-3.9191569],[-59.2082255,-3.9200744],[-59.1555557,-3.9260023],[-59.199775,-3.9677878],[-59.1547025,-3.9726382],[-59.0464326,-3.9589815],[-59.0098081,-3.9378122],[-58.9979614,-3.8981463],[-58.9640132,-3.8879674],[-58.9205515,-3.9090017],[-58.8849112,-3.8573095],[-58.862401,-3.8568817],[-58.8396245,-3.852019],[-58.7867353,-3.9189605],[-58.8195037,-3.987734],[-58.7730315,-4.0739359],[-58.7061108,-4.1093325],[-58.6790678,-4.1572451],[-58.6899181,-4.1877592],[-58.6572674,-4.2637617],[-58.6237632,-4.2598788],[-58.6155763,-4.2897144],[-58.6519801,-4.3431761],[-58.6525751,-4.3901089],[-58.6303674,-4.4313368],[-58.6389954,-4.4668315],[-58.5831572,-4.4654845],[-58.5522982,-4.4940191],[-58.5116832,-4.4692983],[-58.4386622,-4.5066916],[-58.3960965,-4.5032953],[-58.3845684,-4.4607367],[-58.2941893,-4.427575],[-58.2803149,-4.3949834],[-58.2258634,-4.3806684],[-58.1913154,-4.3514129],[-58.1538987,-4.371058],[-58.1274062,-4.3653366],[-58.1268726,-4.4307161],[-58.1825166,-4.4544531],[-58.2185835,-4.5427814],[-58.2350838,-4.5547246],[-58.2305873,-4.6023947],[-58.2710882,-4.6554865],[-58.2762188,-4.7359965],[-58.3007081,-4.7495605],[-58.3058905,-4.8005568],[-58.3259481,-4.8397169],[-58.3653285,-4.8548252],[-58.3446883,-4.8827499],[-58.4025861,-4.9653485],[-58.4080564,-5.0133398],[-58.4498379,-5.0381119],[-58.4387516,-5.0724268],[-58.498657,-5.0923771],[-58.5158708,-5.1157889],[-58.5750901,-5.1307634],[-58.5642478,-5.1531034],[-58.6500644,-5.2271329],[-58.6884038,-5.223575],[-58.6982578,-5.2558444],[-58.7714881,-5.3286912],[-58.80651,-5.3503517],[-58.8041642,-5.414855],[-58.8355586,-5.4479567],[-58.8278352,-5.4692564],[-58.8525556,-5.5166342],[-58.8538355,-5.5469081],[-58.8267925,-5.5764172],[-58.8299992,-5.6549351],[-58.8460547,-5.6727453],[-58.8111799,-5.7387348],[-58.8295046,-5.8203258],[-58.8146981,-5.8364358],[-58.8297411,-5.8940124],[-58.8090478,-5.9066678],[-58.8261719,-5.9494],[-58.8312565,-6.0136687],[-58.8052366,-6.0469529],[-58.8090731,-6.0996024],[-58.8305706,-6.1323075],[-58.8476559,-6.2077665],[-58.9143808,-6.2598926],[-58.9169097,-6.2937577],[-58.8875237,-6.3443036],[-58.8683676,-6.3528733],[-58.8370577,-6.4227223],[-58.8359419,-6.4708718],[-58.8668683,-6.5434622],[-58.8746666,-6.589494],[-58.8645017,-6.6282062],[-58.8680058,-6.6753895],[-58.8327276,-6.7447649],[-58.7941095,-6.7767498],[-58.7850249,-6.8322646],[-58.7439639,-6.8868975],[-58.6755742,-6.928399],[-58.6328177,-7.0079953],[-58.6016006,-7.0373016],[-58.5418207,-7.036142],[-58.496669,-7.0520665],[-58.5063191,-7.1143349],[-58.5639252,-7.1989291],[-58.5297291,-7.2376356],[-58.5740375,-7.2876127],[-58.540368,-7.3425275],[-58.5003447,-7.3501251],[-58.1473717,-7.343241]],[[-58.1473717,-7.343241],[-58.1700099,-7.3132232],[-58.168085,-7.2313349],[-58.1809958,-7.1817367],[-58.209524,-7.1342626],[-58.2528349,-7.0834243],[-58.2882552,-7.061674],[-58.3354221,-6.9863726],[-58.3802498,-6.970504],[-58.4345559,-6.9088065],[-58.4817556,-6.7814217],[-58.4784712,-6.6996136],[-58.4273058,-6.6161675],[-58.3498866,-6.5624011],[-58.3270562,-6.500374],[-58.2931091,-6.493882],[-58.2552559,-6.4541175],[-58.033639,-5.9781378],[-57.5855733,-5.0007431],[-57.2536156,-4.2967522],[-57.0004891,-3.7591296],[-56.887239,-3.4990467],[-56.7629193,-3.2322098],[-56.6097644,-2.8963407],[-56.4263006,-2.5015831],[-56.4021072,-2.4565168],[-56.4655948,-2.4231151],[-56.42565,-2.3691538],[-56.4127577,-2.3217155],[-56.3843157,-2.2704754],[-56.2634986,-2.2210564],[-56.2037697,-2.1830802],[-56.1694261,-2.1455081],[-56.097558,-2.0371332],[-56.1067261,-2.0270363],[-56.2283772,-2.0562204],[-56.2561526,-2.0883161],[-56.2974569,-2.1008075],[-56.3167613,-2.140126],[-56.367785,-2.1370767],[-56.4138828,-2.1759496],[-56.4441803,-2.1539257],[-56.4778933,-2.1703764],[-56.5270653,-2.1391952],[-56.6129132,-2.2101713],[-56.6790728,-2.2125642],[-56.7077679,-2.183902],[-56.760959,-2.1740582],[-56.7694297,-2.1406729],[-56.7327642,-2.0917397],[-56.7266021,-2.0309607],[-56.7669924,-2.0086976],[-56.8167648,-2.0229705],[-56.8590445,-2.015926],[-56.8762985,-1.9923486],[-56.9611252,-1.952972],[-56.9883509,-1.9071603],[-57.0284152,-1.9180238],[-57.0666755,-1.8571237],[-57.0916449,-1.7779555],[-57.1580752,-1.7708003],[-57.1616911,-1.7403237],[-57.1996094,-1.7227408],[-57.2308333,-1.7275272],[-57.292255,-1.7082836],[-57.3533836,-1.7368071],[-57.3857558,-1.6976848],[-57.4434639,-1.6646183],[-57.4730754,-1.6788804],[-57.5440744,-1.6111343],[-57.6219144,-1.5891542],[-57.6746383,-1.5950156],[-57.7176873,-1.503283],[-57.7799886,-1.5100239],[-57.8228177,-1.438682],[-57.8771053,-1.4233436],[-57.9912388,-1.3512663],[-57.9657808,-1.1710272],[-58.0012559,-1.1481148],[-58.0173321,-1.1036085],[-58.0586708,-1.1065398],[-58.0939993,-1.1621358],[-58.1144244,-1.1645785],[-58.154004,-1.2326797],[-58.1895279,-1.2033192],[-58.2125916,-1.1665326],[-58.2558849,-1.1308204],[-58.3167203,-1.1476751],[-58.3637272,-1.0711199],[-58.4289115,-1.0286156],[-58.4105876,-0.9822266],[-58.4519752,-0.9240868],[-58.4364854,-0.8859778],[-58.4605874,-0.862868],[-58.5559695,-0.8137163],[-58.5602206,-0.7977394],[-58.6128469,-0.75831],[-58.6367412,-0.7201017],[-58.7061278,-0.6788638],[-58.7363256,-0.6193516],[-58.7318301,-0.5791878],[-58.7090107,-0.5458643],[-58.709988,-0.5170359],[-58.736521,-0.4717409],[-58.7252824,-0.4383191],[-58.7834791,-0.388968],[-58.8361542,-0.3727456],[-58.8730952,-0.3437211],[-58.8653947,-0.2655488],[-58.881038,-0.1965794],[-58.8652551,-0.1689373],[-58.8638839,-0.0780298],[-58.8865816,-0.0591839],[-58.8950359,-0.0109629],[-58.8954648,0.2635103],[-60.0379686,0.2635455],[-60.0590829,0.1629969],[-60.1336091,0.1034778],[-60.1213931,0.0880369],[-60.1351238,0.0316482],[-60.2042172,-0.0299202],[-60.2360275,-0.1037044],[-60.2211607,-0.1419768],[-60.2688029,-0.1765234],[-60.3034961,-0.2585161],[-60.2925506,-0.294626],[-60.3263644,-0.3389936],[-60.3267553,-0.3809179],[-60.3514803,-0.4056424],[-60.3464962,-0.4379405],[-60.3826554,-0.4592444],[-60.4000998,-0.5174879],[-60.3815315,-0.5884836],[-60.3152723,-0.6364651],[-60.3076495,-0.7108794],[-60.3466917,-0.739609],[-60.3735668,-0.7318403],[-60.4263396,-0.7711722],[-60.4748613,-0.7615958],[-60.4978273,-0.7806509],[-60.5028602,-0.8406985],[-60.5362098,-0.869476],[-60.5880053,-0.843288],[-60.5959213,-0.8662514],[-60.6328134,-0.8614633],[-60.6634998,-0.881202],[-60.6842669,-0.8654697],[-60.7620092,-0.8485891]],[[-62.4588289,-2.8391478],[-62.4692931,-2.8519005],[-62.4785164,-2.8670303],[-62.4871568,-2.8919095],[-62.4896574,-2.9431036]],[[-62.6342398,-3.0918641],[-62.6819105,-3.0928737],[-62.7018786,-3.0912728],[-62.7209062,-3.0836173],[-62.7347135,-3.0734926],[-62.7466029,-3.0609517],[-62.7602428,-3.0400753]],[[-69.8017091,-8.061126],[-68.6471864,-9.0494166],[-67.516882,-9.5609067],[-67.3258172,-9.5923815],[-66.8102531,-9.8180459],[-66.7805792,-9.7913933],[-66.7753636,-9.7530913],[-66.7253897,-9.7560725],[-66.6849453,-9.7146456],[-66.6241659,-9.6808192],[-66.5863066,-9.6735589],[-66.5006134,-9.6335642],[-66.4949168,-9.6015832],[-66.4389348,-9.55439],[-66.3924143,-9.5004801],[-66.3747764,-9.4263661],[-66.2596688,-9.4109965],[-66.2434147,-9.4293871],[-66.1736328,-9.4344187],[-66.1238908,-9.4087794],[-66.0597396,-9.4182176],[-66.0424116,-9.4023724],[-65.9703006,-9.4131601],[-65.9318805,-9.4475944],[-65.9126344,-9.4837503],[-65.8809081,-9.4874649],[-65.8482485,-9.5323243],[-65.8250771,-9.5300912],[-65.8000217,-9.5850225],[-65.7299672,-9.5630727],[-65.6809976,-9.5004075],[-65.6794352,-9.4513929],[-65.5881079,-9.4137738],[-65.5556338,-9.4224552],[-65.5031633,-9.4699754],[-65.4320983,-9.458635],[-65.4566002,-9.4012087],[-65.4402184,-9.3117453],[-65.3775134,-9.3244261],[-65.2466614,-9.2576636],[-65.2117718,-9.2789934],[-65.2089565,-9.3096433],[-65.1735439,-9.3854485],[-65.1854632,-9.4270317],[-65.1428806,-9.4468123],[-65.053546,-9.4021423],[-65.0005153,-9.3046138],[-64.9628795,-9.2927766],[-64.9196828,-9.2202803],[-64.9399298,-9.1245658],[-64.9156801,-9.0746143],[-64.8705663,-9.0121936],[-64.8164156,-8.98662],[-64.7839641,-8.9892699],[-64.7611805,-9.0205834],[-64.7136811,-8.9938629],[-64.587961,-9.0095099],[-64.5501239,-8.9782709],[-64.446574,-8.9768705],[-64.3233996,-8.9288606],[-64.326072,-8.9798321],[-64.3113185,-8.9964708],[-64.2332051,-8.9923081],[-64.1417669,-8.9450507],[-64.1582033,-8.8431675],[-64.129459,-8.8051627],[-64.1430671,-8.7430315],[-64.1245948,-8.7167138],[-64.0947671,-8.7283635],[-64.0431747,-8.7119098],[-64.0164261,-8.667682],[-63.9862097,-8.5856339],[-63.9459539,-8.6094853],[-63.9245687,-8.5755254],[-63.9731772,-8.4784472],[-63.9408384,-8.452264],[-63.9769546,-8.4097397],[-63.9453732,-8.3878261],[-63.9456197,-8.338933],[-63.9108358,-8.3285248],[-63.8707594,-8.2888196],[-63.8253386,-8.3061526],[-63.7912313,-8.3332153],[-63.7227614,-8.249499],[-63.7485628,-8.2078652],[-63.6934211,-8.1583487],[-63.6624486,-8.1011713],[-63.6670003,-8.0816033],[-63.621779,-8.0296108],[-63.6212491,-7.9765317],[-63.1183827,-7.9771072],[-62.8666166,-7.9758683],[-62.8328333,-7.9943716],[-62.8099965,-8.0253396],[-62.7439725,-8.0452861],[-62.6922801,-8.0929083],[-62.6730277,-8.1453106],[-62.6866642,-8.1737744],[-62.6598885,-8.1996336],[-62.6550016,-8.2290564],[-62.5853879,-8.2718806],[-62.5184725,-8.3847382],[-62.4654746,-8.33974],[-62.4245582,-8.374985],[-62.3840279,-8.3775558],[-62.3608035,-8.3985493],[-62.3660512,-8.4935617],[-62.3373587,-8.5166389],[-62.3258047,-8.5637074],[-62.3357776,-8.6094846],[-62.2943077,-8.6054408],[-62.2688885,-8.5757586],[-62.1837005,-8.5989665],[-62.1746915,-8.628203],[-62.2005306,-8.6442928],[-62.165087,-8.6793938],[-62.1550309,-8.7396423],[-62.1249717,-8.8016711],[-62.031061,-8.7997101],[-61.97914,-8.8732446],[-61.9381066,-8.8814117],[-61.8597486,-8.8529733],[-61.8610249,-8.8036155],[-61.8433013,-8.7794091],[-61.8412499,-8.7394106],[-61.7746056,-8.7482289],[-61.741854,-8.6951929],[-61.6735812,-8.7050168],[-61.6264691,-8.7288535],[-61.6295527,-8.7529562],[-61.6060278,-8.794714],[-61.5831348,-8.7986891],[-60.4201808,-8.7966226],[-60.0005265,-8.8008853],[-59.4813631,-8.8033209],[-59.0012826,-8.8030976],[-58.4428679,-8.7993991],[-58.3880024,-8.7747864],[-58.3283686,-8.7121787],[-58.3758508,-8.703714],[-58.4119558,-8.7206089],[-58.4359716,-8.6954603],[-58.3895183,-8.5947925],[-58.410469,-8.5703919],[-58.4051026,-8.537555],[-58.4178072,-8.4895196],[-58.3545775,-8.3927541],[-58.3448047,-8.3407363],[-58.3148931,-8.3230601],[-58.3280835,-8.2858292],[-58.3129453,-8.2091049],[-58.3224642,-8.1700394],[-58.2901673,-8.1356],[-58.2883921,-8.0795723],[-58.3217286,-8.0249817],[-58.3315026,-7.9687628],[-58.3751355,-7.8990013],[-58.3847417,-7.8439891],[-58.3646072,-7.8167663],[-58.2940558,-7.7715405],[-58.2759903,-7.6996663],[-58.2021706,-7.6208543],[-58.2227233,-7.5240378],[-58.21306,-7.4585347],[-58.1473717,-7.343241]]],"bbox":[-73.8015581,-9.8180459,-56.097558,2.2440111]}
