{"type":"Topology","objects":{"geometrias":{"type":"GeometryCollection","geometries":[{"type":"Polygon","arcs":[[0,1,2,3,4,5,6,7,8,9]],"properties":{"code_meso":3101,"code_state":31,"code_region":3,"name_meso":"Noroeste de Minas","abbrev_state":"MG","name_state":"Minas Gerais","name_region":"Sudeste","year":2020}},{"type":"Polygon","arcs":[[10,11,12,13,14,-10,15,-8]],"properties":{"code_meso":3102,"code_state":31,"code_region":3,"name_meso":"Norte de Minas","abbrev_state":"MG","name_state":"Minas Gerais","name_region":"Sudeste","year":2020}},{"type":"Polygon","arcs":[[16,-14,17,18,19,20,21,22,23,24,25,26,27,28]],"properties":{"code_meso":3103,"code_state":31,"code_region":3,"name_meso":"Jequitinhonha","abbrev_state":"MG","name_state":"Minas Gerais","name_region":"Sudeste","year":2020}},{"type":"Polygon","arcs":[[29,30,31,-29]],"properties":{"code_meso":3104,"code_state":31,"code_region":3,"name_meso":"Vale do Mucuri","abbrev_state":"MG","name_state":"Minas Gerais","name_region":"Sudeste","year":2020}},{"type":"Polygon","arcs":[[32,33,34,35,36,37,38,-2]],"properties":{"code_meso":3105,"code_state":31,"code_region":3,"name_meso":"Triângulo Mineiro/Alto Paranaíba","abbrev_state":"MG","name_state":"Minas Gerais","name_region":"Sudeste","year":2020}},{"type":"Polygon","arcs":[[39,40,41,42,43,-21,44,-19,45,-12,46,-6,47,-4,48,-38]],"properties":{"code_meso":3106,"code_state":31,"code_region":3,"name_meso":"Central Mineira","abbrev_state":"MG","name_state":"Minas Gerais","name_region":"Sudeste","year":2020}},{"type":"Polygon","arcs":[[49,50,51,52,53,54,55,56,57,58,59,60,61,62,63,64,65,66,67,68,69,-23,70,-43,71,72]],"properties":{"code_meso":3107,"code_state":31,"code_region":3,"name_meso":"Metropolitana de Belo Horizonte","abbrev_state":"MG","name_state":"Minas Gerais","name_region":"Sudeste","year":2020}},{"type":"Polygon","arcs":[[73,-65,74,-63,75,76,77,-31,78,-27,79,-25,80,-69,81,-67]],"properties":{"code_meso":3108,"code_state":31,"code_region":3,"name_meso":"Vale do Rio Doce","abbrev_state":"MG","name_state":"Minas Gerais","name_region":"Sudeste","year":2020}},{"type":"Polygon","arcs":[[82,83,84,85,86,87,88,89,90,91,92,93,94,-53,95,-51,96,-73,97,-41,98,-36]],"properties":{"code_meso":3109,"code_state":31,"code_region":3,"name_meso":"Oeste de Minas","abbrev_state":"MG","name_state":"Minas Gerais","name_region":"Sudeste","year":2020}},{"type":"Polygon","arcs":[[99,100,101,102,103,104,105,-90,106,-88,107,-86,108,-84,109,-34]],"properties":{"code_meso":3110,"code_state":31,"code_region":3,"name_meso":"Sul/Sudoeste de Minas","abbrev_state":"MG","name_state":"Minas Gerais","name_region":"Sudeste","year":2020}},{"type":"Polygon","arcs":[[110,-92,111,-105,112,113,114,-55,115,-94]],"properties":{"code_meso":3111,"code_state":31,"code_region":3,"name_meso":"Campo das Vertentes","abbrev_state":"MG","name_state":"Minas Gerais","name_region":"Sudeste","year":2020}},{"type":"Polygon","arcs":[[116,-114,117,-103,118,-101,119,-77,120,-61,121,-59,122,-57]],"properties":{"code_meso":3112,"code_state":31,"code_region":3,"name_meso":"Zona da Mata","abbrev_state":"MG","name_state":"Minas Gerais","name_region":"Sudeste","year":2020}}]}},"arcs":[[[-45.7398388,-15.1203849],[-45.8116655,-15.1128378],[-45.8326044,-15.1240639],[-45.8349982,-15.1373624],[-45.871247,-15.1588109],[-45.9029162,-15.1403797],[-45.9389562,-15.1356756],[-45.9559093,-15.1406663],[-45.9845053,-15.195961],[-46.0295237,-15.2018083],[-46.0385625,-15.2309154],[-46.058113,-15.2627418],[-46.0970883,-15.2431113],[-46.0988173,-15.2167858],[-46.1189155,-15.2020783],[-46.0787231,-15.1755061],[-46.0477756,-15.1637296],[-46.0437202,-15.1181296],[-46.0284766,-15.1141102],[-46.0184972,-15.0813013],[-45.9754941,-15.0388816],[-45.9748679,-15.0046751],[-45.9660809,-14.9656455],[-45.9958369,-14.9274706],[-46.00388,-14.9022898],[-46.0212792,-14.8837783],[-46.0485611,-14.8782827],[-46.0673034,-14.9097754],[-46.0793361,-14.9048431],[-46.0881416,-14.9363926],[-46.110393,-14.9370152],[-46.1203001,-14.9200586],[-46.1615537,-14.9310482],[-46.1755505,-14.9494252],[-46.2113038,-14.9369656],[-46.2322235,-14.9222961],[-46.2600565,-14.9300408],[-46.2868648,-14.9281457],[-46.29467,-14.9086131],[-46.3193358,-14.900439],[-46.3181674,-14.8832583],[-46.3004725,-14.8580787],[-46.325087,-14.8456231],[-46.3221999,-14.8145803],[-46.3550072,-14.7942008],[-46.3657836,-14.795406],[-46.4045319,-14.7603312],[-46.4238049,-14.7559729],[-46.4473617,-14.7316769],[-46.4631397,-14.7311744],[-46.4765621,-14.7050974],[-46.5097242,-14.7160762],[-46.5102818,-14.7382606],[-46.5441922,-14.7530124],[-46.5432281,-14.7686732],[-46.5638389,-14.7833849],[-46.5585055,-14.8221536],[-46.5319268,-14.8302984],[-46.521556,-14.8511795],[-46.5465359,-14.9254445],[-46.5408375,-14.9516036],[-46.5210077,-14.967394],[-46.5308107,-15.0052785],[-46.5206716,-15.0137398],[-46.502722,-15.0508979],[-46.5154789,-15.0617918],[-46.5319982,-15.0563939],[-46.5513197,-15.0638756],[-46.5753084,-15.0836319],[-46.5880057,-15.0811231],[-46.6280595,-15.0894905],[-46.6515351,-15.0846034],[-46.6816692,-15.0586204],[-46.7264771,-15.0384155],[-46.7532595,-15.0327456],[-46.7818569,-15.0193214],[-46.8205547,-15.0107669],[-46.856899,-15.010266],[-46.8641705,-15.0203851],[-46.9205918,-15.050859],[-46.9260374,-15.0735624],[-46.8977634,-15.0942172],[-46.8884431,-15.1156449],[-46.9128412,-15.1557732],[-46.9373469,-15.2050198],[-46.9408666,-15.2307016],[-46.9276553,-15.2550953],[-46.9063464,-15.2366187],[-46.8914846,-15.2352596],[-46.8893183,-15.2822469],[-46.8753369,-15.2839233],[-46.8356758,-15.3251277],[-46.847957,-15.3467604],[-46.8678404,-15.3572925],[-46.8494784,-15.373164],[-46.9151246,-15.4148348],[-46.9293133,-15.4399397],[-46.9324305,-15.4831717],[-46.9442146,-15.5181869],[-46.948688,-15.5578444],[-46.9177476,-15.5900078],[-46.8970606,-15.5931796],[-46.888818,-15.6056067],[-46.8548835,-15.6183005],[-46.8557027,-15.6831245],[-46.8424533,-15.714671],[-46.8271475,-15.7299712],[-46.8274702,-15.7512492],[-46.813149,-15.7872043],[-46.8232217,-15.8246331],[-46.8055018,-15.8593948],[-46.8074991,-15.880776],[-46.9843092,-15.9240313],[-47.0220964,-15.9287803],[-47.0603838,-15.9400587],[-47.0768869,-15.9581333],[-47.1149112,-15.9536681],[-47.1386268,-15.9290202],[-47.1717381,-15.9541297],[-47.1672988,-15.9683774],[-47.2095607,-15.9926771],[-47.2217175,-16.0121546],[-47.2447732,-16.017722],[-47.2765091,-16.0093563],[-47.2967716,-16.0153307],[-47.3126749,-16.0421107],[-47.3047149,-16.0598468],[-47.3131586,-16.0856078],[-47.3329111,-16.0867316],[-47.336561,-16.1194875],[-47.3505851,-16.1385341],[-47.3319567,-16.1717392],[-47.3345377,-16.1983935],[-47.3219811,-16.2314256],[-47.334288,-16.2585865],[-47.3516084,-16.2754134],[-47.3524215,-16.3066762],[-47.3654888,-16.3298811],[-47.4030493,-16.3759185],[-47.4201416,-16.3831948],[-47.4269215,-16.4340202],[-47.4461699,-16.4501464],[-47.4595246,-16.5041259],[-47.446005,-16.5173669],[-47.4442298,-16.5393026],[-47.4060723,-16.5578251],[-47.3744293,-16.584915],[-47.3473129,-16.5908332],[-47.339147,-16.6026508],[-47.3011068,-16.6249778],[-47.2737876,-16.6619406],[-47.2508621,-16.6648074],[-47.2461895,-16.700457],[-47.2289826,-16.7121525],[-47.2364892,-16.7553454],[-47.2197008,-16.7780734],[-47.2211844,-16.8077662],[-47.2064375,-16.8383888],[-47.2096329,-16.8635581],[-47.2031153,-16.8928856],[-47.1818762,-16.9013299],[-47.1666538,-16.9531947],[-47.1590458,-16.9630068],[-47.1283093,-16.9759352],[-47.1441213,-16.9909364],[-47.1316822,-17.0100712],[-47.1520527,-17.0335444],[-47.1780595,-17.0407701],[-47.1820537,-17.0532688],[-47.2055403,-17.0706816],[-47.2395492,-17.0836899],[-47.2481762,-17.0985566],[-47.2748591,-17.105835],[-47.2834238,-17.1305782],[-47.3265203,-17.1541597],[-47.3484877,-17.176223],[-47.3661276,-17.2217757],[-47.3853188,-17.2270492],[-47.3896233,-17.2451251],[-47.4078156,-17.2459561],[-47.4178482,-17.2704629],[-47.4344592,-17.2762185],[-47.4192041,-17.2954475],[-47.4228662,-17.3230893],[-47.4378685,-17.3178782],[-47.4732232,-17.3446997],[-47.4984106,-17.3360036],[-47.5171619,-17.3465645],[-47.5145067,-17.3749523],[-47.5340531,-17.4005259],[-47.5282939,-17.4388645],[-47.5413643,-17.4546104],[-47.514639,-17.4609981],[-47.502948,-17.4902433],[-47.5056512,-17.5079852],[-47.4772836,-17.5127848],[-47.4547257,-17.541786],[-47.4314768,-17.5237402],[-47.4004487,-17.5118175],[-47.3744483,-17.5235951],[-47.3254145,-17.5238006],[-47.3066249,-17.5584603],[-47.2893461,-17.5701056],[-47.2647784,-17.6115765],[-47.2688931,-17.6362841],[-47.2807997,-17.6476307],[-47.2713657,-17.6658635],[-47.3137022,-17.698963],[-47.3169505,-17.7252432],[-47.3421123,-17.746645],[-47.3329179,-17.7683927],[-47.3532807,-17.7880863],[-47.3507473,-17.8139461],[-47.365876,-17.834548],[-47.3541149,-17.869802],[-47.3554317,-17.8954453],[-47.3416653,-17.8997473],[-47.3412829,-17.9348564],[-47.3293806,-17.9540243],[-47.3129613,-17.9618874],[-47.3230084,-17.9831567],[-47.3118246,-18.0062874],[-47.282903,-18.022011]],[[-47.282903,-18.022011],[-47.266895,-18.001779],[-47.234887,-17.997677],[-47.212902,-17.983787],[-47.19605,-17.961948],[-47.175829,-17.932056],[-47.154243,-17.929929],[-47.163655,-17.9713],[-47.173913,-17.999675],[-47.155324,-18.016967],[-47.151397,-18.047764],[-47.123898,-18.058771],[-47.112319,-18.086896],[-47.09136,-18.102748],[-47.088474,-18.121738],[-47.103123,-18.152388],[-47.092491,-18.159257],[-47.082535,-18.187736],[-47.088147,-18.202394],[-47.034939,-18.21243],[-47.006042,-18.195622],[-46.990844,-18.224837],[-46.975333,-18.226116],[-46.944172,-18.198825],[-46.934348,-18.202215],[-46.935721,-18.2315],[-46.9153,-18.268991],[-46.899474,-18.285438],[-46.88776,-18.279454],[-46.86377,-18.28733],[-46.851499,-18.308075],[-46.832267,-18.307366],[-46.815757,-18.319838],[-46.785938,-18.30267],[-46.757343,-18.311629],[-46.758233,-18.328038],[-46.731381,-18.337867],[-46.718106,-18.358271],[-46.68018,-18.360655],[-46.677621,-18.373106],[-46.656996,-18.393944],[-46.636603,-18.396173],[-46.560498,-18.433561],[-46.555495,-18.445772],[-46.510293,-18.470302],[-46.469654,-18.475992],[-46.446806,-18.490135],[-46.444546,-18.503546],[-46.424344,-18.514141],[-46.381359,-18.515321],[-46.365034,-18.525739],[-46.355812,-18.545245],[-46.358107,-18.565876],[-46.340007,-18.596798],[-46.317815,-18.57705],[-46.307789,-18.555928],[-46.273923,-18.538527],[-46.255275,-18.545781],[-46.243554,-18.506083],[-46.232597,-18.524098],[-46.212128,-18.535412],[-46.186475,-18.534667],[-46.181347,-18.522815],[-46.138694,-18.511338],[-46.125545,-18.523194],[-46.107774,-18.515121],[-46.094416,-18.528344],[-46.063472,-18.527382],[-46.015867,-18.542797],[-46.014509,-18.557997],[-45.984073,-18.540837],[-45.972521,-18.530464],[-45.958914,-18.544375],[-45.936519,-18.569183],[-45.916287,-18.56319],[-45.902167,-18.575878],[-45.875029,-18.578547],[-45.86124,-18.593371],[-45.855016,-18.593618],[-45.838489,-18.595396],[-45.829078,-18.587222],[-45.82399,-18.576908],[-45.806419,-18.56695],[-45.808915,-18.541166],[-45.800547,-18.506812],[-45.800157,-18.485603],[-45.806254,-18.485037],[-45.787736,-18.474219],[-45.773247,-18.46702],[-45.764028,-18.48087],[-45.741726,-18.489074],[-45.731446,-18.504662],[-45.722592,-18.507086],[-45.704537,-18.488363],[-45.676515,-18.49245],[-45.657071,-18.486916]],[[-45.657071,-18.486916],[-45.641193,-18.476645]],[[-45.641193,-18.476645],[-45.63952,-18.475135],[-45.642864,-18.465247],[-45.643515,-18.461033],[-45.639009,-18.461447],[-45.642967,-18.453696],[-45.640415,-18.445863],[-45.636043,-18.444344],[-45.627912,-18.438886],[-45.629337,-18.435059],[-45.628033,-18.417487],[-45.573557,-18.372175],[-45.572312,-18.355315],[-45.555115,-18.34288],[-45.527558,-18.334908],[-45.513983,-18.318149],[-45.498367,-18.316901],[-45.489169,-18.318588],[-45.429272,-18.319999],[-45.405591,-18.310155],[-45.373414,-18.289161],[-45.361977,-18.269233],[-45.344088,-18.259006],[-45.317373,-18.219257],[-45.294044,-18.213218],[-45.267317,-18.220924],[-45.2522982,-18.188386],[-45.229371,-18.15979],[-45.231974,-18.134613]],[[-45.231974,-18.134613],[-45.24446,-18.137161],[-45.247413,-18.13526],[-45.249609,-18.131152],[-45.249116,-18.123763],[-45.23908,-18.109715],[-45.231777,-18.108204]],[[-45.231777,-18.108204],[-45.187565,-18.123378],[-45.183937,-18.108818],[-45.18169,-18.101713],[-45.197383,-18.073673],[-45.203927,-18.046293],[-45.180077,-18.030457],[-45.182053,-18.009381],[-45.195995,-18.000482]],[[-45.195995,-18.000482],[-45.202639,-17.989797]],[[-45.202639,-17.989797],[-45.208889,-17.992127],[-45.207779,-17.995082],[-45.214186,-17.989351],[-45.241518,-17.975949],[-45.254916,-17.988107],[-45.256883,-17.993665],[-45.269572,-17.988304],[-45.27123,-17.984746],[-45.280011,-17.975152],[-45.286855,-17.970268],[-45.289978,-17.963545],[-45.290683,-17.961306],[-45.297356,-17.959278],[-45.340215,-17.936586],[-45.345223,-17.910252],[-45.387917,-17.901643],[-45.41731,-17.90471],[-45.433272,-17.914994],[-45.447112,-17.904868],[-45.45647,-17.905139],[-45.467302,-17.900586],[-45.466071,-17.880816],[-45.451752,-17.865755],[-45.466558,-17.831949],[-45.447701,-17.811421],[-45.441008,-17.793421],[-45.420403,-17.787158],[-45.417768,-17.773915],[-45.445041,-17.736858],[-45.425288,-17.733904],[-45.412381,-17.710678],[-45.415028,-17.682588],[-45.402854,-17.665964],[-45.415317,-17.645489],[-45.433712,-17.636849],[-45.448706,-17.618102],[-45.448792,-17.603042],[-45.434575,-17.582912],[-45.408656,-17.587051],[-45.382347,-17.573159],[-45.384491,-17.5214],[-45.420568,-17.48441],[-45.442715,-17.488579],[-45.502851,-17.453465],[-45.517355,-17.422072],[-45.537729,-17.4201],[-45.560249,-17.400718],[-45.562161,-17.384852],[-45.541871,-17.375225],[-45.505318,-17.322645],[-45.510098,-17.257558],[-45.496032,-17.25116],[-45.492894,-17.221001],[-45.473517,-17.197931],[-45.483507,-17.175193],[-45.452811,-17.154397],[-45.447598,-17.130762],[-45.435815,-17.118067],[-45.447831,-17.104265],[-45.473146,-17.107029],[-45.491197,-17.093395],[-45.501999,-17.101652],[-45.542647,-17.059432],[-45.552999,-17.034747],[-45.511153,-17.03593],[-45.50632,-17.012925],[-45.504894,-16.960874],[-45.52065,-16.938949],[-45.541823,-16.935424],[-45.56375,-16.941441],[-45.579684,-16.915446],[-45.597193,-16.905322],[-45.592875,-16.890817],[-45.617625,-16.876024],[-45.654223,-16.880257],[-45.671923,-16.890049],[-45.697565,-16.883437],[-45.721793,-16.898011],[-45.750741,-16.874888],[-45.756157,-16.855652],[-45.77371,-16.856266],[-45.778024,-16.831365],[-45.831667,-16.830015],[-45.855871,-16.810709],[-45.85777,-16.765241],[-45.885436,-16.728394],[-45.888739,-16.702837],[-45.918553,-16.707754],[-45.939519,-16.721257],[-45.95827,-16.695036],[-45.991534,-16.694063],[-46.004623,-16.666855],[-46.013069,-16.633443],[-46.000287,-16.61969],[-45.984085,-16.620918],[-45.97355,-16.595812],[-45.941189,-16.54658],[-45.922054,-16.539069],[-45.916265,-16.506382],[-45.921458,-16.493017],[-45.901982,-16.471156],[-45.892893,-16.44653],[-45.911649,-16.412483],[-45.907229,-16.397508],[-45.920763,-16.371547],[-45.944457,-16.376894],[-45.952374,-16.397945],[-45.97395,-16.397805],[-46.005928,-16.379382],[-46.02443,-16.388083],[-46.065781,-16.392001],[-46.084801,-16.370067],[-46.117595,-16.378919],[-46.148939,-16.378395],[-46.167013,-16.364585],[-46.188971,-16.360552],[-46.198226,-16.341302],[-46.242607,-16.339929],[-46.272361,-16.328176],[-46.264717,-16.306872],[-46.26475,-16.29294],[-46.239956,-16.285404],[-46.219643,-16.25782],[-46.230852,-16.237745],[-46.214711,-16.230796],[-46.196427,-16.240096],[-46.166132,-16.241129],[-46.152554,-16.234572],[-46.126616,-16.245125],[-46.099837,-16.228594],[-46.099507,-16.218346],[-46.077368,-16.194273],[-46.078991,-16.169398],[-46.053708,-16.127364],[-46.041319,-16.082889],[-46.036926,-16.046692],[-45.999368,-16.035799],[-45.987423,-16.015778],[-45.946202,-16.040076],[-45.930207,-16.060701],[-45.937178,-16.08932],[-45.913827,-16.08121],[-45.911327,-16.099359],[-45.892521,-16.108952],[-45.86292,-16.089246],[-45.850084,-16.091857],[-45.805742,-16.062113],[-45.793001,-15.995398],[-45.778017,-15.952002],[-45.737391,-15.910329],[-45.722926,-15.866492],[-45.680828,-15.825817],[-45.659155,-15.791581],[-45.645262,-15.785033],[-45.620838,-15.752075],[-45.591683,-15.722302],[-45.583975,-15.708192],[-45.567343,-15.698546],[-45.567616,-15.686691],[-45.589255,-15.656775],[-45.589753,-15.623533],[-45.583559,-15.580326],[-45.604603,-15.537607],[-45.584302,-15.511975],[-45.599675,-15.441977],[-45.661025,-15.416636],[-45.706617,-15.427967],[-45.720751,-15.43822],[-45.744492,-15.428495],[-45.755493,-15.411099],[-45.793785,-15.430899],[-45.818256,-15.405058],[-45.776318,-15.367253],[-45.710378,-15.339315]],[[-45.710378,-15.339315],[-45.719566,-15.326156],[-45.718528,-15.322469],[-45.69449,-15.32012]],[[-45.69449,-15.32012],[-45.674885,-15.309324],[-45.633733,-15.258376],[-45.619944,-15.249615],[-45.603702,-15.21689],[-45.601423,-15.198687],[-45.637053,-15.228899],[-45.719896,-15.241459],[-45.754191,-15.208696],[-45.76809,-15.182529],[-45.7398388,-15.1203849]],[[-45.202639,-17.989797],[-45.198443,-17.987804]],[[-45.198443,-17.987804],[-45.179747,-17.958309],[-45.156113,-17.953765],[-45.116429,-17.930781],[-45.099301,-17.963147],[-45.07371,-17.968138],[-45.020309,-18.007594],[-45.025521,-18.018653],[-45.019515,-18.049157],[-44.963959,-18.085091],[-44.935782,-18.080459],[-44.867544,-18.104522],[-44.848639,-18.127339],[-44.840118,-18.13211],[-44.816665,-18.138487],[-44.802701,-18.130602],[-44.781819,-18.146687],[-44.749541,-18.151843],[-44.733602,-18.139484],[-44.731963,-18.122491],[-44.714792,-18.108138],[-44.707763,-18.086749],[-44.688239,-18.072229],[-44.672789,-18.088073],[-44.662081,-18.071591],[-44.613917,-18.043877],[-44.603748,-18.022141],[-44.610943,-18.008462],[-44.585959,-17.986374],[-44.571208,-17.99359],[-44.54341,-17.963504],[-44.527568,-17.998312],[-44.529465,-18.026986],[-44.538326,-18.048804],[-44.526039,-18.061322],[-44.491049,-18.065587],[-44.474096,-18.078199],[-44.444424,-18.070472],[-44.423383,-18.07042],[-44.423101,-18.039558],[-44.404504,-18.019497],[-44.404553,-17.999859],[-44.391993,-17.9776],[-44.387455,-17.937666],[-44.352748,-17.913398],[-44.300385,-17.907548],[-44.305473,-17.873951],[-44.304403,-17.825722],[-44.289517,-17.777859],[-44.276418,-17.76128],[-44.291694,-17.744013],[-44.286888,-17.714598],[-44.288152,-17.695028],[-44.285102,-17.680666],[-44.263166,-17.690806],[-44.191502,-17.653599],[-44.159471,-17.655519],[-44.144082,-17.631751],[-44.122631,-17.618369],[-44.117459,-17.604974],[-44.12497,-17.571933],[-44.111575,-17.569111],[-44.10057,-17.550171],[-44.095439,-17.521996],[-44.10752,-17.504561],[-44.094831,-17.487743],[-44.085718,-17.435729],[-44.080891,-17.433837],[-44.059776,-17.442405],[-44.045837,-17.458053],[-44.021961,-17.493082],[-44.005841,-17.501081],[-43.978137,-17.538926],[-43.961283,-17.544158],[-43.954686,-17.559332],[-43.927807,-17.562872],[-43.893979,-17.609025],[-43.899433,-17.662456],[-43.888796,-17.684761],[-43.896522,-17.71652],[-43.893604,-17.740155],[-43.865353,-17.761527],[-43.870549,-17.77846],[-43.843563,-17.805287],[-43.842893,-17.832596],[-43.816083,-17.853689],[-43.804481,-17.888534],[-43.775521,-17.900377],[-43.763653,-17.924566]],[[-43.763653,-17.924566],[-43.760056,-17.925237]],[[-43.760056,-17.925237],[-43.751057,-17.905264],[-43.738673,-17.881605],[-43.715453,-17.884013],[-43.70844,-17.878321],[-43.679268,-17.859657],[-43.685079,-17.847977],[-43.676868,-17.830661],[-43.644906,-17.798893],[-43.628741,-17.770464],[-43.609555,-17.753842],[-43.607132,-17.749913],[-43.605438,-17.712745],[-43.591691,-17.692796],[-43.588604,-17.673328],[-43.603795,-17.669757],[-43.611644,-17.630321],[-43.58144,-17.621639],[-43.567005,-17.609677],[-43.574899,-17.595861],[-43.566672,-17.571367],[-43.572794,-17.555868],[-43.548369,-17.539967],[-43.502891,-17.558414],[-43.511877,-17.528951],[-43.491924,-17.516336],[-43.484021,-17.54503],[-43.445541,-17.556222],[-43.445666,-17.539076],[-43.423829,-17.532528],[-43.380871,-17.549605],[-43.386144,-17.527423],[-43.351872,-17.510897],[-43.31507,-17.51962],[-43.3363,-17.483918],[-43.299098,-17.468142],[-43.286197,-17.449906],[-43.300275,-17.435351],[-43.294194,-17.411986],[-43.279853,-17.394615],[-43.254539,-17.406238],[-43.217463,-17.414278],[-43.19651,-17.38878],[-43.201172,-17.362548],[-43.228496,-17.344528],[-43.217235,-17.317423],[-43.187119,-17.307407],[-43.170341,-17.291598],[-43.154256,-17.311971],[-43.132627,-17.289545],[-43.110399,-17.28795],[-43.084779,-17.257301],[-43.052999,-17.206431],[-43.025491,-17.186018],[-43.004994,-17.193327],[-42.985354,-17.164205],[-42.990459,-17.147214],[-42.969808,-17.105622],[-42.946648,-17.090922],[-42.925906,-17.054772],[-42.898773,-17.039585],[-42.868044,-17.045087],[-42.83527,-17.042362],[-42.821632,-17.025007],[-42.794676,-17.009511],[-42.79074,-16.980483],[-42.777515,-16.981479],[-42.757831,-16.943596],[-42.760939,-16.926797],[-42.744213,-16.907841],[-42.757175,-16.885709],[-42.729694,-16.869308],[-42.738975,-16.856092],[-42.733062,-16.826776],[-42.682203,-16.809785],[-42.661269,-16.780414],[-42.661585,-16.757284],[-42.621859,-16.756818],[-42.610202,-16.730301],[-42.573333,-16.739406],[-42.558121,-16.734116],[-42.54221,-16.708256],[-42.502643,-16.689379],[-42.476825,-16.669811],[-42.463743,-16.673435],[-42.403819,-16.642722],[-42.399452,-16.633495],[-42.424617,-16.625391],[-42.425266,-16.589532],[-42.439979,-16.580876],[-42.439261,-16.561839],[-42.463707,-16.516562],[-42.461176,-16.50122],[-42.413777,-16.479782],[-42.406436,-16.471196],[-42.376922,-16.474557],[-42.324692,-16.492666],[-42.290623,-16.491631],[-42.266313,-16.468289],[-42.247966,-16.477307],[-42.225044,-16.474844],[-42.196839,-16.461502],[-42.181689,-16.478725],[-42.156369,-16.471519],[-42.138156,-16.453375],[-42.115461,-16.452904],[-42.097864,-16.422069],[-42.093742,-16.388275],[-42.077622,-16.381038],[-42.02683,-16.377263],[-42.011202,-16.385286],[-41.986611,-16.384226],[-41.987817,-16.39876],[-41.958926,-16.398458],[-41.897998,-16.367645],[-41.892752,-16.349401],[-41.911138,-16.308052],[-41.932505,-16.281413],[-41.912747,-16.257769],[-41.899534,-16.232317],[-41.899445,-16.215474],[-41.866629,-16.178633],[-41.833525,-16.172691],[-41.812588,-16.1515],[-41.801955,-16.1686],[-41.77582,-16.17067],[-41.766147,-16.185164],[-41.71697,-16.179501],[-41.699057,-16.167261],[-41.690239,-16.159954],[-41.694846,-16.139822],[-41.684493,-16.106424],[-41.717711,-16.10291],[-41.705896,-16.084224],[-41.710089,-16.056914],[-41.701202,-16.037364],[-41.661077,-16.018966],[-41.660461,-16.007415],[-41.632658,-15.983412],[-41.636968,-15.971447],[-41.611484,-15.955795],[-41.606872,-15.937033],[-41.587743,-15.902878],[-41.562,-15.899914],[-41.529592,-15.911674],[-41.508783,-15.867597],[-41.49163,-15.858294],[-41.462315,-15.881981],[-41.434491,-15.869743],[-41.408211,-15.839004],[-41.390685,-15.835335],[-41.387274,-15.814254],[-41.348744,-15.805278],[-41.334145,-15.765251],[-41.3301925,-15.7433223]],[[-41.3301925,-15.7433223],[-41.3564227,-15.5002861],[-41.4994053,-15.3726109],[-41.8007101,-15.1010971],[-41.8483105,-15.1168421],[-41.8704306,-15.1151801],[-41.8758579,-15.1308799],[-41.8970388,-15.1518993],[-41.9266274,-15.1607913],[-41.9325365,-15.1745017],[-41.9534344,-15.1756645],[-41.9946916,-15.1588745],[-42.0960683,-15.1824421],[-42.1163062,-15.1441201],[-42.1499067,-15.1203495],[-42.1553586,-15.0978508],[-42.1733198,-15.085954],[-42.1829591,-15.0996459],[-42.2231295,-15.0995589],[-42.2471836,-15.1092235],[-42.2589842,-15.1220829],[-42.2826217,-15.1178927],[-42.3236896,-15.0935593],[-42.337247,-15.0804663],[-42.354907,-15.0982031],[-42.3718571,-15.0736296],[-42.3964917,-15.0779916],[-42.4443207,-15.0556059],[-42.4435981,-15.0206461],[-42.4759116,-15.0170404],[-42.4957414,-14.9948584],[-42.5316353,-14.9774854],[-42.5348824,-14.966586],[-42.5606855,-14.9622972],[-42.5855825,-14.9316028],[-42.6042125,-14.9261189],[-42.6207127,-14.9436952],[-42.648629,-14.9299879],[-42.6798532,-14.9033276],[-42.6954109,-14.9004178],[-42.7041635,-14.8828283],[-42.7233598,-14.8856124],[-42.7472194,-14.8677547],[-42.7551378,-14.8464214],[-42.790992,-14.8393791],[-42.8202472,-14.8206286],[-42.8423875,-14.796068],[-42.8808002,-14.7692902],[-42.9038303,-14.7619561],[-42.9121978,-14.7444719],[-42.9526882,-14.7084023],[-42.9773253,-14.6983871],[-43.0109473,-14.7016622],[-43.0383074,-14.6828079],[-43.0556715,-14.6909401],[-43.0663892,-14.6805592],[-43.0839365,-14.6982726],[-43.1011077,-14.6754951],[-43.1274974,-14.66568],[-43.1514964,-14.6663341],[-43.1763498,-14.6505438],[-43.2076646,-14.6583546],[-43.2450549,-14.6565111],[-43.2805523,-14.6658639],[-43.2981427,-14.6760843],[-43.3112274,-14.6697481],[-43.3541617,-14.698089],[-43.3727734,-14.6991056],[-43.4253132,-14.7199792],[-43.4562273,-14.7401572],[-43.4562579,-14.7577474],[-43.4721724,-14.7623647],[-43.4783768,-14.792051],[-43.5111629,-14.7965745],[-43.529757,-14.8159448],[-43.5391991,-14.805736],[-43.5416401,-14.7791284],[-43.5737826,-14.7651633],[-43.5907803,-14.7508694],[-43.6112477,-14.7605487],[-43.6299991,-14.7503579],[-43.6590308,-14.7448733],[-43.6971108,-14.7237147],[-43.7198617,-14.7295389],[-43.7262579,-14.6981614],[-43.7555124,-14.7008351],[-43.7640378,-14.6921201],[-43.8005063,-14.6873135],[-43.8468677,-14.672105],[-43.859201,-14.6742988],[-43.8835076,-14.6532322],[-43.8746779,-14.6221557],[-43.8750063,-14.5931974],[-43.8872301,-14.5851792],[-43.8738773,-14.5205836],[-43.8319646,-14.4430072],[-43.8193879,-14.3893051],[-43.7831867,-14.3392337],[-43.8000853,-14.3378272],[-43.8361445,-14.3111487],[-43.8514245,-14.3190739],[-43.8924798,-14.3010168],[-43.9208304,-14.2978039],[-43.9905957,-14.2725945],[-43.9976496,-14.2654044],[-44.034621,-14.2890284],[-44.0744512,-14.2706396],[-44.0882868,-14.2780763],[-44.1145298,-14.2600439],[-44.1372648,-14.2641514],[-44.1603345,-14.2577596],[-44.1703803,-14.268695],[-44.2091227,-14.2466719],[-44.2544262,-14.2520572],[-44.2720059,-14.2466422],[-44.302338,-14.2532425],[-44.3164832,-14.2403492],[-44.3405958,-14.2494003],[-44.3615887,-14.2728126],[-44.4286006,-14.2866355],[-44.4399007,-14.303662],[-44.48314,-14.3221174],[-44.5108436,-14.3226879],[-44.5427329,-14.3405294],[-44.5655652,-14.34006],[-44.5983693,-14.3685005],[-44.6255951,-14.3761099],[-44.6328212,-14.3875826],[-44.6588784,-14.3957573],[-44.6742097,-14.4244958],[-44.6883532,-14.4166809],[-44.7256578,-14.4576492],[-44.7567426,-14.4783805],[-44.7693734,-14.4773383],[-44.8107661,-14.5031012],[-44.8345748,-14.5074923],[-44.8300094,-14.5334442],[-44.8481798,-14.5469245],[-44.8691947,-14.5933847],[-44.8910165,-14.5976553],[-44.9166802,-14.6196603],[-44.9729068,-14.6387713],[-44.9957479,-14.6678154],[-45.0319311,-14.6761701],[-45.0476938,-14.690537],[-45.0650718,-14.7308658],[-45.0827727,-14.7487667],[-45.1362896,-14.7474168],[-45.1720166,-14.7346788],[-45.1912989,-14.7497118],[-45.2055737,-14.7447389],[-45.2397938,-14.7818437],[-45.3164204,-14.8512552],[-45.3477947,-14.8625688],[-45.3555693,-14.8775076],[-45.4102964,-14.9234388],[-45.4344688,-14.9217511],[-45.4588234,-14.9542124],[-45.4900515,-14.9607627],[-45.5149058,-14.9540651],[-45.534729,-14.9382576],[-45.5675669,-14.9458332],[-45.5670507,-14.9564953],[-45.6027119,-14.9895328],[-45.6246188,-15.0213685],[-45.6570586,-15.0273493],[-45.6558189,-15.04853],[-45.6748119,-15.0805426],[-45.7185648,-15.0956213],[-45.72163,-15.1122288],[-45.7398388,-15.1203849]],[[-45.69449,-15.32012],[-45.719002,-15.322861],[-45.718898,-15.327813],[-45.710378,-15.339315]],[[-40.4336234,-16.8874091],[-40.4176069,-16.8992673],[-40.3999648,-16.8885533],[-40.3759008,-16.8858723],[-40.366485,-16.8741723],[-40.331523,-16.9080273],[-40.3027738,-16.8922436],[-40.2816371,-16.9011836],[-40.2719675,-16.8701937],[-40.2521215,-16.8600506],[-40.2508293,-16.8311546],[-40.2578025,-16.806541],[-40.2700764,-16.7953294],[-40.3236055,-16.8012692],[-40.3358372,-16.7797142],[-40.3101667,-16.7362155],[-40.3030011,-16.7036876],[-40.3129879,-16.6754341],[-40.298248,-16.652466],[-40.2876388,-16.5975704],[-40.2754901,-16.5734177],[-40.2298106,-16.5614449],[-40.1578974,-16.5794549],[-40.1544457,-16.5654902],[-40.1701688,-16.5312792],[-40.1406657,-16.4967728],[-40.1033027,-16.4370103],[-40.0794094,-16.4642299],[-40.0657978,-16.4575202],[-40.0627169,-16.4319863],[-40.0455701,-16.4220389],[-40.0258067,-16.3664681],[-40.0112419,-16.3401249],[-39.9955235,-16.3306658],[-39.991102,-16.3127343],[-39.9604959,-16.3218827],[-39.9522397,-16.2978551],[-39.9326577,-16.2836035],[-39.9201017,-16.2637394],[-39.9365211,-16.2457808],[-39.898403,-16.2013672],[-39.8833906,-16.194693],[-39.8805142,-16.1437454],[-39.8568289,-16.1138248],[-39.8746732,-16.0940679],[-39.8820034,-16.068033],[-39.9221984,-16.0286254],[-39.9356862,-16.0237479],[-39.9147979,-15.9999934],[-39.9557464,-15.9914283],[-39.9699071,-16.0041514],[-40.0044365,-16.0018382],[-40.0136907,-15.9840065],[-40.0457735,-15.9623563],[-40.0611601,-15.9640017],[-40.0748468,-15.9200533],[-40.096628,-15.9074013],[-40.1102162,-15.91258],[-40.1493,-15.9053675],[-40.1647447,-15.9102313],[-40.1739661,-15.8704902],[-40.2074987,-15.8473114],[-40.2375823,-15.8050556],[-40.274711,-15.8180443],[-40.3210087,-15.82074],[-40.3567198,-15.8130148],[-40.3779678,-15.8184217],[-40.4281657,-15.8017066],[-40.4324702,-15.7786532],[-40.4614286,-15.7532317],[-40.4841247,-15.7757966],[-40.5063082,-15.7669015],[-40.5398103,-15.7947951],[-40.5634726,-15.8029042],[-40.6039498,-15.7592933],[-40.6010286,-15.7434102],[-40.6260312,-15.7182097],[-40.6449466,-15.7288594],[-40.6611991,-15.7071257],[-40.6823087,-15.6990212],[-40.7005752,-15.667309],[-40.7321546,-15.674899],[-40.7438803,-15.6859094],[-40.7398608,-15.7036467],[-40.7676637,-15.7140794],[-40.7859479,-15.6922641],[-40.7803371,-15.680198],[-40.8190283,-15.646342],[-40.8313144,-15.6706535],[-40.8554496,-15.6871571],[-40.8815569,-15.6944708],[-40.9025697,-15.6918421],[-40.9143317,-15.6609776],[-40.9492015,-15.6562439],[-40.9616145,-15.6479315],[-40.9780972,-15.6881049],[-41.0060594,-15.7138373],[-41.0362729,-15.7138165],[-41.0484153,-15.72387],[-41.0775579,-15.7192879],[-41.0981309,-15.7410515],[-41.1215557,-15.7430118],[-41.1425302,-15.772047],[-41.1562845,-15.7613763],[-41.197049,-15.7503601],[-41.2153964,-15.7371659],[-41.2373904,-15.7375113],[-41.2717587,-15.74813],[-41.2929477,-15.7390055],[-41.3301925,-15.7433223]],[[-43.760056,-17.925237],[-43.769147,-17.929661]],[[-43.769147,-17.929661],[-43.783856,-17.952371],[-43.819907,-18.025881],[-43.843688,-18.027046],[-43.855728,-18.041182],[-43.883768,-18.039264],[-43.89903,-18.04913],[-43.937696,-18.060311],[-43.937211,-18.075156],[-43.915245,-18.101448],[-43.917729,-18.118895],[-43.955783,-18.140991],[-43.954157,-18.157588],[-43.99279,-18.200443],[-44.011102,-18.208691],[-44.021492,-18.208029],[-44.066623,-18.196612],[-44.088354,-18.220438],[-44.061121,-18.259081],[-44.054127,-18.270808],[-44.047895,-18.281449],[-44.015336,-18.286482],[-44.002508,-18.304797],[-43.987863,-18.324609]],[[-43.987863,-18.324609],[-43.976854,-18.333633],[-43.977179,-18.343234],[-43.988381,-18.345444],[-43.998186,-18.343802],[-44.009419,-18.337247],[-44.01732,-18.341222]],[[-44.01732,-18.341222],[-44.005104,-18.350932],[-43.959429,-18.359556],[-43.930327,-18.377478],[-43.902225,-18.374046],[-43.878459,-18.362846],[-43.861288,-18.389907],[-43.827361,-18.399428],[-43.818243,-18.395499],[-43.82818,-18.417367],[-43.858123,-18.443475],[-43.878952,-18.448997],[-43.894923,-18.463111],[-43.868619,-18.481949],[-43.87821,-18.501713],[-43.925921,-18.501589],[-43.926634,-18.516756],[-43.987029,-18.546624],[-43.99548,-18.53809],[-44.04482,-18.554078],[-44.068533,-18.567525],[-44.061981,-18.572536],[-44.068773,-18.577839],[-44.060361,-18.586808],[-44.053953,-18.594918],[-44.057551,-18.635511],[-44.039242,-18.639715],[-44.021431,-18.667483],[-44.017818,-18.676371],[-44.007504,-18.676429]],[[-44.007504,-18.676429],[-44.003762,-18.660293]],[[-44.003762,-18.660293],[-44.003296,-18.648056],[-43.946609,-18.631452],[-43.938742,-18.630826],[-43.930312,-18.632269],[-43.916993,-18.63687],[-43.91345,-18.641506],[-43.901731,-18.650115],[-43.893465,-18.664122],[-43.880425,-18.670516],[-43.859138,-18.662932],[-43.851821,-18.663409],[-43.834786,-18.661177],[-43.832191,-18.658359],[-43.825082,-18.645007],[-43.801664,-18.619389],[-43.788487,-18.614018],[-43.772045,-18.635278],[-43.751955,-18.622026],[-43.736481,-18.622439],[-43.719677,-18.647007],[-43.678319,-18.645377],[-43.655579,-18.665864],[-43.638798,-18.657841],[-43.610882,-18.671893],[-43.600283,-18.684447],[-43.578929,-18.686242],[-43.56397,-18.704407],[-43.534991,-18.712781],[-43.510632,-18.696696],[-43.502377,-18.673708],[-43.51119,-18.662208],[-43.506677,-18.635607],[-43.521672,-18.599913],[-43.533662,-18.596668],[-43.570982,-18.566111],[-43.609089,-18.518107],[-43.583036,-18.471785],[-43.570394,-18.439344],[-43.549117,-18.446545],[-43.530368,-18.433929],[-43.512982,-18.397945],[-43.49773,-18.389995],[-43.503558,-18.37342],[-43.47941,-18.365629],[-43.455619,-18.327523],[-43.458487,-18.306101],[-43.445752,-18.298091],[-43.393639,-18.296907],[-43.351975,-18.314435],[-43.342161,-18.325951],[-43.318025,-18.31373],[-43.305728,-18.280754],[-43.23864,-18.274932],[-43.221141,-18.245259],[-43.236085,-18.215597],[-43.216611,-18.206928],[-43.20153,-18.21763],[-43.185692,-18.202847],[-43.184144,-18.177545],[-43.138441,-18.122987],[-43.133225,-18.095524],[-43.088409,-18.099161],[-43.075685,-18.068036],[-43.033641,-18.08745],[-43.012299,-18.124255],[-42.991856,-18.146746],[-42.967448,-18.150433],[-42.961701,-18.123516],[-42.943392,-18.112085],[-42.909175,-18.110212],[-42.878599,-18.116624]],[[-42.878599,-18.116624],[-42.857439,-18.119274]],[[-42.857439,-18.119274],[-42.840025,-18.093775],[-42.819458,-18.09329],[-42.811812,-18.09428],[-42.793494,-18.104505],[-42.77719,-18.098688],[-42.778727,-18.090564],[-42.756229,-18.087617],[-42.745459,-18.089304]],[[-42.745459,-18.089304],[-42.743714,-18.084892],[-42.739288,-18.084651],[-42.736053,-18.080773],[-42.732637,-18.080599],[-42.727599,-18.084638],[-42.724901,-18.091224],[-42.716251,-18.094145]],[[-42.716251,-18.094145],[-42.693463,-18.081738],[-42.693929,-18.068005],[-42.665598,-18.04864],[-42.64412,-18.046207],[-42.60607,-17.99948],[-42.578999,-17.986019],[-42.562574,-17.961457],[-42.561948,-17.947886],[-42.53613,-17.94684],[-42.523764,-17.962826],[-42.519691,-17.959266],[-42.515448,-17.934131],[-42.487248,-17.928116],[-42.487417,-17.913758],[-42.490045,-17.886373],[-42.465506,-17.836548],[-42.468339,-17.812423],[-42.435303,-17.814492],[-42.410106,-17.79448],[-42.389517,-17.812731],[-42.375793,-17.795454],[-42.385052,-17.781232],[-42.374104,-17.766405],[-42.346145,-17.783207],[-42.299674,-17.782546],[-42.286262,-17.783276],[-42.27836,-17.789321]],[[-42.27836,-17.789321],[-42.253253,-17.778227]],[[-42.253253,-17.778227],[-42.226472,-17.77391],[-42.214295,-17.771],[-42.220369,-17.757247],[-42.212322,-17.73667],[-42.222944,-17.706323],[-42.235672,-17.700852],[-42.24119,-17.672534],[-42.25814,-17.649269],[-42.250436,-17.616003],[-42.27908,-17.595069],[-42.280523,-17.583944],[-42.255692,-17.561223],[-42.26049,-17.532244],[-42.229463,-17.489195],[-42.225671,-17.469154],[-42.202383,-17.451843],[-42.192143,-17.44168],[-42.173048,-17.458173],[-42.1634,-17.486345],[-42.16251,-17.49751],[-42.138055,-17.520694],[-42.132569,-17.529087],[-42.127698,-17.548734],[-42.134295,-17.562891],[-42.133212,-17.571273],[-42.126469,-17.577473],[-42.109541,-17.594562],[-42.088769,-17.600498],[-42.063599,-17.603694],[-42.046567,-17.600971],[-42.01446,-17.617139],[-41.996169,-17.646404],[-41.984368,-17.655009],[-41.996547,-17.638384],[-41.974565,-17.611275],[-41.930169,-17.577835],[-41.908769,-17.530386],[-41.889376,-17.530542],[-41.868475,-17.511105],[-41.849111,-17.515413],[-41.808452,-17.498608],[-41.800409,-17.482158],[-41.77815,-17.469656],[-41.752225,-17.436499],[-41.767786,-17.422667],[-41.757562,-17.387689],[-41.738378,-17.373097],[-41.724348,-17.337568],[-41.728962,-17.327422],[-41.709839,-17.30321],[-41.709095,-17.289741],[-41.69041,-17.27858],[-41.68883,-17.251686],[-41.671812,-17.235343],[-41.642312,-17.232697],[-41.611847,-17.251442],[-41.59879,-17.267835],[-41.57506,-17.266757],[-41.545535,-17.275006],[-41.5198219,-17.2987782],[-41.452572,-17.324868],[-41.427899,-17.323577],[-41.402662,-17.308685],[-41.397331,-17.295809],[-41.364868,-17.294521],[-41.356011,-17.308608],[-41.351401,-17.346703],[-41.347626,-17.335718],[-41.322743,-17.31147],[-41.315687,-17.273582],[-41.32014,-17.24322],[-41.333835,-17.232896],[-41.342247,-17.181774],[-41.330762,-17.142586],[-41.33546,-17.124166],[-41.325294,-17.103502],[-41.324122,-17.058742],[-41.308634,-17.059078],[-41.300934,-17.04057],[-41.263317,-17.038948],[-41.258252,-17.047346],[-41.212476,-17.046191],[-41.206575,-17.033644],[-41.154107,-17.016966],[-41.119732,-16.961047],[-41.095224,-16.944565],[-41.068052,-16.959906],[-41.047729,-16.947968],[-41.046737,-16.933801],[-41.017269,-16.917981],[-41.000743,-16.930305],[-40.965768,-16.899231],[-40.963717,-16.866687],[-40.929495,-16.828033],[-40.911838,-16.815785],[-40.892805,-16.804859],[-40.88302,-16.827609],[-40.863024,-16.837969],[-40.846735,-16.866522],[-40.826673,-16.863805],[-40.806975,-16.85013],[-40.797302,-16.831046],[-40.755283,-16.819499],[-40.74195,-16.828059],[-40.709726,-16.83319],[-40.695511,-16.843112],[-40.670333,-16.832588],[-40.650096,-16.800935],[-40.622796,-16.786057],[-40.589311,-16.781811],[-40.586152,-16.797302],[-40.534053,-16.801921],[-40.511049,-16.823747],[-40.477253,-16.843372],[-40.466352,-16.837122],[-40.446572,-16.857809],[-40.440864,-16.878509],[-40.4336234,-16.8874091]],[[-42.253253,-17.778227],[-42.266693,-17.788346]],[[-42.266693,-17.788346],[-42.276217,-17.811445],[-42.27529,-17.839085],[-42.276869,-17.855665],[-42.269438,-17.876793],[-42.251462,-17.900707],[-42.238928,-17.907774],[-42.233405,-17.911482],[-42.218303,-17.919054],[-42.217651,-17.929938],[-42.212939,-17.930429],[-42.207171,-17.939049],[-42.203455,-17.947568],[-42.19488,-17.955373],[-42.191225,-17.977512],[-42.177615,-18.001185],[-42.149613,-18.014643],[-42.114429,-18.051864],[-42.103511,-18.075306],[-42.074705,-18.084051],[-42.061055,-18.105468],[-42.060482,-18.107786],[-42.060291,-18.127054],[-42.049626,-18.145818],[-42.039133,-18.142844],[-42.018223,-18.130349],[-41.997255,-18.111198],[-41.975698,-18.117641],[-41.957546,-18.109348],[-41.933959,-18.119218],[-41.886737,-18.085806],[-41.885322,-18.068178],[-41.86479,-18.046125],[-41.834762,-18.041459],[-41.834467,-18.022943],[-41.817773,-18.009887],[-41.824385,-17.978941],[-41.807558,-17.974536],[-41.799257,-17.93959],[-41.778218,-17.934316],[-41.762723,-17.915769],[-41.718836,-17.917257],[-41.704128,-17.89908],[-41.695609,-17.902935],[-41.658978,-17.923857],[-41.651491,-17.946231],[-41.626117,-17.962127],[-41.593047,-17.970886],[-41.592817,-18.007986],[-41.567706,-18.021569],[-41.592304,-18.05502],[-41.618261,-18.071183],[-41.612106,-18.086048],[-41.625501,-18.107646],[-41.657377,-18.126875],[-41.660243,-18.135345],[-41.652849,-18.142655],[-41.653842,-18.179397],[-41.638312,-18.197618],[-41.640879,-18.204913],[-41.622857,-18.224097],[-41.597775,-18.232789],[-41.575064,-18.257144],[-41.561778,-18.258938],[-41.543995,-18.266526],[-41.518163,-18.24976],[-41.510842,-18.260286],[-41.477285,-18.254362],[-41.454341,-18.26297],[-41.433614,-18.240184],[-41.423915,-18.24904],[-41.428477,-18.278814],[-41.416915,-18.281195],[-41.385405,-18.266409],[-41.367937,-18.273515],[-41.344976,-18.26628],[-41.327971,-18.275446],[-41.313006,-18.297903],[-41.288322,-18.311767],[-41.292645,-18.3295],[-41.316732,-18.326965],[-41.307091,-18.376119],[-41.32717,-18.397091],[-41.334991,-18.429947],[-41.321446,-18.445459],[-41.319739,-18.474075],[-41.290695,-18.467028],[-41.291852,-18.486266],[-41.280396,-18.494259],[-41.268647,-18.502415],[-41.24259,-18.487483],[-41.226831,-18.474881],[-41.215328,-18.468077],[-41.209477,-18.455632],[-41.196336,-18.446053],[-41.181838,-18.4395792]],[[-41.181838,-18.4395792],[-41.1481022,-18.3791507],[-41.1474978,-18.3533812],[-41.1589207,-18.3082435],[-41.0971916,-18.2565812],[-41.1044479,-18.2132768],[-41.0927345,-18.1954013],[-41.0665525,-18.1809131],[-41.0560846,-18.1666211],[-41.0145895,-18.1575794],[-40.9932169,-18.1662347],[-40.9741926,-18.142105],[-40.9545374,-18.1544944],[-40.9500038,-18.1292866],[-40.9322096,-18.1364835],[-40.9092833,-18.1148302],[-40.8775551,-18.1194293],[-40.8450758,-18.149813],[-40.7714961,-18.15594],[-40.7733033,-18.1075627],[-40.8869894,-18.000641],[-40.8778643,-17.9817258],[-40.8631315,-17.9883169],[-40.8305529,-17.95418],[-40.8081616,-17.9520472],[-40.7709306,-17.986422],[-40.7717685,-18.0033881],[-40.7507676,-18.0099088],[-40.725769,-18.0012172],[-40.7036834,-18.023727],[-40.6905241,-18.0127127],[-40.6594357,-18.0109292],[-40.6460308,-17.9935612],[-40.6261519,-17.9910539],[-40.621884,-17.960566],[-40.6095329,-17.9376588],[-40.5871613,-17.9390208],[-40.5847119,-17.9181666],[-40.5679302,-17.9160293],[-40.5168219,-17.8944233],[-40.5033329,-17.9106792],[-40.4841295,-17.9086447],[-40.462738,-17.9282124],[-40.4450547,-17.9188255],[-40.4174187,-17.9270343],[-40.3864517,-17.9284381],[-40.3678286,-17.9226325],[-40.3339556,-17.9273598],[-40.3234355,-17.9389442],[-40.2553548,-17.9717994],[-40.2223506,-17.9804174],[-40.2268229,-17.9582598],[-40.2654631,-17.9323213],[-40.2635475,-17.9220233],[-40.2126577,-17.8957941],[-40.1741273,-17.8515612],[-40.1959334,-17.8282048],[-40.2060237,-17.8025744],[-40.2180757,-17.795659],[-40.2136573,-17.7536875],[-40.2207966,-17.7372474],[-40.2402077,-17.7349232],[-40.2559053,-17.7195462],[-40.2703222,-17.7270585],[-40.2955147,-17.6994936],[-40.2990206,-17.6745676],[-40.3228247,-17.6613147],[-40.3218249,-17.6437083],[-40.334049,-17.6321484],[-40.3614456,-17.6366708],[-40.3799343,-17.6113093],[-40.3968117,-17.6256053],[-40.4182146,-17.5990974],[-40.4106843,-17.5682273],[-40.4604149,-17.5685022],[-40.4751989,-17.5337778],[-40.4890624,-17.5197897],[-40.4824147,-17.4925902],[-40.4954392,-17.4867316],[-40.5209414,-17.4583486],[-40.520579,-17.4448113],[-40.5541591,-17.4355679],[-40.5700817,-17.4158915],[-40.5975065,-17.4206333],[-40.6226072,-17.4032931],[-40.6024773,-17.3935968],[-40.5977084,-17.3768889],[-40.6046846,-17.3561943],[-40.5948417,-17.3235648],[-40.572244,-17.2947661],[-40.5528438,-17.2875212],[-40.5722499,-17.2513728],[-40.5583942,-17.2306761],[-40.5623065,-17.2123758],[-40.5523839,-17.1991531],[-40.5725269,-17.1823691],[-40.5791587,-17.1482483],[-40.5629147,-17.1263273],[-40.5567855,-17.089602],[-40.5716663,-17.0658815],[-40.559856,-17.0416056],[-40.5454433,-16.9841997],[-40.5169976,-16.9610515],[-40.4971418,-16.9173327],[-40.4923269,-16.8873987],[-40.4801726,-16.8768086],[-40.4336234,-16.8874091]],[[-47.282903,-18.022011],[-47.2841576,-18.0587195],[-47.3027867,-18.069855],[-47.3214485,-18.0688667],[-47.3576318,-18.0852333],[-47.3700398,-18.1160146],[-47.3918894,-18.1168725],[-47.4146913,-18.1434197],[-47.4293072,-18.1404253],[-47.4629873,-18.1766911],[-47.4806058,-18.1783207],[-47.4969651,-18.1990171],[-47.539358,-18.2150381],[-47.5401466,-18.1935162],[-47.5706447,-18.2208957],[-47.5882303,-18.2264318],[-47.6070005,-18.2462041],[-47.6073287,-18.263959],[-47.63877,-18.2876781],[-47.6106129,-18.313336],[-47.625637,-18.3305734],[-47.6461849,-18.3402287],[-47.6624567,-18.3350847],[-47.6963215,-18.3772739],[-47.7168546,-18.3620882],[-47.7369631,-18.3626023],[-47.7571061,-18.4098729],[-47.7790168,-18.4241351],[-47.7984968,-18.4163092],[-47.810572,-18.4001154],[-47.829735,-18.4113034],[-47.8387927,-18.4517602],[-47.8579639,-18.4390126],[-47.8879121,-18.4772192],[-47.914274,-18.4665778],[-47.9295493,-18.4878432],[-47.952655,-18.4938398],[-47.979906,-18.4626914],[-48.0380723,-18.4347123],[-48.0474563,-18.4176461],[-48.0681178,-18.4267065],[-48.1107876,-18.428594],[-48.1465333,-18.4095445],[-48.1593809,-18.3755081],[-48.1972066,-18.3631719],[-48.2214763,-18.3619685],[-48.2279685,-18.344975],[-48.2567775,-18.342977],[-48.2750115,-18.3291113],[-48.287235,-18.3472136],[-48.318073,-18.3670951],[-48.310541,-18.3867095],[-48.3526388,-18.3676968],[-48.4000129,-18.3728089],[-48.4111716,-18.3576201],[-48.4420499,-18.3566186],[-48.484114,-18.3785746],[-48.4927768,-18.352975],[-48.5156492,-18.3664159],[-48.5262169,-18.3539807],[-48.5545426,-18.3469494],[-48.5614147,-18.3238865],[-48.6023528,-18.3348221],[-48.6338249,-18.3276484],[-48.6471697,-18.3438906],[-48.6776219,-18.343775],[-48.697747,-18.3501663],[-48.7422953,-18.3524984],[-48.7577234,-18.3447611],[-48.7714138,-18.3582423],[-48.7871685,-18.3532014],[-48.8280249,-18.3752488],[-48.8320838,-18.3461352],[-48.8727515,-18.3328468],[-48.8882794,-18.3170959],[-48.9177447,-18.3058794],[-48.9367738,-18.3062076],[-48.9711389,-18.3304868],[-48.9815012,-18.3563742],[-49.0059642,-18.374359],[-49.0296362,-18.36882],[-49.0487005,-18.3974989],[-49.0790512,-18.4166711],[-49.1142941,-18.3966736],[-49.1263129,-18.3843143],[-49.1548475,-18.4048896],[-49.1614616,-18.4182148],[-49.1867277,-18.4193944],[-49.2025283,-18.4292342],[-49.1925855,-18.4497216],[-49.2293182,-18.4803786],[-49.2540865,-18.5259333],[-49.2856353,-18.536312],[-49.2934845,-18.564679],[-49.3274973,-18.5622003],[-49.3438841,-18.5978656],[-49.3850575,-18.6460619],[-49.4057131,-18.645098],[-49.455975,-18.5778985],[-49.4817256,-18.5605478],[-49.4857626,-18.5094353],[-49.499833,-18.4910228],[-49.5353064,-18.4918071],[-49.5464672,-18.5011279],[-49.5444763,-18.535998],[-49.5589651,-18.5467658],[-49.5752534,-18.5423262],[-49.6420083,-18.5552431],[-49.6526051,-18.5735899],[-49.6355382,-18.5900196],[-49.6478626,-18.6018142],[-49.6669645,-18.5906591],[-49.6937324,-18.590641],[-49.7328262,-18.616023],[-49.7721992,-18.6132646],[-49.7848196,-18.6422477],[-49.8197929,-18.6325772],[-49.8361535,-18.6366896],[-49.870211,-18.6143407],[-49.8893049,-18.6099351],[-49.9043716,-18.6213046],[-49.9316515,-18.6239931],[-49.9738163,-18.6143197],[-49.9814547,-18.6046454],[-50.0200643,-18.5993635],[-50.0426032,-18.6198727],[-50.0502051,-18.6435418],[-50.0800431,-18.6722438],[-50.164288,-18.6643525],[-50.1988769,-18.6790799],[-50.2502634,-18.6778911],[-50.31449,-18.7007498],[-50.3565744,-18.7685434],[-50.3656856,-18.7944115],[-50.3862367,-18.819731],[-50.4234927,-18.8326532],[-50.4434358,-18.8941156],[-50.468216,-18.9191611],[-50.5056842,-18.9322003],[-50.5118782,-18.9519649],[-50.5006273,-18.9762627],[-50.5040182,-19.0044822],[-50.4950762,-19.0128685],[-50.5049146,-19.0507551],[-50.5351625,-19.0988871],[-50.5730293,-19.1223828],[-50.5877655,-19.1399476],[-50.6036422,-19.135659],[-50.6567471,-19.1336973],[-50.6776879,-19.1398107],[-50.671757,-19.1627133],[-50.6838926,-19.1760808],[-50.7341529,-19.187695],[-50.7465327,-19.239907],[-50.770439,-19.2609848],[-50.7859507,-19.2626272],[-50.8188904,-19.2917345],[-50.8359989,-19.3272746],[-50.8415857,-19.3508004],[-50.8753571,-19.4228408],[-50.868584,-19.4339229],[-50.8290442,-19.467035],[-50.8304513,-19.4922756],[-50.8493869,-19.4981367],[-50.889467,-19.4808963],[-50.9349978,-19.4674775],[-50.963272,-19.4836378],[-50.9629462,-19.5005788],[-50.9334417,-19.5384812],[-50.9241683,-19.5586174],[-50.9243946,-19.5808846],[-50.9465426,-19.5916898],[-50.9618022,-19.5817398],[-50.9875546,-19.5895076],[-50.9904676,-19.6054019],[-51.0365743,-19.6870124],[-51.0454329,-19.7375557],[-51.0303071,-19.7514419],[-51.0399394,-19.7771183],[-51.0236289,-19.8039456],[-51.0181987,-19.8372811],[-51.0193069,-19.8704502],[-50.9994713,-19.9063755],[-51.0024986,-19.9247949],[-51.0209112,-19.9590874],[-51.0048071,-19.9992171],[-51.0060365,-20.0252998],[-51.0179661,-20.0462561],[-51.0097567,-20.0720261],[-50.9965342,-20.0773146],[-50.9691294,-20.0364452],[-50.9470541,-20.0312523],[-50.9336598,-20.0149292],[-50.8971994,-19.9901552],[-50.8761761,-19.990825],[-50.851583,-19.9697666],[-50.8173362,-19.9583332],[-50.7836015,-19.9372295],[-50.7354129,-19.930189],[-50.661324,-19.909002],[-50.6319448,-19.8709166],[-50.6055452,-19.8560883],[-50.5779488,-19.8163744],[-50.5448736,-19.8101448],[-50.5172129,-19.7964081],[-50.4989703,-19.7957843],[-50.4719182,-19.7796558],[-50.4171328,-19.8011365],[-50.3527589,-19.8646024],[-50.3064103,-19.874086],[-50.285631,-19.8678179],[-50.2451559,-19.8767577],[-50.2156518,-19.8666484],[-50.1959839,-19.8672423],[-50.1624139,-19.8783143],[-50.130412,-19.8736718],[-50.0972433,-19.875479],[-50.0472392,-19.9153896],[-50.0152884,-19.9263578],[-49.9698825,-19.9200484],[-49.9460521,-19.923911],[-49.8883369,-19.9453049],[-49.8555733,-19.946825],[-49.8352745,-19.933315],[-49.7824562,-19.9244631],[-49.7339569,-19.9261713],[-49.7121496,-19.9312615],[-49.6344053,-19.9319321],[-49.6110265,-19.9187849],[-49.5514852,-19.905841],[-49.5140049,-19.9143115],[-49.4999252,-19.9259621],[-49.4927862,-19.9504212],[-49.458242,-19.975931],[-49.4345392,-19.9823852],[-49.3564865,-19.9867173],[-49.3366021,-19.9820846],[-49.2975378,-19.9605454],[-49.2651731,-19.962038],[-49.2464315,-19.9751613],[-49.2476194,-19.9977457],[-49.2582284,-20.0061014],[-49.2839236,-20.0047717],[-49.296311,-20.0155738],[-49.3072553,-20.0603193],[-49.308538,-20.1038929],[-49.2992464,-20.1670761],[-49.2642762,-20.231263],[-49.259156,-20.2602042],[-49.225294,-20.3053431],[-49.2029996,-20.3046712],[-49.1835625,-20.3146598],[-49.1224111,-20.273545],[-49.0893002,-20.2121746],[-49.0718032,-20.1614972],[-49.0592211,-20.1511071],[-49.0329473,-20.1500559],[-48.9860452,-20.1707653],[-48.9720232,-20.2077903],[-48.9617858,-20.2633012],[-48.965783,-20.2792918],[-48.9656668,-20.3628993],[-48.9703528,-20.3897905],[-48.9630303,-20.4031215],[-48.8982024,-20.4418731],[-48.8786069,-20.4296692],[-48.8672304,-20.4024613],[-48.8784296,-20.3561378],[-48.8756657,-20.3149986],[-48.8887604,-20.2948472],[-48.8865458,-20.2711626],[-48.8533641,-20.2130495],[-48.8553925,-20.180144],[-48.8221267,-20.1615471],[-48.7811373,-20.1638525],[-48.7313411,-20.1493818],[-48.7071077,-20.1602172],[-48.6421287,-20.1664961],[-48.6006412,-20.1397105],[-48.5546289,-20.130299],[-48.5092316,-20.1387963],[-48.4762218,-20.1347649],[-48.4390266,-20.1202206],[-48.4057768,-20.113511],[-48.3749359,-20.1231032],[-48.3171344,-20.113347],[-48.2749559,-20.1421127],[-48.2546878,-20.1438158],[-48.2177475,-20.1252888],[-48.2281268,-20.1042144],[-48.2534251,-20.0779207],[-48.2441319,-20.0474038],[-48.246997,-20.0338798],[-48.223658,-20.0293112],[-48.2077715,-20.03937],[-48.1824659,-20.074627],[-48.1820543,-20.0895131],[-48.15566,-20.1053012],[-48.1477216,-20.1241396],[-48.1054874,-20.146356],[-48.0767758,-20.1484296],[-48.0493869,-20.1372355],[-48.038843,-20.119949],[-48.024392,-20.124729],[-48.0024175,-20.1039695],[-47.9897482,-20.072963],[-47.991528,-20.0491659],[-47.9759693,-20.0353727],[-47.9460221,-20.0604678],[-47.9434963,-20.0919985],[-47.9341021,-20.1078536],[-47.8954628,-20.1252583],[-47.8750773,-20.0983727],[-47.8699656,-20.0636946],[-47.8752142,-20.0185748],[-47.8597507,-19.9929397],[-47.8346805,-19.9960656],[-47.8056581,-19.9851317],[-47.7336817,-19.9879282],[-47.7126917,-19.978148],[-47.6761499,-20.0019156],[-47.6706264,-20.0225159],[-47.6396561,-20.0472194],[-47.6139901,-20.042109],[-47.5947481,-20.0258915],[-47.5838246,-19.9966646],[-47.5526378,-19.9960259],[-47.5401584,-19.984325],[-47.5085321,-19.9829406],[-47.4977254,-19.9716276],[-47.4682927,-19.9614222],[-47.4255158,-20.0176965],[-47.4448424,-20.0303817],[-47.4402969,-20.0488295],[-47.4081335,-20.0801963],[-47.3745709,-20.0836627],[-47.3586764,-20.1039816],[-47.3096734,-20.1244984],[-47.2964016,-20.1458881],[-47.2617804,-20.1599249],[-47.2505709,-20.1996702],[-47.218871,-20.225415]],[[-47.218871,-20.225415],[-47.198189,-20.222],[-47.176334,-20.240557],[-47.153978,-20.232488],[-47.14705,-20.236744],[-47.141928,-20.264911],[-47.128959,-20.28559],[-47.107978,-20.281267],[-47.10354,-20.245995],[-47.109207,-20.203797],[-47.068133,-20.198016],[-47.045459,-20.187659],[-47.017539,-20.194811],[-47.00084,-20.188075],[-46.98358,-20.195781],[-46.967162,-20.176002],[-46.933848,-20.170354]],[[-46.933848,-20.170354],[-46.90457,-20.179714]],[[-46.90457,-20.179714],[-46.899733,-20.179288],[-46.892862,-20.173427],[-46.912152,-20.164038],[-46.926143,-20.159546],[-46.93008,-20.149465],[-46.906204,-20.135535],[-46.895739,-20.143861],[-46.829891,-20.140454],[-46.847276,-20.125864],[-46.848518,-20.099551],[-46.834671,-20.090802],[-46.82334,-20.050317],[-46.797217,-20.029435],[-46.755421,-20.024458],[-46.715526,-20.039029],[-46.670955,-20.044349],[-46.666809,-20.051987],[-46.642955,-20.044573],[-46.628867,-20.023434],[-46.62588,-20.021005],[-46.601952,-19.996296],[-46.604113,-19.98515],[-46.633698,-19.969004],[-46.62945,-19.942195],[-46.601012,-19.928194],[-46.586053,-19.898254],[-46.57079,-19.890794],[-46.546582,-19.905734],[-46.541455,-19.868963],[-46.519007,-19.857684],[-46.50357,-19.870582],[-46.460988,-19.88435],[-46.425442,-19.867148],[-46.409359,-19.880046],[-46.374223,-19.868721],[-46.358581,-19.87469],[-46.336488,-19.867537],[-46.322591,-19.849671],[-46.320475,-19.815518],[-46.293617,-19.802136],[-46.280305,-19.805333],[-46.243428,-19.784738],[-46.207129,-19.804938],[-46.173925,-19.800608],[-46.133001,-19.80203],[-46.122291,-19.784465],[-46.123604,-19.759161],[-46.098079,-19.708735],[-46.103339,-19.695482],[-46.126767,-19.685136],[-46.118685,-19.663289],[-46.093407,-19.663767],[-46.08405,-19.651466],[-46.050836,-19.655899],[-46.035778,-19.646473],[-46.009751,-19.655726],[-45.9924,-19.645039],[-45.982863,-19.638973],[-45.956547,-19.616206],[-45.952649,-19.614212],[-45.952054,-19.612538]],[[-45.952054,-19.612538],[-45.945419,-19.602128]],[[-45.945419,-19.602128],[-45.933348,-19.585044],[-45.923935,-19.55431],[-45.89047,-19.500987],[-45.90128,-19.471457],[-45.885864,-19.420564],[-45.889603,-19.401519],[-45.877738,-19.372802],[-45.865801,-19.364003],[-45.866024,-19.339753],[-45.839031,-19.312918],[-45.845802,-19.30456],[-45.819002,-19.250431],[-45.809719,-19.24186],[-45.814004,-19.209689],[-45.799082,-19.192778],[-45.789263,-19.159885],[-45.775116,-19.152575],[-45.771049,-19.11828],[-45.757701,-19.11523],[-45.755955,-19.0913],[-45.73733,-19.063855],[-45.741969,-19.0511],[-45.715641,-19.031475],[-45.715483,-19.001305],[-45.69977,-18.982085],[-45.712933,-18.963682],[-45.691117,-18.931165],[-45.687653,-18.910686],[-45.663822,-18.899048],[-45.667657,-18.891487],[-45.674247,-18.883242],[-45.664711,-18.856494],[-45.669181,-18.845208],[-45.644798,-18.825952],[-45.633338,-18.819832],[-45.645602,-18.812221],[-45.641524,-18.789163],[-45.634,-18.784408],[-45.660659,-18.775446],[-45.691575,-18.773434],[-45.702105,-18.760571],[-45.693523,-18.741302],[-45.692188,-18.708451],[-45.668595,-18.700861],[-45.662534,-18.679617],[-45.639299,-18.665583],[-45.635492,-18.63222],[-45.637262,-18.608047],[-45.622683,-18.580893],[-45.619994,-18.56605],[-45.621402,-18.522943],[-45.636018,-18.511795],[-45.633625,-18.490098],[-45.645279,-18.491257]],[[-45.645279,-18.491257],[-45.657071,-18.486916]],[[-45.945419,-19.602128],[-45.946594,-19.606395]],[[-45.946594,-19.606395],[-45.937073,-19.619842],[-45.943739,-19.637125],[-45.934536,-19.642111],[-45.937215,-19.685238],[-45.937917,-19.69707],[-45.925878,-19.699916],[-45.92334,-19.725426],[-45.894519,-19.755307],[-45.881351,-19.760388],[-45.876935,-19.785887],[-45.856384,-19.816647],[-45.825481,-19.828579],[-45.808947,-19.846205],[-45.82212,-19.86338],[-45.820556,-19.891572],[-45.797954,-19.907743],[-45.79297,-19.927498],[-45.765098,-19.952387],[-45.760527,-19.972805],[-45.744318,-19.973896],[-45.733254,-19.998192],[-45.718536,-19.997317],[-45.705957,-20.017558],[-45.685265,-20.03391],[-45.62684,-20.070471],[-45.625992,-20.0883],[-45.603656,-20.10924],[-45.609478,-20.148161],[-45.588998,-20.16606],[-45.565644,-20.158781],[-45.52953,-20.171272],[-45.527644,-20.185603],[-45.508538,-20.195181],[-45.492958,-20.1884],[-45.456428,-20.206765],[-45.439508,-20.175316],[-45.45599,-20.146331],[-45.454765,-20.125867],[-45.425815,-20.146389],[-45.406024,-20.15177],[-45.39425,-20.127219],[-45.374,-20.121145],[-45.395975,-20.062973],[-45.380264,-20.026273],[-45.393866,-20.021128],[-45.411363,-19.990324],[-45.43209,-19.971364],[-45.4375,-19.942045],[-45.456636,-19.93414],[-45.471939,-19.908614],[-45.501932,-19.89249],[-45.506158,-19.869712],[-45.496934,-19.860846],[-45.469758,-19.870299],[-45.445492,-19.868236],[-45.430578,-19.880553],[-45.41803,-19.870853],[-45.383675,-19.884193],[-45.376453,-19.907389],[-45.331928,-19.931137],[-45.30529,-19.934602],[-45.289746,-19.91382],[-45.268453,-19.908845],[-45.247954,-19.939928],[-45.232227,-19.949109],[-45.206941,-19.977546],[-45.194103,-19.984578],[-45.171066,-19.980487],[-45.145312,-19.987944],[-45.145786,-19.984627],[-45.143839,-19.967028],[-45.148657,-19.956193],[-45.14737,-19.954251],[-45.1504706,-19.9434181],[-45.148576,-19.9314],[-45.142798,-19.930146],[-45.139719,-19.924472],[-45.134896,-19.919414],[-45.133743,-19.907442],[-45.129987,-19.908606],[-45.118682,-19.904416],[-45.114691,-19.908572],[-45.113201,-19.867807],[-45.09936,-19.860305],[-45.115531,-19.825095],[-45.110252,-19.805863],[-45.087844,-19.797578],[-45.052904,-19.797934],[-45.047415,-19.788946],[-44.999804,-19.785707],[-44.987769,-19.783644],[-44.989375,-19.761192],[-44.966151,-19.743469],[-44.967496,-19.712101],[-44.963009,-19.705366],[-44.955976,-19.694333],[-44.947895,-19.688996]],[[-44.947895,-19.688996],[-44.948193,-19.681599]],[[-44.948193,-19.681599],[-44.944896,-19.67714],[-44.955499,-19.672754],[-44.971195,-19.675126],[-44.985203,-19.625123],[-44.982345,-19.610277],[-45.000317,-19.58893],[-45.005741,-19.560451],[-44.990458,-19.544052],[-45.005445,-19.485301],[-45.006725,-19.4732],[-44.991442,-19.45764],[-44.954312,-19.450941],[-44.914289,-19.456605],[-44.908549,-19.482565],[-44.851939,-19.461504],[-44.84796,-19.451096],[-44.846418,-19.442934],[-44.813616,-19.430849],[-44.79768,-19.403137],[-44.796353,-19.376816],[-44.775409,-19.355312],[-44.753104,-19.355488],[-44.740231,-19.325573],[-44.737639,-19.277327],[-44.717557,-19.260645],[-44.71561,-19.239481],[-44.695469,-19.21808],[-44.664168,-19.217401],[-44.632261,-19.230548],[-44.570302,-19.202191],[-44.541341,-19.170649],[-44.49592,-19.159111],[-44.471607,-19.165576],[-44.456537,-19.163956],[-44.450366,-19.140781],[-44.43559,-19.144758],[-44.40934,-19.129971],[-44.392119,-19.108513],[-44.37669,-19.083204],[-44.371571,-19.073176],[-44.343405,-19.072098],[-44.306514,-19.027802],[-44.275636,-19.014276],[-44.271035,-19.000387],[-44.264591,-18.983552],[-44.251494,-18.973704],[-44.244903,-18.968562],[-44.226096,-18.961121],[-44.217159,-18.95185],[-44.212559,-18.960838],[-44.201037,-18.959096],[-44.183025,-18.944837],[-44.154844,-18.957648],[-44.099484,-18.935268],[-44.070744,-18.91345],[-44.061501,-18.889721],[-44.042992,-18.891258],[-44.030128,-18.903378],[-43.999608,-18.91056],[-43.995719,-18.919892],[-43.989478,-18.900725],[-43.987621,-18.886152],[-43.965693,-18.854253],[-43.94225,-18.847406],[-43.944361,-18.839152],[-43.970281,-18.842578],[-43.952283,-18.815385],[-43.960241,-18.78124],[-43.97718,-18.740979],[-43.978463,-18.713944],[-43.990621,-18.704158],[-43.993797,-18.680327],[-43.998697,-18.667805]],[[-43.998697,-18.667805],[-44.007504,-18.676429]],[[-44.01732,-18.341222],[-43.99057,-18.345385],[-43.978483,-18.344008],[-43.976425,-18.341975],[-43.977164,-18.333171],[-43.987863,-18.324609]],[[-43.769147,-17.929661],[-43.763653,-17.924566]],[[-45.198443,-17.987804],[-45.195995,-18.000482]],[[-45.231777,-18.108204],[-45.238548,-18.109234],[-45.245184,-18.11731],[-45.25002,-18.12643],[-45.247892,-18.134682],[-45.243402,-18.137349],[-45.231974,-18.134613]],[[-45.641193,-18.476645],[-45.645279,-18.491257]],[[-44.513356,-19.990164],[-44.515742,-19.996582],[-44.5083,-20.006498],[-44.498971,-20.012232],[-44.499592,-20.022659],[-44.49637,-20.027468],[-44.505732,-20.036927]],[[-44.505732,-20.036927],[-44.496968,-20.076873],[-44.476215,-20.08014],[-44.474814,-20.104883],[-44.444987,-20.147692],[-44.467438,-20.164169],[-44.486878,-20.157797],[-44.508287,-20.169405],[-44.543971,-20.16675],[-44.548876,-20.201467],[-44.572578,-20.228493],[-44.56862,-20.269722],[-44.565016,-20.274903],[-44.581152,-20.279195],[-44.590953,-20.296439],[-44.622474,-20.299445],[-44.630978,-20.316529],[-44.64177,-20.324728],[-44.652283,-20.327201],[-44.654879,-20.351791],[-44.651305,-20.361037],[-44.654112,-20.361747],[-44.649363,-20.366107],[-44.629599,-20.38695],[-44.622775,-20.408243],[-44.616789,-20.427569],[-44.594098,-20.457306],[-44.547172,-20.481781]],[[-44.547172,-20.481781],[-44.534252,-20.486423],[-44.516685,-20.473576]],[[-44.516685,-20.473576],[-44.48731,-20.449047],[-44.463079,-20.440883],[-44.446489,-20.445175],[-44.416887,-20.440513],[-44.408788,-20.427313],[-44.395871,-20.443283],[-44.381364,-20.457705],[-44.383295,-20.479207],[-44.32626,-20.511578],[-44.344192,-20.532105],[-44.330756,-20.569646],[-44.306076,-20.594936],[-44.323166,-20.612584],[-44.357227,-20.608085],[-44.3588,-20.635544],[-44.39729,-20.663464],[-44.401082,-20.676529],[-44.391447,-20.682744],[-44.397969,-20.69396],[-44.415751,-20.69525],[-44.41742,-20.704643]],[[-44.41742,-20.704643],[-44.419621,-20.717085]],[[-44.419621,-20.717085],[-44.399861,-20.731649],[-44.397027,-20.745301],[-44.389254,-20.753341],[-44.377906,-20.749065],[-44.360107,-20.71112],[-44.332198,-20.726569],[-44.278361,-20.727821],[-44.237218,-20.722351],[-44.191171,-20.746074],[-44.175603,-20.752466],[-44.148608,-20.746693],[-44.143666,-20.7612],[-44.149744,-20.765052],[-44.140494,-20.778357],[-44.092655,-20.7843],[-44.061095,-20.796863],[-44.054935,-20.809139],[-44.002339,-20.800062],[-44.005534,-20.801129],[-44.004709,-20.807442],[-44.005797,-20.823383],[-43.974848,-20.861767],[-43.974511,-20.881353],[-43.936106,-20.920783],[-43.90582,-20.921853],[-43.897328,-20.897174],[-43.895602,-20.886004],[-43.891004,-20.886009],[-43.847607,-20.888229],[-43.816495,-20.871841],[-43.797026,-20.877173],[-43.782886,-20.85813],[-43.769115,-20.853971],[-43.759729,-20.851715],[-43.730909,-20.844972],[-43.716899,-20.855027],[-43.688734,-20.852215],[-43.665407,-20.83846],[-43.644841,-20.836636],[-43.639844,-20.842108],[-43.620077,-20.854688]],[[-43.620077,-20.854688],[-43.616387,-20.856118]],[[-43.616387,-20.856118],[-43.599993,-20.843713],[-43.595476,-20.8341],[-43.597596,-20.826412],[-43.573806,-20.812649],[-43.557669,-20.77735],[-43.558198,-20.760314],[-43.531163,-20.764589],[-43.496801,-20.757926],[-43.485296,-20.738821],[-43.436649,-20.716473],[-43.444596,-20.70897],[-43.432303,-20.682145],[-43.435533,-20.660955],[-43.448956,-20.653522],[-43.442228,-20.622965],[-43.451724,-20.598134],[-43.43329,-20.598309],[-43.416101,-20.581306],[-43.403214,-20.546917],[-43.3676548,-20.5496343],[-43.359399,-20.532411],[-43.326292,-20.51584],[-43.304021,-20.498068],[-43.260871,-20.517854],[-43.255439,-20.542201],[-43.247633,-20.544655],[-43.167976,-20.51035],[-43.128497,-20.501356],[-43.102664,-20.494039],[-43.079976,-20.482256],[-43.05183,-20.451247],[-43.076949,-20.432037],[-43.117968,-20.449074],[-43.122552,-20.430375],[-43.138134,-20.425265],[-43.15768,-20.40543],[-43.168553,-20.394451],[-43.15839,-20.345541],[-43.136367,-20.335219],[-43.146909,-20.314485],[-43.166719,-20.314312],[-43.172985,-20.309852],[-43.180469,-20.282866],[-43.176823,-20.271376],[-43.166509,-20.274901],[-43.150963,-20.251118],[-43.152084,-20.211916],[-43.161606,-20.194997],[-43.164124,-20.186466],[-43.150939,-20.166416],[-43.140069,-20.174784],[-43.113487,-20.17922],[-43.095915,-20.173078],[-43.074858,-20.186221],[-43.057531,-20.18155],[-43.040712,-20.161531],[-43.027275,-20.163803],[-43.008698,-20.14456],[-42.997379,-20.147305],[-42.996358,-20.139566],[-42.975614,-20.112],[-42.956478,-20.066969],[-42.960333,-20.055469],[-42.933305,-20.038574],[-42.903873,-20.045732],[-42.873742,-20.036598],[-42.836088,-20.013776],[-42.779916,-20.023674],[-42.771062,-20.010106],[-42.767423,-20.012064],[-42.745583,-20.0239],[-42.72741,-20.009581]],[[-42.72741,-20.009581],[-42.719488,-20.015498],[-42.715938,-20.016254],[-42.710336,-20.013935],[-42.705902,-20.005639],[-42.698326,-19.999185]],[[-42.698326,-19.999185],[-42.668951,-19.992878],[-42.651784,-19.985109],[-42.651192,-19.98074],[-42.641641,-19.972315],[-42.631504,-19.961957],[-42.633575,-19.950133],[-42.634942,-19.938838]],[[-42.634942,-19.938838],[-42.613871,-19.918262]],[[-42.613871,-19.918262],[-42.578562,-19.900853]],[[-42.578562,-19.900853],[-42.548365,-19.882145]],[[-42.548365,-19.882145],[-42.551462,-19.870229],[-42.522873,-19.846686],[-42.50581,-19.821657],[-42.498287,-19.795376],[-42.486385,-19.789861],[-42.47943,-19.766899],[-42.488123,-19.782781],[-42.52153,-19.801939],[-42.540975,-19.80429],[-42.557598,-19.8031],[-42.605322,-19.796692]],[[-42.605322,-19.796692],[-42.616268,-19.787222],[-42.647132,-19.787106]],[[-42.647132,-19.787106],[-42.671244,-19.776069],[-42.690863,-19.779875],[-42.696979,-19.764151]],[[-42.696979,-19.764151],[-42.702117,-19.758183],[-42.721897,-19.758236],[-42.729359,-19.769286]],[[-42.729359,-19.769286],[-42.732005,-19.788905],[-42.7439,-19.792974],[-42.755007,-19.782989],[-42.777377,-19.79484],[-42.806103,-19.785767],[-42.800908,-19.770549],[-42.81216,-19.753427],[-42.79796,-19.732825],[-42.807124,-19.713155],[-42.828502,-19.721861],[-42.858378,-19.713793],[-42.851652,-19.736839],[-42.908417,-19.749734],[-42.924423,-19.699945],[-42.933322,-19.702492],[-42.939521,-19.703828],[-42.954627,-19.70932],[-42.983821,-19.660813],[-42.986093,-19.634671],[-43.005335,-19.636058],[-43.003442,-19.621872],[-43.002899,-19.60159],[-43.003071,-19.588229],[-43.005393,-19.584178],[-43.015634,-19.57133],[-43.016904,-19.562658],[-43.031919,-19.561254],[-43.042091,-19.564962],[-43.047281,-19.551707],[-43.044155,-19.516389],[-43.064097,-19.467281],[-43.055526,-19.459802],[-43.055258,-19.431671],[-43.046336,-19.422919],[-43.010578,-19.443253],[-43.013591,-19.458689],[-42.990776,-19.48311],[-42.966204,-19.531726],[-42.942622,-19.532317],[-42.914636,-19.523534],[-42.91093,-19.48148],[-42.882456,-19.480731],[-42.889475,-19.460821],[-42.872228,-19.436968],[-42.874096,-19.42593],[-42.820973,-19.408951],[-42.798425,-19.409319],[-42.770684,-19.393961],[-42.764925,-19.387097],[-42.727597,-19.332117],[-42.744189,-19.280497],[-42.739434,-19.257477],[-42.77253,-19.204449],[-42.792478,-19.188333],[-42.780954,-19.160285],[-42.78997,-19.154648],[-42.823251,-19.158761],[-42.873003,-19.121247],[-42.902075,-19.109585],[-42.934071,-19.119195],[-42.948198,-19.152068],[-42.973476,-19.130073],[-42.989659,-19.124108],[-42.996985,-19.101038],[-43.017093,-19.084771],[-43.033645,-19.083618],[-43.043172,-19.067802],[-43.067235,-19.060759],[-43.094404,-19.106084],[-43.160126,-19.11276],[-43.175775,-19.132086],[-43.192103,-19.140503],[-43.25114,-19.139789],[-43.271957,-19.132114],[-43.269409,-19.093256],[-43.240415,-19.090963],[-43.247472,-19.06804],[-43.241235,-19.02438],[-43.239898,-19.013493],[-43.220545,-19.004641],[-43.218119,-18.989646],[-43.195471,-18.973232],[-43.184968,-18.984142],[-43.159079,-18.968463],[-43.174274,-18.937404],[-43.168121,-18.925444],[-43.197695,-18.883982],[-43.207978,-18.840944],[-43.205411,-18.789196],[-43.225199,-18.771576],[-43.234498,-18.771932],[-43.246595,-18.772201],[-43.244075,-18.766812],[-43.240504,-18.75892],[-43.232289,-18.744763],[-43.231274,-18.733964],[-43.202481,-18.716549],[-43.211302,-18.694512],[-43.213533,-18.664678],[-43.204052,-18.621055],[-43.206112,-18.602013],[-43.182433,-18.591878],[-43.180475,-18.57143],[-43.156826,-18.557841],[-43.151484,-18.538706],[-43.168943,-18.526045],[-43.158901,-18.479448],[-43.120903,-18.477093],[-43.101601,-18.468387],[-43.101848,-18.443065],[-43.11129,-18.417961],[-43.092331,-18.40999],[-43.087247,-18.394888],[-43.030724,-18.401133],[-43.003994,-18.395073],[-42.984462,-18.378208],[-42.969439,-18.387008],[-42.925337,-18.366674],[-42.896292,-18.375885],[-42.868879,-18.364039],[-42.863703,-18.351565],[-42.871562,-18.320117],[-42.870735,-18.285062],[-42.885799,-18.27597],[-42.911549,-18.290442],[-42.922535,-18.279636],[-42.93215,-18.239573],[-42.942012,-18.237558],[-42.945653,-18.221441],[-42.936761,-18.207419]],[[-42.936761,-18.207419],[-42.936586,-18.200012],[-42.931928,-18.185076],[-42.929605,-18.181934],[-42.912286,-18.172151]],[[-42.912286,-18.172151],[-42.889301,-18.158983],[-42.878614,-18.139375],[-42.866801,-18.123065]],[[-42.866801,-18.123065],[-42.878599,-18.116624]],[[-44.003762,-18.660293],[-43.998697,-18.667805]],[[-44.948193,-19.681599],[-44.94438,-19.690652]],[[-44.94438,-19.690652],[-44.9282031,-19.6955784],[-44.918118,-19.706634],[-44.904111,-19.714071],[-44.896758,-19.715055],[-44.887169,-19.719069],[-44.880401,-19.716353],[-44.879144,-19.711112],[-44.8695237,-19.714018],[-44.843719,-19.730362],[-44.840347,-19.728888],[-44.827569,-19.739561],[-44.81688,-19.747753],[-44.809621,-19.768312],[-44.805221,-19.773018],[-44.802749,-19.76943],[-44.791924,-19.76836],[-44.78014,-19.776089],[-44.773123,-19.792648],[-44.786351,-19.812061],[-44.786292,-19.852759],[-44.77818,-19.869133],[-44.759266,-19.87947],[-44.748386,-19.892231],[-44.74257,-19.89776],[-44.732398,-19.893999],[-44.686616,-19.87657],[-44.663041,-19.893598],[-44.63826,-19.924823],[-44.641766,-19.931954],[-44.627556,-19.940058],[-44.585979,-19.957656],[-44.549119,-19.97983],[-44.535683,-19.969958],[-44.513356,-19.990164]],[[-42.729359,-19.769286],[-42.722773,-19.758694],[-42.710308,-19.758811],[-42.704692,-19.757488],[-42.701753,-19.758483],[-42.696979,-19.764151]],[[-42.647132,-19.787106],[-42.616754,-19.787152],[-42.605322,-19.796692]],[[-42.548365,-19.882145],[-42.546049,-19.88606]],[[-42.546049,-19.88606],[-42.513946,-19.906561],[-42.502606,-19.898151],[-42.479601,-19.908526],[-42.459177,-19.900048],[-42.442456,-19.858023],[-42.405787,-19.862396],[-42.370266,-19.860441],[-42.357586,-19.884588],[-42.357767,-19.924321],[-42.297788,-19.936507],[-42.231588,-19.924857],[-42.217942,-19.930523],[-42.189813,-19.921664],[-42.176418,-19.925146],[-42.158952,-19.958165],[-42.160269,-19.982719],[-42.16002,-19.994521],[-42.14176,-20.015721],[-42.114492,-20.008674],[-42.10455,-19.987413],[-42.10453,-19.967274],[-42.085331,-19.960275],[-42.075519,-19.93713],[-42.056386,-19.950633],[-42.039957,-19.930853],[-42.014837,-19.916012],[-42.000648,-19.922393],[-41.99427,-19.92254],[-41.980433,-19.929265],[-41.97396,-19.93825],[-41.97031,-19.933103],[-41.975979,-19.919097],[-41.971469,-19.888767],[-41.928615,-19.878294],[-41.889473,-19.884702],[-41.870632,-19.858282],[-41.852953,-19.857027],[-41.841663,-19.842335],[-41.826401,-19.828664],[-41.803409,-19.833425],[-41.802662,-19.836926],[-41.815192,-19.838665],[-41.807746,-19.8754],[-41.818711,-19.886509],[-41.816693,-19.899793],[-41.829843,-19.897041],[-41.841794,-19.930306],[-41.828146,-19.947962],[-41.814651,-19.942646],[-41.79794,-19.979732],[-41.745969,-19.988698],[-41.735375,-19.998415],[-41.656374,-19.942645],[-41.657838,-19.970298],[-41.630145,-19.992896],[-41.617174,-19.982984],[-41.590349,-20.001282],[-41.56636,-19.98644],[-41.548008,-19.994934],[-41.559656,-20.033106],[-41.53848,-20.057852],[-41.50357,-20.057357],[-41.499016,-20.084872],[-41.503331,-20.103784],[-41.490623,-20.119681],[-41.469415,-20.11053],[-41.453273,-20.121549],[-41.428222,-20.165005],[-41.437355,-20.191794],[-41.417753,-20.20115]],[[-41.417753,-20.20115],[-41.3821145,-20.1888131],[-41.338194,-20.0881176],[-41.3335563,-20.0588396],[-41.3185297,-20.0415132],[-41.3091067,-20.0163706],[-41.311799,-19.9724195],[-41.3008581,-19.9365254],[-41.2726601,-19.9424386],[-41.2444702,-19.9373418],[-41.2280447,-19.9049851],[-41.2066347,-19.9040544],[-41.1851882,-19.8899338],[-41.1840042,-19.8488244],[-41.1641051,-19.8063868],[-41.1746414,-19.7672385],[-41.188713,-19.7461752],[-41.1743057,-19.7156371],[-41.1768883,-19.6986979],[-41.1589784,-19.6613765],[-41.1386263,-19.6587247],[-41.1278053,-19.641611],[-41.1086014,-19.6394668],[-41.0997877,-19.604813],[-41.0741098,-19.5986638],[-41.0719177,-19.5844082],[-41.0368602,-19.570457],[-41.0449672,-19.5385621],[-41.0409019,-19.5159214],[-41.0466927,-19.4873997],[-41.0144828,-19.5063912],[-40.9722382,-19.505295],[-40.9502249,-19.4581991],[-40.96792,-19.4304373],[-40.9507131,-19.3929999],[-40.9304484,-19.3841516],[-40.9281839,-19.3679063],[-40.9384679,-19.3460655],[-40.9076927,-19.3088127],[-40.9327768,-19.296053],[-40.9439683,-19.2786701],[-40.9217079,-19.2701228],[-40.9201958,-19.2518208],[-40.9386484,-19.2493826],[-40.9259317,-19.1896977],[-40.9383542,-19.1833712],[-40.9405567,-19.1633044],[-40.9621344,-19.1394986],[-40.9628916,-19.1215583],[-40.9922807,-19.1019206],[-41.0087437,-19.0993299],[-41.0126044,-19.0758017],[-41.0546229,-19.0684054],[-41.0715757,-19.0256493],[-41.0617701,-19.0063175],[-41.0322203,-18.9908474],[-41.0614954,-18.9676902],[-41.0646541,-18.9452654],[-41.1036739,-18.9340607],[-41.1268471,-18.8945065],[-41.1529583,-18.8866091],[-41.1663607,-18.8582317],[-41.1990073,-18.8633344],[-41.2147844,-18.8776398],[-41.2435824,-18.8527491],[-41.2454775,-18.8219591],[-41.2325444,-18.7972788],[-41.1341302,-18.7960413],[-41.1105065,-18.8389374],[-41.0191307,-18.837302],[-40.9639135,-18.8411701],[-40.9380273,-18.8316986],[-40.9167726,-18.8155434],[-40.9400042,-18.7702862],[-40.9414976,-18.6892947],[-40.9520614,-18.6808293],[-41.0052269,-18.667277],[-41.0508923,-18.634154],[-41.0419885,-18.6054031],[-41.0203007,-18.5009659],[-41.0163409,-18.4674607],[-41.0230287,-18.4572609],[-41.1730831,-18.4427969],[-41.181838,-18.4395792]],[[-42.266693,-17.788346],[-42.27836,-17.789321]],[[-42.716251,-18.094145],[-42.730667,-18.081386],[-42.734585,-18.080409],[-42.736824,-18.081369],[-42.738397,-18.084286],[-42.744099,-18.085167],[-42.745459,-18.089304]],[[-42.857439,-18.119274],[-42.866801,-18.123065]],[[-42.912286,-18.172151],[-42.929991,-18.182346],[-42.934725,-18.192266],[-42.936761,-18.207419]],[[-46.90457,-20.179714],[-46.899761,-20.190108]],[[-46.899761,-20.190108],[-46.883946,-20.190159],[-46.8733,-20.176743],[-46.838938,-20.189874],[-46.803433,-20.208197],[-46.789761,-20.208458],[-46.782898,-20.221592],[-46.776441,-20.273923],[-46.742775,-20.26772],[-46.693591,-20.27896],[-46.676119,-20.301776],[-46.609277,-20.334578],[-46.597449,-20.323001],[-46.57176,-20.342274],[-46.564893,-20.366399],[-46.539983,-20.370662],[-46.520942,-20.357605],[-46.496635,-20.379801],[-46.464132,-20.400066],[-46.422734,-20.414196],[-46.433403,-20.434228],[-46.423367,-20.450017],[-46.417345,-20.483958],[-46.374729,-20.508287],[-46.364201,-20.52832],[-46.346292,-20.532073],[-46.344589,-20.552035],[-46.288792,-20.560153],[-46.287744,-20.537309],[-46.261682,-20.528476],[-46.24933,-20.508466],[-46.219926,-20.511401],[-46.204336,-20.519815],[-46.198464,-20.54083],[-46.146697,-20.568014],[-46.12957,-20.558729],[-46.11048,-20.535167],[-46.08931,-20.538903],[-46.056343,-20.556729],[-46.044071,-20.538465],[-46.016942,-20.561721],[-45.989206,-20.558492],[-45.965647,-20.574802],[-45.960526,-20.6039],[-45.921145,-20.606507],[-45.905865,-20.624643],[-45.876613,-20.633693],[-45.875936,-20.651534],[-45.850855,-20.668707],[-45.828645,-20.674912],[-45.791615,-20.715685],[-45.783942,-20.717413]],[[-45.783942,-20.717413],[-45.757563,-20.713008],[-45.733717,-20.734716]],[[-45.733717,-20.734716],[-45.735091,-20.754414],[-45.713941,-20.78378],[-45.675536,-20.804288],[-45.673837,-20.819695]],[[-45.673837,-20.819695],[-45.68107,-20.833013],[-45.684508,-20.845612],[-45.684783,-20.852036],[-45.681949,-20.858748],[-45.667298,-20.871254],[-45.658022,-20.874395]],[[-45.658022,-20.874395],[-45.623669,-20.86513],[-45.605635,-20.887423]],[[-45.605635,-20.887423],[-45.604652,-20.907061],[-45.601623,-20.92255],[-45.598294,-20.930326],[-45.595058,-20.933538],[-45.589659,-20.936381],[-45.584933,-20.936949],[-45.565288,-20.934535]],[[-45.565288,-20.934535],[-45.539121,-20.936435],[-45.524215,-20.973211],[-45.497439,-20.993472],[-45.472942,-21.019287],[-45.445156,-21.02502],[-45.419024,-21.022566],[-45.403993,-21.056362],[-45.379353,-21.075815],[-45.365276,-21.064532]],[[-45.365276,-21.064532],[-45.342467,-21.068769],[-45.337508,-21.061234],[-45.326631,-21.054379]],[[-45.326631,-21.054379],[-45.3185,-21.055608],[-45.302144,-21.050965],[-45.282339,-21.045968],[-45.278487,-21.054616],[-45.270172,-21.06058]],[[-45.270172,-21.06058],[-45.27389,-21.071514],[-45.25843,-21.090106]],[[-45.25843,-21.090106],[-45.265141,-21.088196],[-45.268436,-21.09649],[-45.268311,-21.107036],[-45.280048,-21.109287],[-45.283262,-21.115932],[-45.27896,-21.12202],[-45.266288,-21.130095],[-45.235874,-21.140269],[-45.204895,-21.136922],[-45.216574,-21.097605],[-45.215745,-21.070868],[-45.20443,-21.07867],[-45.179111,-21.090574],[-45.156376,-21.113355],[-45.150598,-21.149632],[-45.150681,-21.1583],[-45.143547,-21.187275],[-45.141368,-21.186652],[-45.139232,-21.18008],[-45.130684,-21.173987],[-45.111749,-21.154754],[-45.102935,-21.129308],[-45.083939,-21.126198],[-45.075069,-21.108047],[-45.04058,-21.103244],[-45.038513,-21.124127],[-45.010822,-21.135001],[-44.968336,-21.126928],[-44.946841,-21.109088],[-44.934294,-21.114186],[-44.921051,-21.146024],[-44.911296,-21.148281],[-44.908449,-21.178404],[-44.88752,-21.181415],[-44.863395,-21.166667],[-44.842246,-21.177329],[-44.848844,-21.192676],[-44.825991,-21.203833],[-44.810092,-21.220507],[-44.791174,-21.222251],[-44.775162,-21.209211],[-44.756818,-21.235858],[-44.743826,-21.230377],[-44.747083,-21.222027],[-44.707502,-21.196615],[-44.701193,-21.169344],[-44.714089,-21.145838],[-44.696164,-21.126562],[-44.669477,-21.115279],[-44.659983,-21.097049],[-44.621059,-21.074748],[-44.632941,-21.049697],[-44.647108,-20.993302],[-44.660709,-20.990366],[-44.665415,-20.949963],[-44.658616,-20.903653],[-44.669272,-20.887592],[-44.699546,-20.86496],[-44.70367,-20.847071],[-44.659625,-20.863749],[-44.647911,-20.856248],[-44.642645,-20.839363],[-44.634952,-20.833162],[-44.612261,-20.813639],[-44.60363,-20.816229],[-44.568524,-20.804748],[-44.556656,-20.806587],[-44.548599,-20.819811],[-44.522498,-20.828868],[-44.505498,-20.829256],[-44.475125,-20.793304],[-44.461927,-20.789487],[-44.447654,-20.786264],[-44.433524,-20.77369],[-44.426764,-20.756032],[-44.427087,-20.737192],[-44.423815,-20.734394],[-44.42529,-20.715616]],[[-44.42529,-20.715616],[-44.41742,-20.704643]],[[-44.516685,-20.473576],[-44.547172,-20.481781]],[[-44.505732,-20.036927],[-44.507544,-20.033961],[-44.496347,-20.027179],[-44.499532,-20.022997],[-44.499094,-20.012035],[-44.513356,-19.990164]],[[-44.94438,-19.690652],[-44.947895,-19.688996]],[[-45.946594,-19.606395],[-45.952054,-19.612538]],[[-47.218871,-20.225415],[-47.239102,-20.2435681],[-47.2604338,-20.2775686],[-47.2767287,-20.291638],[-47.2858418,-20.3335586],[-47.2982081,-20.3484357],[-47.2880312,-20.3931778],[-47.2961002,-20.427256],[-47.2921207,-20.4490397],[-47.247405,-20.4805342],[-47.1856804,-20.5108592],[-47.1545174,-20.5195532],[-47.138234,-20.5545926],[-47.1426277,-20.5660141],[-47.1233226,-20.6127225],[-47.1087345,-20.6208048],[-47.1126809,-20.6380843],[-47.0968958,-20.6445283],[-47.1012353,-20.6831658],[-47.1153008,-20.7072048],[-47.1490655,-20.7076166],[-47.1862607,-20.7311344],[-47.1888183,-20.7706247],[-47.2048158,-20.7743437],[-47.2247543,-20.8000989],[-47.2144844,-20.8272194],[-47.2400443,-20.8852817],[-47.2104581,-20.924139],[-47.1437389,-20.9823857],[-47.1570299,-21.0188247],[-47.1469812,-21.0380418],[-47.1370422,-21.0880229],[-47.1184774,-21.1090533],[-47.1335055,-21.1334556],[-47.1173051,-21.1536959],[-47.1236478,-21.1679094],[-47.0956514,-21.2096737],[-47.0744916,-21.2079059],[-47.0789122,-21.2305951],[-47.0522817,-21.2465187],[-47.029773,-21.2995557],[-47.016527,-21.3423629],[-46.9968389,-21.3576981],[-47.0095357,-21.3707497],[-47.016168,-21.3965034],[-47.0102072,-21.420823],[-46.9843674,-21.4266951],[-46.9647087,-21.4181135],[-46.9342496,-21.4252539],[-46.8933056,-21.4156141],[-46.8826741,-21.4049495],[-46.842084,-21.3891083],[-46.8321491,-21.3665382],[-46.7895373,-21.3729595],[-46.776398,-21.3628248],[-46.7389748,-21.3925723],[-46.7147217,-21.3926621],[-46.6922065,-21.382747],[-46.6655312,-21.3611582],[-46.6471993,-21.3641931],[-46.6487303,-21.3917213],[-46.6265671,-21.4114874],[-46.6018899,-21.4439608],[-46.5765137,-21.4269572],[-46.5602225,-21.44233],[-46.5210932,-21.4469803],[-46.5092521,-21.4698989],[-46.50889,-21.4891271],[-46.5229777,-21.5299379],[-46.5007767,-21.5497611],[-46.5219942,-21.5845087],[-46.518228,-21.6128219],[-46.5473674,-21.6304338],[-46.5481577,-21.6481826],[-46.5659174,-21.6569384],[-46.5646313,-21.6786794],[-46.5930358,-21.6831783],[-46.6215947,-21.675543],[-46.6286736,-21.6948176],[-46.6230198,-21.7129462],[-46.6308415,-21.7408998],[-46.6260303,-21.7662265],[-46.6539913,-21.7792464],[-46.6512016,-21.7894427],[-46.6909705,-21.8369638],[-46.665285,-21.848788],[-46.6475365,-21.8804608],[-46.6531678,-21.8960126],[-46.6737785,-21.9110527],[-46.6679753,-21.9305782],[-46.6536443,-21.9417049],[-46.6433949,-21.9761066],[-46.6158686,-21.9955445],[-46.6132624,-22.0149627],[-46.6403429,-22.0088843],[-46.685389,-22.0374221],[-46.664786,-22.0688631],[-46.7221634,-22.0749778],[-46.7188373,-22.0886791],[-46.6649482,-22.096362],[-46.646755,-22.0918932],[-46.6227309,-22.1099309],[-46.6130415,-22.1502525],[-46.6404581,-22.1577196],[-46.6464271,-22.1779461],[-46.6708008,-22.1842606],[-46.6781678,-22.2240419],[-46.7104007,-22.2623901],[-46.7052841,-22.295824],[-46.7179524,-22.3169443],[-46.7011993,-22.321493],[-46.6975028,-22.3376306],[-46.6663078,-22.3809903],[-46.6665163,-22.4151098],[-46.6316074,-22.4358357],[-46.6034679,-22.4430741],[-46.5851339,-22.4394475],[-46.554814,-22.44665],[-46.5498648,-22.4695489],[-46.5306674,-22.4708525],[-46.5421469,-22.494356],[-46.4911793,-22.5103867],[-46.4845699,-22.5192418],[-46.4549551,-22.5217324],[-46.4146427,-22.5579277],[-46.4337254,-22.5745679],[-46.4059705,-22.6221789],[-46.4206295,-22.6380795],[-46.3963122,-22.645982],[-46.3930589,-22.6629741],[-46.4277141,-22.6613577],[-46.4806366,-22.6783159],[-46.4573342,-22.7070572],[-46.4527231,-22.7275819],[-46.3635472,-22.7556473],[-46.3345415,-22.7603001],[-46.3621404,-22.789877],[-46.3768111,-22.8278195],[-46.3724091,-22.8831304],[-46.3563107,-22.9003033],[-46.315332,-22.886793],[-46.2950288,-22.8978191],[-46.2790257,-22.8783476],[-46.2585307,-22.8905747],[-46.1921979,-22.8652306],[-46.1553279,-22.8641682],[-46.13828,-22.8949706],[-46.1497558,-22.9104649],[-46.1390937,-22.9227553],[-46.0952183,-22.894429],[-46.050675,-22.896975],[-46.026798,-22.884876],[-46.007954,-22.889497],[-45.993092,-22.86981],[-45.951145,-22.845879],[-45.938812,-22.846471],[-45.911829,-22.816293],[-45.887282,-22.87205],[-45.8638522,-22.8687103],[-45.8481273,-22.8378307],[-45.809802,-22.8293866],[-45.8005945,-22.8476294],[-45.7818841,-22.8552572],[-45.7669649,-22.8423465],[-45.7709451,-22.8059268],[-45.7549173,-22.7929122],[-45.7287746,-22.8101865],[-45.729029,-22.7852375],[-45.7119176,-22.7732277],[-45.71732,-22.7481412],[-45.7325571,-22.7220027],[-45.7564638,-22.72104],[-45.7956339,-22.7390214],[-45.8198219,-22.7232996],[-45.811641,-22.6987077],[-45.7878589,-22.6933565],[-45.7505519,-22.6712425],[-45.7428067,-22.6591669],[-45.7161828,-22.6619924],[-45.6979552,-22.6497703],[-45.7174694,-22.6210098],[-45.73669,-22.6101504],[-45.7267937,-22.587023],[-45.6954392,-22.5863386],[-45.6797214,-22.5734188],[-45.6605737,-22.5778408],[-45.6661076,-22.6126952],[-45.6810783,-22.6363357],[-45.6661848,-22.6512012],[-45.6181281,-22.6379141],[-45.6050788,-22.6204322],[-45.5793868,-22.6053855],[-45.5599393,-22.6276023],[-45.5843695,-22.6516886],[-45.5659653,-22.6565228],[-45.5164596,-22.6414302],[-45.4888005,-22.6287852],[-45.4738566,-22.5888942],[-45.4355472,-22.6183207],[-45.4129317,-22.6222155],[-45.4105211,-22.651671],[-45.3978765,-22.6534238],[-45.3609582,-22.6387614],[-45.332962,-22.6176392],[-45.2614069,-22.6071156],[-45.2545407,-22.5816243],[-45.2230954,-22.5636307],[-45.1645153,-22.5379287],[-45.1600093,-22.5169168],[-45.1284594,-22.4971103],[-45.0826458,-22.4863677],[-45.0549289,-22.470504],[-44.9918141,-22.4661729],[-44.9698484,-22.4719446],[-44.9400702,-22.4526691],[-44.8976822,-22.4491138],[-44.8897308,-22.432124],[-44.8595994,-22.4230432],[-44.8336527,-22.4312629],[-44.8079839,-22.4141112],[-44.804196,-22.3944705],[-44.7302412,-22.3611199],[-44.7088166,-22.3685403],[-44.6592574,-22.3743731],[-44.6274461,-22.3459444],[-44.626141,-22.3353834],[-44.592428,-22.3228686],[-44.555208,-22.3306953],[-44.5302293,-22.3231889],[-44.4633792,-22.2763202],[-44.4566361,-22.2572319],[-44.4332095,-22.2514083],[-44.3947967,-22.2589069],[-44.3768855,-22.2682984],[-44.3524219,-22.2576839],[-44.3170128,-22.2593875],[-44.2845176,-22.2435627],[-44.2635061,-22.2434359],[-44.2498362,-22.2604013],[-44.2236691,-22.2599392],[-44.1793685,-22.2285101]],[[-44.1793685,-22.2285101],[-44.181799,-22.195463],[-44.195681,-22.186305],[-44.200698,-22.162469],[-44.191009,-22.142262],[-44.202562,-22.126542],[-44.222953,-22.127486],[-44.217578,-22.105489],[-44.190456,-22.101131],[-44.196567,-22.081834],[-44.145403,-22.016112],[-44.12327,-21.995883],[-44.07983,-21.995238],[-44.058323,-22.013439],[-44.051406,-22.032363],[-44.008696,-22.020968],[-43.98958,-21.967231],[-43.985145,-21.942035],[-43.997025,-21.930939],[-44.000561,-21.927458],[-44.000565,-21.917195],[-44.011406,-21.910821],[-44.026468,-21.911801]],[[-44.026468,-21.911801],[-44.031517,-21.910412],[-44.037723,-21.917814],[-44.046824,-21.923193],[-44.050618,-21.927066],[-44.070362,-21.926112],[-44.071544,-21.921929]],[[-44.071544,-21.921929],[-44.078019,-21.893531],[-44.089838,-21.880795],[-44.097505,-21.865692],[-44.093164,-21.837054],[-44.10121,-21.823674],[-44.098304,-21.819687],[-44.098177,-21.806655],[-44.096576,-21.802862],[-44.09206,-21.803013],[-44.086126,-21.793648],[-44.083874,-21.793234],[-44.077672,-21.79543],[-44.077768,-21.739605],[-44.072824,-21.732185]],[[-44.072824,-21.732185],[-44.072693,-21.72713]],[[-44.072693,-21.72713],[-44.079957,-21.728777],[-44.07471,-21.707077],[-44.077196,-21.703534],[-44.078915,-21.700686],[-44.073536,-21.692447],[-44.073101,-21.688493],[-44.073079,-21.671297],[-44.075779,-21.662506],[-44.090731,-21.659704],[-44.091479,-21.666072],[-44.093824,-21.669523],[-44.098602,-21.666684],[-44.115222,-21.661077],[-44.118996,-21.668798],[-44.122881,-21.668537],[-44.146293,-21.653427],[-44.14429,-21.640365],[-44.165066,-21.612001],[-44.158559,-21.543441],[-44.167663,-21.544304],[-44.189325,-21.564348],[-44.192697,-21.561566],[-44.197559,-21.565157],[-44.243519,-21.612476],[-44.267181,-21.59517],[-44.275799,-21.577577],[-44.329256,-21.597367],[-44.351168,-21.590221],[-44.381426,-21.592603],[-44.411625,-21.557189],[-44.42664,-21.554431],[-44.42381,-21.531694],[-44.457472,-21.527098],[-44.473428,-21.546028],[-44.491456,-21.55432],[-44.496621,-21.576524],[-44.529318,-21.575865],[-44.542957,-21.588966],[-44.578365,-21.59126],[-44.592994,-21.608648],[-44.645016,-21.620472],[-44.653018,-21.640839],[-44.672748,-21.642867],[-44.704725,-21.623641],[-44.725226,-21.624162],[-44.752092,-21.604983],[-44.780752,-21.612976],[-44.803224,-21.587138],[-44.825719,-21.590108],[-44.865092,-21.608179],[-44.909892,-21.641936],[-44.923767,-21.634634],[-44.965139,-21.629384],[-45.028733,-21.631143],[-45.036869,-21.63192],[-45.027158,-21.616756],[-45.028329,-21.597479],[-45.054362,-21.557427],[-45.064307,-21.524722],[-45.050402,-21.50103],[-45.050031,-21.466649],[-45.042165,-21.454879],[-45.045155,-21.420946],[-45.051763,-21.41826],[-45.061061,-21.408613],[-45.10644,-21.393144],[-45.116054,-21.361367],[-45.128524,-21.345248],[-45.148461,-21.361628],[-45.201883,-21.355542],[-45.226042,-21.372021],[-45.250934,-21.368243],[-45.273494,-21.374735],[-45.306867,-21.354193],[-45.306897,-21.340685],[-45.326624,-21.328643],[-45.358897,-21.324186],[-45.399252,-21.297915],[-45.370795,-21.270502],[-45.363975,-21.255855],[-45.386847,-21.245324],[-45.36349,-21.218352],[-45.34848,-21.188037],[-45.312223,-21.178381],[-45.305057,-21.173964],[-45.315574,-21.152039],[-45.329847,-21.148332],[-45.339246,-21.129473],[-45.333311,-21.089418],[-45.342107,-21.068659]],[[-45.342107,-21.068659],[-45.365276,-21.064532]],[[-45.565288,-20.934535],[-45.585865,-20.936893],[-45.591843,-20.935437],[-45.59723,-20.93165],[-45.600654,-20.925659],[-45.60409,-20.911375],[-45.605635,-20.887423]],[[-45.658022,-20.874395],[-45.666933,-20.871489],[-45.679603,-20.86133],[-45.684,-20.855166],[-45.684814,-20.849548],[-45.681183,-20.833288],[-45.673837,-20.819695]],[[-45.733717,-20.734716],[-45.758535,-20.712059],[-45.783942,-20.717413]],[[-46.899761,-20.190108],[-46.933848,-20.170354]],[[-45.25843,-21.090106],[-45.270172,-21.06058]],[[-45.326631,-21.054379],[-45.342107,-21.068659]],[[-44.072693,-21.72713],[-44.067362,-21.729573]],[[-44.067362,-21.729573],[-44.053776,-21.713247],[-44.024354,-21.714149],[-43.995555,-21.697017],[-43.988773,-21.693191],[-43.995901,-21.679769],[-44.015114,-21.67721],[-44.015495,-21.664084],[-43.995378,-21.66404],[-43.970234,-21.654212],[-43.961985,-21.653432],[-43.948081,-21.651557],[-43.949792,-21.646028],[-43.965201,-21.630538],[-43.982648,-21.628797],[-44.008461,-21.619615],[-44.021172,-21.603708],[-44.040016,-21.591508],[-44.084152,-21.559439],[-44.091297,-21.53146],[-44.086801,-21.520816],[-44.082324,-21.523461],[-44.054708,-21.517543],[-44.026336,-21.534988],[-43.979793,-21.543771],[-43.967897,-21.527003],[-43.929462,-21.506298],[-43.911017,-21.504381],[-43.886672,-21.507134],[-43.874928,-21.502896],[-43.871756,-21.496179],[-43.867825,-21.500051],[-43.861804,-21.504242],[-43.850876,-21.503702],[-43.847025,-21.507508],[-43.830961,-21.504328],[-43.814621,-21.526156],[-43.797626,-21.522323],[-43.739705,-21.531707],[-43.705886,-21.585407],[-43.693368,-21.585887],[-43.688251,-21.576852],[-43.67935,-21.558135],[-43.684247,-21.530054],[-43.648967,-21.496634],[-43.65474,-21.470003],[-43.672931,-21.462645],[-43.671676,-21.43974],[-43.70926,-21.413735],[-43.686265,-21.384413],[-43.67747,-21.389242],[-43.63948,-21.382034],[-43.604795,-21.332572],[-43.552652,-21.307065],[-43.50684,-21.315738],[-43.50351,-21.298181],[-43.462431,-21.271542],[-43.444629,-21.250815],[-43.43833,-21.204364],[-43.451413,-21.193942],[-43.443644,-21.167983],[-43.417235,-21.158143],[-43.437226,-21.141329],[-43.464755,-21.146026],[-43.483686,-21.118165],[-43.498038,-21.114986],[-43.518515,-21.055239],[-43.535658,-21.05901],[-43.535419,-21.05559],[-43.519973,-21.049204],[-43.526834,-21.012732],[-43.535846,-20.99559],[-43.558424,-20.978211],[-43.562139,-20.95742],[-43.553494,-20.943989],[-43.522742,-20.937556],[-43.525244,-20.933581],[-43.557474,-20.903534],[-43.560668,-20.874707],[-43.577722,-20.877095],[-43.582468,-20.873304],[-43.600375,-20.86397],[-43.61859,-20.86491]],[[-43.61859,-20.86491],[-43.620077,-20.854688]],[[-44.419621,-20.717085],[-44.42529,-20.715616]],[[-43.616387,-20.856118],[-43.61859,-20.86491]],[[-44.067362,-21.729573],[-44.072824,-21.732185]],[[-44.071544,-21.921929],[-44.070559,-21.925963],[-44.055692,-21.925653],[-44.050359,-21.926997],[-44.026468,-21.911801]],[[-44.1793685,-22.2285101],[-44.141684,-22.2203866],[-44.1172885,-22.1899042],[-44.0603543,-22.1602258],[-44.0338174,-22.1522504],[-43.998022,-22.1559339],[-43.9648813,-22.1393525],[-43.8796514,-22.1140214],[-43.8579706,-22.0950507],[-43.8423705,-22.0996411],[-43.7748424,-22.0657263],[-43.7520413,-22.0878858],[-43.7314476,-22.0962232],[-43.7148551,-22.0824404],[-43.6812941,-22.071777],[-43.6720908,-22.0903495],[-43.6464278,-22.0648524],[-43.6128889,-22.0822966],[-43.5923143,-22.0562575],[-43.5743059,-22.0783255],[-43.559605,-22.083812],[-43.5248272,-22.0724075],[-43.4636785,-22.0726508],[-43.4046862,-22.042392],[-43.3685753,-22.0205074],[-43.3650143,-22.0104667],[-43.3162356,-22.0076697],[-43.2949277,-22.0164932],[-43.245467,-22.0065741],[-43.2215116,-22.0337609],[-43.2029477,-22.0374372],[-43.1695744,-22.0218105],[-43.153639,-22.0329795],[-43.1289533,-22.0289601],[-43.1333747,-22.0584097],[-43.1537114,-22.0741605],[-43.142258,-22.1044469],[-43.1061821,-22.0826565],[-43.0750405,-22.093392],[-43.0331612,-22.0659049],[-43.0391521,-22.0445945],[-43.0078774,-22.0315079],[-42.9969043,-22.0361104],[-42.9689855,-22.014895],[-42.9091062,-21.9905067],[-42.8814275,-21.9592662],[-42.7877903,-21.9295698],[-42.7399783,-21.9086643],[-42.6849644,-21.8791981],[-42.6143208,-21.8558872],[-42.6043803,-21.8455572],[-42.4980013,-21.8023352],[-42.4491667,-21.7803726],[-42.3956274,-21.7616407],[-42.3590328,-21.7409898],[-42.3334621,-21.7458488],[-42.2795291,-21.7186103],[-42.2667389,-21.708281],[-42.273758,-21.6774081],[-42.301341,-21.6549221],[-42.3401909,-21.6592984],[-42.3651522,-21.6464585],[-42.3588467,-21.6313346],[-42.3615684,-21.6023468],[-42.3462563,-21.5829751],[-42.324772,-21.5694436],[-42.3025261,-21.5389146],[-42.2856011,-21.5281202],[-42.2738619,-21.5038954],[-42.2555846,-21.483612],[-42.2680784,-21.4688749],[-42.2921249,-21.4592381],[-42.2753662,-21.4283085],[-42.2753117,-21.4041794],[-42.2550888,-21.4097667],[-42.2519754,-21.3871971],[-42.2300242,-21.3664945],[-42.2379724,-21.3194524],[-42.2293022,-21.308202],[-42.2286368,-21.2820599],[-42.1897249,-21.250506],[-42.1880926,-21.2303908],[-42.2029341,-21.2204462],[-42.1944335,-21.2017374],[-42.2080744,-21.1782247],[-42.1915706,-21.1471176],[-42.1706476,-21.1286444],[-42.1640269,-21.1010601],[-42.1402155,-21.103472],[-42.1333095,-21.0807075],[-42.1046812,-21.0550927],[-42.0848094,-21.0229899],[-42.1157816,-21.0099232],[-42.1413633,-20.9926409],[-42.15095,-20.974029],[-42.1380367,-20.9600489],[-42.10129,-20.9435143],[-42.0477841,-20.9347277],[-42.0376544,-20.9269847],[-41.9933027,-20.9304709],[-41.9666893,-20.9169515],[-41.9673098,-20.8985727],[-41.926707,-20.8387898],[-41.9324769,-20.8257122],[-41.9287363,-20.7943273],[-41.9019903,-20.7966257],[-41.873357,-20.7706554],[-41.8797957,-20.7595677],[-41.8635136,-20.7419435],[-41.8482132,-20.6869247],[-41.8132318,-20.6532647],[-41.8205019,-20.6277853],[-41.8509385,-20.6212613],[-41.8283912,-20.5572962],[-41.8042989,-20.5384028],[-41.8254228,-20.4832588],[-41.7994356,-20.4772833],[-41.8033904,-20.4222379],[-41.8343104,-20.4114577],[-41.8453797,-20.3862291],[-41.8595116,-20.3728426],[-41.8418651,-20.3265497],[-41.7805008,-20.2819885],[-41.763632,-20.217973],[-41.7567537,-20.206866],[-41.4111404,-20.2073696],[-41.417753,-20.20115]],[[-42.546049,-19.88606],[-42.578562,-19.900853]],[[-42.613871,-19.918262],[-42.636941,-19.927312],[-42.634942,-19.938838]],[[-42.698326,-19.999185],[-42.710009,-20.013544],[-42.712504,-20.015402],[-42.719245,-20.015658],[-42.723559,-20.009532],[-42.72741,-20.009581]]],"bbox":[-51.0454329,-22.9227553,-39.8568289,-14.2403492]}
