{"type":"Topology","objects":{"geometrias":{"type":"GeometryCollection","geometries":[{"type":"Polygon","arcs":[[0,1]],"properties":{"code_meso":2501,"code_state":25,"code_region":2,"name_meso":"Sertão Paraibano","abbrev_state":"PB","name_state":"Paraíba","name_region":"Nordeste","year":2020}},{"type":"Polygon","arcs":[[2,-2,3,4]],"properties":{"code_meso":2502,"code_state":25,"code_region":2,"name_meso":"Borborema","abbrev_state":"PB","name_state":"Paraíba","name_region":"Nordeste","year":2020}},{"type":"Polygon","arcs":[[5,-5,6,7]],"properties":{"code_meso":2503,"code_state":25,"code_region":2,"name_meso":"Agreste Paraibano","abbrev_state":"PB","name_state":"Paraíba","name_region":"Nordeste","year":2020}},{"type":"Polygon","arcs":[[8,-8]],"properties":{"code_meso":2504,"code_state":25,"code_region":2,"name_meso":"Mata Paraibana","abbrev_state":"PB","name_state":"Paraíba","name_region":"Nordeste","year":2020}}]}},"arcs":[[[-37.2223303,-6.8423834],[-37.2551439,-6.8110615],[-37.269363,-6.7619855],[-37.2639208,-6.73217],[-37.3142989,-6.6889744],[-37.3427129,-6.7012464],[-37.4073341,-6.6971954],[-37.4846995,-6.7100374],[-37.4661909,-6.6599595],[-37.4803841,-6.6052178],[-37.4647245,-6.5326637],[-37.4157096,-6.5318801],[-37.3968914,-6.5142074],[-37.3909523,-6.4528424],[-37.39752,-6.4180988],[-37.3665279,-6.3255827],[-37.3304244,-6.3063276],[-37.3214502,-6.2828122],[-37.2731386,-6.2799722],[-37.2705525,-6.2517144],[-37.2342715,-6.2132783],[-37.2015813,-6.205704],[-37.1613391,-6.157528],[-37.1750961,-6.1421831],[-37.1667862,-6.1086455],[-37.1755727,-6.0549393],[-37.2318602,-6.0275949],[-37.2537948,-6.0265689],[-37.2724774,-6.0557025],[-37.2955717,-6.0500947],[-37.3544342,-6.0864859],[-37.3823388,-6.0855538],[-37.3936319,-6.1093877],[-37.4456931,-6.1122014],[-37.4589474,-6.1450022],[-37.4829911,-6.151681],[-37.5696205,-6.1554387],[-37.5999132,-6.174011],[-37.6731701,-6.1905803],[-37.7075242,-6.1768554],[-37.7423739,-6.1889754],[-37.7756165,-6.2313435],[-37.7605164,-6.2540906],[-37.7648844,-6.2922364],[-37.8121239,-6.2927268],[-37.8429325,-6.3357964],[-37.8598275,-6.3748773],[-37.8882247,-6.3643695],[-37.8902563,-6.4001351],[-37.9260514,-6.4211378],[-37.9552056,-6.4080615],[-37.9972783,-6.4264889],[-38.0370128,-6.4570546],[-38.0701511,-6.4627525],[-38.0979875,-6.5094908],[-38.1355176,-6.5184761],[-38.1690391,-6.5000201],[-38.2392289,-6.4802973],[-38.2815259,-6.499544],[-38.3140874,-6.4873324],[-38.3284375,-6.460656],[-38.373663,-6.455781],[-38.3993194,-6.4097925],[-38.4260412,-6.4141238],[-38.4520637,-6.3924893],[-38.4850614,-6.3994193],[-38.4897546,-6.3634482],[-38.532623,-6.3417062],[-38.5924663,-6.3782461],[-38.5542654,-6.4327631],[-38.5704101,-6.4701951],[-38.6122882,-6.5131913],[-38.6121695,-6.5383173],[-38.6428534,-6.5811777],[-38.6291604,-6.6045824],[-38.6570803,-6.6422895],[-38.6519647,-6.6731834],[-38.6731505,-6.6972212],[-38.6575338,-6.7407602],[-38.6169213,-6.7932989],[-38.6518704,-6.8117122],[-38.6948153,-6.8745632],[-38.7562792,-6.9035917],[-38.7552435,-6.9391261],[-38.7305837,-7.0120279],[-38.669849,-7.0477046],[-38.677242,-7.0671025],[-38.6564059,-7.0924258],[-38.6774153,-7.1309352],[-38.6593223,-7.1832477],[-38.6248028,-7.1913206],[-38.615368,-7.2301858],[-38.5830835,-7.2483827],[-38.5588783,-7.2394171],[-38.53484,-7.2904586],[-38.5485231,-7.3321317],[-38.5786649,-7.3797483],[-38.5853008,-7.4348151],[-38.6459957,-7.501926],[-38.6611819,-7.5682918],[-38.7036588,-7.5809573],[-38.7156068,-7.612086],[-38.6264385,-7.6947249],[-38.5936274,-7.7543494],[-38.5249571,-7.7546448],[-38.4639757,-7.7308921],[-38.4570834,-7.718107],[-38.4095078,-7.7304933],[-38.3549779,-7.6784252],[-38.3266856,-7.6937045],[-38.2946014,-7.7779702],[-38.3025243,-7.7915012],[-38.2857074,-7.8309224],[-38.2385707,-7.8307261],[-38.164219,-7.7799088],[-38.1391963,-7.7862381],[-38.1161782,-7.8225602],[-38.0770694,-7.8305796],[-38.0713985,-7.7742344],[-38.0395816,-7.7481191],[-38.003971,-7.7789864],[-37.9705998,-7.7775769],[-37.9268505,-7.7299322],[-37.9239349,-7.7151119],[-37.8805967,-7.6836501],[-37.8571589,-7.6519689],[-37.8100395,-7.6438918],[-37.7858276,-7.6257982],[-37.7609745,-7.6668105],[-37.740368,-7.6360853],[-37.7558477,-7.6195218],[-37.7287319,-7.5797304],[-37.706572,-7.5694668],[-37.6558188,-7.5234166],[-37.6303781,-7.532511],[-37.6097708,-7.5080308],[-37.5279586,-7.4653107],[-37.5274041,-7.4483824],[-37.4876262,-7.3894195],[-37.496038,-7.3648223],[-37.4255124,-7.3529162],[-37.3857137,-7.3566938],[-37.3305857,-7.2882835],[-37.2883328,-7.2882889],[-37.2752678,-7.2742884],[-37.2341788,-7.2738869],[-37.196674,-7.2946701],[-37.1353148,-7.3466643],[-37.0856227,-7.3582564],[-37.0531847,-7.3794983]],[[-37.0531847,-7.3794983],[-37.0146826,-7.2489112],[-37.035227,-7.1887685],[-36.9340368,-7.1727793],[-36.9153733,-7.0805506],[-36.9425344,-7.0407111],[-36.9788134,-7.0581912],[-37.0594945,-7.0398711],[-37.0711729,-7.0178901],[-37.1029677,-7.0226449],[-37.1731809,-6.9831442],[-37.1784788,-6.926478],[-37.1843066,-6.9189542],[-37.212491,-6.9052],[-37.2223303,-6.8423834]],[[-36.2265349,-6.4340281],[-36.2511629,-6.4044235],[-36.2988575,-6.3846068],[-36.2767475,-6.3404305],[-36.2798727,-6.3088615],[-36.3048805,-6.2821948],[-36.3575767,-6.3099873],[-36.3945614,-6.2939748],[-36.430306,-6.362255],[-36.4998486,-6.3581649],[-36.5074919,-6.4001167],[-36.5309716,-6.4520716],[-36.5258468,-6.5011613],[-36.4809566,-6.5230828],[-36.4491734,-6.5539142],[-36.4362792,-6.6282245],[-36.5138108,-6.594393],[-36.5588804,-6.7091075],[-36.5442045,-6.7312035],[-36.5047532,-6.7539395],[-36.5069378,-6.8130054],[-36.540991,-6.8407187],[-36.6036081,-6.930457],[-36.6732709,-6.9257743],[-36.6946712,-6.9344903],[-36.7092715,-6.9746886],[-36.7441126,-6.9677737],[-36.766499,-6.9343454],[-36.7305176,-6.83544],[-36.7694651,-6.8387481],[-36.7727287,-6.7870652],[-36.8350296,-6.7310709],[-36.9034284,-6.7536148],[-36.9571355,-6.7904782],[-36.9776218,-6.7218552],[-36.9998335,-6.7077129],[-37.0594232,-6.749425],[-37.1289358,-6.765977],[-37.1537077,-6.7997892],[-37.2223303,-6.8423834]],[[-37.0531847,-7.3794983],[-37.0129712,-7.4042887],[-37.0236157,-7.4338675],[-36.9842256,-7.4822617],[-37.0032533,-7.4963885],[-37.0538222,-7.5045686],[-37.121524,-7.5361189],[-37.1635694,-7.5747149],[-37.1979462,-7.6352979],[-37.1951312,-7.6520627],[-37.1545429,-7.7064038],[-37.1406638,-7.750065],[-37.1584813,-7.7923324],[-37.1915385,-7.7911694],[-37.217416,-7.8066859],[-37.2228137,-7.8362093],[-37.2471503,-7.8468039],[-37.244648,-7.8749],[-37.2873944,-7.9038765],[-37.3089764,-7.9341762],[-37.3434534,-7.9470209],[-37.3397846,-7.9798045],[-37.2917793,-7.9653109],[-37.2373419,-7.9733068],[-37.2079199,-7.9518661],[-37.1933946,-7.9828667],[-37.1517946,-8.0094148],[-37.1568452,-8.0645345],[-37.1425578,-8.1179448],[-37.1602253,-8.1704004],[-37.1264516,-8.173684],[-37.1229148,-8.2090664],[-37.0822268,-8.2618874],[-37.0402836,-8.2661796],[-36.9911563,-8.3029551],[-36.9602017,-8.3004673],[-36.8999978,-8.2436608],[-36.8125112,-8.2052941],[-36.7932,-8.1894514],[-36.7615697,-8.1962939],[-36.6678453,-8.1242659],[-36.6286125,-8.1110504],[-36.6537909,-8.0703841],[-36.6278519,-8.0557493],[-36.6278515,-7.9864066],[-36.6118769,-7.9478967],[-36.586861,-7.9586561],[-36.5781999,-7.9152476],[-36.5520196,-7.8987141],[-36.4801364,-7.9247633],[-36.4436973,-7.9143309],[-36.4296952,-7.8865592],[-36.4299642,-7.8271115],[-36.3945385,-7.8076088],[-36.3091315,-7.8066872],[-36.2613346,-7.832077],[-36.254196,-7.7963868],[-36.2166343,-7.7641042],[-36.1978732,-7.7903806],[-36.1433702,-7.7815622],[-36.068992,-7.7809736],[-36.0226549,-7.8085416]],[[-36.0226549,-7.8085416],[-36.0125953,-7.7915496],[-36.0098912,-7.7577907],[-35.9896407,-7.7408143],[-35.9711505,-7.668622],[-35.9551299,-7.6520552],[-35.9304868,-7.6827162],[-35.8652478,-7.6573979],[-35.8733927,-7.6077729],[-35.8710949,-7.6050544],[-35.8526743,-7.5817684],[-35.84933,-7.5794274],[-35.8477981,-7.5767196],[-35.8293398,-7.5748856],[-35.8221139,-7.5663086],[-35.8502887,-7.5527705],[-35.884761,-7.5425438],[-35.8855208,-7.5104749],[-35.9221351,-7.5138998],[-35.9542884,-7.4966459],[-36.0076804,-7.4500309],[-35.9989192,-7.3900671],[-36.0384528,-7.3663383],[-36.1278431,-7.361461],[-36.1503064,-7.3446682],[-36.2356843,-7.3696704],[-36.3457412,-7.367309],[-36.3304406,-7.3054486],[-36.3260914,-7.1887277],[-36.3961205,-7.2226275],[-36.4185686,-7.2000695],[-36.4850727,-7.1886969],[-36.4743453,-7.1293929],[-36.4899383,-7.0344595],[-36.476708,-6.9942084],[-36.3756323,-6.9742629],[-36.3292035,-6.9351359],[-36.3046998,-6.940757],[-36.2608745,-6.836796],[-36.2501703,-6.6853717],[-36.225064,-6.5593667],[-36.2265349,-6.4340281]],[[-35.3645125,-6.5120405],[-35.4123941,-6.4882475],[-35.5252965,-6.4760978],[-35.5521001,-6.4908238],[-35.5805324,-6.4871114],[-35.6001881,-6.4606106],[-35.6601643,-6.4452787],[-35.7071666,-6.4695364],[-35.7633561,-6.482192],[-35.9441837,-6.4930062],[-36.0053484,-6.4810533],[-36.0777206,-6.4050906],[-36.110189,-6.4291807],[-36.1437507,-6.4253246],[-36.2265349,-6.4340281]],[[-36.0226549,-7.8085416],[-35.9328815,-7.7844259],[-35.9093578,-7.7925091],[-35.8721183,-7.7495389],[-35.828499,-7.751649],[-35.7805775,-7.7383514],[-35.7365494,-7.709599],[-35.6841139,-7.7077989],[-35.6315236,-7.6812374],[-35.6146193,-7.6563094],[-35.5595634,-7.66133],[-35.5196319,-7.6400175],[-35.5316871,-7.6216661],[-35.5151939,-7.585021],[-35.527211,-7.5699614],[-35.4943121,-7.4822056],[-35.4503698,-7.4534114],[-35.4326034,-7.4723446],[-35.3529916,-7.4412657],[-35.3523559,-7.4223977],[-35.3090486,-7.4090439],[-35.2861212,-7.3785614]],[[-35.2861212,-7.3785614],[-35.2723017,-7.3683605],[-35.2912865,-7.3211029],[-35.3785578,-7.2515682],[-35.4158021,-7.2730057],[-35.4186956,-7.2393559],[-35.3743697,-7.2389468],[-35.3829588,-7.2102328],[-35.33673,-7.1873947],[-35.325573,-7.1552732],[-35.3060269,-7.1434276],[-35.3155163,-7.1151892],[-35.3771415,-7.0326621],[-35.3566785,-6.9894102],[-35.3284865,-6.9918643],[-35.2779471,-6.9693163],[-35.2900126,-6.9210421],[-35.317394,-6.8609017],[-35.3040144,-6.8344249],[-35.325025,-6.8206707],[-35.3198391,-6.7904171],[-35.357802,-6.7580268],[-35.3367768,-6.709373],[-35.3392121,-6.7080591],[-35.3196076,-6.6710561],[-35.3404451,-6.6487962],[-35.3280444,-6.6082997],[-35.3282675,-6.6000671],[-35.3312672,-6.5963385],[-35.3333973,-6.5913169],[-35.3448797,-6.595595],[-35.3532436,-6.596387],[-35.3789491,-6.606353],[-35.3892518,-6.6038211],[-35.395554,-6.562989],[-35.3645125,-6.5120405]],[[-35.2861212,-7.3785614],[-35.2167415,-7.3809382],[-35.1907413,-7.3978912],[-35.1720667,-7.3880404],[-35.107964,-7.405526],[-35.0705208,-7.398761],[-34.9854187,-7.4620067],[-34.9842275,-7.5078883],[-34.9607869,-7.538766],[-34.8580231,-7.5379505],[-34.8270047,-7.5511561],[-34.8093029,-7.5123384],[-34.8141774,-7.4900032],[-34.7945268,-7.3329527],[-34.8025632,-7.3135207],[-34.8035074,-7.2137666],[-34.7947404,-7.1942397],[-34.8422771,-7.0574216],[-34.865263,-7.0295831],[-34.8739579,-6.9860793],[-34.8549176,-6.969338],[-34.8644623,-6.9428717],[-34.853938,-6.9006149],[-34.8875589,-6.8831989],[-34.9112215,-6.8261596],[-34.9338983,-6.6968913],[-34.9550045,-6.6675271],[-34.9659405,-6.5977662],[-34.9684579,-6.4871999],[-35.0285409,-6.5055226],[-35.0577321,-6.5277912],[-35.0955418,-6.4976777],[-35.1125496,-6.5051175],[-35.1454435,-6.5527097],[-35.1702989,-6.5583926],[-35.2323484,-6.5317766],[-35.2745652,-6.5438778],[-35.3307729,-6.5443414],[-35.3645125,-6.5120405]]],"bbox":[-38.7562792,-8.3029551,-34.7945268,-6.0265689]}
