{"type":"Topology","objects":{"geometrias":{"type":"GeometryCollection","geometries":[{"type":"Polygon","arcs":[[0,1,2,3,4,5]],"properties":{"code_meso":3301,"code_state":33,"code_region":3,"name_meso":"Noroeste Fluminense","abbrev_state":"RJ","name_state":"Rio de Janeiro","name_region":"Sudeste","year":2020}},{"type":"MultiPolygon","arcs":[[[6]],[[7,8,9,10,11,12,13,-6,14,15]]],"properties":{"code_meso":3302,"code_state":33,"code_region":3,"name_meso":"Norte Fluminense","abbrev_state":"RJ","name_state":"Rio de Janeiro","name_region":"Sudeste","year":2020}},{"type":"Polygon","arcs":[[16,17,-16,18,-4,19,-2,20,21,22,23,24]],"properties":{"code_meso":3303,"code_state":33,"code_region":3,"name_meso":"Centro Fluminense","abbrev_state":"RJ","name_state":"Rio de Janeiro","name_region":"Sudeste","year":2020}},{"type":"MultiPolygon","arcs":[[[25]],[[26,27,-13,28,-11,29,-9,30,-17]]],"properties":{"code_meso":3304,"code_state":33,"code_region":3,"name_meso":"Baixadas","abbrev_state":"RJ","name_state":"Rio de Janeiro","name_region":"Sudeste","year":2020}},{"type":"MultiPolygon","arcs":[[[31]],[[32,33,34]],[[35]]],"properties":{"code_meso":3305,"code_state":33,"code_region":3,"name_meso":"Sul Fluminense","abbrev_state":"RJ","name_state":"Rio de Janeiro","name_region":"Sudeste","year":2020}},{"type":"MultiPolygon","arcs":[[[36]],[[37]],[[38]],[[39]],[[-25,40,-23,41,-34,42,-27]],[[43]],[[44]]],"properties":{"code_meso":3306,"code_state":33,"code_region":3,"name_meso":"Metropolitana do Rio de Janeiro","abbrev_state":"RJ","name_state":"Rio de Janeiro","name_region":"Sudeste","year":2020}}]}},"arcs":[[[-41.4696296,-21.2027933],[-41.4865243,-21.1798929],[-41.4966116,-21.1849606],[-41.5115501,-21.1758363],[-41.5209754,-21.187019],[-41.5304368,-21.1800253],[-41.5482883,-21.1832995],[-41.5560886,-21.1723936],[-41.5782375,-21.1697453],[-41.5867479,-21.1494743],[-41.6125895,-21.1570009],[-41.6219815,-21.1469585],[-41.6393967,-21.1461934],[-41.6653644,-21.1319839],[-41.6631531,-21.1247016],[-41.7057265,-21.1208228],[-41.7180041,-21.1160704],[-41.7362793,-21.1014302],[-41.7218306,-21.0682413],[-41.7327675,-21.0660531],[-41.7161889,-21.047051],[-41.7252015,-21.033078],[-41.7145453,-21.0154083],[-41.7214215,-21.0020133],[-41.7116275,-20.9805924],[-41.716441,-20.9742667],[-41.7174055,-20.9530449],[-41.7312009,-20.9466775],[-41.7374022,-20.9310317],[-41.7223679,-20.9232528],[-41.7184836,-20.8991449],[-41.7263409,-20.8923895],[-41.715697,-20.8718246],[-41.7390006,-20.8652135],[-41.7458898,-20.8524366],[-41.7363089,-20.8359131],[-41.7398545,-20.8175037],[-41.7667418,-20.8019956],[-41.7940261,-20.798051],[-41.7991687,-20.8053185],[-41.8288264,-20.7943438],[-41.8324432,-20.7818772],[-41.8481876,-20.7743723],[-41.8528668,-20.7633863],[-41.8680912,-20.7639288],[-41.8789429,-20.7787436],[-41.8966425,-20.7884567],[-41.9019903,-20.7966257],[-41.9286099,-20.7941448],[-41.9324769,-20.8257122],[-41.926707,-20.8387898],[-41.936028,-20.8552443],[-41.9500502,-20.858234],[-41.9497554,-20.872972],[-41.9604723,-20.8833189],[-41.9673098,-20.8985727],[-41.9666893,-20.9169515],[-41.9933027,-20.9304709],[-42.0039403,-20.9318914],[-42.0376544,-20.9269847],[-42.0477841,-20.9347277],[-42.0658627,-20.9389947],[-42.0870713,-20.9395842],[-42.0937947,-20.935626],[-42.1143156,-20.9502517],[-42.1459968,-20.9662448],[-42.1512588,-20.9775941],[-42.1413633,-20.9926409],[-42.1200878,-21.0001213],[-42.1157816,-21.0099232],[-42.0848094,-21.0229899],[-42.1036014,-21.0453992],[-42.1046812,-21.0550927],[-42.1201757,-21.0679503],[-42.1201003,-21.0772168],[-42.1333095,-21.0807075],[-42.1402155,-21.103472],[-42.1636888,-21.1006831],[-42.1706603,-21.1146119],[-42.1706476,-21.1286444],[-42.181827,-21.1434009],[-42.1915706,-21.1471176],[-42.1939877,-21.1642318],[-42.2083328,-21.1790161],[-42.1944335,-21.2017374],[-42.2029341,-21.2204462],[-42.1880926,-21.2303908],[-42.1950365,-21.2391255],[-42.1897249,-21.250506],[-42.1997699,-21.2563823],[-42.2119997,-21.2720274],[-42.2286368,-21.2820599],[-42.2293022,-21.308202],[-42.2379724,-21.3194524],[-42.2242343,-21.3378131],[-42.2368297,-21.3451991],[-42.2300242,-21.3664945],[-42.2519754,-21.3871971],[-42.2375887,-21.3925212],[-42.2403665,-21.405218],[-42.2550888,-21.4097667],[-42.2753117,-21.4041794],[-42.2753662,-21.4283085],[-42.2859125,-21.4415276],[-42.2921249,-21.4592381],[-42.2680784,-21.4688749],[-42.2555846,-21.483612],[-42.259743,-21.4962828],[-42.2738619,-21.5038954],[-42.2856011,-21.5281202],[-42.2971882,-21.5235355],[-42.3100207,-21.5522524],[-42.3307706,-21.5602326],[-42.324772,-21.5694436],[-42.3451456,-21.5819602],[-42.3615684,-21.6023468],[-42.3637154,-21.613313],[-42.3590845,-21.6315724],[-42.3651522,-21.6464585],[-42.3464774,-21.6522262],[-42.3402999,-21.6591398],[-42.3245926,-21.6560116],[-42.3077333,-21.6599774],[-42.3008934,-21.6551438],[-42.2883564,-21.6674546],[-42.2861396,-21.6773835],[-42.2732566,-21.6779045],[-42.2649348,-21.6938637],[-42.2726766,-21.7038278],[-42.2599387,-21.7129288]],[[-42.2599387,-21.7129288],[-42.2370801,-21.6972095],[-42.2069011,-21.783775]],[[-42.2069011,-21.783775],[-42.1672494,-21.8586929],[-42.1651789,-21.8588136],[-42.1653163,-21.8598489],[-42.1628492,-21.8589001],[-42.1616497,-21.8605297]],[[-42.1616497,-21.8605297],[-42.152208,-21.8589931],[-42.1490683,-21.8592018],[-42.1402891,-21.8564682],[-42.1393677,-21.8540422],[-42.1402052,-21.8522337],[-42.1335201,-21.8417012],[-42.1284326,-21.8440399],[-42.1252227,-21.8462614],[-42.1204684,-21.8503595],[-42.1202589,-21.8478111],[-42.1190727,-21.8419395],[-42.1184428,-21.8380166],[-42.1184405,-21.8372673],[-42.1250123,-21.8255987],[-42.1201741,-21.8225468],[-42.11327,-21.8254597],[-42.1030991,-21.8094795],[-42.0921893,-21.8132993],[-42.0854534,-21.8014446],[-42.061476,-21.7991062],[-42.0556594,-21.7818087],[-42.0431846,-21.7792039],[-42.0314785,-21.7658749],[-42.0220436,-21.7682413],[-42.0136166,-21.765652],[-42.018644,-21.7506007],[-41.9849886,-21.7328857],[-41.9633675,-21.7336902],[-41.9551861,-21.7293155],[-41.9486286,-21.7304601],[-41.9398234,-21.7414097]],[[-41.9398234,-21.7414097],[-41.9371006,-21.7412201],[-41.9367381,-21.5967529]],[[-41.9367381,-21.5967529],[-41.9236232,-21.5861139],[-41.900984,-21.5756146],[-41.8846834,-21.5800412],[-41.8709872,-21.5721159],[-41.8734258,-21.5615265],[-41.8609876,-21.5456017],[-41.8236325,-21.5129047],[-41.8257911,-21.5064462],[-41.8157548,-21.4914726],[-41.824984,-21.4822695],[-41.7427273,-21.464314],[-41.6794712,-21.5162617],[-41.6269524,-21.5957165],[-41.657021,-21.4791441],[-41.6188723,-21.4720428],[-41.6002766,-21.4815782],[-41.5933254,-21.4687989],[-41.5793497,-21.4591468],[-41.5746651,-21.4468364],[-41.5510548,-21.4290496],[-41.5846422,-21.3162096],[-41.5722802,-21.3036797],[-41.5535397,-21.2963694],[-41.5398825,-21.2814889],[-41.5297412,-21.2783541],[-41.5246136,-21.2676004],[-41.4991118,-21.2560033],[-41.496178,-21.2450194],[-41.4700532,-21.2314135],[-41.4696296,-21.2027933]],[[-41.0238366,-21.6052946],[-41.0483944,-21.5895972],[-41.0442839,-21.6067802],[-41.045911,-21.616218],[-41.0177898,-21.6139691],[-41.0238366,-21.6052946]],[[-42.2082672,-22.3608168],[-42.2157555,-22.3736828]],[[-42.2157555,-22.3736828],[-42.2070509,-22.387197],[-42.2144176,-22.3984418],[-42.2112271,-22.4076615],[-42.2114383,-22.4115321]],[[-42.2114383,-22.4115321],[-42.2067936,-22.4118126],[-42.2042052,-22.4140098],[-42.2077532,-22.4213624],[-42.206626,-22.425366],[-42.2036605,-22.4288093],[-42.2009715,-22.4305334],[-42.1952261,-22.4307505]],[[-42.1952261,-22.4307505],[-42.1914939,-22.4332586],[-42.173162,-22.4255126],[-42.1614577,-22.4285757],[-42.1587393,-22.4244561],[-42.1496675,-22.4266355],[-42.1372025,-22.4126511],[-42.1256161,-22.4126873],[-42.1178589,-22.4045835],[-42.1113678,-22.404378],[-42.0984217,-22.4166895],[-42.1001598,-22.4274789]],[[-42.1001598,-22.4274789],[-42.1063022,-22.436349],[-42.1003454,-22.436753],[-42.0950428,-22.4387721],[-42.0862621,-22.4391418]],[[-42.0862621,-22.4391418],[-42.0687309,-22.4353306],[-42.0627823,-22.4329982],[-42.0631317,-22.4195174],[-42.0237888,-22.3879439],[-41.9973625,-22.4002958],[-41.9636203,-22.3880662],[-41.9443615,-22.3843654],[-41.9378845,-22.3946379],[-41.9069097,-22.4000169],[-41.888384,-22.4144977],[-41.8698466,-22.4194091],[-41.8551527,-22.4108423],[-41.8280634,-22.4082691],[-41.8177903,-22.417031]],[[-41.8177903,-22.417031],[-41.7692028,-22.3892076],[-41.7734981,-22.3640535],[-41.7641102,-22.3532694],[-41.7392384,-22.3390672],[-41.694244,-22.3032911],[-41.6576305,-22.2827814],[-41.5941654,-22.2553308],[-41.4938465,-22.2153852],[-41.4513431,-22.2023809],[-41.3567844,-22.1770056],[-41.2700191,-22.1553552],[-41.2114597,-22.1357172],[-41.1674152,-22.1158293],[-41.1341587,-22.0967157],[-41.1232334,-22.0841749],[-41.0710789,-22.0546911],[-41.0097233,-22.0246122],[-40.9908291,-22.0102766],[-40.9779049,-21.9820612],[-40.974773,-21.945194],[-40.9785686,-21.9230898],[-40.9917141,-21.8722894],[-40.9939697,-21.8487058],[-40.9990773,-21.8411745],[-41.0238987,-21.7326029],[-41.0227047,-21.6857469],[-41.0123084,-21.6209843],[-41.0399204,-21.62083],[-41.0436948,-21.6180267],[-41.0468712,-21.6190934],[-41.0481121,-21.6137784],[-41.0459861,-21.6066027],[-41.0649492,-21.5527182],[-41.0726467,-21.5256098],[-41.0709644,-21.5032156],[-41.0629688,-21.4868543],[-41.0475002,-21.467962],[-41.0376125,-21.4622743],[-41.023109,-21.4452646],[-41.0061069,-21.4190843],[-41.0024753,-21.4074133],[-40.9906612,-21.3933637],[-40.9826275,-21.3916109],[-40.9613987,-21.3607767],[-40.9642902,-21.3492162],[-40.9592911,-21.3029228],[-40.9776179,-21.2851351],[-40.9957952,-21.2861898],[-40.9981659,-21.2661726],[-41.0047404,-21.2510999],[-41.0249052,-21.2458027],[-41.0445825,-21.2530586],[-41.0593193,-21.2346468],[-41.0892187,-21.2195207],[-41.1036998,-21.2191191],[-41.1155525,-21.2286353],[-41.1633039,-21.2428731],[-41.1776147,-21.2390033],[-41.1937387,-21.2440657],[-41.2148521,-21.2372997],[-41.2413685,-21.2203603],[-41.2564946,-21.2252523],[-41.2767152,-21.2402293],[-41.303455,-21.2285988],[-41.3161839,-21.2135457],[-41.3699408,-21.2042226],[-41.4167865,-21.2002234],[-41.4358664,-21.2158489],[-41.4461707,-21.2154814],[-41.4696296,-21.2027933]],[[-41.9367381,-21.5967529],[-41.9371223,-21.7411954],[-41.9304036,-21.7413288],[-41.9299873,-21.7434243]],[[-41.9299873,-21.7434243],[-41.9379449,-21.7522141],[-41.9343924,-21.7670677],[-41.9498803,-21.770054],[-41.9593878,-21.7925407],[-41.9700565,-21.8052067],[-41.965203,-21.8277649],[-41.9551701,-21.8480242],[-41.9499107,-21.8560494],[-41.9365254,-21.8723099],[-41.8971501,-21.8783048],[-41.8666761,-21.8849994],[-41.8500609,-21.8860156],[-41.8356453,-21.8872019],[-41.8147567,-21.8794013],[-41.7965011,-21.8789631],[-41.7730581,-21.8897351],[-41.733114,-21.8874261],[-41.7037375,-21.8896672],[-41.7095886,-21.8945405],[-41.7160977,-21.9113885],[-41.7139496,-21.9237424],[-41.721023,-21.944889],[-41.7133991,-21.9614893],[-41.7206132,-21.9680787],[-41.7168619,-21.9818561],[-41.7348277,-22.0046156],[-41.7619793,-22.0195128],[-41.7685042,-22.0102538],[-41.7832418,-22.0141163],[-41.7630844,-22.0380029],[-41.7551309,-22.0687687],[-41.7545058,-22.0817818],[-41.7681123,-22.0843247],[-41.7790516,-22.0973349],[-41.8198511,-22.0991088],[-41.8326297,-22.078302],[-41.8479642,-22.0713559],[-41.8652823,-22.0578326],[-41.8874956,-22.0489693],[-41.9035344,-22.057656],[-41.9086702,-22.0682686],[-41.9360329,-22.056873],[-41.9416917,-22.0703869],[-41.9623817,-22.0786154],[-41.9624482,-22.1055005],[-41.9578042,-22.1163249],[-41.9668647,-22.1319959],[-41.978291,-22.1262876],[-42.0054596,-22.143351],[-42.0194076,-22.1470884],[-42.0272001,-22.1579554],[-42.0450473,-22.1630062],[-42.0749216,-22.163861],[-42.0879462,-22.1706127],[-42.0979368,-22.1940756],[-42.0983646,-22.2018889],[-42.1177193,-22.2079912],[-42.1249067,-22.2111379],[-42.1482049,-22.2110629],[-42.158978,-22.2150683],[-42.1780524,-22.2329098],[-42.1833614,-22.2445085],[-42.1929096,-22.2442404],[-42.2490087,-22.2952436],[-42.2558305,-22.3215003],[-42.2217027,-22.3392502],[-42.2149285,-22.3466927],[-42.2082672,-22.3608168]],[[-42.5505713,-22.4557544],[-42.5365531,-22.4576927],[-42.5151484,-22.4359496],[-42.4999643,-22.4347397],[-42.4712343,-22.4492477],[-42.4555909,-22.4425338],[-42.45097,-22.433881],[-42.4346946,-22.4332724],[-42.4127913,-22.4266076],[-42.4035212,-22.4291174],[-42.3895682,-22.4202697],[-42.3548481,-22.4291713],[-42.3447255,-22.4245751],[-42.3286334,-22.4284775],[-42.3230765,-22.4226426],[-42.2921563,-22.4128963],[-42.2895312,-22.4076012],[-42.2775568,-22.4017327],[-42.2886854,-22.4046796],[-42.2941732,-22.3923025],[-42.2571526,-22.3664728],[-42.2224846,-22.358752],[-42.2108869,-22.3617689]],[[-42.2108869,-22.3617689],[-42.2082672,-22.3608168]],[[-41.9299873,-21.7434243],[-41.9398234,-21.7414097]],[[-42.1616497,-21.8605297],[-42.1621676,-21.8602067],[-42.162893,-21.8588876],[-42.1663154,-21.8595374],[-42.2069011,-21.783775]],[[-42.2599387,-21.7129288],[-42.2887589,-21.7214625],[-42.3193101,-21.7402913],[-42.3346161,-21.746031],[-42.3590328,-21.7409898],[-42.3735795,-21.7458488],[-42.3956274,-21.7616407],[-42.4298837,-21.7756712],[-42.4491667,-21.7803726],[-42.4980013,-21.8023352],[-42.5856408,-21.8390783],[-42.6043803,-21.8455572],[-42.6143208,-21.8558872],[-42.6849644,-21.8791981],[-42.7399783,-21.9086643],[-42.7877903,-21.9295698],[-42.8155048,-21.9363599],[-42.8423915,-21.9482613],[-42.8550891,-21.9495019],[-42.8814275,-21.9592662],[-42.8784697,-21.9657735],[-42.8936031,-21.9751693],[-42.9091062,-21.9905067],[-42.9470947,-22.0059204],[-42.9592083,-22.0150036],[-42.9689855,-22.014895],[-42.9969043,-22.0361104],[-43.0078774,-22.0315079],[-43.0243471,-22.0417414],[-43.0391521,-22.0445945],[-43.0331612,-22.0659049],[-43.053126,-22.0817249],[-43.074129,-22.0933493],[-43.1061821,-22.0826565],[-43.1222409,-22.0893994],[-43.1274312,-22.1051477],[-43.1442396,-22.1010323],[-43.1537114,-22.0741605],[-43.1333747,-22.0584097],[-43.1285357,-22.0293118],[-43.1441576,-22.0337312],[-43.1776488,-22.0285688],[-43.2029477,-22.0374372],[-43.2074747,-22.0296835],[-43.2215116,-22.0337609],[-43.2341933,-22.0141504],[-43.245467,-22.0065741],[-43.261535,-22.0080348],[-43.2949277,-22.0164932],[-43.3022433,-22.0210084],[-43.3162356,-22.0076697],[-43.3300039,-22.010734],[-43.3503725,-22.0080324],[-43.3650143,-22.0104667],[-43.3685753,-22.0205074],[-43.3989411,-22.0407982],[-43.4369938,-22.0599687]],[[-43.4369938,-22.0599687],[-43.3988421,-22.2211443]],[[-43.3988421,-22.2211443],[-43.3253957,-22.2787201]],[[-43.3253957,-22.2787201],[-43.2886686,-22.3707353],[-43.2844937,-22.3665478],[-43.2783281,-22.3561616]],[[-43.2783281,-22.3561616],[-43.2737325,-22.3467659],[-43.2685315,-22.3411988],[-43.2657544,-22.3347322],[-43.2633099,-22.3209589],[-43.2478084,-22.3112418],[-43.2354191,-22.3116604],[-43.2117262,-22.2998627],[-43.2007181,-22.3037602],[-43.1816699,-22.3011449],[-43.1738702,-22.3101723],[-43.1455246,-22.3040041],[-43.1370453,-22.2830073],[-43.1270074,-22.275873],[-43.1063459,-22.2815437],[-43.1012924,-22.2658729],[-43.0898996,-22.2613579],[-43.0939542,-22.2423264],[-43.0759482,-22.2234582],[-43.0477635,-22.2086149],[-43.0404982,-22.1886725],[-43.0207642,-22.1618091],[-43.0172176,-22.148267],[-43.0015041,-22.1539532],[-42.9549754,-22.1388705],[-42.964319,-22.126431],[-42.9738592,-22.0972407],[-42.9637439,-22.0888375],[-42.9550371,-22.0845172],[-42.9437398,-22.0958778],[-42.9126739,-22.1088782],[-42.8955926,-22.1103928],[-42.884186,-22.0999455],[-42.8721995,-22.101401],[-42.8644057,-22.1275928],[-42.874411,-22.1544837],[-42.8638676,-22.1652444],[-42.8360319,-22.1523281],[-42.8276034,-22.1427485],[-42.8036473,-22.1332487],[-42.7937806,-22.1221539],[-42.7655393,-22.1228001],[-42.7503681,-22.1212091],[-42.7496667,-22.1450491],[-42.7555737,-22.1565373],[-42.7449549,-22.1761591],[-42.751617,-22.1913085],[-42.7336705,-22.2108875],[-42.7369295,-22.21932],[-42.7440072,-22.2338715],[-42.7213925,-22.2480832],[-42.7136795,-22.2653048],[-42.717559,-22.2806286],[-42.7110089,-22.2872787],[-42.7262844,-22.318217],[-42.719827,-22.323458],[-42.725125,-22.3366096],[-42.7223956,-22.352324],[-42.7156242,-22.3599067],[-42.7082713,-22.3653392],[-42.7099259,-22.3749446],[-42.7084458,-22.3764948],[-42.6841528,-22.3934145],[-42.6620718,-22.385414],[-42.6524999,-22.3959673],[-42.6411946,-22.3924332],[-42.624779,-22.3883647],[-42.6117612,-22.382011],[-42.6093375,-22.373907],[-42.5938509,-22.3643551],[-42.5844353,-22.3552637],[-42.5730489,-22.3594924],[-42.561391,-22.3613192],[-42.5548098,-22.3734996],[-42.5522743,-22.378203],[-42.5543252,-22.3814632],[-42.5571005,-22.3962901],[-42.5562315,-22.4239711],[-42.5742997,-22.4382586],[-42.5712024,-22.4489596],[-42.5523358,-22.4518776],[-42.5505713,-22.4557544]],[[-41.9775916,-22.9784505],[-42.003291,-22.9933547],[-42.0069398,-23.0109182],[-41.9860114,-23.0036896],[-41.9738376,-22.9896207],[-41.9775916,-22.9784505]],[[-42.5505713,-22.4557544],[-42.5534556,-22.4665369],[-42.5633725,-22.4675799],[-42.5781395,-22.4940901],[-42.5779983,-22.502079],[-42.5931764,-22.5337256],[-42.6033599,-22.5407096],[-42.5645647,-22.6201258],[-42.5513943,-22.6195782],[-42.528002,-22.6316918],[-42.5264332,-22.7046722],[-42.5307824,-22.7170714],[-42.4731925,-22.7245913],[-42.4587268,-22.7186383],[-42.441784,-22.7303105],[-42.4468128,-22.8227507],[-42.4720018,-22.8201836],[-42.4837301,-22.8299118],[-42.4983648,-22.8309175],[-42.5154853,-22.8257014],[-42.5319499,-22.8087681],[-42.5531578,-22.8150612],[-42.562567,-22.8071345],[-42.5813511,-22.8057369],[-42.6010085,-22.8200137],[-42.6342931,-22.8368721],[-42.6378241,-22.8529992],[-42.6529915,-22.8557244],[-42.6771901,-22.8777261],[-42.6793533,-22.9094454],[-42.6702348,-22.9110325],[-42.6653466,-22.9074464],[-42.6465855,-22.9078653],[-42.6341909,-22.9197361],[-42.6412124,-22.9375378]],[[-42.6412124,-22.9375378],[-42.6016147,-22.9336362],[-42.5666977,-22.9327026],[-42.5059121,-22.9340029],[-42.4742011,-22.9378176],[-42.4557655,-22.9348771],[-42.3548215,-22.9356348],[-42.2003942,-22.9435358],[-42.0971656,-22.9524361],[-42.0578566,-22.9588133],[-42.0426479,-22.9643494],[-42.0353015,-22.9765787],[-42.0209922,-22.9750184],[-42.0249665,-22.9494228],[-42.0368114,-22.936768],[-42.037343,-22.9216994],[-42.0286862,-22.8984246],[-42.0138142,-22.8833977],[-42.004295,-22.8895319],[-41.9896809,-22.8827493],[-41.9822803,-22.8713987],[-41.9864918,-22.8532617],[-41.9708172,-22.8233984],[-41.9537502,-22.8145178],[-41.9331814,-22.809839],[-41.921825,-22.7871168],[-41.9079891,-22.7782457],[-41.8932072,-22.785568],[-41.8887173,-22.7706869],[-41.8662258,-22.7618883],[-41.8816334,-22.7449911],[-41.8858944,-22.7544229],[-41.9053188,-22.7569921],[-41.9105907,-22.7683943],[-41.9254452,-22.7704847],[-41.9456478,-22.7542818],[-41.9580227,-22.7353094],[-41.9798809,-22.724798],[-41.9890743,-22.7076128],[-41.9975391,-22.6677988],[-41.9997135,-22.6327455],[-41.9961773,-22.6018484],[-41.9891888,-22.5985162],[-41.9787479,-22.5613935],[-41.9638401,-22.5366266],[-41.9437328,-22.5280302],[-41.9325176,-22.5375345],[-41.893333,-22.4884565],[-41.8826748,-22.4887731],[-41.8595386,-22.4701612],[-41.8538204,-22.4480531],[-41.8346401,-22.4287012],[-41.8177903,-22.417031]],[[-42.0862621,-22.4391418],[-42.1057932,-22.43667],[-42.1064656,-22.4360887],[-42.1025744,-22.4322653],[-42.1028083,-22.4299437],[-42.1001598,-22.4274789]],[[-42.1952261,-22.4307505],[-42.2025519,-22.4298623],[-42.2065459,-22.425506],[-42.2077458,-22.4210935],[-42.2060637,-22.4188638],[-42.2061883,-22.4162887],[-42.2040339,-22.414839],[-42.2053862,-22.4127482],[-42.2114383,-22.4115321]],[[-42.2157555,-22.3736828],[-42.2108869,-22.3617689]],[[-44.231468,-23.0753284],[-44.2377449,-23.0927858],[-44.2499071,-23.109995],[-44.2726213,-23.1174329],[-44.2867117,-23.1360824],[-44.3061617,-23.1211848],[-44.3253934,-23.1543517],[-44.3399667,-23.1534687],[-44.3486825,-23.1612203],[-44.3692448,-23.1668518],[-44.357547,-23.1916006],[-44.3455999,-23.1806438],[-44.3394712,-23.1902812],[-44.3512027,-23.2141959],[-44.3378855,-23.2232601],[-44.3290722,-23.2070696],[-44.3149326,-23.1907004],[-44.3113276,-23.1804693],[-44.2884123,-23.1765762],[-44.2700492,-23.1807702],[-44.2623267,-23.192475],[-44.2534797,-23.1892814],[-44.244869,-23.1999884],[-44.2070373,-23.1924798],[-44.1926804,-23.1986729],[-44.1848163,-23.1798419],[-44.172154,-23.1815792],[-44.1586024,-23.1714891],[-44.1399607,-23.1670272],[-44.1255788,-23.1733074],[-44.1177421,-23.1859001],[-44.0945029,-23.1747534],[-44.1171524,-23.1533358],[-44.1376976,-23.1596698],[-44.1402736,-23.1216087],[-44.1644271,-23.1419058],[-44.1763606,-23.1171075],[-44.1894415,-23.1218143],[-44.2089007,-23.1114835],[-44.2091948,-23.0922599],[-44.2335601,-23.0905996],[-44.231468,-23.0753284]],[[-43.4369938,-22.0599687],[-43.4650391,-22.0727172],[-43.5038228,-22.0752023],[-43.5069295,-22.0620096],[-43.5184225,-22.0609476],[-43.5248272,-22.0724075],[-43.559605,-22.083812],[-43.5743059,-22.0783255],[-43.5923143,-22.0562575],[-43.6128889,-22.0822966],[-43.6464278,-22.0648524],[-43.6720908,-22.0903495],[-43.6812941,-22.071777],[-43.7148551,-22.0824404],[-43.7314476,-22.0962232],[-43.7612034,-22.0793653],[-43.7748424,-22.0657263],[-43.7994766,-22.0825953],[-43.8111135,-22.0822192],[-43.8423705,-22.0996411],[-43.8579706,-22.0950507],[-43.8806469,-22.1019531],[-43.8796514,-22.1140214],[-43.9426032,-22.1324943],[-43.9534878,-22.1423281],[-43.9648813,-22.1393525],[-43.998022,-22.1559339],[-44.0338174,-22.1522504],[-44.0483413,-22.162228],[-44.0603543,-22.1602258],[-44.0907204,-22.1793619],[-44.1172885,-22.1899042],[-44.141684,-22.2203866],[-44.1530761,-22.2268124],[-44.1807049,-22.2335714],[-44.2236691,-22.2599392],[-44.2498362,-22.2604013],[-44.2605753,-22.267868],[-44.2635061,-22.2434359],[-44.2845176,-22.2435627],[-44.3170128,-22.2593875],[-44.3524219,-22.2576839],[-44.3620225,-22.2519732],[-44.3768855,-22.2682984],[-44.3899627,-22.2705088],[-44.3947967,-22.2589069],[-44.4238966,-22.2556627],[-44.4571073,-22.2575871],[-44.4633792,-22.2763202],[-44.4948214,-22.2997018],[-44.5135755,-22.3086286],[-44.5302293,-22.3231889],[-44.5325793,-22.3307041],[-44.5501376,-22.3253807],[-44.555208,-22.3306953],[-44.5812664,-22.3285415],[-44.592428,-22.3228686],[-44.6100354,-22.3265578],[-44.6267255,-22.3366084],[-44.6274461,-22.3459444],[-44.6419546,-22.3561532],[-44.6592574,-22.3743731],[-44.6703924,-22.3748184],[-44.7079531,-22.3688281],[-44.7211659,-22.3602294],[-44.7302412,-22.3611199],[-44.7446961,-22.3755902],[-44.7564257,-22.3746587],[-44.776001,-22.3842932],[-44.7933865,-22.3868711],[-44.804196,-22.3944705],[-44.8044491,-22.4039764],[-44.7831656,-22.4079297],[-44.7700824,-22.4155261],[-44.7553337,-22.4152692],[-44.7339428,-22.4328958],[-44.7192455,-22.4634211],[-44.7238223,-22.4761657],[-44.7127903,-22.509367],[-44.6888605,-22.5198073],[-44.6710072,-22.5366647],[-44.6771244,-22.5475284],[-44.6416234,-22.5602024],[-44.6471202,-22.5846413],[-44.6402486,-22.6080579],[-44.6229872,-22.6051234],[-44.612785,-22.6173448],[-44.5969551,-22.6099938],[-44.5932677,-22.6216814],[-44.583777,-22.6228551],[-44.5716079,-22.6057498],[-44.5640868,-22.6119927],[-44.5460294,-22.6069617],[-44.5375378,-22.6181941],[-44.5156,-22.6301066],[-44.5085884,-22.640947],[-44.485175,-22.6110516],[-44.4648767,-22.6159696],[-44.4467258,-22.6105125],[-44.4314745,-22.5986518],[-44.4059457,-22.5989991],[-44.3923701,-22.572494],[-44.3712139,-22.5804062],[-44.3704205,-22.5897465],[-44.35183,-22.6002366],[-44.3449903,-22.5878487],[-44.3264885,-22.5884476],[-44.313263,-22.5957672],[-44.2833338,-22.6043817],[-44.2643148,-22.6041075],[-44.2533882,-22.6124709],[-44.2456062,-22.6064197],[-44.2039458,-22.615971],[-44.2043678,-22.6263438],[-44.1842763,-22.6372991],[-44.1901268,-22.648584],[-44.1714498,-22.6594284],[-44.1613652,-22.6782584],[-44.176813,-22.6926214],[-44.1738608,-22.702108],[-44.1852319,-22.7120183],[-44.2037069,-22.7174175],[-44.1989603,-22.7352873],[-44.218331,-22.7323715],[-44.2295279,-22.7355418],[-44.2426384,-22.754611],[-44.2504728,-22.7575675],[-44.2565232,-22.7874906],[-44.2401407,-22.792658],[-44.2463792,-22.8039661],[-44.2613115,-22.8062592],[-44.2676787,-22.8292436],[-44.2833648,-22.8361567],[-44.2965216,-22.8278766],[-44.3164591,-22.839077],[-44.325274,-22.8377612],[-44.3742233,-22.8580862],[-44.4005357,-22.8550975],[-44.4106793,-22.846359],[-44.4230592,-22.8504965],[-44.4332925,-22.8688376],[-44.4661916,-22.8853713],[-44.4801342,-22.8665045],[-44.4753333,-22.8572393],[-44.4849432,-22.846201],[-44.5052785,-22.8515493],[-44.5184214,-22.8653248],[-44.5306093,-22.868087],[-44.5559534,-22.8880917],[-44.5698635,-22.8840013],[-44.6073108,-22.885237],[-44.6227174,-22.9009468],[-44.6353676,-22.9063947],[-44.6428395,-22.9175245],[-44.658994,-22.9279312],[-44.6716121,-22.9220663],[-44.6872237,-22.9325197],[-44.7035452,-22.936102],[-44.7134344,-22.9298754],[-44.7278651,-22.9418204],[-44.7438207,-22.9472056],[-44.7517661,-22.9626382],[-44.751031,-22.972011],[-44.7648405,-22.9833138],[-44.7767395,-22.9780555],[-44.7936473,-22.9863291],[-44.8012564,-22.9965004],[-44.7928172,-23.0098386],[-44.8019625,-23.0315875],[-44.8022084,-23.0487801],[-44.8188437,-23.0914584],[-44.8093378,-23.1013904],[-44.8105998,-23.1155346],[-44.8254815,-23.143741],[-44.8227272,-23.1600769],[-44.8429035,-23.1666863],[-44.8604567,-23.180978],[-44.8727325,-23.1825022],[-44.8801147,-23.2133097],[-44.8889315,-23.2245048],[-44.8859508,-23.2357903],[-44.8694641,-23.249834],[-44.8521219,-23.2488988],[-44.8399931,-23.2633896],[-44.8284829,-23.2695571],[-44.8188487,-23.2897377],[-44.8053644,-23.2900491],[-44.7874214,-23.2991069],[-44.778112,-23.3155977],[-44.7816111,-23.3258969],[-44.7707526,-23.3382542],[-44.7357554,-23.3656372],[-44.7159333,-23.3451632],[-44.7011774,-23.3402412],[-44.6850498,-23.347481],[-44.6550234,-23.3429163],[-44.6400855,-23.3309999],[-44.5993579,-23.3591691],[-44.5853556,-23.3595584],[-44.563271,-23.3329699],[-44.5662958,-23.3229946],[-44.5557631,-23.3035671],[-44.5421927,-23.3022155],[-44.5358119,-23.2920771],[-44.5139483,-23.2916589],[-44.5271944,-23.2727545],[-44.5400776,-23.2665515],[-44.547805,-23.2743106],[-44.5799661,-23.2708988],[-44.5849023,-23.2637483],[-44.5760951,-23.2537046],[-44.5748435,-23.2335604],[-44.5908709,-23.232514],[-44.5971096,-23.2442307],[-44.6209522,-23.2582831],[-44.6303995,-23.2819104],[-44.6437093,-23.2940573],[-44.6572725,-23.2921632],[-44.641982,-23.2774468],[-44.6248925,-23.2439805],[-44.6382847,-23.2339882],[-44.6519644,-23.2350194],[-44.6639192,-23.247937],[-44.6803425,-23.2526713],[-44.6783521,-23.2382105],[-44.6667264,-23.2350824],[-44.6571267,-23.2146882],[-44.6406227,-23.2146406],[-44.6251187,-23.2223684],[-44.6263612,-23.1962341],[-44.6437158,-23.1964214],[-44.652676,-23.18835],[-44.6607458,-23.2084402],[-44.6948458,-23.2326372],[-44.7151398,-23.2301514],[-44.7095291,-23.2164356],[-44.7211571,-23.2018262],[-44.7142891,-23.1940265],[-44.7109887,-23.1780103],[-44.7038103,-23.169387],[-44.7059164,-23.1562595],[-44.6951627,-23.1511773],[-44.6990838,-23.1306665],[-44.6951781,-23.0990118],[-44.6868467,-23.0752527],[-44.6686919,-23.0542549],[-44.644925,-23.0467126],[-44.6380673,-23.05253],[-44.6185755,-23.044163],[-44.6082141,-23.0498064],[-44.5961987,-23.0450674],[-44.5770236,-23.0488298],[-44.5545596,-23.0364026],[-44.5305385,-23.0271277],[-44.4948288,-23.024135],[-44.4775306,-23.0058107],[-44.4611853,-23.0073678],[-44.4484932,-23.0251924],[-44.4411822,-22.9921536],[-44.4344154,-22.9851531],[-44.4341611,-22.9628484],[-44.4230012,-22.950631],[-44.414293,-22.9540957],[-44.3926444,-22.950955],[-44.3671543,-22.9604358],[-44.3494832,-22.9457888],[-44.371393,-22.9379779],[-44.3666228,-22.9286415],[-44.3311195,-22.9258117],[-44.3235565,-22.9426842],[-44.3340628,-22.9468183],[-44.3362,-22.9645805],[-44.3189443,-22.9564692],[-44.2998713,-22.9586671],[-44.3175266,-22.9853907],[-44.3258915,-22.9918131],[-44.345302,-22.991253],[-44.3549759,-22.9985956],[-44.3630425,-23.0182486],[-44.3486912,-23.0282105],[-44.3029345,-23.002256],[-44.2970724,-23.0098024],[-44.299008,-23.026067],[-44.2799671,-23.0141045],[-44.2733666,-23.0040225],[-44.2587544,-23.006073],[-44.2413617,-23.0010878],[-44.2305499,-23.0142225],[-44.2332392,-23.0269455],[-44.2471805,-23.0485816],[-44.237068,-23.0565336],[-44.219252,-23.0499788],[-44.2005934,-23.0383087],[-44.1916294,-23.0541358],[-44.1767451,-23.0374479],[-44.1656601,-23.0339368]],[[-44.1656601,-23.0339368],[-44.1661793,-23.0152514],[-44.1676989,-23.003356],[-44.1724248,-22.9841651],[-44.1876557,-22.9518279],[-44.1931077,-22.9281033],[-44.1745978,-22.9277112],[-44.1646137,-22.9035013],[-44.1551234,-22.902163],[-44.142541,-22.88241],[-44.1277805,-22.877222],[-44.118817,-22.8673356],[-44.1042735,-22.868944],[-44.0884689,-22.8836431],[-44.0713064,-22.8781674],[-44.0515149,-22.8777056],[-44.045259,-22.8829853],[-44.0182628,-22.8706739],[-44.0037864,-22.8590424],[-43.9990894,-22.8450801],[-43.9902289,-22.8423512],[-43.9741819,-22.8545241],[-43.9804114,-22.8659568],[-43.9648722,-22.8863523],[-43.940507,-22.8837131],[-43.9269686,-22.8705539],[-43.9101907,-22.8447487],[-43.9037913,-22.8300812],[-43.8884989,-22.8240973],[-43.8800848,-22.8114736],[-43.8725963,-22.8091538],[-43.8424251,-22.7985306],[-43.8377599,-22.7958622],[-43.8301545,-22.7879007],[-43.8124511,-22.7717824],[-43.8299867,-22.767366],[-43.839835,-22.7559053],[-43.8316471,-22.7404315],[-43.832772,-22.7311503],[-43.8178034,-22.7176031],[-43.7984948,-22.7013224],[-43.8033863,-22.6912189],[-43.8199221,-22.6793964],[-43.8176128,-22.6660558],[-43.8408408,-22.6481258],[-43.8026464,-22.6292973],[-43.7891391,-22.612452],[-43.7719771,-22.60726],[-43.7788583,-22.5807161],[-43.776266,-22.5669767],[-43.7933899,-22.5488393],[-43.7890469,-22.5344394],[-43.777732,-22.5311915],[-43.7699193,-22.5179589],[-43.7657762,-22.4587933],[-43.7596234,-22.4491247],[-43.7728787,-22.4375461],[-43.7601191,-22.4231545],[-43.7553254,-22.408878],[-43.7438354,-22.4023694],[-43.728676,-22.3828956],[-43.7190759,-22.3764863],[-43.7012477,-22.3843121],[-43.6914397,-22.369813],[-43.67934,-22.3618644],[-43.6792932,-22.3498714],[-43.6635329,-22.3431572],[-43.6690858,-22.325424],[-43.6539143,-22.3120911],[-43.6379093,-22.3173115],[-43.6243962,-22.3046652],[-43.6053513,-22.3072775],[-43.5866506,-22.2864047],[-43.5621442,-22.2648535],[-43.5251682,-22.2763321],[-43.5173088,-22.2613008],[-43.5198795,-22.2443737],[-43.5147473,-22.2364607],[-43.4810676,-22.2498326],[-43.4705153,-22.2244498],[-43.4577583,-22.2163254],[-43.426496,-22.2360492],[-43.4193205,-22.224065]],[[-43.4193205,-22.224065],[-43.4004141,-22.2162982],[-43.4369938,-22.0599687]],[[-44.3719585,-23.0368035],[-44.3513808,-23.0594547],[-44.3472155,-23.043257],[-44.3719585,-23.0368035]],[[-44.030048,-22.9960116],[-44.0501723,-23.0010968],[-44.0471574,-23.0115108],[-44.0305933,-23.0082521],[-44.030048,-22.9960116]],[[-43.793141,-23.0614563],[-43.8175367,-23.0600387],[-43.8421013,-23.0543877],[-43.8810184,-23.0421028],[-43.8773965,-23.0498313],[-43.8823228,-23.0669963],[-43.8994668,-23.0687956],[-43.9161008,-23.0592741],[-43.9333909,-23.057165],[-43.9474778,-23.0504415],[-43.9544335,-23.0409264],[-43.9737221,-23.0455041],[-43.9824587,-23.0581788],[-44.0107424,-23.0793065],[-44.006465,-23.0964754],[-43.9879975,-23.1024004],[-43.9679631,-23.0904553],[-43.9346205,-23.0831005],[-43.8820962,-23.0747432],[-43.8470545,-23.0717752],[-43.7836641,-23.0626873],[-43.7208061,-23.0566587],[-43.630363,-23.0502651],[-43.6060767,-23.0505107],[-43.5768952,-23.0563138],[-43.5769517,-23.0481352],[-43.6039813,-23.0387066],[-43.6142776,-23.030969],[-43.6637037,-23.0407434],[-43.706992,-23.0530833],[-43.7539941,-23.059757],[-43.793141,-23.0614563]],[[-43.9168579,-22.9910853],[-43.9274642,-22.988897],[-43.937401,-22.9986783],[-43.931237,-23.0076512],[-43.9168579,-22.9910853]],[[-43.8824602,-22.9248429],[-43.8923565,-22.9335452],[-43.9019991,-22.9303666],[-43.9109268,-22.9413852],[-43.8968922,-22.9586076],[-43.8681712,-22.9255746],[-43.8824602,-22.9248429]],[[-43.2783281,-22.3561616],[-43.2877739,-22.370703],[-43.3253957,-22.2787201]],[[-43.3988421,-22.2211443],[-43.4193205,-22.224065]],[[-44.1656601,-23.0339368],[-44.1446907,-23.036032],[-44.1133457,-23.0232034],[-44.0959409,-23.0048576],[-44.0961004,-22.9956112],[-44.0825803,-22.9929905],[-44.0756499,-22.9729791],[-44.0813277,-22.9594999],[-44.0742717,-22.9520492],[-44.0537747,-22.9422934],[-44.0410331,-22.9474006],[-44.0419851,-22.9633696],[-44.052685,-22.9730671],[-44.0472935,-22.9845043],[-44.0326291,-22.9810598],[-44.0327782,-22.9711357],[-44.0122839,-22.9459265],[-43.9909103,-22.9402695],[-43.9770004,-22.9314219],[-43.9648895,-22.9344399],[-43.9509172,-22.9269528],[-43.9102718,-22.9310166],[-43.8830205,-22.9215042],[-43.8804592,-22.9122439],[-43.867489,-22.9039029],[-43.8456571,-22.9017065],[-43.839026,-22.9117719],[-43.8522129,-22.9244979],[-43.8320353,-22.9311906],[-43.8102224,-22.917569],[-43.8014366,-22.9245116],[-43.7843279,-22.9242711],[-43.7740441,-22.9327601],[-43.7462805,-22.9458873],[-43.7178596,-22.9695858],[-43.7109637,-22.970579],[-43.7006032,-22.9857035],[-43.6742791,-22.9803094],[-43.6589721,-22.9916438],[-43.6532004,-23.0027751],[-43.6229159,-23.0078702],[-43.6141027,-23.0176301],[-43.599564,-23.0228836],[-43.5780745,-23.0456081],[-43.562373,-23.0531564],[-43.569089,-23.0662934],[-43.5541368,-23.0726433],[-43.5489318,-23.0607076],[-43.5343866,-23.0502917],[-43.5085352,-23.0475738],[-43.4928009,-23.0353181],[-43.4455964,-23.0229183],[-43.3986838,-23.0143491],[-43.3576048,-23.0111214],[-43.3359425,-23.011363],[-43.3070557,-23.0160003],[-43.2873845,-23.0148424],[-43.2747269,-23.002277],[-43.2407815,-23.0004151],[-43.2266681,-22.988537],[-43.1952466,-22.9884332],[-43.1769287,-22.9683585],[-43.1625485,-22.965274],[-43.1565953,-22.9533049],[-43.1803779,-22.9479345],[-43.1712692,-22.9324076],[-43.1615378,-22.9052779],[-43.1770238,-22.8958765],[-43.1958862,-22.8920373],[-43.2108437,-22.8976064],[-43.2165364,-22.8735543],[-43.2266671,-22.8741249],[-43.2262096,-22.8691535],[-43.2365296,-22.8620282],[-43.243236,-22.8422557],[-43.2539085,-22.8373219],[-43.2668898,-22.8234842],[-43.2735418,-22.8101522],[-43.2705035,-22.7987592],[-43.27863,-22.7804863],[-43.2578794,-22.7564137],[-43.2381868,-22.7428017],[-43.219323,-22.7389899],[-43.1947401,-22.7220395],[-43.184716,-22.7216902],[-43.151794,-22.7080015],[-43.1339363,-22.7150404],[-43.1173525,-22.7068537],[-43.1176099,-22.6986864],[-43.1004127,-22.6859606],[-43.0845631,-22.6796607],[-43.0513496,-22.692737],[-43.037207,-22.7007754],[-43.0291613,-22.7262947],[-43.0294023,-22.7476182],[-43.0638281,-22.7648069],[-43.0683784,-22.7786477],[-43.0815323,-22.7893856],[-43.0789438,-22.7991317],[-43.0650793,-22.8029319],[-43.0820829,-22.8200513],[-43.0971232,-22.8281171],[-43.1015676,-22.8530319],[-43.1345626,-22.8815742],[-43.1289631,-22.8917403],[-43.1304204,-22.908519],[-43.1167964,-22.9043641],[-43.1110183,-22.9153319],[-43.0957821,-22.9155471],[-43.0986248,-22.9315746],[-43.1174468,-22.9367357],[-43.1104297,-22.9536496],[-43.0773004,-22.9559543],[-43.0519448,-22.9636319],[-43.0457447,-22.9724856],[-43.0140716,-22.9770959],[-43.0046864,-22.9697186],[-42.9668363,-22.9700059],[-42.9177002,-22.9749446],[-42.8707092,-22.9656493],[-42.7331058,-22.9564613],[-42.7026317,-22.9565952],[-42.689761,-22.9620791],[-42.6804787,-22.9461577],[-42.6412124,-22.9375378]],[[-43.1722315,-22.7756487],[-43.1856682,-22.784698],[-43.1885841,-22.7945695],[-43.2076901,-22.7949895],[-43.2193146,-22.7851515],[-43.2566881,-22.7974008],[-43.2656753,-22.8128498],[-43.2376545,-22.8327381],[-43.2267189,-22.8206628],[-43.2102231,-22.8156526],[-43.1911223,-22.8203098],[-43.1845642,-22.8300555],[-43.1726462,-22.825297],[-43.1783521,-22.8020611],[-43.1574536,-22.7873981],[-43.1566559,-22.7790715],[-43.1722315,-22.7756487]],[[-43.2317627,-22.8361484],[-43.2399696,-22.8423247],[-43.2362388,-22.8611336],[-43.2219459,-22.870743],[-43.2140988,-22.8678269],[-43.2181023,-22.8588697],[-43.232374,-22.8474515],[-43.2317627,-22.8361484]]],"bbox":[-44.8889315,-23.3656372,-40.9592911,-20.7633863]}
