{"type":"Topology","objects":{"geometrias":{"type":"GeometryCollection","geometries":[{"type":"Polygon","arcs":[[0,1]],"properties":{"code_meso":2201,"code_state":22,"code_region":2,"name_meso":"Norte Piauiense","abbrev_state":"PI","name_state":"Piauí","name_region":"Nordeste","year":2020}},{"type":"Polygon","arcs":[[2,3,4,5,6,-2]],"properties":{"code_meso":2202,"code_state":22,"code_region":2,"name_meso":"Centro-Norte Piauiense","abbrev_state":"PI","name_state":"Piauí","name_region":"Nordeste","year":2020}},{"type":"Polygon","arcs":[[7,8,9,-4]],"properties":{"code_meso":2203,"code_state":22,"code_region":2,"name_meso":"Sudoeste Piauiense","abbrev_state":"PI","name_state":"Piauí","name_region":"Nordeste","year":2020}},{"type":"Polygon","arcs":[[-6,10,-9,11]],"properties":{"code_meso":2204,"code_state":22,"code_region":2,"name_meso":"Sudeste Piauiense","abbrev_state":"PI","name_state":"Piauí","name_region":"Nordeste","year":2020}}]}},"arcs":[[[-41.0981053,-4.1804614],[-41.1408264,-4.123585],[-41.1141151,-4.0518193],[-41.2388289,-4.015405],[-41.24924,-3.9898697],[-41.2202395,-3.9415055],[-41.2677571,-3.8618499],[-41.2768563,-3.8256211],[-41.2585189,-3.7327755],[-41.2393389,-3.7126454],[-41.3417478,-3.6807726],[-41.3313155,-3.6246843],[-41.3449041,-3.588739],[-41.319739,-3.4840869],[-41.3240493,-3.3859241],[-41.3870216,-3.3900079],[-41.4123177,-3.3406973],[-41.3224851,-3.1797928],[-41.3275371,-3.1599678],[-41.2675025,-3.0928897],[-41.2525524,-3.0356505],[-41.2799387,-2.9678059],[-41.3027121,-2.9672499],[-41.3403496,-2.9274392],[-41.3978786,-2.904092],[-41.4783613,-2.89602],[-41.512453,-2.9117489],[-41.557653,-2.8973702],[-41.5943883,-2.9041708],[-41.632273,-2.8843683],[-41.7288641,-2.8032042],[-41.8030825,-2.7504299],[-41.8410686,-2.7680624],[-41.8660379,-2.8699664],[-41.7963094,-2.9595642],[-41.8228453,-3.0179417],[-41.9253585,-3.1150742],[-41.9250838,-3.1393739],[-42.0127758,-3.2480714],[-42.0689723,-3.2643565],[-42.1092714,-3.2616465],[-42.1257977,-3.3464177],[-42.1506693,-3.3866119],[-42.1947444,-3.3993918],[-42.1995819,-3.4278288],[-42.2470775,-3.4325601],[-42.2952656,-3.4540514],[-42.3166987,-3.4341703],[-42.3558482,-3.4506558],[-42.418981,-3.4535822],[-42.4612565,-3.4846029],[-42.5269691,-3.485627],[-42.565152,-3.5673871],[-42.6117701,-3.5871407],[-42.6188251,-3.6206567],[-42.6750751,-3.6726539],[-42.6713615,-3.787338],[-42.7198343,-3.8750962],[-42.7392821,-3.9272592],[-42.7875595,-3.9629428],[-42.8415051,-4.0296258],[-42.8873033,-4.1473043],[-42.9382553,-4.1613185],[-42.9874122,-4.2283749],[-42.9847736,-4.2835362],[-42.963457,-4.3539761]],[[-42.963457,-4.3539761],[-42.8862604,-4.3639634],[-42.8121463,-4.3984803],[-42.7112997,-4.3977363],[-42.5816036,-4.4270521],[-42.569017,-4.372053],[-42.5458784,-4.3628093],[-42.4736774,-4.4342865],[-42.4447497,-4.4405453],[-42.4353912,-4.4775915],[-42.29575,-4.5510672],[-42.2784975,-4.5494562],[-42.0609885,-4.434006],[-42.0792814,-4.3742235],[-42.026931,-4.3542246],[-41.9586862,-4.4252894],[-41.9106599,-4.4268667],[-41.8532763,-4.4589587],[-41.8084621,-4.5098075],[-41.7302519,-4.5472891],[-41.6386994,-4.4632026],[-41.6413726,-4.4091554],[-41.6674613,-4.3537534],[-41.6171395,-4.3388238],[-41.5938837,-4.302118],[-41.5608051,-4.3103329],[-41.5250229,-4.2566704],[-41.497327,-4.1804284],[-41.4506227,-4.1933481],[-41.4100402,-4.1484559],[-41.3765172,-4.1581302],[-41.3469254,-4.1367921],[-41.3023644,-4.1469991],[-41.3018502,-4.1570297],[-41.2808996,-4.1700014],[-41.2547438,-4.1429472],[-41.239278,-4.1510984],[-41.2043604,-4.1461067],[-41.1932979,-4.1537558],[-41.163886,-4.1883053],[-41.0981053,-4.1804614]],[[-42.963457,-4.3539761],[-42.8710854,-4.4300212],[-42.8755527,-4.4629476],[-42.8521698,-4.5059709],[-42.8750876,-4.5365172],[-42.8665233,-4.5662958],[-42.9161689,-4.6514334],[-42.9446269,-4.6716971],[-42.9230768,-4.7212766],[-42.947344,-4.7633435],[-42.9386462,-4.8092127],[-42.8974052,-4.8426144],[-42.8856392,-4.9046048],[-42.8539165,-4.9372598],[-42.8632006,-4.9681237],[-42.8353951,-5.0739684],[-42.8182455,-5.0975515],[-42.7989936,-5.1896781],[-42.8294846,-5.2392642],[-42.8122357,-5.2823751],[-42.8243649,-5.3449061],[-42.8866425,-5.3918993],[-42.9095318,-5.3944861],[-42.9306814,-5.4391741],[-42.9697043,-5.4575611],[-42.9740668,-5.4859637],[-43.0244021,-5.5617437],[-43.0332174,-5.5920741],[-43.0819956,-5.5995129],[-43.0976489,-5.6267148],[-43.0758068,-5.7311104],[-43.1011671,-5.7586283],[-43.096525,-5.8297994],[-43.077175,-5.8741309],[-43.0989682,-5.9008642],[-43.0842113,-5.9573401],[-43.0475635,-5.9973364],[-43.075709,-6.0411928],[-43.0491272,-6.1015897],[-42.9922986,-6.1175746],[-42.9699111,-6.1773251],[-42.8545028,-6.2498564],[-42.8491967,-6.3071447],[-42.8316358,-6.3446918],[-42.8779309,-6.4184932],[-42.8657951,-6.483881],[-42.886233,-6.5087383],[-42.8885014,-6.58016],[-42.9150939,-6.6479544]],[[-42.9150939,-6.6479544],[-42.8569377,-6.6622819],[-42.8414513,-6.7056325],[-42.7932752,-6.7745685],[-42.665873,-6.8521909],[-42.6233856,-6.7979325],[-42.606457,-6.8085819]],[[-42.606457,-6.8085819],[-42.5988045,-6.7997827]],[[-42.5988045,-6.7997827],[-42.5797669,-6.7915166],[-42.5745343,-6.787413],[-42.5731277,-6.7900468],[-42.5699755,-6.7824932],[-42.553089,-6.723998],[-42.4895609,-6.7085767],[-42.4781769,-6.6678762],[-42.455618,-6.6674117],[-42.4283646,-6.6617842],[-42.4124584,-6.6647874],[-42.3754373,-6.6766993],[-42.3564756,-6.528509],[-42.3094626,-6.5140099],[-42.3054844,-6.5898517],[-42.2055552,-6.6248518],[-42.1827466,-6.6472185],[-42.0647975,-6.6380252],[-41.9981581,-6.6170038],[-41.9126255,-6.6503651],[-41.898242,-6.686261],[-41.8163674,-6.7149812],[-41.7634335,-6.7916694],[-41.660529,-6.7960146],[-41.6606737,-6.8299727],[-41.6066005,-6.8335309],[-41.5427127,-6.7383134],[-41.4796235,-6.7449299],[-41.5110973,-6.6082524],[-41.5084595,-6.5568846],[-41.4264515,-6.5658679],[-41.2819085,-6.6511307],[-41.2930877,-6.6746035],[-41.1968966,-6.6794833],[-41.1303497,-6.6551931],[-41.1431201,-6.7504665],[-41.0953591,-6.7566931],[-40.7899395,-6.5006314]],[[-40.7899395,-6.5006314],[-40.8051547,-6.3931316],[-40.7791491,-6.3413465],[-40.8522242,-6.2242205],[-40.8457385,-6.134995],[-40.8728458,-6.0566276],[-40.9039474,-6.020877],[-40.8735913,-5.9730536],[-40.880216,-5.9176672],[-40.9056455,-5.8492766],[-40.9135413,-5.7267463],[-40.9387693,-5.6733406],[-40.903254,-5.6325524],[-40.9156645,-5.5643716],[-40.9323823,-5.548897],[-40.9360725,-5.4400918],[-40.9170161,-5.3894477],[-40.9269076,-5.2969667],[-40.9117131,-5.2666535],[-40.9252903,-5.1820967],[-41.0264052,-5.1096969],[-41.0813031,-5.0900729],[-41.0970052,-5.0531485],[-41.1320192,-5.0485713],[-41.1225996,-5.0080684],[-41.1802162,-4.9475449],[-41.2213666,-4.9382298],[-41.2495738,-4.8696902],[-41.2431815,-4.8283262],[-41.2127659,-4.772025],[-41.2477903,-4.7617835],[-41.1817163,-4.6738033],[-41.2293307,-4.620095],[-41.2215303,-4.5674913],[-41.190776,-4.515529],[-41.1600114,-4.3814973],[-41.1191241,-4.3065257],[-41.1359048,-4.2335113],[-41.0981053,-4.1804614]],[[-42.9150939,-6.6479544],[-42.9199314,-6.6710081],[-42.977444,-6.7179372],[-42.9928003,-6.7487284],[-43.0479056,-6.7619503],[-43.0882871,-6.7517415],[-43.1475876,-6.7836885],[-43.1782741,-6.7673365],[-43.2500549,-6.7686466],[-43.2712618,-6.7925679],[-43.3451933,-6.7975282],[-43.3903025,-6.8338986],[-43.45753,-6.8460734],[-43.5083976,-6.7988271],[-43.5416337,-6.7891369],[-43.6428744,-6.7165511],[-43.7908561,-6.702332],[-43.879918,-6.7577824],[-43.9451026,-6.76551],[-43.9877336,-6.7572779],[-44.0533707,-6.7683088],[-44.0590626,-6.8084375],[-44.171346,-6.8849772],[-44.1786515,-6.9271586],[-44.2359545,-6.9987123],[-44.2622947,-7.0013021],[-44.2757784,-7.0745111],[-44.3051848,-7.1178122],[-44.3324675,-7.1086126],[-44.3860639,-7.1209154],[-44.5641953,-7.227708],[-44.6158702,-7.3086662],[-44.6591714,-7.3285253],[-44.688641,-7.3949088],[-44.7803456,-7.3785175],[-44.8164962,-7.3608938],[-44.8697051,-7.4230572],[-44.9004353,-7.4254106],[-44.9230093,-7.4682318],[-44.9870148,-7.4811379],[-45.0492328,-7.5132098],[-45.0843087,-7.5021569],[-45.155528,-7.5129145],[-45.2136061,-7.5655847],[-45.3346804,-7.5776595],[-45.3721818,-7.6183838],[-45.4700819,-7.6898976],[-45.4895111,-7.7862569],[-45.5407541,-7.8640562],[-45.5223797,-7.8882602],[-45.5776554,-8.0283313],[-45.5630388,-8.0456436],[-45.585718,-8.1027887],[-45.5837278,-8.1569362],[-45.609782,-8.2054181],[-45.6636264,-8.2505308],[-45.667125,-8.2886542],[-45.7031008,-8.3807083],[-45.7246755,-8.394824],[-45.7449161,-8.4491543],[-45.7386778,-8.5006556],[-45.7724269,-8.5746765],[-45.7774735,-8.6174334],[-45.815991,-8.6327526],[-45.8404069,-8.715529],[-45.8898847,-8.7392622],[-45.9536804,-8.8069269],[-45.9911913,-8.950212],[-45.943779,-9.0151149],[-45.9232199,-9.0899924],[-45.9294989,-9.1276255],[-45.8972877,-9.2332596],[-45.9079205,-9.297005],[-45.8877335,-9.3488501],[-45.8480022,-9.3558846],[-45.7991632,-9.4163401],[-45.7834353,-9.4794771],[-45.8323329,-9.5366631],[-45.8367433,-9.6021266],[-45.8203869,-9.6179128],[-45.8385678,-9.6963177],[-45.8210097,-9.7392142],[-45.8662777,-9.870719],[-45.8422862,-9.9415579],[-45.8801071,-10.0610063],[-45.8785439,-10.1102993],[-45.9000213,-10.1527686],[-45.945619,-10.1964425],[-45.9739471,-10.2483699],[-46.0198746,-10.2556523],[-45.9711149,-10.3589393],[-45.9109369,-10.3710886],[-45.8871714,-10.3404619],[-45.9156318,-10.3126645],[-45.8967285,-10.2642902],[-45.8670709,-10.2541064],[-45.7937433,-10.2676724],[-45.7440252,-10.2399559],[-45.7268217,-10.2071033],[-45.734997,-10.1721653],[-45.6487641,-10.127334],[-45.5932274,-10.110297],[-45.5674564,-10.1395225],[-45.5716489,-10.1809398],[-45.5261867,-10.2369276],[-45.5223538,-10.2766536],[-45.4846518,-10.304898],[-45.4257722,-10.3702837],[-45.4244966,-10.4264902],[-45.4002689,-10.4630743],[-45.4472563,-10.507423],[-45.4373282,-10.6155663],[-45.385216,-10.6516326],[-45.358219,-10.7322075],[-45.3223736,-10.7602651],[-45.268466,-10.7762298],[-45.2480519,-10.8219674],[-45.1052963,-10.84682],[-45.0732357,-10.8404226],[-45.0165971,-10.8845991],[-44.9950448,-10.8838946],[-44.9312179,-10.9287563],[-44.8638008,-10.8852263],[-44.8111427,-10.8704266],[-44.7880619,-10.8085216],[-44.7145743,-10.7617251],[-44.6676847,-10.7600566],[-44.6666217,-10.6823422],[-44.6127634,-10.666757],[-44.5849044,-10.6293509],[-44.5005052,-10.6497019],[-44.4636318,-10.6152568],[-44.3980737,-10.6058781],[-44.3492852,-10.5524812],[-44.3145472,-10.557363],[-44.2829095,-10.6070907],[-44.2495236,-10.62778],[-44.2086475,-10.6153242],[-44.1655401,-10.6429012],[-44.1282889,-10.6314873],[-44.1106216,-10.597196],[-44.0721137,-10.5799277],[-44.0510104,-10.5062386],[-44.0258437,-10.4754707],[-44.0358667,-10.4354256],[-44.0180676,-10.405147],[-43.9769335,-10.4313765],[-43.9143863,-10.419915],[-43.8950961,-10.3544907],[-43.8382919,-10.304626],[-43.8372651,-10.2500682],[-43.7848162,-10.191678],[-43.7592285,-10.0746052],[-43.6909514,-10.0727709],[-43.6663439,-9.9895402],[-43.6969008,-9.9740926],[-43.7090353,-9.9132195],[-43.6774485,-9.8865278],[-43.653245,-9.8390553],[-43.6972554,-9.8043009],[-43.7849218,-9.762385],[-43.7972603,-9.6964973],[-43.8419522,-9.6374276],[-43.8525813,-9.5621384],[-43.818433,-9.4942419],[-43.7514198,-9.4340724],[-43.6891438,-9.4196828],[-43.6216326,-9.3715377],[-43.5790266,-9.3203902],[-43.5371418,-9.3074732],[-43.4975271,-9.2725256],[-43.4381286,-9.2661378],[-43.3764222,-9.3489049],[-43.2997169,-9.3945209],[-43.2851174,-9.420028],[-43.2142901,-9.3996483],[-43.1739285,-9.4112239],[-43.161524,-9.3792501],[-43.0666099,-9.3940476],[-43.0579143,-9.4147616],[-42.9868297,-9.4016072],[-42.9571153,-9.4324125],[-42.9462488,-9.5184131],[-42.9040163,-9.5267542],[-42.8767235,-9.5616237],[-42.8281932,-9.5605212],[-42.8205528,-9.6192304],[-42.7699572,-9.6191821],[-42.7204159,-9.5605119],[-42.6217206,-9.5413375],[-42.5921064,-9.5002821],[-42.4930918,-9.4949004],[-42.4890689,-9.4620372],[-42.4517707,-9.4621032],[-42.4184943,-9.4093633],[-42.3646685,-9.3820875],[-42.357049,-9.3525645],[-42.3160766,-9.3166123],[-42.2689127,-9.3104468],[-42.2436577,-9.2888567],[-42.2064354,-9.2927815],[-42.0950446,-9.2785611],[-42.0665857,-9.255986],[-41.9722662,-9.2486381],[-41.9247682,-9.277797],[-41.8705206,-9.2374314],[-41.8379658,-9.242272],[-41.8000703,-9.1480266],[-41.732659,-9.0877254],[-41.7308218,-9.0279572],[-41.6694039,-8.9900791],[-41.6334052,-8.9860073],[-41.6057947,-8.9574039],[-41.5700566,-8.9550295],[-41.531346,-8.9277042],[-41.5110501,-8.8776121],[-41.4113912,-8.7743682],[-41.4233052,-8.7662804]],[[-41.4233052,-8.7662804],[-41.454827,-8.755921],[-41.49986,-8.805158],[-41.559631,-8.778949],[-41.601365,-8.794666],[-41.645827,-8.758082],[-41.703849,-8.739526],[-41.712605,-8.728686],[-41.780653,-8.714253],[-41.807062,-8.68926],[-41.840137,-8.702299],[-41.851942,-8.694342],[-41.929607,-8.64452],[-41.967909,-8.635858],[-41.994902,-8.599014],[-42.02806,-8.586766],[-42.04068,-8.5863],[-42.1257066,-8.5665735],[-42.1580386,-8.5904168],[-42.1894077,-8.5839772],[-42.2100623,-8.6491911],[-42.2914408,-8.6301051],[-42.3107451,-8.662577],[-42.4751544,-8.6573138],[-42.7334892,-8.8006379],[-42.7230384,-8.6532649],[-42.6945483,-8.5505042],[-42.6380267,-8.4933931],[-42.6433419,-8.4183847],[-42.603209,-8.2961776],[-42.5883075,-8.2229848],[-42.5833691,-8.1241595],[-42.6091085,-8.1124733],[-42.6592359,-8.0313475],[-42.7118945,-8.0198938],[-42.7119693,-7.9766205],[-42.6863083,-7.778982],[-42.7562431,-7.7019572],[-42.7288482,-7.6546275],[-42.6792616,-7.623382],[-42.678542,-7.5914585],[-42.5809144,-7.5839271],[-42.5841399,-7.6801643],[-42.5086886,-7.8425076],[-42.4823993,-7.8360379],[-42.4765034,-7.7017433],[-42.4158126,-7.757153],[-42.3553759,-7.7239717],[-42.1892183,-7.7224154],[-42.2991891,-7.627448],[-42.219312,-7.6294515],[-42.1703802,-7.5214945],[-42.2185147,-7.4380052],[-42.314899,-7.4313501],[-42.3607026,-7.4177487],[-42.310236,-7.2232642],[-42.403838,-7.1698181],[-42.4207963,-6.9671515],[-42.593962,-6.995273],[-42.6011051,-6.9680462],[-42.5666005,-6.8691298],[-42.6040895,-6.8371914],[-42.6079318,-6.8167648]],[[-42.6079318,-6.8167648],[-42.606457,-6.8085819]],[[-42.5988045,-6.7997827],[-42.6079318,-6.8167648]],[[-41.4233052,-8.7662804],[-41.3812515,-8.7072724],[-41.3142616,-8.6961023],[-41.287434,-8.6608391],[-41.2135429,-8.6441555],[-41.1985662,-8.5924771],[-41.1652615,-8.5778868],[-41.1483768,-8.5330293],[-41.1161848,-8.5372691],[-41.0575952,-8.477658],[-41.0389906,-8.4318292],[-40.9813794,-8.3979296],[-40.925149,-8.4463261],[-40.8898704,-8.3867499],[-40.836566,-8.3807991],[-40.8178961,-8.3204902],[-40.7798798,-8.3019327],[-40.782482,-8.253304],[-40.7110611,-8.2250615],[-40.700588,-8.2026077],[-40.6435661,-8.1575368],[-40.5896984,-8.1388083],[-40.5987568,-8.0808577],[-40.5442221,-7.9645971],[-40.538124,-7.8569373],[-40.5684048,-7.8087586],[-40.6451665,-7.786799],[-40.6718643,-7.7356058],[-40.6277497,-7.6849895],[-40.6265611,-7.6316836],[-40.6952478,-7.5368071],[-40.713786,-7.4939106],[-40.7012014,-7.4563563],[-40.5484637,-7.3926915],[-40.5415082,-7.3322691],[-40.5116313,-7.2994306],[-40.5135611,-7.2397033],[-40.4843697,-7.1331987],[-40.4533848,-7.0712338],[-40.4286547,-6.9961299],[-40.4285196,-6.8642545],[-40.3705774,-6.8079935],[-40.4321666,-6.8129776],[-40.4769263,-6.7328317],[-40.6022071,-6.7160118],[-40.6491396,-6.6788294],[-40.7005233,-6.6773629],[-40.7322461,-6.6552201],[-40.7220026,-6.6176828],[-40.7899395,-6.5006314]]],"bbox":[-46.0198746,-10.9287563,-40.3705774,-2.7504299]}
