{"type":"Topology","objects":{"geometrias":{"type":"GeometryCollection","geometries":[{"type":"Polygon","arcs":[[0,1]],"properties":{"code_meso":1101,"code_state":11,"code_region":1,"name_meso":"Madeira-Guaporé","abbrev_state":"RO","name_state":"Rondônia","name_region":"Norte","year":2020}},{"type":"Polygon","arcs":[[2,-2]],"properties":{"code_meso":1102,"code_state":11,"code_region":1,"name_meso":"Leste Rondoniense","abbrev_state":"RO","name_state":"Rondônia","name_region":"Norte","year":2020}}]}},"arcs":[[[-62.2688885,-8.5757586],[-62.2943077,-8.6054408],[-62.2895023,-8.6390966],[-62.3357776,-8.6094846],[-62.3258047,-8.5637074],[-62.3373587,-8.5166389],[-62.3660512,-8.4935617],[-62.3692809,-8.4461191],[-62.3608035,-8.3985493],[-62.3840279,-8.3775558],[-62.4322478,-8.3720281],[-62.4654746,-8.33974],[-62.5184725,-8.3847382],[-62.539557,-8.3581095],[-62.5853879,-8.2718806],[-62.6000575,-8.2722387],[-62.6550016,-8.2290564],[-62.6598885,-8.1996336],[-62.6866642,-8.1737744],[-62.6730277,-8.1453106],[-62.6922801,-8.0929083],[-62.7439725,-8.0452861],[-62.8099965,-8.0253396],[-62.8328333,-7.9943716],[-62.8666166,-7.9758683],[-63.1183827,-7.9771072],[-63.6212491,-7.9765317],[-63.621779,-8.0296108],[-63.6670003,-8.0816033],[-63.6624486,-8.1011713],[-63.6934211,-8.1583487],[-63.7415348,-8.1900741],[-63.7485628,-8.2078652],[-63.7227614,-8.249499],[-63.7465624,-8.2701692],[-63.7735083,-8.3207328],[-63.7912313,-8.3332153],[-63.8253386,-8.3061526],[-63.8707594,-8.2888196],[-63.8949267,-8.3020287],[-63.9108358,-8.3285248],[-63.9456197,-8.338933],[-63.9453732,-8.3878261],[-63.9769546,-8.4097397],[-63.9408384,-8.452264],[-63.9731772,-8.4784472],[-63.9708971,-8.4993333],[-63.9437881,-8.5266044],[-63.9456204,-8.550498],[-63.9245687,-8.5755254],[-63.9459539,-8.6094853],[-63.9862097,-8.5856339],[-64.0164261,-8.667682],[-64.0431747,-8.7119098],[-64.0751521,-8.7131075],[-64.0947671,-8.7283635],[-64.1245948,-8.7167138],[-64.1430671,-8.7430315],[-64.1447623,-8.7764473],[-64.129459,-8.8051627],[-64.1582033,-8.8431675],[-64.1417669,-8.9450507],[-64.2332051,-8.9923081],[-64.2650711,-8.9883824],[-64.3113185,-8.9964708],[-64.326072,-8.9798321],[-64.3095688,-8.9344929],[-64.3233996,-8.9288606],[-64.3799237,-8.9467351],[-64.446574,-8.9768705],[-64.5501239,-8.9782709],[-64.587961,-9.0095099],[-64.641538,-9.006646],[-64.6713762,-9.0147962],[-64.6833507,-8.9936169],[-64.7136811,-8.9938629],[-64.7611805,-9.0205834],[-64.7839641,-8.9892699],[-64.8164156,-8.98662],[-64.8705663,-9.0121936],[-64.8940991,-9.0437018],[-64.9172668,-9.0431411],[-64.9156801,-9.0746143],[-64.9399298,-9.1245658],[-64.9196828,-9.2202803],[-64.9628795,-9.2927766],[-65.0005153,-9.3046138],[-65.053546,-9.4021423],[-65.0779285,-9.4009814],[-65.0889104,-9.4250804],[-65.1428806,-9.4468123],[-65.1854632,-9.4270317],[-65.1735439,-9.3854485],[-65.1961582,-9.3752629],[-65.1883246,-9.3448525],[-65.2089565,-9.3096433],[-65.2117718,-9.2789934],[-65.2466614,-9.2576636],[-65.2703819,-9.2636117],[-65.3073529,-9.291487],[-65.3775134,-9.3244261],[-65.4402184,-9.3117453],[-65.4461298,-9.3706882],[-65.4566002,-9.4012087],[-65.4320983,-9.458635],[-65.4566578,-9.4705194],[-65.5031633,-9.4699754],[-65.5556338,-9.4224552],[-65.5881079,-9.4137738],[-65.6794352,-9.4513929],[-65.6809976,-9.5004075],[-65.6960809,-9.5076713],[-65.7299672,-9.5630727],[-65.8000217,-9.5850225],[-65.8250771,-9.5300912],[-65.8482485,-9.5323243],[-65.8809081,-9.4874649],[-65.9126344,-9.4837503],[-65.9318805,-9.4475944],[-65.9703006,-9.4131601],[-66.0424116,-9.4023724],[-66.0597396,-9.4182176],[-66.1238908,-9.4087794],[-66.1736328,-9.4344187],[-66.2047463,-9.4259737],[-66.2434147,-9.4293871],[-66.2596688,-9.4109965],[-66.3747764,-9.4263661],[-66.4088584,-9.4069466],[-66.3890009,-9.4642796],[-66.3924143,-9.5004801],[-66.4235776,-9.5257876],[-66.4389348,-9.55439],[-66.4949168,-9.6015832],[-66.5006134,-9.6335642],[-66.5368884,-9.6435496],[-66.5863066,-9.6735589],[-66.6241659,-9.6808192],[-66.6849453,-9.7146456],[-66.691803,-9.7338899],[-66.7253897,-9.7560725],[-66.7753636,-9.7530913],[-66.7805792,-9.7913933],[-66.8102531,-9.8180459],[-66.6267197,-9.8981012],[-66.5875826,-9.9003015],[-66.5588611,-9.8809502],[-66.4358032,-9.8660127],[-66.4120831,-9.8820268],[-66.3951909,-9.864176],[-66.313389,-9.8325715],[-66.2550757,-9.8333063],[-66.2376611,-9.8145963],[-66.2133083,-9.8342554],[-66.1950561,-9.8063093],[-66.1529391,-9.785746],[-66.1014448,-9.8033588],[-66.0711099,-9.7842972],[-66.0332195,-9.7889338],[-66.02814,-9.8066732],[-65.9741334,-9.7979149],[-65.9735213,-9.7773322],[-65.9225231,-9.7563988],[-65.9030823,-9.7668253],[-65.8713618,-9.7533886],[-65.8535809,-9.7943418],[-65.8204949,-9.7664367],[-65.80572,-9.788088],[-65.750691,-9.7774574],[-65.7188849,-9.7559534],[-65.6849694,-9.7490081],[-65.6725794,-9.7821248],[-65.6236948,-9.8359798],[-65.5969534,-9.8419106],[-65.5541007,-9.8320442],[-65.5656275,-9.8130935],[-65.5135248,-9.79317],[-65.5010191,-9.7298391],[-65.4470743,-9.6971036],[-65.4460779,-9.6690549],[-65.4001057,-9.6835637],[-65.3546006,-9.7236823],[-65.3280707,-9.7800172],[-65.3205208,-9.814532],[-65.2873772,-9.8398634],[-65.2958042,-9.8784469],[-65.3318293,-9.9300147],[-65.3330804,-9.9656911],[-65.3200511,-10.0009559],[-65.3261626,-10.0661797],[-65.3005774,-10.1009084],[-65.3070251,-10.1649978],[-65.2899869,-10.2088499],[-65.3194156,-10.2922601],[-65.3918013,-10.3744374],[-65.3814996,-10.4290742],[-65.4047964,-10.464022],[-65.4296351,-10.482896],[-65.4105791,-10.5129499],[-65.4198535,-10.5280705],[-65.3971968,-10.5833445],[-65.416748,-10.6186868],[-65.403468,-10.6429834],[-65.3719659,-10.6481824],[-65.3496676,-10.6705476],[-65.3436059,-10.6995816],[-65.3447432,-10.7695869],[-65.3669649,-10.7962563],[-65.3203903,-10.8223343],[-65.2765513,-10.8693553],[-65.2666125,-10.9218079],[-65.2858299,-10.9276718],[-65.250859,-10.9845455],[-65.2948608,-11.0236146],[-65.2834712,-11.0577945],[-65.2888895,-11.0942523],[-65.3315022,-11.1067738],[-65.3634955,-11.1472658],[-65.3488598,-11.2113455],[-65.3616107,-11.2495815],[-65.3469184,-11.3028689],[-65.2986139,-11.3160857],[-65.3354111,-11.3549453],[-65.3190032,-11.4473906],[-65.3049193,-11.5016],[-65.2250032,-11.5164466],[-65.2140254,-11.5480437],[-65.2345274,-11.5704471],[-65.229999,-11.6231694],[-65.2179133,-11.6520886],[-65.2593918,-11.6997627],[-65.2481714,-11.7234767],[-65.2047824,-11.7494622],[-65.1829733,-11.7217035],[-65.1237309,-11.7197437],[-65.0905256,-11.7077774],[-65.0597243,-11.7906782],[-65.0706948,-11.8691097],[-65.0260515,-11.8884484],[-65.0149985,-11.9041545],[-65.0303604,-11.9502463],[-65.0226087,-11.9991513],[-65.0005559,-11.9933727],[-64.9841679,-12.0143712],[-64.9483889,-11.9934266],[-64.9170257,-12.0283831],[-64.8822808,-12.0133457],[-64.8395868,-12.0106793],[-64.8126942,-12.0448715],[-64.8094972,-12.0939515],[-64.7884731,-12.0857891],[-64.7575025,-12.1123057],[-64.7091954,-12.0871034],[-64.6983588,-12.103594],[-64.7177993,-12.1424671],[-64.7129448,-12.1735799],[-64.6162191,-12.2147173],[-64.568609,-12.2198129],[-64.5522433,-12.2419466],[-64.5127895,-12.2228731],[-64.503277,-12.2351522],[-64.4928593,-12.2942597],[-64.5130783,-12.3438249],[-64.499413,-12.3672952],[-64.4600271,-12.3871505],[-64.4476696,-12.4091617],[-64.4061676,-12.4470481],[-64.3491631,-12.4599362],[-64.294721,-12.4578168],[-64.2988243,-12.4907931],[-64.2844442,-12.5031752],[-64.2355565,-12.456125],[-64.1967732,-12.4728443],[-64.1728845,-12.4665134],[-64.1711812,-12.5103698],[-64.1574457,-12.5138771],[-64.1338805,-12.4764538],[-64.0988867,-12.4855432],[-64.0401616,-12.5151395],[-64.0005519,-12.5030243],[-63.9529725,-12.5317711],[-63.8978016,-12.499692],[-63.8893042,-12.4495064],[-63.8339707,-12.4634295],[-63.7863035,-12.427945],[-63.7642959,-12.4420757],[-63.7337167,-12.4386224],[-63.6753964,-12.4622833],[-63.6221145,-12.4728773],[-63.613976,-12.4852736],[-63.5504909,-12.508437],[-63.5272856,-12.5456518],[-63.5017385,-12.5673236],[-63.4346872,-12.5658407],[-63.4373021,-12.584658],[-63.4099309,-12.6110825],[-63.4009479,-12.6362102],[-63.3693525,-12.6595861],[-63.3502986,-12.6567012],[-63.2955445,-12.6818567],[-63.2397053,-12.6774259],[-63.1974907,-12.630317],[-63.164479,-12.6157206],[-63.1123223,-12.6590658],[-63.0828512,-12.7119784],[-63.0545785,-12.7311315],[-63.033826,-12.7807152],[-63.0103267,-12.8083057],[-63.0122087,-12.8341095],[-62.9429915,-12.8546105],[-62.9213543,-12.8408615],[-62.8811825,-12.863168]],[[-62.8811825,-12.863168],[-62.7884407,-12.8613478],[-62.7520441,-12.8731508],[-62.7343555,-12.8916881],[-62.7288766,-12.9258899],[-62.6940767,-12.9022845],[-62.6652633,-12.9061811],[-62.622824,-12.8718954],[-62.5780692,-12.809876],[-62.5177698,-12.7828762],[-62.4995169,-12.7544784],[-62.4627881,-12.7466674],[-62.4268227,-12.7101888],[-62.4017927,-12.6613417],[-62.3510687,-12.5922273],[-62.3372946,-12.5772364],[-62.3127367,-12.5575324],[-62.292737,-12.5414096],[-62.2894895,-12.5352125],[-62.2693724,-12.5141469],[-62.2750934,-12.473221],[-62.2588214,-12.4509135],[-62.250928,-12.4020329],[-62.2914299,-12.3188257],[-62.3946838,-12.3434799],[-62.4682064,-12.2992599],[-62.5763475,-12.2676037],[-62.5929024,-12.2490697],[-62.6205679,-12.2548681],[-62.6414637,-12.2397694],[-62.7313195,-12.1098177],[-62.7574363,-12.1425431],[-62.7663033,-12.1748831],[-62.8139357,-12.2021565],[-62.8556265,-12.1946031],[-62.9152421,-12.1970941],[-62.9538831,-12.2064476],[-63.0302961,-12.1951137],[-63.1112462,-12.2053532],[-63.1323513,-12.2025422],[-63.1697943,-12.2373144],[-63.2356303,-12.2520659],[-63.2405462,-12.2969278],[-63.2760444,-12.2811266],[-63.2980738,-12.3094113],[-63.3284921,-12.3003476],[-63.3284631,-12.2859781],[-63.3293244,-12.2187651],[-63.2952134,-12.1390314],[-63.2826283,-12.0648153],[-63.2551284,-12.0240655],[-63.2703016,-11.9686395],[-63.2925168,-11.9468142],[-63.3406174,-11.9308488],[-63.3780425,-11.8856972],[-63.3855347,-11.8641037],[-63.3666415,-11.839437],[-63.5810946,-11.8390426],[-63.5872688,-11.8261376],[-63.6054915,-11.804652],[-63.57581,-11.7666875],[-63.5653988,-11.7624976],[-63.5467956,-11.7272703],[-63.600475,-11.7037416],[-63.6522975,-11.6898145],[-63.6633151,-11.6709722],[-63.6746096,-11.6560777],[-63.6799199,-11.6444148],[-63.6758791,-11.6405588],[-63.6669582,-11.630497],[-63.6365194,-11.6075908],[-63.6048362,-11.602058],[-63.6050144,-11.5842969],[-63.6046305,-11.5659019],[-63.6088502,-11.5568623],[-63.6094104,-11.4826939],[-63.5939039,-11.4161808],[-63.5655213,-11.4124269],[-63.5488528,-11.4134901],[-63.5380448,-11.3780801],[-63.5220447,-11.3700655],[-63.5293108,-11.3380603],[-63.5940087,-11.2607621],[-63.5770785,-11.2251431],[-63.6028173,-11.1416673],[-63.5822721,-11.0691762],[-63.5870985,-11.0034526],[-63.582811,-10.9726665],[-63.6073793,-10.9301883],[-63.6049839,-10.8867954],[-63.5727925,-10.8779331],[-63.577073,-10.8315764],[-63.5667102,-10.8013448],[-63.5836803,-10.7793228],[-63.5784845,-10.7445938],[-63.5550426,-10.7307647],[-63.5501247,-10.7004368],[-63.5606597,-10.6636784],[-63.5317417,-10.5963055],[-63.5465727,-10.5818607],[-63.5574253,-10.5578865],[-63.5364908,-10.5304759],[-63.5329287,-10.4649295],[-63.497329,-10.4445558],[-63.4942872,-10.4149215],[-63.4590965,-10.3975856],[-63.4771227,-10.3373821],[-63.4609356,-10.307938],[-63.485899,-10.2701616],[-63.5386494,-10.2381493],[-63.5652203,-10.2408974],[-63.5826241,-10.1954952],[-63.5853788,-10.1602132],[-63.5766228,-10.1126248],[-63.5896261,-10.0587464],[-63.5834001,-10.0300568],[-63.5969729,-10.0003823],[-63.7658373,-10.0002897],[-63.7184577,-9.9282844],[-63.701453,-9.8583796],[-63.6860152,-9.8528949],[-63.6758148,-9.793376],[-63.6809542,-9.7679691],[-63.662374,-9.7169154],[-63.6237024,-9.6516717],[-63.6251506,-9.6245548],[-63.5731777,-9.5790081],[-63.5508456,-9.5337658],[-63.5478135,-9.5059409],[-63.56159,-9.4565509],[-63.582676,-9.4105974],[-63.623928,-9.4362888],[-63.6861233,-9.4188078],[-63.7114413,-9.4487228],[-63.745565,-9.423338],[-63.7568275,-9.3951652],[-63.3259759,-9.428505],[-63.3267117,-9.4330698],[-63.1011086,-9.4527443],[-63.1021777,-9.4789228],[-63.0768103,-9.5249728],[-63.0005883,-9.5263449],[-62.4224639,-9.5250188],[-62.4267509,-9.4927764],[-62.4080061,-9.4149289],[-62.3855868,-9.3934912],[-62.3881463,-9.3698392],[-62.3619158,-9.3492009],[-62.3342013,-9.3504214],[-62.3084687,-9.312362],[-62.3358645,-9.2164774],[-62.3278916,-9.1124643],[-62.3375858,-9.0677564],[-62.3376945,-9.0194438],[-62.3479117,-8.9901904],[-62.330117,-8.9775239],[-62.3240871,-8.9442246],[-62.3451419,-8.9327181],[-62.3288908,-8.9053406],[-62.3337494,-8.8811169],[-62.2964724,-8.8548427],[-62.311726,-8.8037416],[-62.343033,-8.7858065],[-62.3573062,-8.7535315],[-62.3670271,-8.7455405],[-62.3709176,-8.7407218],[-62.3647508,-8.6926679],[-62.3648365,-8.6842521],[-62.3676775,-8.674707],[-62.3479721,-8.6766135],[-62.3307845,-8.709301],[-62.274466,-8.7019763],[-62.2452548,-8.6779207],[-62.2385029,-8.621979],[-62.2456118,-8.5937474],[-62.2688885,-8.5757586]],[[-62.8811825,-12.863168],[-62.8940789,-12.8730016],[-62.8702099,-12.9106179],[-62.8033008,-12.9450797],[-62.8089019,-12.9621374],[-62.7811841,-13.0083848],[-62.7340206,-13.0218668],[-62.6985773,-13.0028162],[-62.6606879,-12.9694718],[-62.6291779,-12.9958121],[-62.6125725,-13.0412954],[-62.5471599,-13.0739935],[-62.5238183,-13.0655029],[-62.5026304,-13.0831629],[-62.4655476,-13.0771978],[-62.4139913,-13.1283821],[-62.3519615,-13.1432941],[-62.3167712,-13.1344681],[-62.2993497,-13.1505528],[-62.2459304,-13.1451627],[-62.2450118,-13.1208414],[-62.2147888,-13.1113449],[-62.1909339,-13.1538296],[-62.1695715,-13.1342045],[-62.1429045,-13.1611636],[-62.1197091,-13.1535328],[-62.1090708,-13.2190394],[-62.1156843,-13.2584652],[-62.0690121,-13.2958589],[-62.0032061,-13.3654125],[-61.9804882,-13.3654943],[-61.9623452,-13.3911454],[-61.9143466,-13.4337319],[-61.887426,-13.4407745],[-61.8832099,-13.4972993],[-61.8688527,-13.5282221],[-61.8336515,-13.5392924],[-61.817124,-13.5274366],[-61.7573476,-13.5405747],[-61.6938441,-13.5080797],[-61.6514522,-13.5187113],[-61.585621,-13.5006257],[-61.5082567,-13.5479382],[-61.4699239,-13.5552502],[-61.4295679,-13.5454079],[-61.3897886,-13.5197691],[-61.3505155,-13.5211574],[-61.2883166,-13.4828576],[-61.2752088,-13.5060564],[-61.2483441,-13.4962741],[-61.2217305,-13.530155],[-61.1712922,-13.5106087],[-61.1532007,-13.5273067],[-61.1034016,-13.5157539],[-61.0877584,-13.4920938],[-61.0411515,-13.5077103],[-61.0149244,-13.4875362],[-61.0056227,-13.5502805],[-60.9674203,-13.5368945],[-60.9338909,-13.5407095],[-60.9089256,-13.5848178],[-60.8798406,-13.6175279],[-60.8285899,-13.629501],[-60.8100666,-13.6552746],[-60.7705337,-13.6651065],[-60.7695385,-13.6842053],[-60.7139468,-13.6759978],[-60.6860379,-13.6252274],[-60.6347881,-13.5745178],[-60.5776508,-13.5652277],[-60.5357855,-13.537301],[-60.5316656,-13.5180899],[-60.4864221,-13.4941821],[-60.4320021,-13.4884356],[-60.4115299,-13.4616583],[-60.3879196,-13.4546951],[-60.3793059,-13.4153231],[-60.3734795,-13.324443],[-60.3248107,-13.2504877],[-60.3297838,-13.2354686],[-60.3038368,-13.1783698],[-60.2786128,-13.1596137],[-60.2829916,-13.0805523],[-60.2413314,-13.0384575],[-60.1833444,-12.967629],[-60.1171653,-12.9595556],[-60.0791962,-12.873926],[-60.0828176,-12.852636],[-60.0587059,-12.786211],[-60.0750583,-12.7332327],[-60.0557303,-12.7036176],[-60.059073,-12.6635501],[-60.0033205,-12.5923372],[-59.9774152,-12.6065175],[-59.9476548,-12.5992652],[-59.8960537,-12.5364446],[-59.8989333,-12.5030734],[-59.84416,-12.4671729],[-59.8425487,-12.424849],[-59.8192559,-12.3787482],[-59.7929413,-12.3457819],[-59.7743574,-12.3409559],[-59.8867969,-12.245087],[-59.9017147,-12.2238791],[-59.8998038,-12.1172227],[-59.9292763,-12.0784547],[-59.9619968,-12.0563674],[-59.9695798,-12.0324752],[-59.9713581,-11.9699456],[-59.9857972,-11.9120801],[-60.0068898,-11.894683],[-60.0503863,-11.8978671],[-60.0766345,-11.8852893],[-60.1033601,-11.8191718],[-60.1073891,-11.7489734],[-60.1216618,-11.7121038],[-60.1148844,-11.591462],[-60.0574695,-11.542096],[-60.0328028,-11.4995521],[-59.9854077,-11.4693409],[-59.9762413,-11.4392225],[-59.9344129,-11.4236675],[-59.9206343,-11.3980076],[-59.9171931,-11.3384346],[-59.9277738,-11.3104346],[-59.9594679,-11.2947339],[-59.9796883,-11.2395295],[-59.9811296,-11.2037619],[-59.9950224,-11.148203],[-59.9767766,-11.1223889],[-60.032028,-11.127778],[-60.0663542,-11.1209934],[-60.0750227,-11.1050246],[-60.1776041,-11.0992539],[-60.1914692,-11.1141134],[-60.2412468,-11.0968881],[-60.2808334,-11.0915305],[-60.301248,-11.0571521],[-60.3419726,-11.0826337],[-60.3479707,-11.1090363],[-60.3915541,-11.0937926],[-60.4114906,-11.0467759],[-60.4296987,-11.0374942],[-60.4600501,-10.9898562],[-61.0005934,-10.988351],[-61.0005949,-10.9922393],[-61.5502579,-10.9860947],[-61.5300873,-10.9790195],[-61.5193336,-10.891992],[-61.5251489,-10.8558039],[-61.5099966,-10.8368279],[-61.5108965,-10.7936807],[-61.4764168,-10.7677946],[-61.4763671,-10.722504],[-61.4993935,-10.6986176],[-61.4844843,-10.6737666],[-61.4762363,-10.6076634],[-61.4808157,-10.4877483],[-61.4617928,-10.4199046],[-61.5031111,-10.3759259],[-61.5161645,-10.3344363],[-61.5767244,-10.2485762],[-61.5740051,-10.2089593],[-61.5577505,-10.1823138],[-61.6012364,-10.1500901],[-61.5787102,-10.0792444],[-61.5843749,-10.0596093],[-61.5558735,-10.0389514],[-61.5312021,-9.9898503],[-61.5249818,-9.9065757],[-61.5079136,-9.8610818],[-61.5249134,-9.7957303],[-61.547356,-9.7875415],[-61.5315013,-9.7399119],[-61.5324293,-9.7117765],[-61.505272,-9.6913819],[-61.4768074,-9.628723],[-61.5030326,-9.615345],[-61.4949271,-9.5849287],[-61.5080429,-9.540463],[-61.5495654,-9.5152171],[-61.5817187,-9.4591265],[-61.5505387,-9.4147035],[-61.5633169,-9.3781567],[-61.6259281,-9.3630117],[-61.6113336,-9.3157281],[-61.6119925,-9.2807016],[-61.5996169,-9.2560351],[-61.5683872,-9.237088],[-61.5280945,-9.2311652],[-61.5242764,-9.1779289],[-61.5553819,-9.1314969],[-61.555755,-9.0924026],[-61.5110619,-8.9761931],[-61.4895398,-8.9372717],[-61.469214,-8.9201143],[-61.5115045,-8.8636406],[-61.5137215,-8.8369518],[-61.5683676,-8.8010824],[-61.6060278,-8.794714],[-61.6295527,-8.7529562],[-61.6264691,-8.7288535],[-61.6735812,-8.7050168],[-61.7053617,-8.7075264],[-61.741854,-8.6951929],[-61.7488815,-8.7237702],[-61.7746056,-8.7482289],[-61.8412499,-8.7394106],[-61.8433013,-8.7794091],[-61.8610249,-8.8036155],[-61.8597486,-8.8529733],[-61.9381066,-8.8814117],[-61.97914,-8.8732446],[-62.0039716,-8.8300839],[-62.031061,-8.7997101],[-62.0743019,-8.7985702],[-62.0980029,-8.8089214],[-62.1249717,-8.8016711],[-62.1550309,-8.7396423],[-62.1488018,-8.7183089],[-62.165087,-8.6793938],[-62.2005306,-8.6442928],[-62.1746915,-8.628203],[-62.1837005,-8.5989665],[-62.2688885,-8.5757586]]],"bbox":[-66.8102531,-13.6842053,-59.7743574,-7.9758683]}
