{"type":"Topology","objects":{"geometrias":{"type":"GeometryCollection","geometries":[{"type":"Polygon","arcs":[[0,1]],"properties":{"code_meso":2701,"code_state":27,"code_region":2,"name_meso":"Sertão Alagoano","abbrev_state":"AL","name_state":"Alagoas","name_region":"Nordeste","year":2020}},{"type":"Polygon","arcs":[[2,3,4,-2]],"properties":{"code_meso":2702,"code_state":27,"code_region":2,"name_meso":"Agreste Alagoano","abbrev_state":"AL","name_state":"Alagoas","name_region":"Nordeste","year":2020}},{"type":"Polygon","arcs":[[5,-4]],"properties":{"code_meso":2703,"code_state":27,"code_region":2,"name_meso":"Leste Alagoano","abbrev_state":"AL","name_state":"Alagoas","name_region":"Nordeste","year":2020}}]}},"arcs":[[[-36.9796404,-9.3593283],[-37.0033646,-9.3526135],[-37.0285115,-9.314017],[-37.0616712,-9.304162],[-37.0571996,-9.2817884],[-37.0906725,-9.2463621],[-37.1164756,-9.2409306],[-37.1643357,-9.2757055],[-37.1589467,-9.2391017],[-37.1983152,-9.2154825],[-37.2335552,-9.2065858],[-37.2470816,-9.1790184],[-37.2822858,-9.1488418],[-37.2965722,-9.1209173],[-37.3586391,-9.0538891],[-37.4165025,-9.0065641],[-37.4681995,-8.9985786],[-37.5043893,-8.9653873],[-37.5459722,-8.9609444],[-37.5970513,-8.9690718],[-37.6376667,-9.0037778],[-37.6577778,-8.9926667],[-37.6988417,-8.9447222],[-37.7039225,-8.9219266],[-37.7416683,-8.8760777],[-37.7553619,-8.8463637],[-37.8246288,-8.8859573],[-37.8203593,-8.9087038],[-37.8390986,-8.9783812],[-37.8795981,-9.0154139],[-37.8775694,-9.035376],[-37.9078751,-9.0522184],[-37.9515962,-9.0973095],[-37.9785629,-9.147662],[-38.0257874,-9.1555063],[-38.0639045,-9.1737805],[-38.0922873,-9.172725],[-38.1439087,-9.2182047],[-38.1579827,-9.2638296],[-38.179554,-9.2912502],[-38.2030806,-9.2969016],[-38.23759,-9.3297945],[-38.205573,-9.3636489],[-38.1941767,-9.3943858],[-38.2047642,-9.4186743],[-38.1572696,-9.4403982],[-38.0777597,-9.4411067],[-38.0678462,-9.4585026],[-38.0221548,-9.4699909],[-37.9893302,-9.5273587],[-37.9171436,-9.5489542],[-37.8861699,-9.5501668],[-37.8182483,-9.5928939],[-37.7855541,-9.6391762],[-37.7469947,-9.6249209],[-37.7052049,-9.634498],[-37.670392,-9.6559792],[-37.6540515,-9.6863334],[-37.577684,-9.7368078],[-37.4730916,-9.7463641],[-37.4099011,-9.7626496],[-37.3936189,-9.7792353],[-37.3491033,-9.7898084],[-37.3227763,-9.8197357],[-37.2619127,-9.8491387],[-37.2425876,-9.8944563],[-37.1635638,-9.8935522],[-37.1337799,-9.9137652]],[[-37.1337799,-9.9137652],[-37.1034931,-9.8478203],[-37.0401897,-9.807315],[-36.9972274,-9.756078],[-37.0003168,-9.734433],[-36.9420998,-9.6403728],[-36.9248326,-9.6281219],[-36.9079495,-9.6285141],[-36.8999987,-9.6231864],[-36.8733741,-9.5858133],[-36.8366909,-9.5571923],[-36.833282,-9.5450299],[-36.8592043,-9.5465718],[-36.915908,-9.5227681],[-36.9796568,-9.4861268],[-37.0191372,-9.4356121],[-37.0206314,-9.4142787],[-37.0279801,-9.3860994],[-37.0227811,-9.3695959],[-36.9796404,-9.3593283]],[[-37.1337799,-9.9137652],[-37.0859392,-9.9516958],[-37.0624048,-9.9825197],[-37.0330877,-9.9875786],[-36.9963712,-9.9723746],[-36.9616864,-9.9963701],[-36.9456955,-10.0873628],[-36.9121838,-10.1382379],[-36.8699454,-10.1471254],[-36.8503855,-10.1784477]],[[-36.8503855,-10.1784477],[-36.7660832,-10.1117536],[-36.7143825,-10.0538406],[-36.7069405,-10.0005926],[-36.6869503,-9.9654723],[-36.6458869,-9.9852051],[-36.6510336,-10.0345967],[-36.5172162,-10.0405194],[-36.4913613,-10.0710942],[-36.4549519,-10.0322699],[-36.4835172,-10.0270413],[-36.4710017,-9.9389767],[-36.4998665,-9.8920922],[-36.496552,-9.8669568],[-36.5531991,-9.8390806],[-36.5260374,-9.8032483],[-36.4738309,-9.8028749],[-36.4653954,-9.7870874],[-36.3595973,-9.7692867],[-36.3431386,-9.7132147],[-36.370715,-9.6979442],[-36.3941648,-9.6483676],[-36.3921049,-9.6029049],[-36.3503975,-9.592274],[-36.3164841,-9.6128198],[-36.2879722,-9.6088056],[-36.2499278,-9.6233306],[-36.2400444,-9.5934722],[-36.1916556,-9.60015],[-36.2185222,-9.5631917],[-36.2268444,-9.5144972],[-36.3065557,-9.5224034],[-36.3291097,-9.5101573],[-36.3893631,-9.4253786],[-36.3398921,-9.286712],[-36.3258782,-9.2781972],[-36.3311264,-9.2750483],[-36.3559327,-9.2183859]],[[-36.3559327,-9.2183859],[-36.4243709,-9.2260241],[-36.4871653,-9.2402014],[-36.4904055,-9.2612143],[-36.5718396,-9.2925828],[-36.5665761,-9.3314374],[-36.603625,-9.3415125],[-36.6446864,-9.3143715],[-36.7617725,-9.271457],[-36.8360412,-9.2886286],[-36.8674694,-9.2685315],[-36.9158205,-9.2990208],[-36.9554646,-9.3812511],[-36.9796404,-9.3593283]],[[-36.8503855,-10.1784477],[-36.8263467,-10.2111873],[-36.7885611,-10.2280941],[-36.759159,-10.2249199],[-36.7212114,-10.2645986],[-36.6914611,-10.2715844],[-36.6226392,-10.2552517],[-36.5718256,-10.3161472],[-36.5569866,-10.3748876],[-36.5626853,-10.4139182],[-36.5019299,-10.4311324],[-36.4630962,-10.4084796],[-36.4276286,-10.4335147],[-36.403575,-10.486978],[-36.3864339,-10.4967433],[-36.332901,-10.4015672],[-36.2935058,-10.353459],[-36.3016211,-10.3230829],[-36.2760988,-10.2802765],[-36.1703186,-10.174948],[-36.1338498,-10.1597979],[-36.0887945,-10.0943946],[-36.045717,-10.0750793],[-35.9379302,-9.9024339],[-35.9068559,-9.8744655],[-35.8852755,-9.8346976],[-35.8127588,-9.729734],[-35.7603934,-9.682562],[-35.7094416,-9.6657871],[-35.6931137,-9.6241834],[-35.6508767,-9.5686209],[-35.5913367,-9.5288975],[-35.57929,-9.502851],[-35.4999464,-9.4215149],[-35.4834271,-9.369691],[-35.4078878,-9.3073678],[-35.3553075,-9.256888],[-35.2397716,-9.0679966],[-35.222802,-9.0170539],[-35.1810715,-8.9774385],[-35.1519313,-8.9149944],[-35.1682513,-8.8924711],[-35.2527821,-8.887233],[-35.3945703,-8.849836],[-35.4112256,-8.836231],[-35.4598277,-8.8377745],[-35.517771,-8.8167578],[-35.6712041,-8.896634],[-35.748399,-8.9171517],[-35.7829807,-8.8975421],[-35.7769157,-8.8692653],[-35.7950752,-8.8476851],[-35.8257482,-8.8703437],[-35.8619307,-8.858369],[-35.9114175,-8.8612891],[-35.924276,-8.8846275],[-36.0053839,-8.9130004],[-36.063935,-8.9153373],[-36.0864106,-8.9440674],[-36.1224516,-8.9527343],[-36.1268105,-8.9812763],[-36.1043282,-8.9989293],[-36.1272786,-9.0336695],[-36.1985057,-9.0466767],[-36.202797,-9.0668449],[-36.2409616,-9.0993929],[-36.2668438,-9.1023818],[-36.2572548,-9.1401488],[-36.2647196,-9.1658626],[-36.3215198,-9.1853806],[-36.3559327,-9.2183859]]],"bbox":[-38.23759,-10.4967433,-35.1519313,-8.8167578]}
