{"type":"Topology","objects":{"geometrias":{"type":"GeometryCollection","geometries":[{"type":"Polygon","arcs":[[0,1,2,3,4]],"properties":{"code_meso":4101,"code_state":41,"code_region":4,"name_meso":"Noroeste Paranaense","abbrev_state":"PR","name_state":"Paraná","name_region":"Sul","year":2020}},{"type":"Polygon","arcs":[[5,6,7,8,9,10,11,12,-4]],"properties":{"code_meso":4102,"code_state":41,"code_region":4,"name_meso":"Centro Ocidental Paranaense","abbrev_state":"PR","name_state":"Paraná","name_region":"Sul","year":2020}},{"type":"Polygon","arcs":[[-5,-13,13,-11,14,15,16,17,18,19,20,21,22,23,24,25]],"properties":{"code_meso":4103,"code_state":41,"code_region":4,"name_meso":"Norte Central Paranaense","abbrev_state":"PR","name_state":"Paraná","name_region":"Sul","year":2020}},{"type":"Polygon","arcs":[[26,-23,27,28,29,-25]],"properties":{"code_meso":4104,"code_state":41,"code_region":4,"name_meso":"Norte Pioneiro Paranaense","abbrev_state":"PR","name_state":"Paraná","name_region":"Sul","year":2020}},{"type":"Polygon","arcs":[[30,31,32,33,34,-29,35,-21]],"properties":{"code_meso":4105,"code_state":41,"code_region":4,"name_meso":"Centro Oriental Paranaense","abbrev_state":"PR","name_state":"Paraná","name_region":"Sul","year":2020}},{"type":"Polygon","arcs":[[36,37,38,39,40,41,42,43,44,45,-7,46,-2]],"properties":{"code_meso":4106,"code_state":41,"code_region":4,"name_meso":"Oeste Paranaense","abbrev_state":"PR","name_state":"Paraná","name_region":"Sul","year":2020}},{"type":"Polygon","arcs":[[47,48,49,50,51,52,-44,53,-42,54,-40,55,-38]],"properties":{"code_meso":4107,"code_state":41,"code_region":4,"name_meso":"Sudoeste Paranaense","abbrev_state":"PR","name_state":"Paraná","name_region":"Sul","year":2020}},{"type":"Polygon","arcs":[[-53,56,-51,57,-49,58,59,-18,60,-16,61,-9,62,-45]],"properties":{"code_meso":4108,"code_state":41,"code_region":4,"name_meso":"Centro-Sul Paranaense","abbrev_state":"PR","name_state":"Paraná","name_region":"Sul","year":2020}},{"type":"Polygon","arcs":[[63,64,65,-32,66,-19,-60]],"properties":{"code_meso":4109,"code_state":41,"code_region":4,"name_meso":"Sudeste Paranaense","abbrev_state":"PR","name_state":"Paraná","name_region":"Sul","year":2020}},{"type":"Polygon","arcs":[[67,-65,68,-34]],"properties":{"code_meso":4110,"code_state":41,"code_region":4,"name_meso":"Metropolitana de Curitiba","abbrev_state":"PR","name_state":"Paraná","name_region":"Sul","year":2020}}]}},"arcs":[[[-52.0283521,-22.5395129],[-52.0600478,-22.5377656],[-52.1058519,-22.5166619],[-52.1276022,-22.519923],[-52.1475751,-22.5464623],[-52.1625557,-22.6056265],[-52.156678,-22.6447189],[-52.1971818,-22.6589303],[-52.2225772,-22.6755354],[-52.2280991,-22.6425169],[-52.2504131,-22.6154264],[-52.2786947,-22.6203902],[-52.3004356,-22.635445],[-52.3686111,-22.6293368],[-52.4330458,-22.6071665],[-52.4676343,-22.6158782],[-52.5026768,-22.6345557],[-52.5453772,-22.6117435],[-52.5671288,-22.5892474],[-52.5757741,-22.5719736],[-52.5893444,-22.5660966],[-52.6113574,-22.5744716],[-52.6630339,-22.6119156],[-52.7016951,-22.6276667],[-52.7224292,-22.6267524],[-52.7503018,-22.6123689],[-52.7828639,-22.6020617],[-52.8154397,-22.5970432],[-52.8448621,-22.6092218],[-52.8583628,-22.608001],[-52.9053625,-22.5722073],[-52.9247426,-22.565624],[-52.972425,-22.5704843],[-53.030807,-22.6084114],[-53.0557979,-22.6326227],[-53.0747239,-22.6413404],[-53.0877869,-22.6584449],[-53.1051872,-22.6219296],[-53.1476084,-22.6780813],[-53.1853664,-22.7187337],[-53.2067208,-22.7312603],[-53.2441288,-22.7346976],[-53.3001456,-22.7538518],[-53.3595079,-22.7795565],[-53.3775322,-22.8032341],[-53.3987296,-22.8067269],[-53.4296507,-22.8329554],[-53.4847612,-22.8638542],[-53.5468271,-22.8900963],[-53.5707711,-22.9284913],[-53.6074235,-22.9513335],[-53.6166378,-22.9741534],[-53.634125,-22.9984951],[-53.6298958,-23.0135048],[-53.6365887,-23.1250308],[-53.6547546,-23.1441601],[-53.6679996,-23.1823501],[-53.6795624,-23.1952574],[-53.699341,-23.2349043],[-53.7055967,-23.2632524],[-53.7252209,-23.3104334],[-53.7413238,-23.3356384],[-53.7754879,-23.3751314],[-53.8160218,-23.3856449],[-53.8765944,-23.4197884],[-53.932055,-23.4459488],[-53.9601976,-23.4434149],[-53.9865967,-23.4647936],[-54.0043425,-23.51108],[-54.0084866,-23.5490387],[-54.0240178,-23.5860784],[-54.0322298,-23.6516617],[-54.0446082,-23.6686559],[-54.0535148,-23.7016786],[-54.0526388,-23.7250676],[-54.0705151,-23.754011],[-54.0804586,-23.7808971],[-54.0881053,-23.8445303],[-54.0799057,-23.8889783],[-54.101765,-23.9519635],[-54.1175484,-23.9713288],[-54.1402563,-23.9884028],[-54.1690081,-23.9989943]],[[-54.1690081,-23.9989943],[-54.0753301,-24.0331015],[-54.055834,-24.0365497],[-54.0172401,-24.0153272],[-53.998415,-23.985706],[-53.9733094,-23.9818258],[-53.9637992,-24.0139578],[-53.9808236,-24.0556876],[-53.9910461,-24.0677761],[-53.9886309,-24.1267099],[-53.9758738,-24.1308985],[-53.9586069,-24.1203558],[-53.9398507,-24.1224027],[-53.9131447,-24.1355489],[-53.9240889,-24.1569288],[-53.9050437,-24.1772629],[-53.8815753,-24.1780021],[-53.8691852,-24.1892523],[-53.8491126,-24.1869802],[-53.8354684,-24.167852],[-53.8094287,-24.1859779],[-53.7983335,-24.1686281],[-53.7761668,-24.1643773],[-53.7432173,-24.1495558],[-53.7347783,-24.1633224],[-53.7433666,-24.188074],[-53.7090112,-24.1790525],[-53.6884273,-24.2030986],[-53.6767737,-24.2015639],[-53.6511058,-24.2191116],[-53.641928,-24.2394355],[-53.6137682,-24.2475002],[-53.5917749,-24.2414535],[-53.5714783,-24.2521629],[-53.5708781,-24.2608049],[-53.5495941,-24.2468038],[-53.529411,-24.2468402],[-53.4910776,-24.2314701],[-53.4811296,-24.2181236],[-53.4581577,-24.2231355],[-53.4302803,-24.2402648],[-53.3600735,-24.2498516],[-53.3218756,-24.1985724],[-53.2997632,-24.1958425],[-53.2855607,-24.1707709],[-53.2774785,-24.1626871],[-53.2615058,-24.1729206],[-53.2413649,-24.1657519]],[[-53.2413649,-24.1657519],[-53.2367829,-24.166946]],[[-53.2367829,-24.166946],[-53.2316459,-24.1658062],[-53.203581,-24.1365093],[-53.1805677,-24.1456466],[-53.138027,-24.1530291],[-53.1181159,-23.9978102],[-53.1072081,-23.9285955],[-53.072507,-23.9348856],[-53.0029782,-23.9531198],[-52.9855276,-23.9758755],[-52.9739714,-23.9658853],[-52.9663449,-23.9655137],[-52.9346039,-23.9697843],[-52.9231204,-23.9879942],[-52.9023098,-23.9924472],[-52.8854166,-23.9872636],[-52.8652412,-23.9946889],[-52.8531116,-23.9950419],[-52.8550898,-24.0010563],[-52.8528098,-24.005024],[-52.8451316,-24.0053708],[-52.8153156,-24.0031203],[-52.7966692,-24.0181049],[-52.7604432,-24.0297972],[-52.7355269,-23.9900789],[-52.715496,-23.976462],[-52.6954157,-23.9511674],[-52.7056171,-23.9277667],[-52.6197102,-23.9534061],[-52.6124841,-23.943758],[-52.5827792,-23.8840546],[-52.5754122,-23.8787952],[-52.5610315,-23.8384971],[-52.5703576,-23.8105723],[-52.5598495,-23.7952822],[-52.5596676,-23.7720802],[-52.54494,-23.7471144],[-52.5229162,-23.7628489],[-52.5188491,-23.7761607],[-52.3277589,-23.552491]],[[-52.3277589,-23.552491],[-52.3508273,-23.5528546],[-52.3787693,-23.5467032],[-52.3977436,-23.5392359],[-52.4083571,-23.5272028],[-52.3914907,-23.5145446],[-52.3996663,-23.5001019],[-52.41672,-23.49447],[-52.4219737,-23.4697028],[-52.4205196,-23.2341079],[-52.3897747,-23.202898],[-52.3550086,-23.195501],[-52.3472556,-23.1946678],[-52.3376487,-23.1969904],[-52.3041059,-23.1915361],[-52.257995,-23.1678357],[-52.2438351,-23.1713515],[-52.2385008,-23.1622897],[-52.2329901,-23.139543],[-52.2424661,-23.1168176],[-52.2507641,-23.0661223],[-52.2477568,-23.0263447],[-52.2206086,-23.0361916],[-52.182387,-23.0425399],[-52.1628933,-23.0663858],[-52.1442005,-23.0531739],[-52.0984469,-23.0411888],[-52.0777985,-23.0286735],[-52.0280471,-23.0165453],[-52.0236869,-22.997807],[-52.0424895,-22.9493053],[-52.0583535,-22.9541026],[-52.0679292,-22.9232141],[-52.091129,-22.9129526],[-52.0960214,-22.9025839],[-52.0663243,-22.8720748],[-52.0776556,-22.8667412],[-52.0810676,-22.83834],[-52.0704038,-22.7963719],[-52.0878775,-22.7900362],[-52.088629,-22.7696614],[-52.0621799,-22.7619861],[-52.0487362,-22.7214373],[-52.0578812,-22.695017],[-52.0334043,-22.6772964],[-52.0316259,-22.6578225],[-52.0106297,-22.6488259],[-51.9969045,-22.6170421],[-52.0099014,-22.6042761],[-52.0039613,-22.5791179],[-52.028983,-22.5509777],[-52.0283521,-22.5395129]],[[-53.2367829,-24.166946],[-53.246274,-24.1859149]],[[-53.246274,-24.1859149],[-53.2639815,-24.2153305],[-53.2577095,-24.233865],[-53.2781469,-24.2524732],[-53.2811628,-24.2896427],[-53.2887862,-24.3081288],[-53.2743877,-24.3194673],[-53.2747953,-24.3376919],[-53.256661,-24.3380745],[-53.2208518,-24.354356],[-53.2101956,-24.3417813],[-53.1928345,-24.358865],[-53.1656375,-24.3655879],[-53.1519572,-24.417294],[-53.1688952,-24.437105],[-53.1611986,-24.4525375],[-53.1634543,-24.4904383],[-53.1798433,-24.5114286],[-53.1628473,-24.5315856],[-53.1423745,-24.5350084],[-53.1225366,-24.5636211],[-53.0947978,-24.5750165],[-53.0937041,-24.6118789],[-53.0424982,-24.6108965],[-53.0311718,-24.6575725],[-53.0218653,-24.6679114],[-52.9961995,-24.6739798],[-52.983977,-24.6886945],[-52.9511974,-24.684315],[-52.9634752,-24.7047911],[-52.9134184,-24.7166277],[-52.9227835,-24.758462],[-52.9078235,-24.7635576],[-52.8775263,-24.7512768],[-52.8600736,-24.7585604],[-52.8661244,-24.7905641],[-52.8489376,-24.7945021],[-52.8313319,-24.8154678],[-52.7989025,-24.7974118],[-52.7757825,-24.8050512],[-52.807327,-24.8272555],[-52.791233,-24.8465068],[-52.763648,-24.8457486],[-52.7671238,-24.8656045],[-52.7417517,-24.8597263],[-52.7178045,-24.8666425],[-52.6946343,-24.894652],[-52.6620386,-24.8941793],[-52.6781717,-24.924136],[-52.6826687,-24.9310058],[-52.6645858,-24.932012],[-52.660415,-24.92666]],[[-52.660415,-24.92666],[-52.6558017,-24.9293651]],[[-52.6558017,-24.9293651],[-52.6513559,-24.9229427],[-52.6497545,-24.9093505],[-52.6461601,-24.9159773],[-52.6449918,-24.9128166],[-52.6414062,-24.912821],[-52.6345894,-24.9093199],[-52.621655,-24.8981966],[-52.6024377,-24.896423],[-52.6016897,-24.8786432],[-52.5746919,-24.8682519],[-52.5607448,-24.8514846],[-52.5346781,-24.8495886],[-52.5445479,-24.8266521],[-52.5371955,-24.8030881],[-52.5456012,-24.7846355],[-52.5410314,-24.7653461],[-52.5095311,-24.755559],[-52.489613,-24.7398299],[-52.457786,-24.7477383],[-52.437832,-24.7366053],[-52.438367,-24.7130712],[-52.4248061,-24.7039165],[-52.4052794,-24.7218309],[-52.3696394,-24.7072373],[-52.3538931,-24.6923694],[-52.3258833,-24.6806652],[-52.3241879,-24.6670497],[-52.3179747,-24.6629658],[-52.2960023,-24.662786],[-52.2939234,-24.6573499],[-52.2902804,-24.6607905],[-52.284911,-24.6486364],[-52.2509876,-24.6364137],[-52.2294609,-24.6235845],[-52.1973408,-24.6188089],[-52.1879903,-24.6234979],[-52.1729681,-24.6330388],[-52.1371885,-24.6260327],[-52.1083663,-24.5991685],[-52.0709322,-24.5746051],[-52.0534959,-24.5713695]],[[-52.0534959,-24.5713695],[-52.0470569,-24.5646134]],[[-52.0470569,-24.5646134],[-52.0455211,-24.5572042],[-52.0165913,-24.4712111],[-52.0375117,-24.4440014],[-52.0270787,-24.4379131],[-52.015552,-24.4439885],[-52.0264682,-24.4358927],[-52.0132238,-24.3807289],[-51.999618,-24.3655466],[-51.9908882,-24.3121853],[-51.9825726,-24.3048879],[-51.9774622,-24.2704535],[-51.9492978,-24.2249854],[-51.9758497,-24.2206937],[-51.992742,-24.2026592],[-51.986348,-24.1898844],[-51.957458,-24.179916],[-51.9508038,-24.1624517],[-51.9203565,-24.1626472],[-51.9275474,-24.1281323],[-51.9096485,-24.1125333],[-51.9391905,-24.0685187],[-51.9592325,-24.0676428],[-51.9424575,-24.031444],[-51.9480241,-24.0241978],[-51.9390143,-23.990393],[-51.9572921,-23.9600865],[-51.9616597,-23.9391517],[-51.9388544,-23.9109501],[-51.9396846,-23.8867124],[-51.9420143,-23.8757684],[-51.9586806,-23.8573139],[-52.0051029,-23.8225767],[-52.0108237,-23.7904748]],[[-52.0108237,-23.7904748],[-52.0239663,-23.7961128],[-52.0319022,-23.8161131],[-52.0468241,-23.8052025]],[[-52.0468241,-23.8052025],[-52.0343542,-23.7755314],[-52.0390205,-23.7618045],[-52.0597179,-23.743837],[-52.0611041,-23.730975],[-52.0941867,-23.7208776],[-52.124911,-23.6853485],[-52.1408494,-23.690586],[-52.1596873,-23.6778652],[-52.1573759,-23.6532169],[-52.1900181,-23.6446899],[-52.2056852,-23.6550542],[-52.2222489,-23.6511282],[-52.2422962,-23.6347313],[-52.2684125,-23.64015],[-52.2697737,-23.6253269],[-52.2942462,-23.6185211],[-52.2924339,-23.5904805],[-52.2942996,-23.5832618],[-52.3025748,-23.5768263],[-52.3277589,-23.552491]],[[-52.0468241,-23.8052025],[-52.0108237,-23.7904748]],[[-52.0470569,-24.5646134],[-52.0452187,-24.569378]],[[-52.0452187,-24.569378],[-52.0162515,-24.5873354],[-51.9969939,-24.6030258],[-51.9796172,-24.616358],[-51.9456678,-24.5991163],[-51.9145168,-24.6062404],[-51.8855813,-24.5945137],[-51.8704097,-24.5701034],[-51.877589,-24.5512544],[-51.8381531,-24.533236],[-51.8360545,-24.5185088],[-51.858252,-24.5068596],[-51.8299793,-24.4790228],[-51.8278301,-24.4573203],[-51.8245026,-24.4497574],[-51.8182868,-24.449917],[-51.8010183,-24.4647502],[-51.7970665,-24.4713738],[-51.7914043,-24.479316],[-51.7909438,-24.4903687],[-51.789324,-24.4949804],[-51.7711402,-24.5060243],[-51.757552,-24.5290217],[-51.7469958,-24.5676517],[-51.7248961,-24.5961223],[-51.6907444,-24.5816573],[-51.6621056,-24.5845751],[-51.6045661,-24.5558894],[-51.5370507,-24.5627653],[-51.5052666,-24.5754968],[-51.4659557,-24.5568031],[-51.4548707,-24.5810935],[-51.4728834,-24.6060235],[-51.4870673,-24.6090551]],[[-51.4870673,-24.6090551],[-51.4895667,-24.6154042],[-51.5025926,-24.6288664],[-51.4965975,-24.6363013]],[[-51.4965975,-24.6363013],[-51.4727128,-24.6337539],[-51.4706254,-24.6524867],[-51.4512889,-24.6584387],[-51.4463768,-24.6866403],[-51.4207384,-24.6926268],[-51.432096,-24.7074739],[-51.4132623,-24.7253034],[-51.410129,-24.7563311],[-51.3741834,-24.7732899],[-51.3606001,-24.7590662],[-51.3328499,-24.7596225]],[[-51.3328499,-24.7596225],[-51.3311793,-24.7545057],[-51.3230414,-24.7637239],[-51.3054838,-24.7672361],[-51.2900083,-24.7571593],[-51.2758429,-24.7755141],[-51.2560187,-24.7873668],[-51.2060938,-24.76548],[-51.1996509,-24.768388],[-51.2114764,-24.7954308],[-51.1757848,-24.7995521],[-51.1564303,-24.8080358],[-51.1458735,-24.8490248],[-51.1356744,-24.8643628],[-51.1168192,-24.8665359],[-51.0981793,-24.8797505],[-51.1211224,-24.9041366],[-51.0928184,-24.9100728],[-51.1001824,-24.9207073],[-51.0866242,-24.9368154],[-51.0694247,-24.9350895],[-51.0469845,-24.9255794],[-51.0428401,-24.9149721],[-51.0379305,-24.9294056],[-51.0568949,-24.9384877],[-51.0509642,-24.9553008],[-51.0300929,-24.9552292],[-51.0198467,-24.9685371],[-50.9860956,-24.9666318],[-50.9838979,-24.9649097],[-50.9857869,-24.9605636],[-50.9759228,-24.9519938],[-50.9629443,-24.9329726],[-50.9820757,-24.9072901],[-50.9983908,-24.8631137]],[[-50.9983908,-24.8631137],[-51.0045884,-24.8630783]],[[-51.0045884,-24.8630783],[-51.028796,-24.8551044],[-51.0668557,-24.8159469],[-51.0639987,-24.6913883],[-51.0809525,-24.6626952],[-51.0836442,-24.6344311],[-51.1004263,-24.6238831],[-51.1180422,-24.6293476],[-51.1319278,-24.6161434],[-51.1314797,-24.5807563],[-51.1587819,-24.5689258],[-51.1682392,-24.5378558],[-51.1921262,-24.524187],[-51.1932651,-24.5178466],[-51.168403,-24.5072892],[-51.1660919,-24.4884529],[-51.139012,-24.4681073],[-51.1391774,-24.4319717],[-51.1082598,-24.4175533],[-51.0953429,-24.4032802],[-51.0949258,-24.3857427],[-51.0809787,-24.3636715],[-51.1066451,-24.325212],[-51.0961824,-24.3218263],[-51.1141714,-24.3083692],[-51.1048434,-24.3047531],[-51.1079023,-24.3010849],[-51.1087591,-24.2837183],[-51.1315638,-24.2681092],[-51.2038761,-24.2458915],[-51.2072906,-24.2230294],[-51.2301999,-24.2104819],[-51.2406786,-24.220452],[-51.256018,-24.2081241],[-51.2799514,-24.2025283],[-51.3222125,-24.1688912],[-51.3662048,-24.149789],[-51.3733719,-24.1347281],[-51.357174,-24.1223575],[-51.3423686,-24.1332006],[-51.3058777,-24.1278495],[-51.280476,-24.0981711],[-51.2681239,-24.1097848],[-51.2343973,-24.0865067],[-51.2084594,-24.1069393],[-51.1780072,-24.1004256],[-51.1720689,-24.0805144],[-51.1565366,-24.0837359],[-51.1331748,-24.0695774],[-51.1142701,-24.0852742],[-51.0822958,-24.0653826],[-51.0818554,-24.0440312],[-51.0960362,-24.0328774],[-51.0915879,-24.0151989],[-51.0996489,-23.9973891],[-51.0943984,-23.9781087],[-51.1101432,-23.9657845],[-51.1125637,-23.9426741],[-51.0697548,-23.9165266],[-51.0353418,-23.9058429],[-51.0165102,-23.9186752],[-50.9669215,-23.8971667],[-50.9583994,-23.876907],[-50.9573431,-23.8485816],[-50.9399791,-23.8295483],[-50.9375333,-23.8233373],[-50.9372032,-23.8190452],[-50.9150304,-23.8180617],[-50.9009256,-23.7994515]],[[-50.9009256,-23.7994515],[-50.89734,-23.7940452]],[[-50.89734,-23.7940452],[-50.8983969,-23.7870723],[-50.8924426,-23.7748633],[-50.8882016,-23.77176],[-50.8821107,-23.7567445],[-50.9132093,-23.726626],[-50.915398,-23.7143698],[-50.8982106,-23.6999734],[-50.8774495,-23.6961633],[-50.8860485,-23.675418],[-50.9030328,-23.6762984],[-50.9213156,-23.661247],[-50.9221014,-23.6382818],[-50.9450118,-23.6074958],[-50.9505951,-23.5855596],[-50.9355071,-23.5844864],[-50.9303729,-23.5653117],[-50.9533545,-23.5389942],[-50.9463449,-23.4927002],[-50.9279329,-23.4808341],[-50.9235803,-23.4547319],[-50.9467006,-23.4582624],[-50.9563004,-23.4402382],[-50.9534813,-23.4161732],[-50.9817362,-23.4164451],[-50.9956938,-23.3949024],[-50.993811,-23.3785358],[-51.0104018,-23.3556976],[-50.9813061,-23.3508351],[-50.9779149,-23.312085]],[[-50.9779149,-23.312085],[-50.9685294,-23.308937],[-50.9643275,-23.3059259],[-50.9620488,-23.2990603],[-50.9617244,-23.2942749],[-50.9631332,-23.2903195],[-50.9717649,-23.2814897]],[[-50.9717649,-23.2814897],[-50.9881639,-23.254027],[-50.9670082,-23.2373053],[-50.9690002,-23.1968402],[-50.9507575,-23.1724036],[-50.9630635,-23.1635968],[-50.9716793,-23.1294777],[-50.9588387,-23.1030253],[-50.9771547,-23.0947996],[-50.9777798,-23.0719217],[-50.9888061,-23.0450949],[-50.9614333,-23.0450897],[-50.941268,-23.0314237],[-50.9545172,-23.0032803],[-50.9449344,-22.9738187],[-50.9784196,-22.9632916],[-50.9794856,-22.9371317],[-50.9495261,-22.9280806],[-50.9388027,-22.9179028],[-50.9308838,-22.8969904],[-50.9368424,-22.8741101],[-50.9606261,-22.8472265],[-50.9854792,-22.8574189],[-50.9967389,-22.8484009],[-50.9772003,-22.8240117],[-50.9856629,-22.8131542],[-51.0070918,-22.8151589],[-51.0074508,-22.8002948],[-51.0043772,-22.7937092]],[[-51.0043772,-22.7937092],[-51.057615,-22.7660571],[-51.1279231,-22.7599926],[-51.1644128,-22.7489629],[-51.1870158,-22.7298921],[-51.228336,-22.7160172],[-51.2428803,-22.6895762],[-51.2651999,-22.6676974],[-51.306495,-22.6744902],[-51.3736492,-22.6581329],[-51.4020163,-22.6679055],[-51.4247256,-22.6535108],[-51.4530961,-22.6557505],[-51.4719041,-22.6771868],[-51.4989018,-22.6905293],[-51.5434953,-22.6895165],[-51.5595692,-22.6971793],[-51.5914778,-22.6851988],[-51.6158422,-22.6625934],[-51.6463861,-22.6563411],[-51.6810926,-22.6607383],[-51.6991709,-22.6693686],[-51.7258674,-22.6614648],[-51.7343452,-22.6254664],[-51.7744865,-22.6144176],[-51.8470961,-22.632226],[-51.8789728,-22.624353],[-51.9168213,-22.5861057],[-51.9405126,-22.5673428],[-51.9608748,-22.5634564],[-51.9982105,-22.545609],[-52.0283521,-22.5395129]],[[-50.9717649,-23.2814897],[-50.9650122,-23.2875684],[-50.9619624,-23.2925755],[-50.9634018,-23.3034174],[-50.9666957,-23.3079526],[-50.9779149,-23.312085]],[[-50.89734,-23.7940452],[-50.8873378,-23.8040942]],[[-50.8873378,-23.8040942],[-50.8861099,-23.823417],[-50.8957834,-23.8401913],[-50.8817022,-23.8484771],[-50.8466432,-23.8815445],[-50.8175875,-23.8768974],[-50.7903408,-23.8886806],[-50.7871396,-23.9055709],[-50.7717318,-23.9197161],[-50.7554454,-23.9226836],[-50.7320348,-23.9476575],[-50.7416112,-23.9661979],[-50.7431945,-24.0059803],[-50.7190587,-24.0295832],[-50.6936083,-24.0262509],[-50.6887076,-24.0422008],[-50.6610707,-24.0690117],[-50.6208774,-24.0778204],[-50.5999441,-24.0673815],[-50.5869263,-24.0795989],[-50.5758229,-24.0636322],[-50.5362929,-24.0703888],[-50.5209531,-24.0859453],[-50.496652,-24.0895491],[-50.4763361,-24.1058557],[-50.426517,-24.1015014],[-50.3842653,-24.1043007],[-50.3653869,-24.1169742],[-50.3306181,-24.1225863],[-50.3357502,-24.1090805],[-50.3443951,-24.0667585],[-50.336318,-24.0249927],[-50.3100355,-24.0220232],[-50.3061702,-24.0050748],[-50.2896365,-23.9872591],[-50.2947437,-23.9733129],[-50.2698539,-23.9542555],[-50.228943,-23.9744489],[-50.220817,-23.9974561],[-50.1569954,-23.9397323],[-50.1183241,-23.9621073],[-50.0814916,-23.9610794],[-50.0417028,-23.9903157],[-50.0024786,-23.9724245],[-49.9715939,-23.9674576],[-49.976415,-23.9248488],[-49.9558715,-23.8938293],[-49.9647838,-23.8696944],[-49.9234995,-23.8437933],[-49.9173499,-23.8624506],[-49.853415,-23.9008393],[-49.8302934,-23.9362715],[-49.8368167,-23.9490216],[-49.8292506,-23.9788585],[-49.8125916,-23.9800162],[-49.7930271,-24.0038279],[-49.7552545,-24.065589],[-49.7312491,-24.0827443],[-49.7029081,-24.0650213],[-49.6834142,-24.078929],[-49.6479523,-24.0771531],[-49.6155484,-24.0560292],[-49.6309306,-24.0473768],[-49.6225075,-23.9976775],[-49.5852097,-23.9608067],[-49.5647841,-23.9636883],[-49.5626972,-23.9616521],[-49.5640191,-23.9436179],[-49.570209,-23.9405153],[-49.5589371,-23.9415764],[-49.5557227,-23.9400447],[-49.5562877,-23.9473793],[-49.5490676,-23.9445757],[-49.5384959,-23.9385581],[-49.5443701,-23.9351619]],[[-49.5443701,-23.9351619],[-49.6024638,-23.8682819],[-49.5985289,-23.8367922],[-49.5726784,-23.8270468],[-49.5600689,-23.8119307],[-49.5665451,-23.7719289],[-49.5605048,-23.7613066],[-49.5673236,-23.7367786],[-49.5491992,-23.7040164],[-49.5798761,-23.6783285],[-49.5853073,-23.6588755],[-49.6021338,-23.6521161],[-49.6211716,-23.6070475],[-49.6189093,-23.594331],[-49.602017,-23.5826967],[-49.6079896,-23.5652324],[-49.6002062,-23.5356244],[-49.6242171,-23.5233026],[-49.6293704,-23.5118275],[-49.6210967,-23.492099],[-49.6032894,-23.4784236],[-49.603186,-23.4512926],[-49.575543,-23.4313959],[-49.5985165,-23.3981866],[-49.5904025,-23.3827925],[-49.5954121,-23.3670914],[-49.6118066,-23.3546535],[-49.6334367,-23.3564211],[-49.6216945,-23.3318896],[-49.6308803,-23.2994757],[-49.6258029,-23.2866501],[-49.6537516,-23.212037],[-49.6833234,-23.1637756],[-49.6974899,-23.1649832],[-49.7349051,-23.1328893],[-49.725551,-23.1094381],[-49.751382,-23.0977574],[-49.7629482,-23.105576],[-49.7917155,-23.1024262],[-49.8139066,-23.0786268],[-49.8336586,-23.0659429],[-49.8505758,-23.0732551],[-49.8853291,-23.0650684],[-49.9116022,-23.0511186],[-49.9159033,-23.0347875],[-49.8995854,-23.0020053],[-49.9307596,-22.9830312],[-49.9545019,-22.9784205],[-49.9741983,-22.9544968],[-49.9613778,-22.930863],[-49.9657446,-22.9141403],[-49.9861649,-22.8975048],[-49.998853,-22.9017499],[-49.9904075,-22.9234822],[-50.0060579,-22.9269291],[-50.0162405,-22.9103352],[-50.0527394,-22.9052685],[-50.0715498,-22.9281236],[-50.0928258,-22.9225047],[-50.1154098,-22.9397912],[-50.1480536,-22.9351283],[-50.1833934,-22.9537733],[-50.2168821,-22.9478995],[-50.2441636,-22.94955],[-50.2476111,-22.9377984],[-50.2733879,-22.9310013],[-50.3004462,-22.9379366],[-50.3184953,-22.9506826],[-50.3401866,-22.9480729],[-50.3592495,-22.9160588],[-50.3790746,-22.9054056],[-50.4189476,-22.9139331],[-50.4189421,-22.9340822],[-50.4303025,-22.9464074],[-50.459425,-22.9452012],[-50.4827394,-22.9369345],[-50.5110192,-22.9446388],[-50.5267729,-22.9348221],[-50.5300104,-22.9191495],[-50.5770572,-22.9039445],[-50.6038084,-22.9231785],[-50.6615854,-22.8954775],[-50.679942,-22.9032102],[-50.7112162,-22.9547444],[-50.7295268,-22.9624986],[-50.7586621,-22.9476544],[-50.795935,-22.9511794],[-50.8061462,-22.9402993],[-50.7931381,-22.9051173],[-50.7978171,-22.8885524],[-50.8170131,-22.879541],[-50.8329202,-22.8591692],[-50.8423871,-22.8313985],[-50.8922507,-22.7949258],[-50.9276919,-22.7977499],[-50.9456364,-22.8039323],[-50.9616153,-22.7862284],[-50.9759279,-22.7821003],[-51.0043772,-22.7937092]],[[-51.0045884,-24.8630783],[-50.9978167,-24.8626683]],[[-50.9978167,-24.8626683],[-50.9824277,-24.8532389],[-50.9765877,-24.8532391],[-50.9680634,-24.8493586],[-50.9545616,-24.8506627],[-50.9490688,-24.8442643],[-50.9164559,-24.8564579],[-50.9086179,-24.8390154],[-50.8799506,-24.8315119],[-50.8758932,-24.8319215],[-50.8505635,-24.8556449],[-50.8367045,-24.8589544],[-50.8206167,-24.8459115],[-50.7827805,-24.854535],[-50.7497209,-24.8314262],[-50.732199,-24.8506059],[-50.6797877,-24.8558112],[-50.6608933,-24.8480565],[-50.6348067,-24.8618929],[-50.6274167,-24.8802681],[-50.6098664,-24.8809442],[-50.5901411,-24.8779427],[-50.5722259,-24.8610398],[-50.5237819,-24.8325015],[-50.5040081,-24.8290537],[-50.4689511,-24.8009533],[-50.4380396,-24.8041961],[-50.5271846,-24.937899],[-50.5023968,-24.9532643],[-50.4971951,-24.975369],[-50.4849522,-24.9880944],[-50.4699544,-24.9839575],[-50.4322537,-25.0034237],[-50.4354438,-25.0366985],[-50.4118365,-25.0287741],[-50.3940309,-25.0797109],[-50.3767249,-25.0854929],[-50.3692544,-25.1047394],[-50.3514725,-25.1107155],[-50.3290323,-25.1321259],[-50.2882742,-25.1336265],[-50.2729682,-25.1479464],[-50.2743085,-25.187703],[-50.261832,-25.1987755],[-50.2805021,-25.2118305],[-50.2662247,-25.2287726],[-50.2707241,-25.2771322],[-50.2873874,-25.3188793],[-50.281515,-25.348251],[-50.2733461,-25.3560536],[-50.2803811,-25.3769503],[-50.3051922,-25.3804322],[-50.3231186,-25.4172036],[-50.3482669,-25.425828],[-50.355133,-25.4391093],[-50.3414737,-25.4539835],[-50.3442801,-25.4781619],[-50.3564411,-25.4996157],[-50.3544649,-25.5198898],[-50.3532822,-25.5355867],[-50.3208532,-25.5463488],[-50.3040896,-25.5408284],[-50.2723851,-25.5440702],[-50.2482325,-25.5726058],[-50.2161979,-25.5835623],[-50.1898999,-25.5840122],[-50.1783018,-25.5826807],[-50.1714093,-25.5837736],[-50.1623607,-25.5894203],[-50.0979051,-25.6316742]],[[-50.0979051,-25.6316742],[-50.0875199,-25.6383004]],[[-50.0875199,-25.6383004],[-50.0830239,-25.6385136],[-50.070257,-25.6441696],[-50.0619206,-25.6467612],[-50.0551937,-25.6433974],[-50.0492738,-25.6415864],[-50.0289939,-25.6292213],[-50.0272942,-25.6216817],[-50.0271609,-25.6051932],[-50.0204214,-25.6019729],[-50.0214376,-25.6059599],[-50.0108441,-25.6023432],[-49.9921022,-25.6112627],[-49.9925258,-25.587447],[-49.9704084,-25.5227196],[-49.9574994,-25.5078255],[-49.9343758,-25.5058669],[-49.9294715,-25.4865624],[-49.9100735,-25.4488841],[-49.8935137,-25.4721763],[-49.856851,-25.4941895],[-49.8465246,-25.4761067],[-49.7671605,-25.466719],[-49.7666604,-25.4505022],[-49.7476586,-25.4364249],[-49.7403926,-25.4151324],[-49.7447726,-25.3935322],[-49.7410383,-25.3663349],[-49.7583518,-25.3612536],[-49.8196637,-25.2700552],[-49.8431075,-25.2540944],[-49.8491534,-25.2339077],[-49.8173144,-25.2263447],[-49.7984143,-25.2146666],[-49.7939654,-25.2002813],[-49.7706667,-25.1968174],[-49.7556621,-25.2165757],[-49.7298459,-25.2246268],[-49.7121911,-25.217417],[-49.6796906,-25.1707536],[-49.6825775,-25.1677497],[-49.6877685,-25.159398],[-49.7033621,-25.1494607],[-49.7146384,-25.1386842],[-49.7276711,-25.1327033],[-49.7271961,-25.1313596],[-49.7327922,-25.1241655],[-49.7428438,-25.0791802],[-49.7369627,-25.0652307],[-49.7354611,-25.0615814],[-49.7187447,-25.0575473],[-49.7125686,-25.0543238],[-49.7112176,-25.0454098],[-49.7052158,-25.0425551],[-49.7035257,-25.018991],[-49.6805512,-25.0087391],[-49.632294,-24.9999882],[-49.6080026,-24.9828513],[-49.6021386,-24.9869783],[-49.5957719,-24.9756068],[-49.5767625,-24.9637575],[-49.5728866,-24.9398289],[-49.5494032,-24.9409977],[-49.5394542,-24.9165158],[-49.5095518,-24.9009933],[-49.5085784,-24.8773003],[-49.5284076,-24.8621234],[-49.5261392,-24.8473274],[-49.5375067,-24.8182403],[-49.5622731,-24.8076995],[-49.5671599,-24.7971094],[-49.5297698,-24.7155786],[-49.5690562,-24.6824254],[-49.5734814,-24.6680221],[-49.6124232,-24.6814624],[-49.6431069,-24.6615002],[-49.6415284,-24.6419804],[-49.6229528,-24.6467798],[-49.5911783,-24.6349786],[-49.5899271,-24.618653],[-49.5596209,-24.6044339],[-49.5392126,-24.5720112],[-49.5236895,-24.5763712],[-49.5281279,-24.6005367],[-49.5041332,-24.6110893],[-49.497732,-24.5980235],[-49.4912255,-24.5518036],[-49.466381,-24.5446256],[-49.4517556,-24.5259288],[-49.4314479,-24.5213373],[-49.4291555,-24.5006876],[-49.3967099,-24.496597],[-49.3897141,-24.4872978],[-49.3592482,-24.4776945],[-49.3467754,-24.4584787],[-49.2756757,-24.4169488],[-49.2602149,-24.4245309]],[[-49.2602149,-24.4245309],[-49.2406832,-24.4220148],[-49.2378503,-24.4044728],[-49.2476759,-24.3927177],[-49.2161546,-24.3558903],[-49.2312127,-24.3303952],[-49.2870008,-24.2990582],[-49.301235,-24.2763039],[-49.3053741,-24.251431],[-49.353209,-24.2186263],[-49.3415441,-24.203122],[-49.3365663,-24.1375819],[-49.3614279,-24.1281116],[-49.3708465,-24.1143834],[-49.3891,-24.1196287],[-49.4091526,-24.1082562],[-49.4122107,-24.092862],[-49.4318438,-24.0856013],[-49.4378235,-24.0587863],[-49.4575401,-24.0494852],[-49.4634431,-24.0274358],[-49.4981248,-23.9938083],[-49.4936847,-23.9775958],[-49.5137065,-23.9643974],[-49.5029134,-23.9485422],[-49.5223359,-23.9165646],[-49.5443701,-23.9351619]],[[-50.8873378,-23.8040942],[-50.9009256,-23.7994515]],[[-54.1690081,-23.9989943],[-54.2171949,-24.0359906],[-54.2494639,-24.0559018],[-54.2862316,-24.0682254],[-54.3141561,-24.1040009],[-54.334227,-24.1163763],[-54.3433345,-24.1331295],[-54.3455788,-24.1570492],[-54.3299632,-24.187957],[-54.3306814,-24.230271],[-54.3225729,-24.2516575],[-54.2774409,-24.2914447],[-54.2578191,-24.3552654],[-54.2627684,-24.3781341],[-54.292898,-24.4245667],[-54.3107954,-24.4406896],[-54.3265126,-24.4651747],[-54.3361051,-24.5080196],[-54.3200482,-24.5680481],[-54.3188175,-24.6069396],[-54.3343363,-24.7011012],[-54.3700859,-24.7562192],[-54.3899278,-24.7772832],[-54.3949768,-24.8112832],[-54.4369866,-24.9414242],[-54.4493445,-25.0141459],[-54.463547,-25.056906],[-54.4576095,-25.067416],[-54.4595183,-25.1020636],[-54.4458725,-25.1139142],[-54.4248858,-25.1532656],[-54.4336815,-25.1709455],[-54.4478333,-25.1687802],[-54.474288,-25.2130135],[-54.4912342,-25.2779663],[-54.5253651,-25.3315358],[-54.554621,-25.3596642],[-54.586413,-25.3965778],[-54.6042831,-25.4409428],[-54.6190931,-25.4506973],[-54.6172081,-25.4705611],[-54.6036678,-25.4824553],[-54.6012287,-25.5229348],[-54.5947339,-25.537976],[-54.5935181,-25.5922462],[-54.5528867,-25.5881529],[-54.5345379,-25.5991872],[-54.537775,-25.6171342],[-54.5263422,-25.6288288],[-54.5024631,-25.6144302],[-54.4702174,-25.6357679],[-54.444059,-25.6684693],[-54.4352352,-25.6968986],[-54.4238679,-25.6928712],[-54.4252962,-25.6589049],[-54.397052,-25.6397113],[-54.3870437,-25.5980501],[-54.3712828,-25.5944561],[-54.3454761,-25.6049062],[-54.3289058,-25.5719021],[-54.2883178,-25.5544066],[-54.2794665,-25.5580104],[-54.2537193,-25.5964092],[-54.2341677,-25.5875956],[-54.2370377,-25.567319],[-54.2229194,-25.564836],[-54.2031264,-25.5804774],[-54.1764272,-25.5844309],[-54.1837424,-25.5645997],[-54.2030733,-25.5588354],[-54.206382,-25.5417401],[-54.192929,-25.5339978],[-54.1631106,-25.5426072],[-54.1418996,-25.5184901],[-54.1157271,-25.4985354],[-54.0948569,-25.497991],[-54.1014446,-25.5298164],[-54.1198091,-25.5532823],[-54.1195437,-25.5835102],[-54.1018156,-25.6180567],[-54.0913095,-25.6169969],[-54.0834924,-25.5621886],[-54.0715395,-25.5598543],[-54.0602391,-25.578272],[-54.0453376,-25.5851564],[-54.0287494,-25.5665344],[-54.01081,-25.5665328],[-53.9912454,-25.5860855]],[[-53.9912454,-25.5860855],[-53.9682488,-25.5867216],[-53.9399919,-25.5715748],[-53.9255396,-25.575465],[-53.9047235,-25.5942268],[-53.8770478,-25.584265],[-53.8205748,-25.5408276],[-53.8019873,-25.5409373],[-53.7966371,-25.5521882],[-53.8180583,-25.5897008],[-53.7968331,-25.6070619],[-53.7789569,-25.5904467],[-53.7786899,-25.5624355],[-53.7575348,-25.5529311],[-53.725448,-25.5861849],[-53.7041972,-25.580787],[-53.7176098,-25.5520715],[-53.7154102,-25.5417596],[-53.693697,-25.5289565],[-53.6760497,-25.5044525],[-53.6356532,-25.524249],[-53.5953586,-25.5651731],[-53.5736466,-25.555851],[-53.5793035,-25.5257138],[-53.562943,-25.5072822],[-53.5482845,-25.5121609],[-53.5410217,-25.5448681],[-53.5070755,-25.5436042],[-53.4788592,-25.5315291],[-53.4477168,-25.5287946],[-53.4377101,-25.5048894],[-53.3978226,-25.5026992]],[[-53.3978226,-25.5026992],[-53.3902969,-25.5038506],[-53.3840711,-25.5095113],[-53.379317,-25.5188436],[-53.3681499,-25.5333393],[-53.3625442,-25.5362008]],[[-53.3625442,-25.5362008],[-53.3463522,-25.5316162],[-53.3388186,-25.5136469],[-53.3491067,-25.5007083],[-53.3531784,-25.4903937],[-53.3477988,-25.4811637]],[[-53.3477988,-25.4811637],[-53.3290173,-25.4765378],[-53.3214847,-25.4775051],[-53.313267,-25.4814124],[-53.3060385,-25.4878937],[-53.3031728,-25.4967477]],[[-53.3031728,-25.4967477],[-53.3288508,-25.539067],[-53.3251243,-25.5503157],[-53.2798768,-25.5440156],[-53.2684292,-25.5595491],[-53.2710959,-25.5859111],[-53.2533531,-25.5867514],[-53.2378729,-25.574478],[-53.2120116,-25.5749187],[-53.1937613,-25.5567362],[-53.201205,-25.5282079]],[[-53.201205,-25.5282079],[-53.1919275,-25.5172082],[-53.1661816,-25.5098981],[-53.1588479,-25.5089446]],[[-53.1588479,-25.5089446],[-53.143543,-25.513675]],[[-53.143543,-25.513675],[-53.1299019,-25.511692],[-53.1304763,-25.5040448],[-53.127975,-25.4885545],[-53.1108705,-25.4779679],[-53.1140757,-25.437232],[-53.1091882,-25.4163121],[-53.1158118,-25.4051703],[-53.0887086,-25.3872691],[-53.0809879,-25.3561698],[-53.0769378,-25.3557365],[-53.0634803,-25.354145],[-53.036917,-25.3311319],[-53.0025399,-25.3310404],[-52.9862648,-25.3086103],[-52.9493514,-25.2990875],[-52.9046852,-25.2698313],[-52.875775,-25.285331],[-52.8549079,-25.2764099],[-52.8518411,-25.273765],[-52.8437751,-25.2703254],[-52.8361006,-25.2679436],[-52.8307287,-25.2522817],[-52.77993,-25.2494095],[-52.775051,-25.2418976],[-52.7537727,-25.2265508],[-52.7359323,-25.2260699],[-52.7211709,-25.2123555],[-52.7009589,-25.2173908],[-52.6609197,-25.2059908],[-52.6585335,-25.1878537],[-52.6730302,-25.1720694],[-52.6912398,-25.1643466],[-52.6690273,-25.1459356],[-52.6701179,-25.1287622],[-52.6572923,-25.1050118],[-52.6612553,-25.0727615],[-52.6150979,-25.0378446],[-52.6024861,-25.0114265],[-52.6211368,-24.9847046],[-52.6058184,-24.968191],[-52.5995531,-24.9638197],[-52.596224,-24.9665773],[-52.5926187,-24.9542421],[-52.6109605,-24.9365016],[-52.6220568,-24.9618715],[-52.6598522,-24.9530613],[-52.6381713,-24.9437035],[-52.6469243,-24.9345722],[-52.6514628,-24.932949]],[[-52.6514628,-24.932949],[-52.660415,-24.92666]],[[-53.246274,-24.1859149],[-53.2413649,-24.1657519]],[[-53.9912454,-25.5860855],[-53.9702553,-25.6009426],[-53.9514893,-25.6467087],[-53.941924,-25.6191512],[-53.9167903,-25.6160827],[-53.9144853,-25.6332687],[-53.8952173,-25.642987],[-53.8840811,-25.6582456],[-53.8624923,-25.6586085],[-53.850465,-25.7008526],[-53.8664457,-25.7413317],[-53.8493892,-25.7409481],[-53.8517585,-25.7629896],[-53.8309233,-25.7808442],[-53.8222755,-25.800324],[-53.8418882,-25.8390156],[-53.8316599,-25.8593604],[-53.8395679,-25.8826856],[-53.8240015,-25.8955933],[-53.8202932,-25.927252],[-53.8428116,-25.9336556],[-53.8354994,-25.9724749],[-53.8176836,-25.989964],[-53.7801244,-26.0084636],[-53.7716138,-26.0314698],[-53.7378591,-26.0412422],[-53.7266149,-26.0647917],[-53.740105,-26.0835158],[-53.741514,-26.1160169],[-53.7103078,-26.1305632],[-53.7000696,-26.1528282],[-53.6822014,-26.1620718],[-53.6411691,-26.2155345],[-53.6535212,-26.2351071],[-53.6291101,-26.2578479],[-53.5843296,-26.2590734],[-53.5822163,-26.2724168],[-53.5534836,-26.2926096],[-53.5237076,-26.2920211],[-53.4984093,-26.3030406],[-53.4702349,-26.2901297],[-53.4246944,-26.2800667],[-53.3998165,-26.254013],[-53.3760719,-26.241614],[-53.3389307,-26.2482313],[-53.3048557,-26.260529],[-53.2890034,-26.2480361],[-53.262114,-26.2773298],[-53.2645345,-26.2893298],[-53.2400852,-26.3002441],[-53.2260153,-26.3184752],[-53.165447,-26.3512796],[-53.150939,-26.344519],[-53.1269968,-26.3724881],[-53.1095398,-26.3763517],[-53.093228,-26.3920221],[-53.0464406,-26.3813775],[-52.9933039,-26.3475248],[-52.9504203,-26.3622865],[-52.8665078,-26.3582736],[-52.8469285,-26.3444065],[-52.7753913,-26.3478885],[-52.7634936,-26.3536707],[-52.7377632,-26.3421849],[-52.7188906,-26.357301],[-52.678622,-26.352676],[-52.6597739,-26.3738708],[-52.6211027,-26.395509],[-52.6153782,-26.4091241],[-52.5958322,-26.4160624],[-52.5789527,-26.4081527],[-52.5232321,-26.3995992]],[[-52.5232321,-26.3995992],[-52.5168582,-26.3705456],[-52.4971902,-26.3272613],[-52.506589,-26.315077],[-52.4986281,-26.3001846],[-52.4958131,-26.2692074],[-52.5395643,-26.2253775],[-52.5372308,-26.2006988],[-52.5513657,-26.1645716],[-52.568999,-26.1441354],[-52.5620972,-26.1087003],[-52.5376137,-26.1146602],[-52.5156175,-26.1017736],[-52.5166432,-26.0887811],[-52.4861186,-26.084627],[-52.445107,-26.1049356],[-52.4150044,-26.1049365],[-52.4060735,-26.0897238],[-52.384436,-26.0856408],[-52.3576894,-26.0669835],[-52.3820674,-26.051641],[-52.3643575,-26.0328207],[-52.3727834,-26.0069737],[-52.3846965,-26.0023335],[-52.384683,-25.9516552],[-52.3380251,-25.9300529],[-52.3222309,-25.9055036],[-52.2803027,-25.8742123],[-52.2734742,-25.8456601],[-52.2576147,-25.8468523],[-52.2410564,-25.8095893],[-52.2270279,-25.7898446],[-52.2314747,-25.7723943],[-52.2234167,-25.7605634],[-52.2348062,-25.7393315],[-52.262058,-25.7385492],[-52.2667252,-25.7246988]],[[-52.2667252,-25.7246988],[-52.2891942,-25.7102983],[-52.2959738,-25.7086541],[-52.3048597,-25.7095337],[-52.3115337,-25.7124546]],[[-52.3115337,-25.7124546],[-52.3088646,-25.6898525],[-52.3240277,-25.6778718],[-52.3544128,-25.7030984],[-52.4042762,-25.7012962],[-52.4450065,-25.6731427],[-52.4671188,-25.6786939],[-52.5332103,-25.6447449],[-52.5454101,-25.6537906],[-52.5274177,-25.6704109],[-52.5221754,-25.6905743],[-52.5323106,-25.6988675],[-52.5520883,-25.6914563],[-52.5766764,-25.6620605],[-52.5764138,-25.6470955],[-52.6193338,-25.6296406],[-52.6277963,-25.6550338],[-52.6582889,-25.6573884],[-52.6937492,-25.6539563],[-52.7152634,-25.6649034],[-52.7221056,-25.6267324],[-52.7670073,-25.6106648],[-52.7832167,-25.5700298],[-52.7950986,-25.5672147],[-52.80676,-25.6050378],[-52.8235126,-25.6025651],[-52.8300333,-25.5888589],[-52.8470064,-25.5879088],[-52.8674453,-25.6140026],[-52.8797763,-25.6091859],[-52.9073637,-25.5642913],[-52.9590396,-25.5569941],[-52.9810175,-25.5712227],[-52.9955892,-25.5542744],[-53.0007753,-25.534534],[-53.023054,-25.5395114],[-53.0387694,-25.554445],[-53.0504947,-25.5777021],[-53.0733144,-25.560115],[-53.077542,-25.5394331],[-53.102014,-25.5350171]],[[-53.102014,-25.5350171],[-53.1073185,-25.5492223],[-53.1153191,-25.5582762],[-53.1216249,-25.5633905],[-53.1275732,-25.5638051]],[[-53.1275732,-25.5638051],[-53.1365926,-25.5536762],[-53.1385129,-25.5301807],[-53.143543,-25.513675]],[[-53.1588479,-25.5089446],[-53.1887944,-25.5156564],[-53.1949349,-25.5195887],[-53.201205,-25.5282079]],[[-53.3031728,-25.4967477],[-53.3038474,-25.4918757],[-53.3082917,-25.4853606],[-53.316039,-25.4799585],[-53.3262602,-25.4766163],[-53.3324859,-25.4769183],[-53.3477988,-25.4811637]],[[-53.3625442,-25.5362008],[-53.3701491,-25.5315499],[-53.3882939,-25.5045914],[-53.3978226,-25.5026992]],[[-53.1275732,-25.5638051],[-53.1248734,-25.5641853],[-53.1181493,-25.5609948],[-53.1083727,-25.5509157],[-53.102014,-25.5350171]],[[-52.3115337,-25.7124546],[-52.3079431,-25.7106343],[-52.3006677,-25.7086808],[-52.2929461,-25.7092413],[-52.2857312,-25.7117078],[-52.2667252,-25.7246988]],[[-52.5232321,-26.3995992],[-52.496272,-26.4200194],[-52.4767233,-26.421436],[-52.4636056,-26.4396036],[-52.4333066,-26.4402033],[-52.3980605,-26.42882],[-52.3774195,-26.4409567],[-52.3049939,-26.4402571],[-52.2902188,-26.4553658],[-52.2616222,-26.4542808],[-52.2298118,-26.4670431],[-52.2028476,-26.4587849],[-52.1859468,-26.4452283],[-52.1666946,-26.4649806],[-52.1295515,-26.4772059],[-52.1116325,-26.4749634],[-52.096879,-26.4874797],[-52.0981791,-26.5015009],[-52.0813539,-26.525111],[-52.0651889,-26.5230182],[-52.0212151,-26.5487221],[-52.0087675,-26.5665606],[-51.9433269,-26.5712026],[-51.9283319,-26.5843685],[-51.9002917,-26.5792836],[-51.8831782,-26.5848166],[-51.8734505,-26.5993625],[-51.8339981,-26.5900386],[-51.8205615,-26.5786004],[-51.789399,-26.5886824],[-51.7345458,-26.5723759],[-51.694165,-26.5812113],[-51.671999,-26.5651968],[-51.6568594,-26.5664278],[-51.6309939,-26.5878183],[-51.5969898,-26.58406],[-51.5742381,-26.5897764],[-51.5356074,-26.5917979],[-51.5120815,-26.5816876]],[[-51.5120815,-26.5816876],[-51.5231893,-26.5274474],[-51.5269002,-26.4977251],[-51.5224834,-26.4811825],[-51.5331762,-26.4386027],[-51.5448569,-26.4302999],[-51.5444006,-26.4241562],[-51.5518695,-26.4186372],[-51.548809,-26.4016448],[-51.5660828,-26.3931957],[-51.5623652,-26.3682287],[-51.5747642,-26.3511651],[-51.5848285,-26.3221135],[-51.5806595,-26.2967891],[-51.6280787,-26.2896571],[-51.6404956,-26.2700222],[-51.6797915,-26.2689969],[-51.7013822,-26.2439241],[-51.7308617,-26.2619268],[-51.7641946,-26.2498703],[-51.7696323,-26.2370411],[-51.7047468,-26.1260173],[-51.6956666,-26.1032689],[-51.7383448,-26.0493224],[-51.7237215,-26.0118608],[-51.7374043,-26.0004246],[-51.7310552,-25.9867842],[-51.7430482,-25.9706952],[-51.7313033,-25.9571052],[-51.7141815,-25.9217131],[-51.6984954,-25.9148051],[-51.6808042,-25.932805],[-51.6966641,-25.9561436],[-51.7096288,-25.9780656],[-51.6778585,-25.99527],[-51.6676921,-26.0102917],[-51.6431919,-25.9973818],[-51.6192309,-26.0037115],[-51.5842443,-25.9983315],[-51.5812405,-25.9767195],[-51.5504679,-25.9869095],[-51.5345463,-25.9643283],[-51.5212699,-25.9693159],[-51.5028532,-25.9427223],[-51.4778259,-25.921458],[-51.4492363,-25.9513851],[-51.4322123,-25.9407476],[-51.4379616,-25.9256215],[-51.4127122,-25.9246681],[-51.4154103,-25.9487922],[-51.3814795,-25.9341131],[-51.3806236,-25.894476],[-51.3592421,-25.8802414],[-51.3227651,-25.8461335],[-51.3218196,-25.8264518],[-51.2932166,-25.8307291],[-51.2816852,-25.7916427],[-51.2578446,-25.8066487],[-51.2022332,-25.7678044],[-51.1855464,-25.770648],[-51.1714276,-25.7457779],[-51.1321278,-25.7632041],[-51.1174873,-25.7460562],[-51.1164839,-25.7202751],[-51.0975666,-25.7099967],[-51.0492067,-25.6976889],[-51.0364857,-25.7091568],[-51.0200667,-25.7057732],[-51.0096525,-25.6745784],[-50.992595,-25.6781866],[-50.9757078,-25.6616348],[-50.9900241,-25.6416759],[-50.9801485,-25.6299822],[-51.0068979,-25.6039713],[-50.9854076,-25.5729553],[-51.0313213,-25.5683571],[-51.045037,-25.5561869],[-51.0697285,-25.5589827],[-51.0988745,-25.5526924],[-51.1257072,-25.5218734],[-51.1452833,-25.4836442],[-51.1349721,-25.4751307],[-51.1185994,-25.4764959],[-51.0896787,-25.447783],[-51.0959251,-25.4303715],[-51.1146205,-25.441077],[-51.1501538,-25.4054804],[-51.1600708,-25.3804884],[-51.1553987,-25.3678858],[-51.1349082,-25.3682825],[-51.1367586,-25.3454793],[-51.2078684,-25.3086768],[-51.2087637,-25.2886841],[-51.1853203,-25.2459335],[-51.2055635,-25.2089887],[-51.18487,-25.1840606],[-51.20157,-25.1717837],[-51.2453783,-25.1040921],[-51.2263202,-25.0786469],[-51.2446572,-25.0709206],[-51.2545469,-25.0400155],[-51.2415667,-25.0253871],[-51.2467176,-25.0063289],[-51.2397576,-24.9858778],[-51.2440804,-24.9697331],[-51.2537227,-24.9962333],[-51.2536197,-25.0211634],[-51.2879244,-25.0585586],[-51.3123454,-25.050554],[-51.3156816,-25.0290305],[-51.3294395,-25.0166492],[-51.3350244,-24.9739502],[-51.3269659,-24.9504437],[-51.3328267,-24.9296897],[-51.3695773,-24.9285865],[-51.3827468,-24.9185886],[-51.405094,-24.9200122],[-51.3933763,-24.8773527],[-51.3715108,-24.8741279],[-51.3707598,-24.8225975],[-51.3525957,-24.7890595],[-51.3372894,-24.7943914],[-51.3301843,-24.7876054],[-51.320236,-24.7894043],[-51.3161827,-24.7819614],[-51.3328499,-24.7596225]],[[-51.4965975,-24.6363013],[-51.5020982,-24.6303821],[-51.5021794,-24.6273881],[-51.4870673,-24.6090551]],[[-52.0452187,-24.569378],[-52.0534959,-24.5713695]],[[-52.6558017,-24.9293651],[-52.6514628,-24.932949]],[[-51.5120815,-26.5816876],[-51.4973868,-26.5852636],[-51.454883,-26.6406582],[-51.4567615,-26.6531763],[-51.4394948,-26.6672339],[-51.435346,-26.6881781],[-51.4073176,-26.70062],[-51.3927778,-26.6848787],[-51.3911297,-26.6632474],[-51.3253187,-26.6485981],[-51.2948899,-26.6558927],[-51.2835172,-26.6423633],[-51.2357544,-26.6232834],[-51.2367949,-26.6078918],[-51.2249954,-26.5911805],[-51.231517,-26.5485977],[-51.2471252,-26.5377186],[-51.2502094,-26.5194763],[-51.2731744,-26.4983042],[-51.2511304,-26.4720702],[-51.2530573,-26.4622957],[-51.2793484,-26.4538078],[-51.3004929,-26.4178719],[-51.2772528,-26.3894347],[-51.2570124,-26.3723302],[-51.2565004,-26.3441089],[-51.2479512,-26.3298664],[-51.2158204,-26.315948],[-51.2071978,-26.2963013],[-51.194074,-26.3014791],[-51.1619388,-26.2910267],[-51.148403,-26.2787746],[-51.1203944,-26.2796727],[-51.101911,-26.2728112],[-51.097858,-26.2556051],[-51.0760876,-26.2326224],[-51.0568457,-26.2439017],[-50.9989726,-26.2310534],[-50.9748918,-26.2441157],[-50.9644819,-26.2679161],[-50.9473857,-26.281234],[-50.9315532,-26.2684955],[-50.9440114,-26.2429562],[-50.9325129,-26.2344918],[-50.908207,-26.2512143],[-50.9091388,-26.2846351],[-50.8819619,-26.2792658],[-50.8724416,-26.2445027],[-50.8621338,-26.243376],[-50.846873,-26.2663831],[-50.8311658,-26.2661363],[-50.8277425,-26.2481634],[-50.7976048,-26.2301802],[-50.7613726,-26.2218372],[-50.750563,-26.2244501],[-50.7459296,-26.2467729],[-50.7164043,-26.2450009],[-50.728554,-26.2148783],[-50.7277985,-26.2014514],[-50.7056204,-26.1897056],[-50.6775895,-26.1472181],[-50.6483104,-26.1303502],[-50.6565623,-26.1018131],[-50.6309991,-26.0646211],[-50.5948011,-26.0703959],[-50.5519076,-26.0575582],[-50.5525092,-26.0426318],[-50.5862879,-26.0476008],[-50.5914895,-26.0225393],[-50.5702306,-26.0019528],[-50.5619125,-26.0064933],[-50.5508688,-26.0382627],[-50.5023602,-26.0242432],[-50.4591296,-26.0272142],[-50.4295381,-26.0629874],[-50.4001443,-26.0625911],[-50.3721225,-26.0787336],[-50.3618472,-26.0932212],[-50.3589874,-26.1177779],[-50.3326555,-26.134937],[-50.3320127,-26.0853748],[-50.2980142,-26.0543171],[-50.2873903,-26.0558091],[-50.2512218,-26.0304735],[-50.2363389,-26.0354609],[-50.2226853,-26.0604246],[-50.2087834,-26.0570194],[-50.1779718,-26.0785023],[-50.161577,-26.0576771],[-50.1702508,-26.0251885],[-50.1401632,-26.0265834],[-50.1315541,-26.0422733],[-50.1059799,-26.0579232],[-50.0896448,-26.0424625],[-50.03618,-26.0270166],[-50.0110633,-26.0267338],[-49.9934323,-26.01135]],[[-49.9934323,-26.01135],[-49.9869297,-25.9951814],[-49.9776112,-26.0039229],[-49.9677643,-26.0050767],[-49.967644,-25.9915566],[-49.9732943,-25.9590849],[-49.986614,-25.9404448],[-50.0111624,-25.9310211],[-50.0227684,-25.8910414],[-50.0374097,-25.8806403],[-50.0542048,-25.8836353],[-50.0831639,-25.8994104],[-50.1146281,-25.8899999],[-50.1216365,-25.8810267],[-50.1433599,-25.8874601],[-50.1751739,-25.8724483],[-50.1737512,-25.8581293],[-50.204828,-25.8245071],[-50.2315202,-25.8106525],[-50.2093024,-25.7876431],[-50.1872018,-25.787208],[-50.1818901,-25.7837616],[-50.1882244,-25.7725842],[-50.1533906,-25.7541967],[-50.1518426,-25.7487684],[-50.1505357,-25.7375423],[-50.15138,-25.7364036],[-50.1521883,-25.7320226],[-50.1274399,-25.712377],[-50.1263501,-25.7106635],[-50.1462232,-25.6863788],[-50.135195,-25.6750475],[-50.1357015,-25.6639298],[-50.1269622,-25.6632983],[-50.1137854,-25.6667975],[-50.0953981,-25.6539843],[-50.089687,-25.6502885],[-50.0972072,-25.6353963]],[[-50.0972072,-25.6353963],[-50.0979051,-25.6316742]],[[-50.9978167,-24.8626683],[-50.9983908,-24.8631137]],[[-50.0875199,-25.6383004],[-50.0972072,-25.6353963]],[[-49.9934323,-26.01135],[-49.9758063,-26.0141792],[-49.9631377,-26.0275984],[-49.9431027,-26.0086206],[-49.9312753,-26.0303358],[-49.9147902,-26.0254229],[-49.8694394,-26.0334697],[-49.8638113,-26.0547319],[-49.8282093,-26.0751735],[-49.8245891,-26.0937541],[-49.7775332,-26.1201172],[-49.7678096,-26.1103674],[-49.7485109,-26.1250319],[-49.7489641,-26.1401181],[-49.727533,-26.171436],[-49.7114555,-26.1543236],[-49.6992924,-26.1613002],[-49.6807649,-26.1865019],[-49.65369,-26.1869599],[-49.6509153,-26.208363],[-49.6298044,-26.1975263],[-49.6229226,-26.215574],[-49.6052352,-26.211931],[-49.5670183,-26.2334319],[-49.5498461,-26.2333732],[-49.5379632,-26.2128537],[-49.5224637,-26.2212854],[-49.4909621,-26.2142533],[-49.4793639,-26.1840571],[-49.4523629,-26.1619579],[-49.4334457,-26.168591],[-49.3685702,-26.1528266],[-49.3608472,-26.1370906],[-49.333957,-26.1245657],[-49.31468,-26.108929],[-49.3000682,-26.1112838],[-49.2941314,-26.0855889],[-49.2769582,-26.0828956],[-49.2557627,-26.0679584],[-49.239861,-26.0349863],[-49.1744743,-26.004206],[-49.150377,-26.0096917],[-49.1188991,-26.0024927],[-49.0981087,-26.0104567],[-49.0717076,-26.0003947],[-49.0543672,-26.0209526],[-49.0434601,-26.0053733],[-49.0201609,-26.0157474],[-48.9942518,-26.0093054],[-48.9604784,-25.9807998],[-48.6820323,-25.9836713],[-48.6689389,-25.9792397],[-48.6495503,-25.9578473],[-48.6215282,-25.9819868],[-48.5950432,-25.9767745],[-48.5809628,-25.9319711],[-48.5597196,-25.8907489],[-48.5671149,-25.8812544],[-48.5646653,-25.8564196],[-48.5375649,-25.8435697],[-48.5266128,-25.8019801],[-48.5009548,-25.7534543],[-48.4316145,-25.6428746],[-48.3903071,-25.604056],[-48.3582855,-25.5859468],[-48.3199262,-25.5865626],[-48.2901316,-25.5461365],[-48.2769112,-25.5140512],[-48.3097419,-25.4932793],[-48.2870256,-25.4891998],[-48.2693766,-25.475888],[-48.2393219,-25.465269],[-48.2149358,-25.4740505],[-48.1978832,-25.4279896],[-48.1622966,-25.37497],[-48.134616,-25.34442],[-48.0997085,-25.316354],[-48.0984588,-25.2996767],[-48.0511582,-25.2523355],[-48.0235374,-25.2309317],[-48.0402996,-25.2187445],[-48.0621061,-25.2400852],[-48.0985821,-25.2412534],[-48.1148836,-25.250702],[-48.1512382,-25.2281274],[-48.1627203,-25.2098366],[-48.1825203,-25.2049988],[-48.1933632,-25.1898656],[-48.1666386,-25.1660086],[-48.1713342,-25.1422586],[-48.2160543,-25.0766716],[-48.214943,-25.0296741],[-48.2319501,-25.0153583],[-48.2353924,-24.9955833],[-48.2633319,-24.9928045],[-48.2846277,-25.0391923],[-48.3074617,-25.0354827],[-48.3177739,-25.0565481],[-48.3469716,-25.0352408],[-48.3547484,-25.0199622],[-48.3786378,-24.9970283],[-48.4111527,-24.9802317],[-48.4740493,-25.0125524],[-48.4808824,-25.0369881],[-48.5285838,-25.1007893],[-48.5560079,-25.0865526],[-48.5579385,-25.0639725],[-48.5838052,-25.0415844],[-48.5888695,-25.0197057],[-48.6008313,-25.0105057],[-48.5884602,-24.9864393],[-48.5673709,-24.9722669],[-48.5726711,-24.9549294],[-48.5628676,-24.9394293],[-48.5715891,-24.9247315],[-48.5671436,-24.9038712],[-48.5493901,-24.8791638],[-48.5666761,-24.8639577],[-48.5678141,-24.8474996],[-48.5488908,-24.7972137],[-48.5167241,-24.7801821],[-48.5018968,-24.7459757],[-48.5518104,-24.7166178],[-48.5722028,-24.6906386],[-48.6040298,-24.6682968],[-48.641642,-24.6896675],[-48.6770593,-24.6925268],[-48.6787241,-24.670888],[-48.6993946,-24.685315],[-48.7185899,-24.6830148],[-48.7447499,-24.6932497],[-48.7786516,-24.6967322],[-48.7882067,-24.6811894],[-48.8119239,-24.6741426],[-48.8273144,-24.6544533],[-48.8404009,-24.6649768],[-48.9099285,-24.6707158],[-48.922427,-24.6751869],[-48.9632894,-24.6732153],[-49.0106767,-24.6559755],[-49.0210912,-24.6419876],[-49.0400336,-24.6368465],[-49.0373997,-24.6604197],[-49.0518457,-24.6806952],[-49.0746749,-24.6734165],[-49.1115946,-24.6883523],[-49.1360713,-24.6752471],[-49.187123,-24.6736981],[-49.2232588,-24.6985849],[-49.278132,-24.6930215],[-49.3120154,-24.6635327],[-49.2996253,-24.6549573],[-49.3140712,-24.6320664],[-49.3140964,-24.6082731],[-49.3035971,-24.5969487],[-49.3176777,-24.5666395],[-49.3098163,-24.5499278],[-49.280272,-24.5372649],[-49.2956741,-24.5003099],[-49.2713419,-24.4901791],[-49.2455969,-24.4581786],[-49.2602149,-24.4245309]]],"bbox":[-54.6190931,-26.70062,-48.0235374,-22.5166619]}
