{"type":"Topology","objects":{"geometrias":{"type":"GeometryCollection","geometries":[{"type":"Polygon","arcs":[[0,1]],"properties":{"code_meso":2401,"code_state":24,"code_region":2,"name_meso":"Oeste Potiguar","abbrev_state":"RN","name_state":"Rio Grande do Norte","name_region":"Nordeste","year":2020}},{"type":"Polygon","arcs":[[2,3,4,5,-2]],"properties":{"code_meso":2402,"code_state":24,"code_region":2,"name_meso":"Central Potiguar","abbrev_state":"RN","name_state":"Rio Grande do Norte","name_region":"Nordeste","year":2020}},{"type":"Polygon","arcs":[[-4,6,7]],"properties":{"code_meso":2403,"code_state":24,"code_region":2,"name_meso":"Agreste Potiguar","abbrev_state":"RN","name_state":"Rio Grande do Norte","name_region":"Nordeste","year":2020}},{"type":"Polygon","arcs":[[-8,8,-5]],"properties":{"code_meso":2404,"code_state":24,"code_region":2,"name_meso":"Leste Potiguar","abbrev_state":"RN","name_state":"Rio Grande do Norte","name_region":"Nordeste","year":2020}}]}},"arcs":[[[-36.7155904,-5.0808986],[-36.8121656,-5.0260548],[-36.8660297,-4.9592342],[-36.9188313,-4.9465193],[-36.9603391,-4.9184779],[-37.0405623,-4.9501867],[-37.1068581,-4.9223379],[-37.1586745,-4.9443551],[-37.2096537,-4.895365],[-37.2526246,-4.8313814],[-37.6403381,-4.9264044],[-37.6776204,-5.0540857],[-37.7250894,-5.0706243],[-37.7649556,-5.1396162],[-37.7899659,-5.214499],[-37.7831099,-5.2948155],[-37.8474704,-5.3400231],[-37.8604816,-5.4066857],[-37.9022457,-5.5006618],[-37.9900371,-5.5557979],[-38.0342697,-5.6371528],[-38.0819854,-5.6701227],[-38.0896939,-5.7148464],[-38.0470084,-5.7302628],[-38.1188643,-5.8328348],[-38.1225154,-5.8817401],[-38.2526921,-6.011914],[-38.2525691,-6.0431031],[-38.3048023,-6.0869674],[-38.3662148,-6.0882981],[-38.4015365,-6.053495],[-38.4473166,-6.0852777],[-38.4754853,-6.1570403],[-38.5272039,-6.193378],[-38.528348,-6.2391762],[-38.5795457,-6.2796264],[-38.5625059,-6.3556517],[-38.532623,-6.3417062],[-38.4520637,-6.3924893],[-38.3993194,-6.4097925],[-38.373663,-6.455781],[-38.3284375,-6.460656],[-38.2815259,-6.499544],[-38.2392289,-6.4802973],[-38.1355176,-6.5184761],[-38.0979875,-6.5094908],[-38.0701511,-6.4627525],[-38.0370128,-6.4570546],[-37.9552056,-6.4080615],[-37.9260514,-6.4211378],[-37.8598275,-6.3748773],[-37.8121239,-6.2927268],[-37.7648844,-6.2922364],[-37.7756165,-6.2313435],[-37.7423739,-6.1889754],[-37.6731701,-6.1905803],[-37.5696205,-6.1554387],[-37.4589474,-6.1450022],[-37.4456931,-6.1122014],[-37.3936319,-6.1093877],[-37.2955717,-6.0500947],[-37.2318602,-6.0275949],[-37.1755727,-6.0549393],[-37.166381,-6.1539088],[-37.1456207,-6.1506007],[-37.1266757,-6.1568772]],[[-37.1266757,-6.1568772],[-37.129195,-6.1925501],[-37.0965278,-6.232113],[-37.0629434,-6.2182177],[-37.0031195,-6.2216917],[-36.9736656,-6.1925127],[-36.8921508,-6.1766168],[-36.9244638,-6.1319944],[-36.8987268,-6.0857739],[-36.8553922,-6.0442805],[-36.8489573,-6.0103315],[-36.8760471,-5.9638712],[-36.7735607,-5.861044],[-36.7760519,-5.7636222],[-36.7083357,-5.7039099],[-36.7317648,-5.6842923],[-36.7559849,-5.6225169],[-36.6990453,-5.5261481],[-36.6997244,-5.4638126],[-36.860405,-5.4423424],[-36.8493067,-5.4140937],[-36.8366662,-5.4007862],[-36.8379872,-5.3922306],[-36.5373818,-5.4127957],[-36.5156261,-5.4022381],[-36.5147749,-5.3018874],[-36.5421022,-5.3015108],[-36.5425049,-5.2431848],[-36.5793803,-5.2158296],[-36.7291158,-5.1750295],[-36.7169553,-5.1178656],[-36.7186708,-5.1093632],[-36.7245557,-5.1070131],[-36.7514743,-5.0958093],[-36.7221531,-5.0851893],[-36.7155904,-5.0808986]],[[-37.1266757,-6.1568772],[-37.1434117,-6.1508479],[-37.1553316,-6.1520827],[-37.1613391,-6.157528],[-37.1656835,-6.1703745],[-37.174221,-6.1801036],[-37.1929439,-6.1830798],[-37.2015813,-6.205704],[-37.2342715,-6.2132783],[-37.3199389,-6.2805592],[-37.3773288,-6.3443926],[-37.39752,-6.4180988],[-37.3957857,-6.5100932],[-37.4192922,-6.5331712],[-37.4647245,-6.5326637],[-37.4803841,-6.6052178],[-37.4661909,-6.6599595],[-37.4846995,-6.7100374],[-37.4073341,-6.6971954],[-37.3427129,-6.7012464],[-37.3142989,-6.6889744],[-37.2639208,-6.73217],[-37.2551439,-6.8110615],[-37.1906719,-6.8253657],[-37.1289358,-6.765977],[-37.0594232,-6.749425],[-36.9998335,-6.7077129],[-36.9776218,-6.7218552],[-36.9571355,-6.7904782],[-36.9034284,-6.7536148],[-36.8350296,-6.7310709],[-36.7727287,-6.7870652],[-36.7694651,-6.8387481],[-36.7305176,-6.83544],[-36.7665439,-6.9358676],[-36.7441126,-6.9677737],[-36.7092715,-6.9746886],[-36.6872181,-6.9259627],[-36.6036081,-6.930457],[-36.5601562,-6.8407734],[-36.5099622,-6.8179488],[-36.5047532,-6.7539395],[-36.5588804,-6.7091075],[-36.5138108,-6.594393],[-36.4358581,-6.625878],[-36.4491734,-6.5539142],[-36.5258468,-6.5011613],[-36.5309716,-6.4520716],[-36.4998486,-6.3581649],[-36.430306,-6.362255],[-36.3945614,-6.2939748],[-36.3575767,-6.3099873],[-36.2949796,-6.2921068]],[[-36.2949796,-6.2921068],[-36.2586728,-6.2458137],[-36.2568489,-6.1580152],[-36.3022169,-6.1153717],[-36.2813571,-6.044042],[-36.2128787,-5.8737258],[-36.1577276,-5.8496618],[-36.0678196,-5.8560166],[-36.0391386,-5.844962],[-35.975624,-5.7946593],[-35.9414695,-5.8142554],[-35.9239151,-5.7651079],[-35.9416652,-5.6687785],[-35.9112795,-5.6296611],[-35.9924082,-5.4637876],[-36.0633023,-5.4053987],[-36.1285469,-5.4568166],[-36.1599433,-5.4341125],[-36.2232316,-5.4338742],[-36.27584,-5.2894775],[-36.1505826,-5.2567209],[-36.1035402,-5.2865186],[-36.0508177,-5.2987559],[-36.0019486,-5.2561093],[-35.9521544,-5.2373809]],[[-35.9521544,-5.2373809],[-35.9082574,-5.059478]],[[-35.9082574,-5.059478],[-35.9802429,-5.0415956],[-36.0394363,-5.0513964],[-36.1254898,-5.091471],[-36.1605417,-5.0965453],[-36.3841283,-5.0876119],[-36.4492302,-5.0664439],[-36.5078674,-5.0623472],[-36.5440385,-5.088894],[-36.6133961,-5.0943336],[-36.7155904,-5.0808986]],[[-36.2949796,-6.2921068],[-36.2767475,-6.3404305],[-36.2952214,-6.3945605],[-36.2511629,-6.4044235],[-36.2497721,-6.4373599],[-36.110189,-6.4291807],[-36.0777206,-6.4050906],[-36.0053484,-6.4810533],[-35.9441837,-6.4930062],[-35.7633561,-6.482192],[-35.6601643,-6.4452787],[-35.6001881,-6.4606106],[-35.5805324,-6.4871114],[-35.5252965,-6.4760978],[-35.4123941,-6.4882475],[-35.3412638,-6.5386169]],[[-35.3412638,-6.5386169],[-35.3032858,-6.4207937],[-35.3465355,-6.3584182],[-35.3232354,-6.2711312],[-35.324578,-6.2063871],[-35.3523816,-6.1819666],[-35.2986584,-6.0720552],[-35.3232591,-6.0482488],[-35.3690878,-6.0535548],[-35.37344,-5.9873764],[-35.546735,-6.0539548],[-35.5374012,-5.9956844],[-35.5722267,-5.9323081],[-35.4875012,-5.8296879],[-35.4715851,-5.8348248],[-35.4468642,-5.7333584],[-35.4582069,-5.717838],[-35.5473552,-5.70959],[-35.6318163,-5.7143856],[-35.6414712,-5.6293907],[-35.6585446,-5.5864552],[-35.6681812,-5.4963494],[-35.6812696,-5.4640182],[-35.750987,-5.459208],[-35.7772166,-5.4428255],[-35.8142133,-5.4647787],[-35.8402248,-5.2345863],[-35.8318646,-5.2100244],[-35.9521544,-5.2373809]],[[-35.3412638,-6.5386169],[-35.2745652,-6.5438778],[-35.2323484,-6.5317766],[-35.1688535,-6.5582613],[-35.1454435,-6.5527097],[-35.0945474,-6.4981034],[-35.0577321,-6.5277912],[-34.971027,-6.4853969],[-34.9749944,-6.4190675],[-34.9907724,-6.3718731],[-35.0272021,-6.3509906],[-35.0359791,-6.2353981],[-35.0949638,-6.1824475],[-35.0963025,-6.0572878],[-35.1062298,-6.0069172],[-35.1430161,-5.9647323],[-35.1530009,-5.8878385],[-35.1788124,-5.8663642],[-35.1792424,-5.7989714],[-35.2035316,-5.7472818],[-35.1922014,-5.7005941],[-35.2161873,-5.6763806],[-35.2282843,-5.5750538],[-35.248402,-5.5461074],[-35.2598138,-5.4812525],[-35.2880024,-5.4605602],[-35.3196058,-5.3777427],[-35.3510968,-5.3624687],[-35.372687,-5.281446],[-35.4167172,-5.2209732],[-35.4589473,-5.1970323],[-35.4895279,-5.157048],[-35.6061833,-5.120593],[-35.6389768,-5.1195318],[-35.7588296,-5.0887739],[-35.9082574,-5.059478]]],"bbox":[-38.5795457,-6.9746886,-34.971027,-4.8313814]}
