{"type":"Topology","objects":{"geometrias":{"type":"GeometryCollection","geometries":[{"type":"Polygon","arcs":[[0,1,2,3]],"properties":{"code_meso":2301,"code_state":23,"code_region":2,"name_meso":"Noroeste Cearense","abbrev_state":"CE","name_state":"Ceará","name_region":"Nordeste","year":2020}},{"type":"Polygon","arcs":[[4,5,6,7,8,9,10,-4]],"properties":{"code_meso":2302,"code_state":23,"code_region":2,"name_meso":"Norte Cearense","abbrev_state":"CE","name_state":"Ceará","name_region":"Nordeste","year":2020}},{"type":"Polygon","arcs":[[11,-10]],"properties":{"code_meso":2303,"code_state":23,"code_region":2,"name_meso":"Metropolitana de Fortaleza","abbrev_state":"CE","name_state":"Ceará","name_region":"Nordeste","year":2020}},{"type":"Polygon","arcs":[[12,13,14,15,16,17,18,19,20,-6,21,-2]],"properties":{"code_meso":2304,"code_state":23,"code_region":2,"name_meso":"Sertões Cearenses","abbrev_state":"CE","name_state":"Ceará","name_region":"Nordeste","year":2020}},{"type":"Polygon","arcs":[[22,-20,23,24,25,-8]],"properties":{"code_meso":2305,"code_state":23,"code_region":2,"name_meso":"Jaguaribe","abbrev_state":"CE","name_state":"Ceará","name_region":"Nordeste","year":2020}},{"type":"Polygon","arcs":[[-18,26,27,28,-25,29]],"properties":{"code_meso":2306,"code_state":23,"code_region":2,"name_meso":"Centro-Sul Cearense","abbrev_state":"CE","name_state":"Ceará","name_region":"Nordeste","year":2020}},{"type":"Polygon","arcs":[[30,-28,31,-16,32,-14]],"properties":{"code_meso":2307,"code_state":23,"code_region":2,"name_meso":"Sul Cearense","abbrev_state":"CE","name_state":"Ceará","name_region":"Nordeste","year":2020}}]}},"arcs":[[[-39.7195074,-3.0003411],[-39.7761955,-2.9560682],[-39.8224709,-2.9319775],[-39.8652826,-2.8981287],[-39.9187373,-2.8683649],[-39.9343158,-2.8707967],[-39.9946252,-2.839547],[-40.0388148,-2.8419486],[-40.1262327,-2.8235415],[-40.1437771,-2.840177],[-40.1853339,-2.8116806],[-40.3312076,-2.8059828],[-40.3718859,-2.8124064],[-40.4391695,-2.8092546],[-40.4979588,-2.7843235],[-40.5371263,-2.8194883],[-40.6031393,-2.8482853],[-40.6702384,-2.8434164],[-40.7743912,-2.852787],[-40.8017627,-2.8726713],[-40.8447845,-2.8858541],[-40.8672704,-2.8623655],[-40.898209,-2.8621292],[-40.9145106,-2.87288],[-40.9554683,-2.8720289],[-41.002405,-2.8897412],[-41.1114043,-2.8947769],[-41.176816,-2.8862143],[-41.1875917,-2.8908519],[-41.2586291,-2.8838208],[-41.3226683,-2.9212078],[-41.321769,-2.951732],[-41.3027121,-2.9672499],[-41.2799387,-2.9678059],[-41.2579529,-3.0027745],[-41.2525524,-3.0356505],[-41.2613493,-3.0500598],[-41.2557657,-3.0875838],[-41.2675025,-3.0928897],[-41.3275371,-3.1599678],[-41.3224851,-3.1797928],[-41.3958586,-3.3040985],[-41.4123177,-3.3406973],[-41.3870216,-3.3900079],[-41.3240493,-3.3859241],[-41.3269804,-3.4463006],[-41.319739,-3.4840869],[-41.3368693,-3.5538936],[-41.3646614,-3.5579986],[-41.3713131,-3.5726272],[-41.3449041,-3.588739],[-41.3313155,-3.6246843],[-41.3417478,-3.6807726],[-41.3076646,-3.6848034],[-41.2393389,-3.7126454],[-41.2585189,-3.7327755],[-41.2648285,-3.7915783],[-41.2768563,-3.8256211],[-41.2677571,-3.8618499],[-41.2289134,-3.9117298],[-41.2202395,-3.9415055],[-41.2289347,-3.968103],[-41.24924,-3.9898697],[-41.2388289,-4.015405],[-41.1994726,-4.018356],[-41.1718147,-4.0324776],[-41.1203449,-4.036339],[-41.1141151,-4.0518193],[-41.1408264,-4.123585],[-41.1183295,-4.1652241],[-41.0908856,-4.1703318],[-41.1359048,-4.2335113],[-41.1191241,-4.3065257],[-41.1600114,-4.3814973],[-41.1596905,-4.410555],[-41.1771347,-4.4412669],[-41.1775718,-4.4676776],[-41.190776,-4.515529],[-41.2215303,-4.5674913],[-41.2293307,-4.620095],[-41.2028161,-4.6381951],[-41.1817163,-4.6738033],[-41.2503381,-4.7566274],[-41.2127659,-4.772025],[-41.2431815,-4.8283262],[-41.2496856,-4.8685625],[-41.2281032,-4.8909878],[-41.234928,-4.9057444],[-41.2204424,-4.9389661],[-41.1802162,-4.9475449],[-41.150922,-4.9921105],[-41.1225996,-5.0080684],[-41.1216678,-5.0260174]],[[-41.1216678,-5.0260174],[-41.0506227,-5.0262454],[-41.0325819,-4.9607163],[-40.9857922,-4.9101198],[-40.9418697,-4.8825315],[-40.9290454,-4.8861056],[-40.8756781,-4.8545145],[-40.8862724,-4.797487],[-40.8832462,-4.7518804],[-40.8693131,-4.7151263],[-40.8259204,-4.7167853],[-40.80776,-4.7053108],[-40.7620343,-4.7061988],[-40.7321727,-4.7151977],[-40.6698089,-4.7051233],[-40.6266635,-4.6212209],[-40.6047612,-4.6200943],[-40.5870037,-4.5941891],[-40.5878834,-4.5575772],[-40.509401,-4.5075023],[-40.4608693,-4.5283444],[-40.38119,-4.548867],[-40.3489872,-4.5800352],[-40.3221096,-4.5765792],[-40.293471,-4.5888258],[-40.3423184,-4.6554897],[-40.3204731,-4.6788943],[-40.3035277,-4.7207207],[-40.2733841,-4.7696401],[-40.2099711,-4.7925438],[-40.1847776,-4.7861679],[-40.1579617,-4.8056008],[-40.1487471,-4.8073134],[-40.1361009,-4.8129321],[-40.1198853,-4.7480289],[-40.0594998,-4.7168073],[-39.9261583,-4.7348921],[-39.9285834,-4.7745402],[-39.9068906,-4.7901975],[-39.8805589,-4.7876822],[-39.8744633,-4.7627224],[-39.8638441,-4.7516516],[-39.8611623,-4.7428116],[-39.8559329,-4.7363111],[-39.8516783,-4.7393021],[-39.8490182,-4.7367265],[-39.8396453,-4.7338929],[-39.8225074,-4.7318611],[-39.8162913,-4.7330652],[-39.7973346,-4.7511603],[-39.8067785,-4.7078],[-39.7425826,-4.7195628]],[[-39.7425826,-4.7195628],[-39.7275721,-4.6924545],[-39.7218922,-4.6870647]],[[-39.7218922,-4.6870647],[-39.7264867,-4.6639043],[-39.7208492,-4.6537471],[-39.7612912,-4.6470006],[-39.7695035,-4.6358816],[-39.7700402,-4.6307371],[-39.6855691,-4.5734936],[-39.6901095,-4.5651679],[-39.7013247,-4.5454287],[-39.7476496,-4.5409999],[-39.7642666,-4.5306355],[-39.7606702,-4.5185762],[-39.7565352,-4.5027047],[-39.7206744,-4.4815086],[-39.7293595,-4.4483914],[-39.751905,-4.4074994],[-39.7096287,-4.3787277],[-39.7141928,-4.354633],[-39.734527,-4.3331874],[-39.725968,-4.3093502],[-39.7301932,-4.2748733],[-39.765808,-4.2480042],[-39.7900547,-4.1931],[-39.7574757,-4.157854],[-39.7557563,-4.1346187],[-39.7401467,-4.1101855],[-39.7085208,-4.1010133],[-39.6706544,-4.0704411],[-39.6835902,-4.0340371],[-39.706118,-4.0193484],[-39.710818,-3.9024862],[-39.7187314,-3.8872533],[-39.7038011,-3.850877],[-39.6782516,-3.832656],[-39.6414086,-3.8207532],[-39.6533415,-3.7736883],[-39.6822793,-3.7531249],[-39.6888875,-3.7086858],[-39.7074083,-3.6890883],[-39.6966634,-3.6451533],[-39.7157285,-3.6472713],[-39.7558227,-3.6027134],[-39.7730269,-3.5901067],[-39.7525843,-3.5621893],[-39.7792328,-3.4962572],[-39.7835918,-3.4643941],[-39.8529909,-3.453723],[-39.9510186,-3.433132],[-39.9832157,-3.4408242],[-40.0140414,-3.4294716],[-39.9938284,-3.4030084],[-39.983164,-3.3652291],[-39.9392047,-3.3347022],[-39.9237314,-3.294699],[-39.9088699,-3.2831902],[-39.8891024,-3.2239909],[-39.9026343,-3.2079233],[-39.8735514,-3.1786474],[-39.868006,-3.1246053],[-39.7080092,-3.0138773],[-39.7067033,-3.0078993],[-39.7195074,-3.0003411]],[[-39.7218922,-4.6870647],[-39.7294176,-4.6959029]],[[-39.7294176,-4.6959029],[-39.7333152,-4.7151036],[-39.7258151,-4.7210356],[-39.7374456,-4.7359147],[-39.7262384,-4.7495004],[-39.6921533,-4.7449385],[-39.6657421,-4.7318766],[-39.6288737,-4.7314207],[-39.5756512,-4.7487624],[-39.5101129,-4.7247348],[-39.3897982,-4.7248085],[-39.3630694,-4.7386156],[-39.304866,-4.70743],[-39.2926642,-4.6634426],[-39.2701785,-4.6469121],[-39.2304319,-4.6529192],[-39.1714605,-4.6493262],[-39.1600843,-4.6355238],[-39.1200918,-4.6253613],[-39.0784432,-4.6386157],[-38.9940678,-4.6465863],[-38.9531514,-4.6641065],[-38.949245,-4.68402],[-38.9650881,-4.7049487],[-38.9431028,-4.7409261],[-38.9233287,-4.7391012],[-38.9013718,-4.7125296],[-38.8817978,-4.7047568],[-38.8582236,-4.6670148],[-38.8149089,-4.6723833],[-38.782163,-4.6305303],[-38.7003593,-4.6122531],[-38.6891736,-4.6519867],[-38.6635806,-4.6607575],[-38.646522,-4.6813795],[-38.6362289,-4.6993532],[-38.604247,-4.6845878],[-38.5935926,-4.6787354],[-38.5889011,-4.6751782],[-38.5690774,-4.6732164],[-38.5295371,-4.6796209]],[[-38.5295371,-4.6796209],[-38.5250702,-4.6745578]],[[-38.5250702,-4.6745578],[-38.5082543,-4.6626982],[-38.4750188,-4.6498988],[-38.4340283,-4.6382047],[-38.3884344,-4.5790999],[-38.3688278,-4.5762435],[-38.3644507,-4.5425978],[-38.3814562,-4.5284925],[-38.363404,-4.5088533],[-38.3588743,-4.5052486],[-38.3233392,-4.5191044],[-38.3033367,-4.5374964],[-38.2299846,-4.5812573],[-38.1820574,-4.6227477],[-38.1099968,-4.6063619],[-38.0843399,-4.5874884],[-38.0557435,-4.5945759],[-38.0382872,-4.5910293],[-38.037075,-4.5946292],[-38.0202729,-4.5973575],[-38.0202399,-4.5937916],[-38.0080516,-4.5958313],[-38.0054925,-4.5977269],[-38.0007149,-4.5977344],[-38.0012489,-4.596085],[-37.9864888,-4.5862712],[-37.987974,-4.5853155],[-37.9843964,-4.5822661],[-37.9930139,-4.5653973],[-37.9840547,-4.5603038],[-37.9814121,-4.546922],[-37.9754032,-4.5361821],[-37.9586693,-4.4943569],[-37.9555974,-4.4695671],[-37.9763482,-4.4324283],[-37.9676208,-4.4237274],[-37.9479971,-4.4120202],[-37.9311255,-4.3974298],[-37.90491,-4.4139444],[-37.8959087,-4.4105788],[-37.8888115,-4.4070878],[-37.8868713,-4.4114629],[-37.8775317,-4.4082814],[-37.8713526,-4.4066869],[-37.8412465,-4.4073597],[-37.822551,-4.4010028],[-37.8180474,-4.3980316],[-37.8451205,-4.3816564]],[[-37.8451205,-4.3816564],[-37.9065917,-4.339753],[-37.9883175,-4.2608416],[-38.0093224,-4.2510906],[-38.1159673,-4.1480004],[-38.1485043,-4.0980694],[-38.192162,-4.0405547],[-38.2232859,-4.0071535]],[[-38.2232859,-4.0071535],[-38.2469775,-4.028344],[-38.2916588,-4.0222527],[-38.3129862,-4.0108534],[-38.3702716,-4.0655868],[-38.3928506,-4.223148],[-38.437443,-4.2316678],[-38.454478,-4.2433436],[-38.4951402,-4.2313078],[-38.570474,-4.2354845],[-38.6144394,-4.1829202],[-38.6411484,-4.158095],[-38.6974073,-4.1716648],[-38.7567227,-4.1572294],[-38.7756157,-4.1624731],[-38.7905261,-4.1406616],[-38.7550107,-4.1282792],[-38.7485039,-4.0929689],[-38.7846751,-4.0942529],[-38.8344878,-4.0726409],[-38.8407101,-4.1041331],[-38.8620958,-4.1122226],[-38.9533353,-4.0984392],[-38.9560762,-4.0965993],[-38.9565673,-4.0949763],[-38.9549513,-4.0893119],[-38.9557309,-4.0840965],[-38.9565973,-4.0728241],[-38.9841596,-4.0443863],[-39.0035461,-3.9917706],[-38.9434661,-3.9446729],[-38.98821,-3.8693286],[-38.9843874,-3.8644955],[-38.9859028,-3.8594557],[-38.9926825,-3.8565493],[-38.9996411,-3.8452991],[-38.9833871,-3.8161399],[-38.9784695,-3.7787411],[-38.9576983,-3.7693245],[-38.9515147,-3.7270328],[-38.9615086,-3.7119819],[-38.9183502,-3.6666526],[-38.8816278,-3.6854159],[-38.8318923,-3.5707607],[-38.8066351,-3.5484934]],[[-38.8066351,-3.5484934],[-38.8478133,-3.542842],[-38.8916399,-3.5059233],[-38.911174,-3.5026221],[-38.9398097,-3.4489797],[-38.9737659,-3.4110761],[-39.0068377,-3.3968491],[-39.0476544,-3.4125689],[-39.091177,-3.3845614],[-39.1127379,-3.3471147],[-39.1393777,-3.3457085],[-39.1592405,-3.3324643],[-39.1911234,-3.2849523],[-39.2277272,-3.2408134],[-39.2617886,-3.2178823],[-39.3130443,-3.2060711],[-39.3441722,-3.1781403],[-39.3818222,-3.1835786],[-39.4380994,-3.1475857],[-39.4626879,-3.1437969],[-39.4868939,-3.1191393],[-39.5228171,-3.1019599],[-39.5498833,-3.0791328],[-39.5943265,-3.067981],[-39.6198268,-3.0259834],[-39.6498016,-3.0246493],[-39.6881846,-2.996534],[-39.7195074,-3.0003411]],[[-38.2232859,-4.0071535],[-38.2734442,-3.944154],[-38.3185531,-3.926197],[-38.360323,-3.8848564],[-38.4358215,-3.7705705],[-38.4613007,-3.7194362],[-38.4958517,-3.7250337],[-38.5393636,-3.7163689],[-38.5875832,-3.696406],[-38.6489969,-3.6838781],[-38.7017547,-3.6383599],[-38.7624235,-3.6059174],[-38.8066351,-3.5484934]],[[-41.1216678,-5.0260174],[-41.1320192,-5.0485713],[-41.0970052,-5.0531485],[-41.0819217,-5.0876328],[-41.0264052,-5.1096969],[-40.9646309,-5.1500835],[-40.9252903,-5.1820967],[-40.9319989,-5.2012637],[-40.922028,-5.2264511],[-40.9330656,-5.2452268],[-40.9117131,-5.2666535],[-40.9269076,-5.2969667],[-40.9132054,-5.3080512],[-40.9184529,-5.3382552],[-40.9361032,-5.3659675],[-40.9170161,-5.3894477],[-40.9176992,-5.4162908],[-40.9435309,-5.4216436],[-40.9161036,-5.468335],[-40.9291569,-5.4833344],[-40.9329565,-5.5472801],[-40.9156645,-5.5643716],[-40.903254,-5.6325524],[-40.9147302,-5.659939],[-40.9387693,-5.6733406],[-40.9135413,-5.7267463],[-40.9058188,-5.8014544],[-40.9056455,-5.8492766],[-40.880216,-5.9176672],[-40.8735913,-5.9730536],[-40.9039474,-6.020877],[-40.9022038,-6.0492042],[-40.8728458,-6.0566276],[-40.8457385,-6.134995],[-40.8536235,-6.1632816],[-40.84723,-6.2030136],[-40.8522242,-6.2242205],[-40.8235748,-6.2582643],[-40.8105046,-6.2870634],[-40.7875128,-6.3042566],[-40.7796001,-6.3466163],[-40.8051547,-6.3931316],[-40.7960894,-6.4281847],[-40.7965856,-6.4707013],[-40.7836794,-6.5284046],[-40.7542915,-6.5546712],[-40.7220026,-6.6176828],[-40.7322401,-6.6535854],[-40.7101828,-6.6761295],[-40.6491396,-6.6788294],[-40.6324189,-6.6989038],[-40.6022071,-6.7160118],[-40.5173877,-6.7304949],[-40.4769263,-6.7328317],[-40.4597267,-6.7542375],[-40.4520295,-6.7837755],[-40.4321666,-6.8129776],[-40.3887903,-6.7969987],[-40.3639936,-6.8068296]],[[-40.3639936,-6.8068296],[-40.3564941,-6.8070403],[-40.3512585,-6.8076913],[-40.3429689,-6.802433],[-40.31842,-6.8006316],[-40.3103681,-6.7861728],[-40.3077586,-6.7861675],[-40.3009428,-6.7995743],[-40.2649552,-6.7966552],[-40.2420845,-6.7767853],[-40.2031268,-6.7742822]],[[-40.2031268,-6.7742822],[-40.1823305,-6.7592403],[-40.1781202,-6.7612357],[-40.1693667,-6.7773791]],[[-40.1693667,-6.7773791],[-40.1499154,-6.7844711],[-40.1330362,-6.8106018]],[[-40.1330362,-6.8106018],[-40.1401971,-6.8178217]],[[-40.1401971,-6.8178217],[-40.1140018,-6.8175347],[-40.1079312,-6.8043322],[-40.0671312,-6.7902742],[-40.0693467,-6.7711439],[-40.0448596,-6.7531057],[-40.0098478,-6.7100093],[-40.0050866,-6.6867869],[-39.9866102,-6.6802318],[-39.9438242,-6.7075669],[-39.8770671,-6.6802858],[-39.8379876,-6.6791942],[-39.8103583,-6.6878316],[-39.775224,-6.6567996],[-39.7738633,-6.6072802],[-39.7287995,-6.5433889],[-39.7503771,-6.5209367],[-39.7389554,-6.4827835],[-39.7683474,-6.4680834],[-39.765023,-6.4427522],[-39.775974,-6.4108464],[-39.7277166,-6.3710428],[-39.7000018,-6.3283065],[-39.6519975,-6.3373545],[-39.6257662,-6.3191025],[-39.57904,-6.3132621],[-39.5600982,-6.3327429],[-39.5400023,-6.3218809],[-39.4742157,-6.3373528],[-39.4594781,-6.3248263],[-39.4638612,-6.2803854],[-39.4146335,-6.2591705],[-39.4170626,-6.2457156],[-39.3906233,-6.2219668],[-39.3567744,-6.2257183],[-39.2597083,-6.1283745],[-39.1417054,-6.1544054],[-39.0900042,-6.0936709],[-39.0737735,-6.051559],[-39.0507418,-6.0253532],[-39.0185263,-6.0052294],[-38.9865131,-6.0285265],[-38.9797801,-6.1016876]],[[-38.9797801,-6.1016876],[-38.9761335,-6.1028124]],[[-38.9761335,-6.1028124],[-38.9719161,-6.0857401],[-38.9745909,-6.0829217],[-38.9689796,-6.0744067],[-38.9633307,-6.0208204],[-38.9527132,-6.0164807],[-38.9484546,-5.9698285],[-38.919834,-5.9508188],[-38.8755601,-5.8694646],[-38.8791128,-5.8660728],[-38.8749692,-5.8585773],[-38.8395689,-5.8323549],[-38.8370698,-5.8128246],[-38.8082472,-5.7952996],[-38.80487,-5.7867357],[-38.8808267,-5.6556751],[-38.9091849,-5.5952725],[-38.9037046,-5.4712421],[-38.9205436,-5.435235],[-38.9229843,-5.3291801],[-38.8487766,-5.2884775],[-38.8092722,-5.2214334],[-38.7755925,-5.2043591],[-38.7082144,-5.2009538],[-38.6917041,-5.2272656],[-38.6772592,-5.2272883],[-38.6109292,-5.1485507],[-38.6246459,-5.0641638],[-38.6767077,-5.0282588],[-38.6774553,-5.004817],[-38.6473813,-4.9799183],[-38.6486961,-4.9387862],[-38.63858,-4.927511],[-38.6458318,-4.8971273],[-38.6668316,-4.8693941],[-38.6335071,-4.8478078],[-38.5807351,-4.802026],[-38.5721417,-4.764819],[-38.5374808,-4.7560975],[-38.5219229,-4.7376552],[-38.5197184,-4.7300168],[-38.5337524,-4.7033684],[-38.5285926,-4.6867987]],[[-38.5285926,-4.6867987],[-38.5295371,-4.6796209]],[[-39.7294176,-4.6959029],[-39.7425826,-4.7195628]],[[-38.5250702,-4.6745578],[-38.5285926,-4.6867987]],[[-38.9761335,-6.1028124],[-38.9724894,-6.1029382]],[[-38.9724894,-6.1029382],[-38.9493524,-6.0800814],[-38.9074747,-6.0859947],[-38.9014193,-6.1412355],[-38.8769682,-6.1477473],[-38.8211994,-6.1240517],[-38.7551165,-6.1111271],[-38.7217014,-6.1280882],[-38.7353323,-6.1752465],[-38.7216139,-6.19952],[-38.6912903,-6.2070631],[-38.6789989,-6.2095484],[-38.6693816,-6.2005527],[-38.6474748,-6.1858707],[-38.6319127,-6.1743246],[-38.6151856,-6.1709188],[-38.6036084,-6.1742372],[-38.5994724,-6.1812478],[-38.5649816,-6.2228516],[-38.5556445,-6.2306404],[-38.5197118,-6.2230376]],[[-38.5197118,-6.2230376],[-38.5272039,-6.193378],[-38.4781193,-6.1593764],[-38.4473166,-6.0852777],[-38.4015365,-6.053495],[-38.3819553,-6.0527887],[-38.3652457,-6.0884594],[-38.3199214,-6.0770389],[-38.3065012,-6.0870334],[-38.2770092,-6.0699517],[-38.2525691,-6.0431031],[-38.2526921,-6.011914],[-38.2060156,-5.9643478],[-38.1637798,-5.9454434],[-38.1640605,-5.9274628],[-38.1225154,-5.8817401],[-38.1188643,-5.8328348],[-38.1004934,-5.8045298],[-38.0615092,-5.7620533],[-38.0470084,-5.7302628],[-38.0896939,-5.7148464],[-38.0819854,-5.6701227],[-38.0342697,-5.6371528],[-38.0139641,-5.5943981],[-37.9983274,-5.5853175],[-37.9900371,-5.5557979],[-37.9480565,-5.5346449],[-37.9346995,-5.5052844],[-37.9022457,-5.5006618],[-37.8895409,-5.4522882],[-37.8604816,-5.4066857],[-37.8642752,-5.3783526],[-37.8474704,-5.3400231],[-37.7831099,-5.2948155],[-37.791859,-5.2687714],[-37.7829643,-5.2322646],[-37.7899659,-5.214499],[-37.7763098,-5.1871207],[-37.7649556,-5.1396162],[-37.7334225,-5.1006412],[-37.7250894,-5.0706243],[-37.6776204,-5.0540857],[-37.6403381,-4.9264044],[-37.4464459,-4.8809614],[-37.2526586,-4.8313903],[-37.2804374,-4.7544823],[-37.2950338,-4.7302004],[-37.328215,-4.6984063],[-37.4075504,-4.6751417],[-37.47856,-4.6463392],[-37.4978126,-4.6269612],[-37.5207375,-4.6411801],[-37.5586779,-4.6416654],[-37.6031067,-4.6172992],[-37.6394425,-4.5859838],[-37.7292163,-4.4941275],[-37.7700944,-4.4012707],[-37.809989,-4.3986351],[-37.8451205,-4.3816564]],[[-40.1401971,-6.8178217],[-40.1469975,-6.8305866]],[[-40.1469975,-6.8305866],[-40.0872855,-6.8466568],[-40.0517167,-6.8441073],[-40.0534969,-6.8250491],[-40.00206,-6.8031288],[-39.9869182,-6.8150808],[-39.9094459,-6.7634663],[-39.8787684,-6.7674295],[-39.7907858,-6.8023313],[-39.7413631,-6.8054716],[-39.7085711,-6.7853287],[-39.6959751,-6.7959301],[-39.6906868,-6.8311469],[-39.653102,-6.8206993],[-39.6333136,-6.7898296],[-39.5564693,-6.7765977],[-39.543992,-6.7681395],[-39.5103891,-6.7767447],[-39.5168544,-6.810096],[-39.5026229,-6.8435984],[-39.4842289,-6.8380453],[-39.4731162,-6.8647824],[-39.4832284,-6.8979579],[-39.4186997,-6.8951378],[-39.3949687,-6.9223687],[-39.3746586,-6.9157989],[-39.3656955,-6.9168365],[-39.3416177,-6.9060124],[-39.2662528,-6.8816899],[-39.2069695,-6.8773296],[-39.1858058,-6.8636983],[-39.1665231,-6.9058743],[-39.1665778,-6.9357782],[-39.1159858,-6.9428002],[-39.1021148,-6.9610336],[-39.0607595,-6.9115265],[-39.0208584,-6.895257],[-39.0145185,-6.8774357],[-38.9732489,-6.8632857],[-38.920252,-6.8612071],[-38.8673673,-6.8605993],[-38.8196712,-6.8567299],[-38.774627,-6.8682067],[-38.7846808,-6.9049588],[-38.7682168,-6.90755]],[[-38.7682168,-6.90755],[-38.7302886,-6.8968135],[-38.6948153,-6.8745632],[-38.6518704,-6.8117122],[-38.6169213,-6.7932989],[-38.6575338,-6.7407602],[-38.6731505,-6.6972212],[-38.6519647,-6.6731834],[-38.6570803,-6.6422895],[-38.6466593,-6.6159807],[-38.6291604,-6.6045824],[-38.6428534,-6.5811777],[-38.6121695,-6.5383173],[-38.6122882,-6.5131913],[-38.5704101,-6.4701951],[-38.5542654,-6.4327631],[-38.5245176,-6.407083],[-38.5515225,-6.3981672],[-38.5719684,-6.4041066],[-38.5924663,-6.3782461],[-38.5770754,-6.3474275],[-38.5795457,-6.2796264],[-38.554421,-6.2633956],[-38.5197118,-6.2230376]],[[-38.9724894,-6.1029382],[-38.9797801,-6.1016876]],[[-40.3639936,-6.8068296],[-40.4285196,-6.8642545],[-40.4327058,-6.9085394],[-40.4286547,-6.9961299],[-40.4533848,-7.0712338],[-40.4897393,-7.1186901],[-40.4843697,-7.1331987],[-40.5135611,-7.2397033],[-40.5116313,-7.2994306],[-40.5237232,-7.3184505],[-40.4335917,-7.3671782],[-40.3938781,-7.3681684],[-40.3609839,-7.3556007],[-40.3507936,-7.3341714],[-40.3185632,-7.3033404],[-40.2629956,-7.3010209],[-40.1956847,-7.3581487],[-40.1277543,-7.381915],[-40.0764506,-7.3828257],[-40.000707,-7.3744783],[-39.926345,-7.3409989],[-39.8862817,-7.33931],[-39.8576968,-7.3254287],[-39.8286958,-7.3323702],[-39.7413221,-7.3268166],[-39.7061889,-7.3377612],[-39.6457183,-7.3808781],[-39.6289072,-7.4256285],[-39.5715905,-7.4298313],[-39.5528279,-7.4806568],[-39.5364439,-7.4825303],[-39.5023605,-7.4641484],[-39.4607476,-7.471219],[-39.4556775,-7.5018609],[-39.4851642,-7.534449],[-39.4716808,-7.5758006],[-39.4349335,-7.5737228],[-39.4196561,-7.6044123],[-39.376095,-7.6117724],[-39.3055665,-7.6659316],[-39.2703214,-7.6598973],[-39.250388,-7.698443],[-39.2083352,-7.6894803],[-39.1710014,-7.7152403],[-39.1437127,-7.718547],[-39.1063539,-7.7602263],[-39.0905551,-7.8096046],[-39.0853502,-7.8517125],[-39.0537557,-7.8193046],[-39.0263931,-7.8246351],[-38.9822446,-7.8461256],[-38.9397983,-7.7915557],[-38.9395781,-7.7587726],[-38.8813975,-7.7474323],[-38.8688517,-7.7111798],[-38.8461022,-7.720415],[-38.8219622,-7.7147944],[-38.8121916,-7.6687972],[-38.742802,-7.660322],[-38.7151129,-7.6219195],[-38.7036588,-7.5809573],[-38.6611819,-7.5682918],[-38.6459957,-7.501926],[-38.6305654,-7.4839522],[-38.6417139,-7.4581761],[-38.603328,-7.457592],[-38.5853008,-7.4348151],[-38.5786649,-7.3797483],[-38.5485231,-7.3321317],[-38.5345869,-7.293793],[-38.5588783,-7.2394171],[-38.5830835,-7.2483827],[-38.615368,-7.2301858],[-38.6248028,-7.1913206],[-38.6593223,-7.1832477],[-38.68783,-7.1901612],[-38.675293,-7.1557219],[-38.6774153,-7.1309352],[-38.6564059,-7.0924258],[-38.677242,-7.0671025],[-38.669849,-7.0477046],[-38.6909873,-7.0299554],[-38.7305837,-7.0120279],[-38.7518883,-6.9885827],[-38.7422504,-6.9742785],[-38.7592236,-6.9154828],[-38.7682168,-6.90755]],[[-40.1469975,-6.8305866],[-40.1441702,-6.8159117],[-40.1330362,-6.8106018]],[[-40.1693667,-6.7773791],[-40.180165,-6.7594011],[-40.1842596,-6.7597023],[-40.2031268,-6.7742822]]],"bbox":[-41.4123177,-7.8517125,-37.2526586,-2.7843235]}
