{"type":"Topology","objects":{"geometrias":{"type":"GeometryCollection","geometries":[{"type":"Polygon","arcs":[[0,1,2,3]],"properties":{"code_meso":1501,"code_state":15,"code_region":1,"name_meso":"Baixo Amazonas","abbrev_state":"PA","name_state":"Pará","name_region":"Norte","year":2020}},{"type":"MultiPolygon","arcs":[[[4,-4,5,6,7,8,9,10,11,12]],[[13]],[[14]],[[15]],[[16]]],"properties":{"code_meso":1502,"code_state":15,"code_region":1,"name_meso":"Marajó","abbrev_state":"PA","name_state":"Pará","name_region":"Norte","year":2020}},{"type":"Polygon","arcs":[[-12,17,-10,18,19]],"properties":{"code_meso":1503,"code_state":15,"code_region":1,"name_meso":"Metropolitana de Belém","abbrev_state":"PA","name_state":"Pará","name_region":"Norte","year":2020}},{"type":"MultiPolygon","arcs":[[[20]],[[21,-13,-20,22,-8,23,24,25,26,27]]],"properties":{"code_meso":1504,"code_state":15,"code_region":1,"name_meso":"Nordeste Paraense","abbrev_state":"PA","name_state":"Pará","name_region":"Norte","year":2020}},{"type":"Polygon","arcs":[[28,29,30,-24,-7,31,-2]],"properties":{"code_meso":1505,"code_state":15,"code_region":1,"name_meso":"Sudoeste Paraense","abbrev_state":"PA","name_state":"Pará","name_region":"Norte","year":2020}},{"type":"Polygon","arcs":[[32,-28,33,-26,34,-30]],"properties":{"code_meso":1506,"code_state":15,"code_region":1,"name_meso":"Sudeste Paraense","abbrev_state":"PA","name_state":"Pará","name_region":"Norte","year":2020}}]}},"arcs":[[[-51.7792879,-1.1660776],[-51.8090963,-1.1571011],[-51.8872859,-1.1663971],[-51.9229007,-1.1329634],[-51.9469037,-1.1660067],[-51.9619572,-1.1344374],[-51.9939523,-1.1347229],[-51.9911221,-1.171816],[-52.0409005,-1.1701323],[-52.062961,-1.1928913],[-52.0475632,-1.2142842],[-52.070459,-1.2359841],[-52.1098719,-1.2181159],[-52.1067638,-1.1830679],[-52.1202623,-1.146198],[-52.1467312,-1.1487914],[-52.1789319,-1.1295951],[-52.2147327,-1.1349578],[-52.3329879,-1.1158915],[-52.3581556,-1.0625844],[-52.4167912,-1.0256118],[-52.4199283,-0.9659632],[-52.4376793,-0.9288754],[-52.4047158,-0.9127377],[-52.403158,-0.8771483],[-52.4555179,-0.8302661],[-52.5169334,-0.858616],[-52.5418462,-0.8365449],[-52.5169699,-0.8090464],[-52.5182377,-0.7755192],[-52.4971522,-0.7229462],[-52.5103877,-0.679184],[-52.5131837,-0.6196459],[-52.5322928,-0.5763552],[-52.5763261,-0.5764098],[-52.61299,-0.5948934],[-52.640009,-0.5849061],[-52.6954363,-0.4964017],[-52.70068,-0.4529291],[-52.6810757,-0.415085],[-52.6973482,-0.3929354],[-52.6818497,-0.3399645],[-52.6841716,-0.3143137],[-52.7544268,-0.2621886],[-52.7604398,-0.2375744],[-52.8360989,-0.1861492],[-52.8641028,-0.1447643],[-52.9040129,-0.1549377],[-52.9327437,-0.1423073],[-52.9710222,-0.0431101],[-52.9772926,0.0237963],[-53.0149667,0.0596921],[-53.0111292,0.0950459],[-53.029266,0.1047191],[-53.0521271,0.1573389],[-53.0942925,0.195307],[-53.1058506,0.2373476],[-53.0941268,0.2589577],[-53.131376,0.2962017],[-53.136459,0.3260357],[-53.1753105,0.3817172],[-53.1612041,0.398538],[-53.1677453,0.4457283],[-53.1551284,0.4801797],[-53.1697689,0.4937348],[-53.1520646,0.5318937],[-53.1473221,0.6003346],[-53.1227118,0.6300909],[-53.1057436,0.6794615],[-53.1469379,0.6997862],[-53.1574069,0.7290729],[-53.1902726,0.7683835],[-53.2551477,0.8092116],[-53.2874946,0.8457159],[-53.4114942,0.9293442],[-53.4108033,0.9820425],[-53.4268299,0.992426],[-53.4223294,1.0337374],[-53.4558237,1.0773718],[-53.4591576,1.1336804],[-53.4443579,1.1513192],[-53.4044098,1.1511736],[-53.3960801,1.1792925],[-53.438769,1.232134],[-53.4699094,1.2399701],[-53.5252098,1.2117165],[-53.5463212,1.2285074],[-53.5233275,1.2613389],[-53.5527117,1.2802892],[-53.5706899,1.337302],[-53.5952181,1.3581541],[-53.6332463,1.3473586],[-53.6648539,1.3752498],[-53.7014598,1.3779189],[-53.7837222,1.4028539],[-53.820106,1.3891676],[-53.8877512,1.4077873],[-53.876742,1.4354522],[-53.8959981,1.4551258],[-53.9670765,1.4843951],[-54.0202741,1.5157631],[-54.06916,1.5009694],[-54.0987782,1.5505238],[-54.1019449,1.5843053],[-54.1436637,1.640612],[-54.2008834,1.6455793],[-54.2627439,1.6883824],[-54.3093044,1.7410503],[-54.3516918,1.7540727],[-54.4571677,1.7583028],[-54.4959444,1.7469426],[-54.528107,1.7649425],[-54.6019171,1.7845734],[-54.6436397,1.7686],[-54.7447791,1.7758008],[-54.7544217,1.797808],[-54.7384599,1.8248356],[-54.7701983,1.9256957],[-54.7559997,1.9742069],[-54.8038049,2.0258228],[-54.8062543,2.1389277],[-54.7678915,2.1809114],[-54.7631109,2.2023191],[-54.8114203,2.266378],[-54.7961664,2.3179651],[-54.80756,2.3416749],[-54.8746964,2.4153254],[-54.8722509,2.4337466],[-54.9354217,2.5185854],[-54.9543067,2.5836924],[-55.0038059,2.591027],[-55.1030864,2.5257359],[-55.1234732,2.5677203],[-55.1728658,2.5594387],[-55.2348061,2.5034753],[-55.3202556,2.5154633],[-55.356226,2.475653],[-55.3456432,2.4480823],[-55.3853987,2.4184543],[-55.4294499,2.4389661],[-55.4997845,2.4433308],[-55.5706752,2.4236096],[-55.577917,2.4354889],[-55.642262,2.416061],[-55.6984185,2.4216359],[-55.7076969,2.4032133],[-55.7470366,2.4105376],[-55.7667045,2.4553296],[-55.8388951,2.4622686],[-55.8808697,2.4889886],[-55.9016722,2.5173189],[-55.9346782,2.5335401],[-55.9783139,2.5274219],[-55.9911983,2.4670974],[-55.989922,2.4173455],[-56.0366734,2.3743199],[-56.0225928,2.3475333],[-56.0506795,2.3350707],[-56.0902012,2.372367],[-56.0938401,2.3212589],[-56.1281494,2.2865429],[-56.1325391,2.2637497],[-56.0429581,2.2278718],[-56.0563434,2.1894345],[-56.035145,2.1688853],[-56.0031495,2.16769],[-55.9698121,2.1131213],[-55.9267602,2.0751896],[-55.9021219,2.0294038],[-55.9138152,1.9906055],[-55.9364257,1.9865514],[-55.9206002,1.9190604],[-55.90393,1.8881128],[-55.9564535,1.8451782],[-55.9990386,1.8313637],[-56.0367277,1.8502898],[-56.0987314,1.846612],[-56.1299783,1.8592948],[-56.1527014,1.8907862],[-56.2345387,1.8986942],[-56.2441215,1.878163],[-56.3350139,1.9371836],[-56.4118972,1.928347],[-56.4370969,1.9517867],[-56.4829321,1.9541525],[-56.4956521,1.9380548],[-56.5798431,1.9059607],[-56.6215364,1.9459583],[-56.6735432,1.9127658],[-56.7164288,1.9260721],[-56.7649869,1.888445],[-56.8015176,1.8741551],[-56.8935683,1.8994047],[-56.9197951,1.930438],[-57.0007912,1.9073698],[-57.0320421,1.9469966],[-57.0712971,1.9687982],[-57.0867653,2.0265193],[-57.1584013,1.9918631],[-57.1791806,1.9902311],[-57.2292123,1.9535859],[-57.2529579,1.9485161],[-57.27732,1.9830715],[-57.3457093,1.9803448],[-57.3677695,1.9237949],[-57.4335208,1.9060482],[-57.4320157,1.8585502],[-57.4509881,1.8064353],[-57.4970403,1.7734931],[-57.5342705,1.7082552],[-57.6294353,1.6985471],[-57.650515,1.682436],[-57.6981342,1.7138108],[-57.7923535,1.7267103],[-57.7984335,1.6971264],[-57.8195983,1.6839094],[-57.8950805,1.6743776],[-57.9136031,1.6476827],[-57.981128,1.6594102],[-57.9786567,1.5728413],[-58.0056003,1.5168355],[-58.0272692,1.5086841],[-58.061026,1.5254018],[-58.1295247,1.4989538],[-58.1496561,1.5100687],[-58.1607434,1.5601738],[-58.1895491,1.571646],[-58.2332732,1.5474707],[-58.2623564,1.5707902],[-58.3172406,1.5684948],[-58.3324767,1.5907334],[-58.3631891,1.5380737],[-58.3896397,1.5354341],[-58.3856898,1.4700439],[-58.4128764,1.4727402],[-58.4485472,1.4560754],[-58.5088297,1.4630001],[-58.4981622,1.4301763],[-58.505217,1.4032192],[-58.4716361,1.3742098],[-58.4710517,1.3194013],[-58.4951613,1.2949691],[-58.4963272,1.2680153],[-58.5382704,1.2677183],[-58.5596676,1.290227],[-58.5885556,1.2699497],[-58.6288346,1.2885549],[-58.6613284,1.280485],[-58.6802168,1.2962979],[-58.7104969,1.2899487],[-58.7302207,1.2107166],[-58.7513302,1.2085319],[-58.8213323,1.1710488],[-58.8543928,1.1835071],[-58.8710552,1.2176752],[-58.8954981,1.2287814],[-58.8950359,-0.0109629],[-58.8865816,-0.0591839],[-58.8638839,-0.0780298],[-58.8652551,-0.1689373],[-58.881038,-0.1965794],[-58.8653947,-0.2655488],[-58.8749835,-0.2958234],[-58.8730952,-0.3437211],[-58.8361542,-0.3727456],[-58.7851893,-0.3878931],[-58.7252824,-0.4383191],[-58.736521,-0.4717409],[-58.709988,-0.5170359],[-58.7090107,-0.5458643],[-58.7318301,-0.5791878],[-58.7363256,-0.6193516],[-58.7082778,-0.6567789],[-58.7061278,-0.6788638],[-58.6367412,-0.7201017],[-58.6128469,-0.75831],[-58.5602206,-0.7977394],[-58.5559695,-0.8137163],[-58.4605874,-0.862868],[-58.4364854,-0.8859778],[-58.4519752,-0.9240868],[-58.4105876,-0.9822266],[-58.4289115,-1.0286156],[-58.3637272,-1.0711199],[-58.3167203,-1.1476751],[-58.2558849,-1.1308204],[-58.2125916,-1.1665326],[-58.1895279,-1.2033192],[-58.154004,-1.2326797],[-58.1144244,-1.1645785],[-58.0939993,-1.1621358],[-58.0586708,-1.1065398],[-58.0173321,-1.1036085],[-58.0012559,-1.1481148],[-57.9657808,-1.1710272],[-57.9641683,-1.2152881],[-57.9751627,-1.2398121],[-57.9912388,-1.3512663],[-57.95431,-1.3797702],[-57.8771053,-1.4233436],[-57.8228177,-1.438682],[-57.7799886,-1.5100239],[-57.7176873,-1.503283],[-57.6980441,-1.5549136],[-57.7061555,-1.5724492],[-57.6746383,-1.5950156],[-57.6219144,-1.5891542],[-57.6007075,-1.5721561],[-57.5794517,-1.6043938],[-57.5440744,-1.6111343],[-57.4730754,-1.6788804],[-57.4434639,-1.6646183],[-57.3857558,-1.6976848],[-57.3533836,-1.7368071],[-57.292255,-1.7082836],[-57.2308333,-1.7275272],[-57.1996094,-1.7227408],[-57.1616911,-1.7403237],[-57.1580752,-1.7708003],[-57.1268512,-1.766014],[-57.0916449,-1.7779555],[-57.0666755,-1.8571237],[-57.0284152,-1.9180238],[-56.9883509,-1.9071603],[-56.9611252,-1.952972],[-56.9236786,-1.9643087],[-56.8762985,-1.9923486],[-56.8590445,-2.015926],[-56.8167648,-2.0229705],[-56.7669924,-2.0086976],[-56.7266021,-2.0309607],[-56.7327642,-2.0917397],[-56.7694297,-2.1406729],[-56.760959,-2.1740582],[-56.7077679,-2.183902],[-56.6790728,-2.2125642],[-56.6129132,-2.2101713],[-56.5270653,-2.1391952],[-56.4778933,-2.1703764],[-56.4441803,-2.1539257],[-56.4138828,-2.1759496],[-56.367785,-2.1370767],[-56.3167613,-2.140126],[-56.2974569,-2.1008075],[-56.2561526,-2.0883161],[-56.2283772,-2.0562204],[-56.1067261,-2.0270363],[-56.097558,-2.0371332],[-56.1694261,-2.1455081],[-56.2037697,-2.1830802],[-56.2634986,-2.2210564],[-56.3843157,-2.2704754],[-56.4127577,-2.3217155],[-56.42565,-2.3691538],[-56.4655948,-2.4231151],[-56.462267,-2.4339173],[-56.4021072,-2.4565168],[-56.4263006,-2.5015831],[-56.6097644,-2.8963407],[-56.7678915,-3.2428893]],[[-56.7678915,-3.2428893],[-56.7615688,-3.2517743],[-56.7331984,-3.3266895],[-56.7333788,-3.3334051],[-56.7249314,-3.3435729],[-56.7024015,-3.3574926],[-56.5004832,-3.3069569],[-56.3446289,-3.2647951],[-55.3751406,-3.2362529],[-55.3469244,-3.2216962],[-55.2959506,-3.2398475],[-55.1648369,-3.2438672],[-55.1369771,-3.2495501],[-55.0473372,-3.2337779],[-55.0377801,-3.2583737],[-55.0561189,-3.3105028],[-55.0789738,-3.3441697],[-55.0876403,-3.4002046],[-55.1219509,-3.430783],[-55.1202825,-3.45857],[-55.0940044,-3.5056313],[-55.115531,-3.5424334],[-55.1157845,-3.5735536],[-55.1380872,-3.588999],[-55.1433929,-3.6205492],[-55.1724484,-3.6479004],[-55.1519498,-3.6747007],[-55.1742306,-3.6967535],[-55.1383775,-3.7334024],[-55.1200856,-3.7887633],[-55.1511111,-3.8114076],[-55.1466024,-3.8660804],[-55.0932289,-3.8726719],[-55.0942036,-3.9086673],[-55.0773998,-3.9356162],[-55.0179723,-3.9213416],[-55.0025055,-3.8921974],[-55.015593,-3.8585721],[-54.9807281,-3.8477085],[-54.962892,-3.8158702],[-54.9222562,-3.7846643],[-54.9029187,-3.7570047],[-54.9018932,-3.7242811],[-54.8538107,-3.7300982],[-54.8223084,-3.7740852],[-54.7551933,-3.7824121],[-54.7348645,-3.7707095],[-54.6997516,-3.790598],[-54.7170018,-3.8449146],[-54.7600331,-3.8610742],[-54.7468402,-3.8866835],[-54.7718292,-3.9142993],[-54.775918,-3.941686],[-54.7506406,-3.9592717],[-54.7611917,-3.9892487],[-54.740805,-4.0375373],[-54.7732515,-4.0462519],[-54.7876987,-4.131657],[-54.8129214,-4.1372378],[-54.8184486,-4.1781414],[-54.7951191,-4.2017135],[-54.7953953,-4.2261303],[-54.826506,-4.2343986],[-54.8477275,-4.2587544],[-54.8580283,-4.3123026],[-54.8756732,-4.3405067],[-54.8379713,-4.3901208],[-54.8384911,-4.4174666],[-54.8130846,-4.4283981],[-54.7967525,-4.4637116],[-54.7356164,-4.4245466],[-54.7237826,-4.3841087],[-54.6747209,-4.315979],[-54.6430009,-4.3266868],[-54.6093041,-4.3561595],[-54.6089232,-4.3765059],[-54.5524428,-4.3956309],[-54.5030549,-4.35846],[-54.5342806,-4.3333012],[-54.5088852,-4.2657912],[-54.4897252,-4.2513704],[-54.4195002,-4.2644247],[-54.4132801,-4.2911048],[-54.3846749,-4.2884684],[-54.3666137,-4.264553],[-54.3047552,-4.2805158],[-54.301668,-4.3123496],[-54.2798338,-4.3164988],[-54.2205247,-4.2682696],[-54.2001426,-4.2027827],[-54.1679478,-4.1931385],[-54.0991252,-4.2068426],[-54.0835248,-4.1750205],[-54.0920242,-4.1553415],[-54.0858287,-4.0993238],[-54.0544957,-4.0725034],[-54.1374401,-4.0321109],[-54.1350825,-3.9880779],[-54.1101913,-3.9739569],[-54.1178355,-3.9044719],[-54.11578,-3.8119729],[-54.1476718,-3.8371183],[-54.16925,-3.8242348],[-54.1526401,-3.7774561],[-54.1893568,-3.7547032],[-54.2074183,-3.7280205],[-54.2543623,-3.6928824],[-54.2536063,-3.6616535],[-54.2185478,-3.6364854],[-54.2447804,-3.6114261],[-54.2692772,-3.5678007],[-54.2579931,-3.449034],[-54.2864503,-3.4138076],[-54.2890026,-3.3781935],[-54.2558274,-3.3553214],[-54.2598562,-3.2765666],[-54.2184125,-3.2398315],[-54.2079171,-3.2091017],[-54.1140813,-3.1724084],[-54.1029482,-3.1322549],[-54.0699766,-3.1143679],[-54.050703,-3.0825415],[-54.0460494,-2.9987685],[-54.0887701,-2.9610103],[-54.1030241,-2.8865334],[-53.8554122,-2.8874675],[-53.6083826,-2.8651508],[-53.5942976,-2.8131081],[-53.5648863,-2.7917907],[-53.4871566,-2.7648884],[-53.4543786,-2.7764869],[-53.4085241,-2.7498592],[-53.3580253,-2.7373339],[-53.3097454,-2.7433385],[-53.2529417,-2.7743045],[-53.2078828,-2.7206504],[-53.1701015,-2.6951682],[-53.1464094,-2.6652726],[-53.1069059,-2.6859796],[-53.0287959,-2.6819683],[-53.0015295,-2.6716156],[-52.906015,-2.714112],[-52.8378683,-2.7587004],[-52.8013788,-2.7632092],[-52.7557929,-2.7407946],[-52.6839911,-2.722911],[-52.6232012,-2.7164247],[-52.5569874,-2.7249809],[-52.5012942,-2.7736702],[-52.4334884,-2.7688079],[-52.3352638,-2.7816463],[-52.2902374,-2.808503],[-52.1577078,-2.8105875],[-52.0587895,-2.7751573],[-52.0649835,-2.7378455],[-52.0549304,-2.686244],[-52.0024288,-2.6305904],[-51.9888121,-2.5756593],[-51.9573968,-2.5221027],[-51.9324826,-2.5035451],[-51.9304516,-2.4965007],[-51.9197397,-2.4931678],[-51.8722365,-2.5492782],[-51.854453,-2.5524757]],[[-51.854453,-2.5524757],[-51.848233,-2.5243489]],[[-51.848233,-2.5243489],[-51.8579849,-2.4826918],[-51.8817656,-2.4326507],[-51.8616248,-2.3868433],[-51.8664515,-2.3643109],[-51.9205427,-2.3315481],[-51.9217851,-2.2814879],[-51.9396195,-2.2570928],[-51.9396251,-2.1077363],[-51.9163413,-2.0742372],[-51.9058446,-2.0034466],[-51.8743693,-1.9373373],[-51.9661759,-1.8759639],[-51.9667357,-1.8256288],[-51.9857328,-1.7792202],[-51.9860674,-1.700992],[-51.9520366,-1.6465906],[-51.9700261,-1.6102675],[-52.0252013,-1.5966453],[-52.0924516,-1.6068749],[-52.1998224,-1.6042268],[-52.2419295,-1.5430634],[-52.251873,-1.5040647],[-52.2132318,-1.4832611],[-52.1115652,-1.4701496],[-52.0618185,-1.4496942],[-51.9911192,-1.4351],[-51.9558137,-1.4059665],[-51.9044322,-1.345537],[-51.8891249,-1.2749905],[-51.8626545,-1.2422768],[-51.790701,-1.1986097],[-51.7792879,-1.1660776]],[[-48.4095658,-0.9057518],[-48.4747161,-0.8739021],[-48.5060619,-0.810438],[-48.5121803,-0.7596886],[-48.4880288,-0.7339583],[-48.4705945,-0.6140523],[-48.4737255,-0.526714],[-48.4411059,-0.4122095],[-48.3882519,-0.3526907],[-48.3746329,-0.30307],[-48.3944992,-0.2574512],[-48.4288067,-0.2271669],[-48.4858922,-0.2319833],[-48.5051168,-0.2425761],[-48.6335677,-0.2315883],[-48.7119713,-0.2518484],[-48.7437274,-0.2499224],[-48.8100784,-0.2147657],[-48.8347118,-0.2226507],[-48.9470183,-0.2222134],[-48.9972673,-0.1862099],[-49.0126204,-0.1598834],[-49.0394245,-0.1693389],[-49.113368,-0.1606274],[-49.1367384,-0.1682408],[-49.1961676,-0.1313531],[-49.246034,-0.1612027],[-49.3345562,-0.1605218],[-49.3787478,-0.1910237],[-49.4221892,-0.1684469],[-49.4386111,-0.1264927],[-49.4167957,-0.0674722],[-49.3890917,-0.0587664],[-49.3574527,-0.0239332],[-49.3583383,0.0079365],[-49.3749153,0.0443993],[-49.397009,0.0621591],[-49.4789561,0.0810633],[-49.531741,0.0811588],[-49.5769481,0.0907358],[-49.6322276,0.0748934],[-49.6656591,0.096562],[-49.6995784,0.1505051],[-49.6927197,0.1780972],[-49.6444491,0.2166634],[-49.63329,0.2413523],[-49.583738,0.2725382],[-49.5291541,0.2917297],[-49.4950295,0.3186274],[-49.5031751,0.3716787],[-49.5477582,0.3901311],[-49.5819234,0.418674],[-49.618127,0.3920543],[-49.6569138,0.393877],[-49.731086,0.3752833],[-49.7777692,0.3413052],[-49.8077867,0.3320504],[-49.8282806,0.3554297],[-49.8892148,0.3225009],[-49.9384746,0.3652911],[-49.9805094,0.360503],[-49.9929089,0.3384154],[-50.0513843,0.3367464],[-50.0984446,0.3444633],[-50.1316929,0.3306634],[-50.1678189,0.3402908],[-50.1727376,0.397643],[-50.0774344,0.4634433],[-50.036413,0.5341784],[-50.027856,0.5678313],[-50.037307,0.6018789],[-50.0726399,0.635792],[-50.1043542,0.63955],[-50.1334898,0.6196196],[-50.21351,0.6559749],[-50.2260857,0.6962372],[-50.3472365,0.6668437],[-50.4365469,0.600107],[-50.4672645,0.5309222],[-50.4859901,0.458905],[-50.5039997,0.4350876],[-50.5238924,0.3723908],[-50.556148,0.3067173],[-50.5963071,0.2503658],[-50.6681975,0.1850345],[-50.7619561,0.120978],[-50.9210933,0.0761336],[-50.9809629,0.0354058],[-51.0656742,-0.0762263],[-51.1132027,-0.0966079],[-51.1748986,-0.1045348],[-51.2163629,-0.1186128],[-51.3024816,-0.2526427],[-51.3477828,-0.2996133],[-51.3683699,-0.3762575],[-51.4236695,-0.4366112],[-51.4324792,-0.4733425],[-51.4577885,-0.513234],[-51.5151162,-0.5660446],[-51.5955362,-0.6504378],[-51.6834486,-0.7940294],[-51.6955135,-0.9212915],[-51.6856469,-1.0128623],[-51.7043365,-1.067741],[-51.7793719,-1.1375926],[-51.7792879,-1.1660776]],[[-51.848233,-2.5243489],[-51.8575374,-2.5691916]],[[-51.8575374,-2.5691916],[-51.8338734,-2.6574427],[-51.8201496,-2.6975679],[-51.7979008,-2.7278109],[-51.7592617,-2.8299412],[-51.7482858,-2.845507],[-51.7198969,-2.7963114],[-51.6445098,-2.7695676],[-51.5720393,-2.7654895],[-51.5330328,-2.7442359],[-51.5039525,-2.7464096],[-51.4493946,-2.7695868],[-51.4217039,-2.8309177],[-51.4153138,-2.8413742],[-51.3972845,-2.8802382],[-51.3980361,-2.8890745],[-51.3628972,-2.9111443],[-51.32476,-2.9450693],[-51.3050652,-2.9320117],[-51.2754246,-2.9592842],[-51.2372297,-2.9747641],[-51.2103165,-2.9994748],[-51.1612326,-3.0186512],[-51.1701146,-3.0656368],[-51.1542221,-3.1112817],[-51.1142822,-3.1364651],[-51.077311,-3.1051098],[-51.0301704,-3.1057105],[-51.0125594,-3.126641],[-50.9727286,-3.1246481],[-50.9658109,-3.1894817],[-50.9362041,-3.2311797],[-50.8468098,-3.2961571],[-50.8343642,-3.3336293],[-50.8409476,-3.3683462],[-50.8121447,-3.42505],[-50.8089506,-3.4950388],[-50.4859221,-3.4583254],[-50.4956141,-3.4289512],[-50.4756658,-3.3987822],[-50.4365858,-3.3954072],[-50.4229672,-3.4130844],[-50.3629166,-3.3844283],[-50.3292248,-3.3511049],[-50.3214412,-3.3218163],[-50.2826455,-3.3015075],[-50.2553021,-3.2742853],[-50.2484452,-3.243372],[-50.2096334,-3.2375485],[-50.192782,-3.2732201],[-50.1566953,-3.300461],[-50.1131651,-3.2696117],[-50.0697464,-3.3007963],[-50.0064121,-3.3315883],[-49.9694145,-3.3196288],[-49.9085802,-3.3256747]],[[-49.9085802,-3.3256747],[-49.9354378,-3.2570895],[-49.9306604,-3.2282293],[-49.9731638,-3.1914085],[-49.9694122,-3.1402324],[-49.931134,-3.0977299],[-49.9100254,-3.0912981],[-49.90905,-3.038144],[-49.8956285,-2.9860261],[-49.8475805,-2.9310268],[-49.8486111,-2.862529],[-49.9104963,-2.812893],[-49.9429423,-2.7503279],[-49.9457497,-2.6697313],[-49.9753303,-2.6214994],[-49.968777,-2.5458982],[-50.0009002,-2.5083364],[-50.0541401,-2.5162584],[-50.0810525,-2.4489479],[-50.1095302,-2.4106197],[-50.1052521,-2.3201843],[-50.0792204,-2.2589485],[-50.0881927,-2.2213364],[-50.1083383,-2.2051219],[-50.1023334,-2.1768806],[-50.1153012,-2.1396231],[-50.0605232,-2.1027329],[-50.0749428,-2.06942],[-50.0717222,-1.9549126],[-50.0566926,-1.9086107],[-50.1081393,-1.86039],[-50.131496,-1.8149992],[-50.0646702,-1.7918739],[-49.9915772,-1.7830986],[-49.944332,-1.7959596],[-49.8846137,-1.8247103],[-49.8479945,-1.8331488],[-49.7451622,-1.8161401],[-49.7083602,-1.8237851],[-49.6220609,-1.7649072],[-49.5860518,-1.7796896],[-49.539721,-1.7800999],[-49.513743,-1.7593876],[-49.4102786,-1.7194352],[-49.3226014,-1.7037439],[-49.2329615,-1.7049026],[-49.1716867,-1.7161229],[-49.1180287,-1.6727329],[-49.063798,-1.6114594],[-49.012574,-1.573232],[-48.9067721,-1.537466],[-48.8418518,-1.5238237]],[[-48.8418518,-1.5238237],[-48.8276801,-1.5163681]],[[-48.8276801,-1.5163681],[-48.7606569,-1.4525419]],[[-48.7606569,-1.4525419],[-48.7399386,-1.400042],[-48.710771,-1.338486],[-48.6782367,-1.2824122]],[[-48.6782367,-1.2824122],[-48.6515988,-1.2320302],[-48.607519,-1.1721088],[-48.5244826,-1.0839254],[-48.4930724,-1.038426],[-48.4392958,-0.9824776]],[[-48.4392958,-0.9824776],[-48.4095658,-0.9057518]],[[-48.8781504,-0.1815306],[-48.8796787,-0.1572364],[-48.9156335,-0.1512864],[-48.945854,-0.1980814],[-48.9245512,-0.2139814],[-48.881319,-0.2033437],[-48.8781504,-0.1815306]],[[-49.6262966,0.1901275],[-49.6606827,0.1872599],[-49.6774531,0.1557239],[-49.6534572,0.1450355],[-49.6154018,0.1528203],[-49.6262966,0.1901275]],[[-49.6180802,0.1992406],[-49.5763181,0.2197068],[-49.6021381,0.2427679],[-49.6180802,0.1992406]],[[-49.4502771,0.1171798],[-49.4769071,0.1482064],[-49.5023673,0.1173847],[-49.4502771,0.1171798]],[[-48.6782367,-1.2824122],[-48.7022969,-1.3223659],[-48.7289515,-1.3755799],[-48.7606569,-1.4525419]],[[-48.8276801,-1.5163681],[-48.8374083,-1.5214442]],[[-48.8374083,-1.5214442],[-48.835488,-1.5468219],[-48.8328242,-1.5598402],[-48.8034825,-1.6082717],[-48.7656338,-1.6015976],[-48.7373735,-1.6206551],[-48.702124,-1.6806665],[-48.6602943,-1.6923112],[-48.5304107,-1.6993218],[-48.5161846,-1.6735261],[-48.4898807,-1.6766578],[-48.4390443,-1.6530995],[-48.507903,-1.5305327],[-48.4723508,-1.5211319],[-48.435373,-1.5101717],[-48.4103749,-1.5094423],[-48.3549897,-1.4706785],[-48.2930171,-1.4705396],[-48.2998464,-1.494756],[-48.2755694,-1.5413348],[-48.2912346,-1.5696518],[-48.2685464,-1.5823701],[-48.2509642,-1.6196285],[-48.2311523,-1.6311803],[-48.2278214,-1.6942036],[-48.2007363,-1.6938158],[-48.1784824,-1.7303344],[-48.1763985,-1.7702942],[-48.1218409,-1.7830502],[-48.1091264,-1.8181392],[-48.0525689,-1.7938947],[-48.0434304,-1.7740124],[-48.0069687,-1.7653218],[-47.9795838,-1.7149134],[-47.9613711,-1.7060521],[-47.9563948,-1.6712575],[-47.8808876,-1.661938],[-47.8577026,-1.6292657],[-47.872038,-1.5958925],[-47.917316,-1.5671325],[-47.9495665,-1.5701316],[-47.7600106,-1.4525895],[-47.7479278,-1.481009],[-47.6971489,-1.4830954],[-47.6670118,-1.4701271],[-47.6623127,-1.4342115],[-47.6384356,-1.374769],[-47.7787362,-1.3051801],[-47.8454789,-1.2866393],[-47.8420971,-1.265798],[-47.8080684,-1.2079119],[-47.8352664,-1.1597326],[-47.8383348,-1.1304815],[-47.8101261,-1.0806237],[-47.8109838,-1.0635748],[-47.8714275,-1.0602596],[-47.9373478,-1.0381901],[-47.9749284,-1.0623209],[-47.9917045,-1.1029109],[-48.021485,-1.1338065],[-48.1115421,-1.0154478],[-48.1278765,-1.0329643],[-48.1767647,-1.0260169],[-48.2197581,-1.0098614],[-48.307179,-1.0190707],[-48.4392958,-0.9824776]],[[-46.305622,-0.997831],[-46.3221321,-0.9364081],[-46.3399791,-0.9598486],[-46.3316234,-0.9860782],[-46.305622,-0.997831]],[[-46.4358496,-2.4709154],[-46.4412734,-2.4157008],[-46.4127859,-2.3791338],[-46.4318916,-2.3644873],[-46.4324291,-2.2971111],[-46.3911392,-2.2501412],[-46.3509244,-2.2240678],[-46.3355811,-2.1940389],[-46.2832969,-2.1543901],[-46.2730844,-2.1201116],[-46.2745992,-2.0546288],[-46.2604287,-2.0460831],[-46.2514378,-2.0006193],[-46.2227059,-1.9102252],[-46.2435218,-1.8786276],[-46.2152786,-1.8459062],[-46.2303286,-1.8031233],[-46.2536366,-1.7958462],[-46.31413,-1.804271],[-46.3244891,-1.772696],[-46.3118822,-1.7332325],[-46.2658526,-1.7328418],[-46.2475775,-1.7209245],[-46.2112229,-1.7271762],[-46.2035024,-1.705295],[-46.1740864,-1.7005085],[-46.1553227,-1.6754034],[-46.1658773,-1.634375],[-46.1336272,-1.5818183],[-46.1440841,-1.5178302],[-46.1761387,-1.4773849],[-46.1435954,-1.449737],[-46.1534659,-1.4256059],[-46.1145704,-1.351941],[-46.1333341,-1.3097341],[-46.1615773,-1.2818889],[-46.1400773,-1.2476926],[-46.1330409,-1.2103693],[-46.0981694,-1.1960591],[-46.0871388,-1.1344187],[-46.061815,-1.0971945],[-46.0945521,-1.0206273],[-46.1412924,-1.05816],[-46.1605034,-1.0051743],[-46.1754358,-0.9998522],[-46.2047896,-1.0584145],[-46.2177301,-0.9920865],[-46.1758755,-0.9454293],[-46.1802434,-0.912237],[-46.2040482,-0.8849127],[-46.2648307,-0.9134146],[-46.2676913,-0.9651558],[-46.2877317,-0.9994154],[-46.3213602,-1.0246632],[-46.3477572,-1.006757],[-46.3901096,-1.0199488],[-46.4662492,-1.0264336],[-46.4785215,-0.9655577],[-46.4683787,-0.9295292],[-46.4102555,-0.8876399],[-46.4261082,-0.8657539],[-46.4796365,-0.8832979],[-46.4979803,-0.8727207],[-46.5150786,-0.9296538],[-46.5564755,-0.9177489],[-46.5774852,-0.9815032],[-46.601961,-0.9569416],[-46.6420417,-0.9488571],[-46.6364811,-0.9069923],[-46.6158625,-0.8590454],[-46.5961262,-0.8419423],[-46.6189755,-0.8054803],[-46.6688935,-0.7915298],[-46.6921945,-0.833858],[-46.7354436,-0.8622322],[-46.739773,-0.8207577],[-46.8063625,-0.8704949],[-46.8072566,-0.8344781],[-46.8335204,-0.8263796],[-46.8243366,-0.7912143],[-46.8360207,-0.7467125],[-46.8608736,-0.7410597],[-46.8836674,-0.7671805],[-46.883672,-0.8076491],[-46.912821,-0.8211231],[-46.9422472,-0.8074709],[-46.9702914,-0.7674795],[-46.9461513,-0.7309943],[-46.974978,-0.7041001],[-47.0026589,-0.7607985],[-47.063378,-0.7922874],[-47.0819055,-0.7645206],[-47.0909027,-0.7184058],[-47.074252,-0.7019957],[-47.0920322,-0.6741364],[-47.1211877,-0.6762125],[-47.140301,-0.6984657],[-47.1372425,-0.7325483],[-47.1669292,-0.7298787],[-47.1769888,-0.6731962],[-47.2183704,-0.6325563],[-47.2619621,-0.6242868],[-47.2873359,-0.6013099],[-47.322479,-0.5914541],[-47.3842549,-0.6024933],[-47.395899,-0.6539644],[-47.4308354,-0.6407959],[-47.4111143,-0.6027782],[-47.4217333,-0.5846346],[-47.4720045,-0.5939981],[-47.4849043,-0.6194248],[-47.4699879,-0.6937537],[-47.5010207,-0.6911149],[-47.5325994,-0.6139736],[-47.5642764,-0.5815948],[-47.5887499,-0.5756615],[-47.5868177,-0.6390544],[-47.6291248,-0.7072738],[-47.6371343,-0.6361046],[-47.6320147,-0.6037681],[-47.6900292,-0.5558379],[-47.7027401,-0.535082],[-47.7451821,-0.5382244],[-47.7708552,-0.5658822],[-47.772848,-0.6054593],[-47.8142727,-0.5764182],[-47.8459009,-0.6251847],[-47.8587456,-0.5703664],[-47.9032211,-0.5590043],[-47.921104,-0.6256315],[-47.964621,-0.6420758],[-47.9652235,-0.6737017],[-47.9912195,-0.694686],[-48.0196956,-0.6865582],[-48.0523861,-0.659928],[-48.1584045,-0.7742128],[-48.1777984,-0.8210127],[-48.2294917,-0.8278161],[-48.2684634,-0.9029275],[-48.2937708,-0.9196765],[-48.3658013,-0.9189255],[-48.4095658,-0.9057518]],[[-48.8374083,-1.5214442],[-48.8418518,-1.5238237]],[[-49.9085802,-3.3256747],[-49.9029954,-3.3677414],[-49.8344704,-3.4041088],[-49.8394144,-3.4364132],[-49.8240799,-3.4548829],[-49.8161645,-3.4682779],[-49.8034429,-3.4897323],[-49.8032433,-3.5003939],[-49.8191395,-3.515862],[-49.8059131,-3.5330844],[-49.8473046,-3.5756478],[-49.8984956,-3.5906445],[-49.929077,-3.6174932],[-49.9364983,-3.6506622]],[[-49.9364983,-3.6506622],[-49.9599734,-3.6570188],[-49.9655268,-3.6609508]],[[-49.9655268,-3.6609508],[-49.9567798,-3.6664159],[-49.9504458,-3.6737113],[-49.9094962,-3.6602997],[-49.8724703,-3.6650097],[-49.8581375,-3.643755],[-49.7692641,-3.6201014],[-49.674499,-3.5857244],[-49.6623498,-3.5361074],[-49.5976077,-3.5131132],[-49.6129115,-3.4462649],[-49.60091,-3.4159833]],[[-49.60091,-3.4159833],[-49.5965233,-3.4151075],[-49.0008787,-3.4121192]],[[-49.0008787,-3.4121192],[-48.92561,-3.4129403],[-48.9277322,-3.4330324],[-48.9740433,-3.457252],[-49.0248005,-3.5111706],[-49.030355,-3.5358489],[-48.9660488,-3.5472149],[-48.9529144,-3.5632424],[-48.9176681,-3.566822],[-48.8612985,-3.5699642],[-48.8404907,-3.5210465],[-48.8368262,-3.4686011],[-48.8504348,-3.4635961],[-48.8473265,-3.4575725],[-48.8179369,-3.4687338],[-48.7609321,-3.3952265],[-48.7193955,-3.3849364],[-48.6965714,-3.3596316],[-48.6532976,-3.3548451],[-48.6330694,-3.3234808],[-48.6256236,-3.3077935],[-48.6088348,-3.3147496],[-48.5587705,-3.3028523],[-48.5028467,-3.2597024],[-48.474229,-3.2758269],[-48.4206533,-3.2609319],[-48.4086799,-3.2798917],[-48.3528203,-3.2303148],[-48.3046762,-3.2505459],[-48.2889609,-3.222338],[-48.2591571,-3.2092986],[-48.2229565,-3.2228092],[-48.1581853,-3.2209556],[-48.1375915,-3.1890606],[-48.1121796,-3.2089037],[-48.0901276,-3.1804496],[-48.0991502,-3.1537732],[-48.0690462,-3.1416655],[-48.0556834,-3.1052912],[-48.001321,-3.1126672],[-47.9865392,-3.0697704],[-47.9534571,-3.0852972],[-47.917773,-3.0706571],[-47.9207139,-3.0371802],[-47.8731026,-2.9984007],[-47.8533073,-3.0097092],[-47.7987525,-2.9789105],[-47.791011,-2.958701],[-47.8162835,-2.9368858],[-47.7860947,-2.9125493],[-47.8002662,-2.8437077],[-47.8413188,-2.858577],[-47.8545647,-2.7722378],[-47.9071596,-2.7376255],[-47.8889244,-2.7091811],[-47.8795975,-2.6625631],[-47.8646802,-2.6458091],[-47.8714025,-2.6117897],[-47.8280936,-2.6221795],[-47.8305858,-2.5902862],[-47.7799547,-2.5824061],[-47.7776348,-2.5564683],[-47.7529965,-2.5205993],[-47.7136255,-2.5664432],[-47.6753614,-2.6725525],[-47.6851461,-2.7336862],[-47.6639514,-2.7448893],[-47.6308711,-2.7972182],[-47.5001721,-2.87164],[-47.3897575,-2.8878127],[-47.05728,-2.6188386],[-47.0510052,-2.554317],[-47.0271677,-2.4971087],[-46.9753943,-2.4752036],[-46.9092526,-2.4222738],[-46.8392295,-2.4236096],[-46.7746164,-2.410546],[-46.7310575,-2.4166206],[-46.6289522,-2.4727792],[-46.5711139,-2.4960533],[-46.5215032,-2.5076193],[-46.4642547,-2.4709153],[-46.4358496,-2.4709154]],[[-56.7678915,-3.2428893],[-56.887239,-3.4990467],[-57.0004891,-3.7591296],[-57.2536156,-4.2967522],[-57.5855733,-5.0007431],[-58.033639,-5.9781378],[-58.2625526,-6.4689221],[-58.2931091,-6.493882],[-58.3270562,-6.500374],[-58.3498866,-6.5624011],[-58.4273058,-6.6161675],[-58.4784712,-6.6996136],[-58.4817556,-6.7814217],[-58.4345559,-6.9088065],[-58.3802498,-6.970504],[-58.3354221,-6.9863726],[-58.2882552,-7.061674],[-58.2528349,-7.0834243],[-58.209524,-7.1342626],[-58.1809958,-7.1817367],[-58.1678046,-7.239248],[-58.1700099,-7.3132232],[-58.1384405,-7.3490342],[-58.118602,-7.3530631],[-58.0613616,-7.3951912],[-58.0398352,-7.446345],[-58.002168,-7.4881303],[-57.9520562,-7.5801442],[-57.9343873,-7.6567724],[-57.8989504,-7.6718905],[-57.8796423,-7.7819074],[-57.840971,-7.8614777],[-57.828833,-7.9728959],[-57.7765286,-8.0521753],[-57.7284399,-8.0942158],[-57.7198593,-8.146605],[-57.6772464,-8.1713961],[-57.6456109,-8.2062915],[-57.6790555,-8.3335028],[-57.6678008,-8.3639381],[-57.6865577,-8.4070078],[-57.6815844,-8.4331259],[-57.6539947,-8.4650723],[-57.6590545,-8.5003866],[-57.633422,-8.5268109],[-57.6505026,-8.5533713],[-57.6447781,-8.5819802],[-57.6222457,-8.5911884],[-57.6205597,-8.6477445],[-57.5936149,-8.7074193],[-57.5929389,-8.756477],[-57.5623651,-8.7612518],[-57.5230025,-8.7497337],[-57.4524982,-8.7866128],[-57.4175043,-8.7926085],[-57.4162157,-8.8589951],[-57.3843829,-8.8795574],[-57.3178883,-8.8857123],[-57.2861971,-8.9154972],[-57.2401898,-8.9064918],[-57.1950043,-8.9275137],[-57.1382742,-8.9946121],[-57.0946052,-9.0171114],[-57.0392416,-9.09829],[-57.0604425,-9.1371304],[-57.0601323,-9.1819673],[-57.0226379,-9.2197009],[-56.9955493,-9.2338426],[-56.9522491,-9.2230836],[-56.8201088,-9.2463404],[-56.7755214,-9.3295274],[-56.7723236,-9.3909593],[-56.7542707,-9.4063641],[-56.7083858,-9.3732067],[-56.6718827,-9.3673969],[-55.6041026,-9.4559371],[-54.6134541,-9.5358262],[-54.1066155,-9.5719207],[-53.1333861,-9.6451782],[-53.1332474,-9.6351519]],[[-53.1332474,-9.6351519],[-53.1125277,-9.5524305],[-53.0567226,-9.5305053],[-53.0424989,-9.4772994],[-52.995078,-9.4752954],[-52.9730557,-9.4518707],[-52.9299104,-9.4548246],[-52.9396094,-9.4214239],[-52.9216353,-9.3836157],[-52.9745566,-9.240591],[-52.9645209,-9.2245515],[-53.0229914,-9.1566934],[-53.0812742,-9.1434382],[-53.0848002,-9.1161263],[-53.0160844,-9.0644244],[-53.0382459,-9.0421891],[-53.052,-9.0028879],[-53.0486861,-8.9455873],[-53.015937,-8.9199613],[-52.9917742,-8.8355658],[-52.9990572,-8.8042581],[-53.0351867,-8.75178],[-53.0369366,-8.7286293],[-53.0062746,-8.7048285],[-52.9319162,-8.7300397],[-52.9240829,-8.7047858],[-52.9493343,-8.684949],[-52.9288829,-8.629636],[-52.8967174,-8.6276095],[-52.8883257,-8.5832682],[-52.9146882,-8.5316499],[-52.9206018,-8.4958013],[-52.9455493,-8.4866395],[-52.9483802,-8.4337389],[-52.9165819,-8.4135561],[-52.9420494,-8.3907715],[-52.9399898,-8.3532822],[-52.9795503,-8.3378619],[-53.0081093,-8.2953445],[-52.9729121,-8.2721797],[-52.9631068,-8.2364646],[-52.9296567,-8.2228399],[-52.9403053,-8.201333],[-52.9252703,-8.162625],[-52.9654407,-8.1215493],[-52.9561886,-8.0710673],[-52.9842444,-8.0335363],[-52.9699946,-8.0148222],[-53.0097758,-7.997813],[-53.037552,-7.9304763],[-53.0670541,-7.9186276],[-53.0572162,-7.8937324],[-53.01561,-7.8748039],[-53.0298897,-7.8564293],[-52.9921099,-7.8277421],[-52.9959125,-7.7967027],[-53.0346899,-7.7760089],[-53.037298,-7.7214146],[-53.0581044,-7.6878342],[-53.1001098,-7.6820748],[-53.1181584,-7.6453404],[-53.1129093,-7.6245162],[-53.1462209,-7.5981659],[-53.1681104,-7.5539471],[-53.1383587,-7.5465381],[-53.0923534,-7.4775666],[-53.1242697,-7.4457881],[-53.1200747,-7.3955064],[-53.1475513,-7.3988427],[-53.1783548,-7.3804264],[-53.1653833,-7.3571301],[-53.2081378,-7.313771],[-53.2348873,-7.2985254],[-53.2814413,-7.2327312],[-53.3151371,-7.2000325],[-53.2560269,-7.1372253],[-53.3118331,-7.0550993],[-53.3174382,-7.0274561],[-53.2787942,-6.96564],[-53.2826122,-6.9369991],[-53.3116373,-6.9160751],[-53.2888286,-6.8650345],[-53.2480075,-6.8314909],[-53.247252,-6.7868827],[-53.2740811,-6.7674919],[-53.3441941,-6.7494164],[-53.3684969,-6.7232522],[-53.3949152,-6.7176253],[-53.4240552,-6.6749884],[-53.4460799,-6.6865784],[-53.4685203,-6.6347168],[-53.4669097,-6.6102914],[-53.4400573,-6.559071],[-53.4072488,-6.5618273],[-53.3738615,-6.5940232],[-53.3423848,-6.55302],[-53.3142731,-6.4995447],[-53.3242446,-6.4735038],[-53.3032492,-6.4569459],[-53.257411,-6.465055],[-53.2373526,-6.5004446],[-53.2145813,-6.4694582],[-53.1817739,-6.4587101],[-53.213104,-6.4243901],[-53.1911582,-6.4005653],[-53.1943583,-6.3714814],[-53.2341041,-6.3395872],[-53.2291902,-6.293671],[-53.2602124,-6.2892691],[-53.2671575,-6.2543192],[-53.3069351,-6.1656757],[-53.3513794,-6.1718811],[-53.3408845,-6.1319167],[-53.3729126,-6.1150987],[-53.3827449,-6.0816269],[-53.3689698,-6.0579558],[-53.2858565,-6.0288803],[-53.2792432,-5.9817672],[-53.2183049,-5.9428489],[-53.202415,-5.9586142],[-53.1490789,-5.9377556],[-53.1279954,-5.9008651],[-53.0941571,-5.8719483],[-53.0591331,-5.8860532],[-53.0195103,-5.8569493],[-52.9758564,-5.8450813],[-52.952241,-5.798608],[-52.9318591,-5.7912086],[-52.9393767,-5.7440264],[-52.8962142,-5.7056617],[-52.8514095,-5.7100592],[-52.8321588,-5.6899387],[-52.8022709,-5.715671],[-52.7715181,-5.72227],[-52.742658,-5.6840089],[-52.6902417,-5.6537143],[-52.6992373,-5.6231215],[-52.6842719,-5.5871483],[-52.6855179,-5.52505],[-52.6614637,-5.4131144],[-52.6459898,-5.4005382],[-52.6422103,-5.3556523],[-52.6580428,-5.2977802],[-52.6122458,-5.2430721],[-52.4943508,-5.2181559],[-52.4500988,-5.1849956],[-52.42638,-5.1539845],[-52.4079876,-5.1836002],[-52.3747959,-5.2045613],[-52.3433806,-5.1793206],[-52.2953476,-5.1944149],[-52.2737116,-5.2260212],[-52.2840168,-5.2576342],[-52.1482958,-5.3160981],[-52.119514,-5.3141854],[-52.1052645,-5.2713883],[-52.0685178,-5.2430302],[-52.0760165,-5.2156485],[-52.0510747,-5.1514007],[-50.9301963,-5.1505729],[-50.8600311,-5.0003873],[-50.8472019,-4.9124446],[-50.8584492,-4.8688548],[-50.9122822,-4.8646978],[-50.93406,-4.7910968],[-50.9065664,-4.7287979],[-50.932115,-4.6864294],[-50.9063989,-4.6746675],[-50.920113,-4.6259803],[-50.8946178,-4.5819456],[-50.9067252,-4.4958801],[-50.8797813,-4.447527],[-50.9004541,-4.4123419],[-50.9961469,-4.3466789],[-50.9821447,-4.2902865],[-50.9903372,-4.2636942],[-50.9385076,-4.2703165],[-50.8825368,-4.2889945],[-50.818417,-4.294947],[-50.761638,-4.2501237],[-50.7156967,-4.242091],[-50.6732863,-4.2087306],[-50.7938614,-4.0004259],[-50.881448,-3.8535677],[-50.1085,-4.0779777],[-50.1072726,-4.0315311],[-50.1308045,-4.0273585],[-50.1234722,-3.9878647],[-50.0557798,-3.9219585],[-50.0178082,-3.9049885],[-50.0126929,-3.8594047],[-49.9826647,-3.8480039],[-49.9673621,-3.8244923],[-49.9723037,-3.7721996],[-49.9779683,-3.7563017],[-49.9980018,-3.7137669],[-49.968664,-3.6641232]],[[-49.968664,-3.6641232],[-49.9629465,-3.6586569],[-49.9434158,-3.6516858],[-49.9364983,-3.6506622]],[[-51.8575374,-2.5691916],[-51.854453,-2.5524757]],[[-53.1332474,-9.6351519],[-53.1333882,-9.6453296],[-52.0003209,-9.7258355],[-51.3042873,-9.77286],[-50.8428938,-9.8008231],[-50.2248064,-9.8411535],[-50.1978964,-9.7588349],[-50.1510053,-9.6956082],[-50.1390049,-9.6274599],[-50.1073697,-9.5942802],[-50.0895623,-9.5456929],[-50.1053376,-9.4754105],[-50.0901168,-9.4315957],[-50.0528335,-9.372673],[-50.055468,-9.3346989],[-50.0377849,-9.2894054],[-50.0050057,-9.2687597],[-49.9969316,-9.2376524],[-49.9661483,-9.2308641],[-49.9054199,-9.1697448],[-49.8968794,-9.1436736],[-49.8516138,-9.0654349],[-49.8425897,-9.0273259],[-49.7936636,-8.9794338],[-49.7676841,-8.9336881],[-49.6843583,-8.8564749],[-49.5924113,-8.8394912],[-49.5434457,-8.761395],[-49.4876063,-8.6885047],[-49.4540257,-8.6153915],[-49.4098882,-8.5800019],[-49.3914974,-8.4897785],[-49.3494094,-8.4183765],[-49.2833241,-8.3795572],[-49.2486603,-8.2553764],[-49.215854,-8.1942117],[-49.2073277,-8.1225007],[-49.193163,-8.0764651],[-49.1767186,-8.0615113],[-49.1737507,-8.0144182],[-49.1820284,-7.9769635],[-49.1696421,-7.9547897],[-49.1627769,-7.9005312],[-49.1607401,-7.791369],[-49.2211632,-7.7615992],[-49.2399968,-7.7407245],[-49.3401424,-7.6604679],[-49.3815774,-7.5691029],[-49.3779974,-7.4964458],[-49.231475,-7.3257861],[-49.1852842,-7.2351718],[-49.193796,-7.1298147],[-49.1952789,-7.0262647],[-49.2174451,-6.9614693],[-49.2095281,-6.9254206],[-49.1719412,-6.8929351],[-49.1504653,-6.8888509],[-49.0437712,-6.8157714],[-49.0188835,-6.7842105],[-48.9637126,-6.7794597],[-48.913853,-6.7573695],[-48.8511291,-6.7486772],[-48.8258553,-6.7546541],[-48.7690982,-6.7307016],[-48.7444027,-6.6985804],[-48.6709127,-6.6690044],[-48.6519604,-6.6399512],[-48.6643572,-6.5705715],[-48.6462681,-6.5088892],[-48.607185,-6.4480111],[-48.5405762,-6.4008421],[-48.5002152,-6.3509276],[-48.447707,-6.3511789],[-48.3826793,-6.3796079],[-48.3848765,-6.324503],[-48.4171226,-6.2985866],[-48.4127108,-6.2813296],[-48.436132,-6.2013716],[-48.4082705,-6.1534022],[-48.3245162,-6.1327193],[-48.2880473,-6.0975637],[-48.2984849,-6.0501309],[-48.3351601,-6.0357197],[-48.3347163,-6.0042748],[-48.2919557,-5.9685142],[-48.2519581,-5.9603733],[-48.2301253,-5.9225184],[-48.2919698,-5.8368374],[-48.2997946,-5.7959706],[-48.2902384,-5.7435391],[-48.27571,-5.7265134],[-48.2306488,-5.7292609],[-48.1709594,-5.7073508],[-48.1412274,-5.6543538],[-48.138152,-5.6026901],[-48.1947353,-5.5630933],[-48.2786891,-5.5404233],[-48.328787,-5.4910438],[-48.3515976,-5.4278364],[-48.3935104,-5.3942126],[-48.5139025,-5.4298196],[-48.5575365,-5.416711],[-48.5967334,-5.4225444],[-48.6291243,-5.4100587],[-48.6504881,-5.3849182],[-48.7368801,-5.3739624],[-48.7551507,-5.3491654],[-48.3155936,-5.0069924],[-48.0014333,-4.75886],[-47.816153,-4.6147285],[-47.7925691,-4.5864108],[-47.7248128,-4.6064181],[-47.6821203,-4.6063812],[-47.6119419,-4.5573579],[-47.5814777,-4.5199355],[-47.5637242,-4.4745575],[-47.5376001,-4.4525953],[-47.4763146,-4.3564394],[-47.4795412,-4.3284996],[-47.4420493,-4.2874251],[-47.3717681,-4.2455858],[-47.3790018,-4.2205369],[-47.3658287,-4.18064],[-47.3402351,-4.1770458],[-47.3502036,-4.1178207],[-47.3194243,-4.0477745],[-47.2931109,-4.0522709],[-47.2389286,-3.9986308],[-47.1902562,-3.9837047],[-47.1731461,-3.9238234],[-47.1484961,-3.9144898],[-47.128751,-3.8766426],[-47.1066248,-3.8809428],[-47.0852051,-3.85664],[-47.0835715,-3.8244046],[-47.0557157,-3.7735356],[-47.0453679,-3.6238821],[-47.0040617,-3.5426413],[-46.9688798,-3.5144028],[-46.9484548,-3.476799],[-46.9563218,-3.4258777],[-46.92974,-3.3738319],[-46.8848342,-3.3351737],[-46.8586432,-3.3429786],[-46.8460364,-3.319271],[-46.8148613,-3.3114659],[-46.802059,-3.2659998],[-46.7791907,-3.2421684],[-46.7715436,-3.2040662],[-46.7226309,-3.159132],[-46.7496037,-3.1244909],[-46.6886218,-3.0929714],[-46.6731808,-3.0673062],[-46.6684899,-2.9927955],[-46.6474296,-2.9698118],[-46.6539285,-2.9310654],[-46.6805554,-2.8827178],[-46.639416,-2.8835578],[-46.6400023,-2.8509089],[-46.6109773,-2.8552524],[-46.5989568,-2.79698],[-46.6252943,-2.8065459],[-46.6313534,-2.7708688],[-46.6696138,-2.7346049],[-46.6631149,-2.6935566],[-46.6380966,-2.6872113],[-46.6060909,-2.6394741],[-46.5068486,-2.616874],[-46.5094384,-2.5906125],[-46.4735724,-2.5465816],[-46.4193336,-2.5324251],[-46.4358496,-2.4709154]],[[-49.0008787,-3.4121192],[-49.60091,-3.4159833]],[[-49.9655268,-3.6609508],[-49.968664,-3.6641232]]],"bbox":[-58.8954981,-9.8411535,-46.061815,2.591027]}
