{"type":"Topology","objects":{"geometrias":{"type":"GeometryCollection","geometries":[{"type":"Polygon","arcs":[[0,1,2,3,4,5,6,7,8,9,10,11,12,13,14,15]],"properties":{"code_meso":3501,"code_state":35,"code_region":3,"name_meso":"São José do Rio Preto","abbrev_state":"SP","name_state":"São Paulo","name_region":"Sudeste","year":2020}},{"type":"Polygon","arcs":[[16,-14,17,18,19,20]],"properties":{"code_meso":3502,"code_state":35,"code_region":3,"name_meso":"Ribeirão Preto","abbrev_state":"SP","name_state":"São Paulo","name_region":"Sudeste","year":2020}},{"type":"Polygon","arcs":[[21,22,23,24,25,26,27,-16]],"properties":{"code_meso":3503,"code_state":35,"code_region":3,"name_meso":"Araçatuba","abbrev_state":"SP","name_state":"São Paulo","name_region":"Sudeste","year":2020}},{"type":"Polygon","arcs":[[28,29,30,31,32,33,34,35,-10,36,-8,37,-6,38,-4,39,-2,40,-27,41,42]],"properties":{"code_meso":3504,"code_state":35,"code_region":3,"name_meso":"Bauru","abbrev_state":"SP","name_state":"São Paulo","name_region":"Sudeste","year":2020}},{"type":"Polygon","arcs":[[43,-12,44,-35,45,46,47,48,49,-19]],"properties":{"code_meso":3505,"code_state":35,"code_region":3,"name_meso":"Araraquara","abbrev_state":"SP","name_state":"São Paulo","name_region":"Sudeste","year":2020}},{"type":"Polygon","arcs":[[50,51,52,53,54,55,56,-47,57,-33]],"properties":{"code_meso":3506,"code_state":35,"code_region":3,"name_meso":"Piracicaba","abbrev_state":"SP","name_state":"São Paulo","name_region":"Sudeste","year":2020}},{"type":"Polygon","arcs":[[-56,58,59,60,-21,61,-49,62]],"properties":{"code_meso":3507,"code_state":35,"code_region":3,"name_meso":"Campinas","abbrev_state":"SP","name_state":"São Paulo","name_region":"Sudeste","year":2020}},{"type":"Polygon","arcs":[[63,64,65,66,67,-23]],"properties":{"code_meso":3508,"code_state":35,"code_region":3,"name_meso":"Presidente Prudente","abbrev_state":"SP","name_state":"São Paulo","name_region":"Sudeste","year":2020}},{"type":"Polygon","arcs":[[68,69,-43,70,-25,71,-67]],"properties":{"code_meso":3509,"code_state":35,"code_region":3,"name_meso":"Marília","abbrev_state":"SP","name_state":"São Paulo","name_region":"Sudeste","year":2020}},{"type":"Polygon","arcs":[[-65,72,73,74,-29,-70,75]],"properties":{"code_meso":3510,"code_state":35,"code_region":3,"name_meso":"Assis","abbrev_state":"SP","name_state":"São Paulo","name_region":"Sudeste","year":2020}},{"type":"Polygon","arcs":[[76,-74,77,78,79,80,81,-52,82,-31]],"properties":{"code_meso":3511,"code_state":35,"code_region":3,"name_meso":"Itapetininga","abbrev_state":"SP","name_state":"São Paulo","name_region":"Sudeste","year":2020}},{"type":"Polygon","arcs":[[83,-54,84,-81,85,86,87,88,89,90,-60]],"properties":{"code_meso":3512,"code_state":35,"code_region":3,"name_meso":"Macro Metropolitana Paulista","abbrev_state":"SP","name_state":"São Paulo","name_region":"Sudeste","year":2020}},{"type":"MultiPolygon","arcs":[[[91]],[[92]],[[93,-90,94,95]],[[96]]],"properties":{"code_meso":3513,"code_state":35,"code_region":3,"name_meso":"Vale do Paraíba Paulista","abbrev_state":"SP","name_state":"São Paulo","name_region":"Sudeste","year":2020}},{"type":"Polygon","arcs":[[97,-79,98,99,-87]],"properties":{"code_meso":3514,"code_state":35,"code_region":3,"name_meso":"Litoral Sul Paulista","abbrev_state":"SP","name_state":"São Paulo","name_region":"Sudeste","year":2020}},{"type":"Polygon","arcs":[[-100,100,-96,101,-88]],"properties":{"code_meso":3515,"code_state":35,"code_region":3,"name_meso":"Metropolitana de São Paulo","abbrev_state":"SP","name_state":"São Paulo","name_region":"Sudeste","year":2020}}]}},"arcs":[[[-49.8476578,-21.2718421],[-49.8251443,-21.276411],[-49.8167481,-21.2793725],[-49.809567,-21.2842942],[-49.8029796,-21.2923192]],[[-49.8029796,-21.2923192],[-49.7718211,-21.3061846],[-49.7538039,-21.297016],[-49.7277927,-21.3449248],[-49.7117726,-21.3349737],[-49.6964104,-21.3428351],[-49.6855889,-21.3634921],[-49.6714866,-21.3491992],[-49.6284218,-21.3544337],[-49.6020683,-21.3744356],[-49.5806463,-21.3832159],[-49.5696057,-21.4030657]],[[-49.5696057,-21.4030657],[-49.5259124,-21.4473449]],[[-49.5259124,-21.4473449],[-49.4954782,-21.4941683],[-49.4622519,-21.5158189]],[[-49.4622519,-21.5158189],[-49.4492447,-21.5211081],[-49.4323664,-21.5353271],[-49.4179796,-21.5432996],[-49.4054559,-21.543993],[-49.3815814,-21.5351425]],[[-49.3815814,-21.5351425],[-49.3770339,-21.5348989]],[[-49.3770339,-21.5348989],[-49.3703922,-21.5357946],[-49.3487182,-21.5426352],[-49.3415648,-21.5454732],[-49.3350308,-21.5500967],[-49.327168,-21.5619821]],[[-49.327168,-21.5619821],[-49.3209208,-21.5964303],[-49.3121295,-21.6163121]],[[-49.3121295,-21.6163121],[-49.2944429,-21.6298636],[-49.2889049,-21.6362514],[-49.2827183,-21.6501628]],[[-49.2827183,-21.6501628],[-49.2782397,-21.6552881],[-49.2386356,-21.6708038],[-49.2294131,-21.6703244],[-49.2132932,-21.6711444]],[[-49.2132932,-21.6711444],[-49.2274006,-21.6595359]],[[-49.2274006,-21.6595359],[-49.2355096,-21.6346884],[-49.2399933,-21.6211027],[-49.2253313,-21.6108535],[-49.2122184,-21.6048151],[-49.1801263,-21.5911358],[-49.1765163,-21.5772097],[-49.1547551,-21.5543947],[-49.1493074,-21.5289358],[-49.1167117,-21.512405],[-49.1141409,-21.4987171],[-49.0871378,-21.4662836],[-49.0561669,-21.4877566],[-49.0196104,-21.4824315],[-48.9932583,-21.4562635],[-48.979189,-21.4160895],[-48.9492886,-21.425989],[-48.9483302,-21.3991662],[-48.9105963,-21.3771128],[-48.887101,-21.3877339],[-48.8729608,-21.3942951],[-48.8360673,-21.3927607],[-48.8046092,-21.4130785],[-48.7942132,-21.4087816],[-48.7748725,-21.42738],[-48.7568576,-21.4240061]],[[-48.7568576,-21.4240061],[-48.752385,-21.4062841]],[[-48.752385,-21.4062841],[-48.7451251,-21.392425],[-48.7470625,-21.3581457],[-48.7343563,-21.3335479],[-48.7341871,-21.2609802],[-48.7233049,-21.2417548],[-48.6952542,-21.2213891],[-48.7243671,-21.1898095],[-48.7363056,-21.14876],[-48.7459251,-21.1480337],[-48.7769036,-21.0992454],[-48.7705106,-21.0909832],[-48.7254258,-21.0738162],[-48.7157831,-21.0473825],[-48.6919966,-21.0121524],[-48.7084799,-20.980997],[-48.7290824,-20.9774538],[-48.7440241,-20.9556319],[-48.7750539,-20.9454682],[-48.77238,-20.9264664],[-48.7505528,-20.9022424],[-48.7440866,-20.894043],[-48.7546227,-20.8775334],[-48.7470769,-20.831183],[-48.7194019,-20.812958],[-48.7206743,-20.8028266],[-48.7176088,-20.8000954],[-48.7228638,-20.7836913],[-48.7262565,-20.7655889],[-48.7315433,-20.7603695],[-48.7477737,-20.753001],[-48.7526446,-20.7444063],[-48.7640355,-20.7407303],[-48.7891901,-20.7257109],[-48.7923696,-20.7230777],[-48.7980857,-20.7155909],[-48.7974149,-20.7125695],[-48.7865066,-20.6887289],[-48.798561,-20.6548052],[-48.8274722,-20.6590688],[-48.840686,-20.6521647],[-48.8457105,-20.6250369],[-48.832567,-20.5770772],[-48.8401898,-20.5560624],[-48.8513662,-20.546284],[-48.8673646,-20.531224],[-48.8674821,-20.5110065],[-48.8816937,-20.499682],[-48.8870712,-20.481687],[-48.8913531,-20.4766893],[-48.8923843,-20.4547635],[-48.8821199,-20.4408693],[-48.8864579,-20.4368891]],[[-48.8864579,-20.4368891],[-48.8998625,-20.4413362],[-48.9630303,-20.4031215],[-48.9706678,-20.3865862],[-48.9656668,-20.3628993],[-48.965783,-20.2792918],[-48.9617858,-20.2633012],[-48.9720232,-20.2077903],[-48.9860452,-20.1707653],[-49.0004263,-20.1607481],[-49.0329473,-20.1500559],[-49.0648389,-20.1526071],[-49.0718032,-20.1614972],[-49.0893002,-20.2121746],[-49.1224111,-20.273545],[-49.1835625,-20.3146598],[-49.2029996,-20.3046712],[-49.225294,-20.3053431],[-49.2596931,-20.2587601],[-49.2642762,-20.231263],[-49.2992464,-20.1670761],[-49.308538,-20.1038929],[-49.3072553,-20.0603193],[-49.297256,-20.017517],[-49.2839236,-20.0047717],[-49.2625334,-20.0069262],[-49.2483388,-19.999637],[-49.2464315,-19.9751613],[-49.2651731,-19.962038],[-49.2975378,-19.9605454],[-49.3366021,-19.9820846],[-49.3564865,-19.9867173],[-49.4345392,-19.9823852],[-49.458242,-19.975931],[-49.4927862,-19.9504212],[-49.4999252,-19.9259621],[-49.5140049,-19.9143115],[-49.5514852,-19.905841],[-49.6110265,-19.9187849],[-49.6344053,-19.9319321],[-49.7121496,-19.9312615],[-49.7339569,-19.9261713],[-49.7824562,-19.9244631],[-49.8004625,-19.931176],[-49.8352745,-19.933315],[-49.8555733,-19.946825],[-49.8883369,-19.9453049],[-49.9460521,-19.923911],[-49.9698825,-19.9200484],[-50.0030529,-19.926447],[-50.0472392,-19.9153896],[-50.0795215,-19.885982],[-50.0972433,-19.875479],[-50.130412,-19.8736718],[-50.1624139,-19.8783143],[-50.1959839,-19.8672423],[-50.2156518,-19.8666484],[-50.2451559,-19.8767577],[-50.285631,-19.8678179],[-50.3064103,-19.874086],[-50.3527589,-19.8646024],[-50.4171328,-19.8011365],[-50.4693236,-19.7798888],[-50.4989703,-19.7957843],[-50.5172129,-19.7964081],[-50.5448736,-19.8101448],[-50.5779488,-19.8163744],[-50.6055452,-19.8560883],[-50.6319448,-19.8709166],[-50.661324,-19.909002],[-50.7089985,-19.9202217],[-50.7354129,-19.930189],[-50.7836015,-19.9372295],[-50.8173362,-19.9583332],[-50.851583,-19.9697666],[-50.8761761,-19.990825],[-50.8971994,-19.9901552],[-50.9336598,-20.0149292],[-50.9470541,-20.0312523],[-50.9691294,-20.0364452],[-50.9965342,-20.0773146],[-51.0011911,-20.0963348],[-51.0215848,-20.1333489],[-51.048812,-20.1985769],[-51.0589327,-20.2351607],[-51.0691631,-20.2500495],[-51.1093896,-20.2800922]],[[-51.1093896,-20.2800922],[-51.104648,-20.286392],[-51.092991,-20.289901],[-51.078922,-20.328211],[-51.0548649,-20.3581198],[-51.02066,-20.3858572],[-51.0159608,-20.4040052],[-51.003318,-20.413141],[-50.9863424,-20.4403112],[-50.9790159,-20.4725429],[-50.9825274,-20.495711],[-50.9691781,-20.5106671],[-50.9662849,-20.549228],[-50.9364873,-20.5548187],[-50.9130004,-20.5408666],[-50.8682717,-20.5453457],[-50.8412619,-20.5333452],[-50.8190489,-20.533079],[-50.8064082,-20.5413317],[-50.7791421,-20.5454362],[-50.7728472,-20.5544419],[-50.7616334,-20.5762113],[-50.7664912,-20.6248074],[-50.8020604,-20.6024025],[-50.8011407,-20.6703431],[-50.7509765,-20.6814095],[-50.7530562,-20.7059987],[-50.7458184,-20.7211074],[-50.722885,-20.7068468],[-50.6855468,-20.707797],[-50.6826136,-20.7335222],[-50.6595766,-20.7317204],[-50.6429764,-20.7518568],[-50.6214634,-20.7677191],[-50.602395,-20.7728914],[-50.5055827,-20.7616059],[-50.4579645,-20.7778738],[-50.449937,-20.8008697],[-50.4252462,-20.7964201],[-50.4116598,-20.8130674],[-50.3926592,-20.8092152],[-50.3706871,-20.8291183],[-50.3744128,-20.8536835],[-50.3508745,-20.8460949],[-50.3311558,-20.8547738],[-50.3232394,-20.8727931],[-50.3039132,-20.8691508],[-50.2767161,-20.8836031],[-50.2582896,-20.9058434],[-50.2266271,-20.8886389],[-50.2148471,-20.8986762],[-50.1817245,-20.9010345],[-50.1495158,-20.8732029],[-50.1328484,-20.8823135],[-50.1118906,-20.8799885],[-50.0926816,-20.8867652],[-50.0510367,-20.9343989],[-50.0319042,-20.9332582],[-50.022374,-20.9435817],[-50.0269879,-20.9620101],[-50.0438293,-20.9913107],[-50.0744694,-21.017472],[-50.1074772,-21.0630001],[-50.1041039,-21.0997234],[-50.1473087,-21.1391198],[-50.1483,-21.1555833],[-50.132862,-21.1927544],[-50.1139664,-21.2088479],[-50.09098,-21.2203344],[-50.0859539,-21.2197655],[-50.0605956,-21.215024],[-50.0277253,-21.2107276],[-50.0002179,-21.2266555],[-49.9620609,-21.2277122],[-49.8846692,-21.2481684],[-49.8476578,-21.2718421]],[[-47.0480777,-21.2682679],[-47.0522817,-21.2465187],[-47.0789122,-21.2305951],[-47.0744916,-21.2079059],[-47.0956514,-21.2096737],[-47.1236478,-21.1679094],[-47.1173051,-21.1536959],[-47.1335055,-21.1334556],[-47.1184774,-21.1090533],[-47.1370422,-21.0880229],[-47.1469812,-21.0380418],[-47.1570299,-21.0188247],[-47.1437389,-20.9823857],[-47.1532641,-20.9708941],[-47.192566,-20.942053],[-47.1900399,-20.9282181],[-47.2104581,-20.924139],[-47.2245731,-20.9116135],[-47.2400443,-20.8852817],[-47.2144844,-20.8272194],[-47.2247543,-20.8000989],[-47.2048158,-20.7743437],[-47.1888183,-20.7706247],[-47.1822923,-20.741293],[-47.1862607,-20.7311344],[-47.1490655,-20.7076166],[-47.1153008,-20.7072048],[-47.1012353,-20.6831658],[-47.0968958,-20.6445283],[-47.1126809,-20.6380843],[-47.1087345,-20.6208048],[-47.1233226,-20.6127225],[-47.1426277,-20.5660141],[-47.138234,-20.5545926],[-47.1545174,-20.5195532],[-47.1856804,-20.5108592],[-47.2532124,-20.4766136],[-47.2910113,-20.4505499],[-47.2961002,-20.427256],[-47.2880312,-20.3931778],[-47.2982081,-20.3484357],[-47.2858418,-20.3335586],[-47.2767287,-20.291638],[-47.2604338,-20.2775686],[-47.239102,-20.2435681],[-47.2310736,-20.2191522],[-47.2505709,-20.1996702],[-47.2617804,-20.1599249],[-47.2930069,-20.1486619],[-47.3096734,-20.1244984],[-47.3586764,-20.1039816],[-47.3745709,-20.0836627],[-47.4081335,-20.0801963],[-47.418234,-20.0646426],[-47.4387084,-20.0510888],[-47.4448424,-20.0303817],[-47.424428,-20.0153196],[-47.4502762,-19.9878376],[-47.4682927,-19.9614222],[-47.4977254,-19.9716276],[-47.5085321,-19.9829406],[-47.5401584,-19.984325],[-47.5526378,-19.9960259],[-47.5838246,-19.9966646],[-47.5947481,-20.0258915],[-47.6139901,-20.042109],[-47.6396561,-20.0472194],[-47.6706264,-20.0225159],[-47.6761499,-20.0019156],[-47.6956332,-19.9844012],[-47.7126917,-19.978148],[-47.7336817,-19.9879282],[-47.8056581,-19.9851317],[-47.8346805,-19.9960656],[-47.8597507,-19.9929397],[-47.8724421,-20.0130302],[-47.8758201,-20.0324105],[-47.8614615,-20.0450096],[-47.8692697,-20.0618648],[-47.8750773,-20.0983727],[-47.8935875,-20.1235055],[-47.9130718,-20.1202737],[-47.9341021,-20.1078536],[-47.9434963,-20.0919985],[-47.9460221,-20.0604678],[-47.9759693,-20.0353727],[-47.991212,-20.0461707],[-47.9897482,-20.072963],[-48.0024175,-20.1039695],[-48.024392,-20.124729],[-48.038843,-20.119949],[-48.0493869,-20.1372355],[-48.0767758,-20.1484296],[-48.1054874,-20.146356],[-48.1265467,-20.1312565],[-48.1477216,-20.1241396],[-48.15566,-20.1053012],[-48.1820543,-20.0895131],[-48.1824659,-20.074627],[-48.2077715,-20.03937],[-48.223658,-20.0293112],[-48.246997,-20.0338798],[-48.2441319,-20.0474038],[-48.2534251,-20.0779207],[-48.2281268,-20.1042144],[-48.2177475,-20.1252888],[-48.2253433,-20.1341792],[-48.2546878,-20.1438158],[-48.2749559,-20.1421127],[-48.2954933,-20.1240076],[-48.3171344,-20.113347],[-48.3749359,-20.1231032],[-48.4057768,-20.113511],[-48.4390266,-20.1202206],[-48.4762218,-20.1347649],[-48.5092316,-20.1387963],[-48.5546289,-20.130299],[-48.5782332,-20.131249],[-48.6006412,-20.1397105],[-48.6421287,-20.1664961],[-48.7071077,-20.1602172],[-48.7354644,-20.1495884],[-48.7811373,-20.1638525],[-48.8257432,-20.1619575],[-48.8527791,-20.1775076],[-48.8592598,-20.2323061],[-48.8722273,-20.2418695],[-48.8865458,-20.2711626],[-48.8887604,-20.2948472],[-48.8756657,-20.3149986],[-48.8784296,-20.3561378],[-48.8670392,-20.3983493],[-48.8715859,-20.4171027],[-48.8864579,-20.4368891]],[[-48.752385,-21.4062841],[-48.7493712,-21.4215768]],[[-48.7493712,-21.4215768],[-48.7377937,-21.4198106],[-48.7261589,-21.4196682],[-48.7185306,-21.429629],[-48.7194477,-21.4425798],[-48.7090619,-21.4883833],[-48.6854386,-21.4859663],[-48.6752849,-21.4889636],[-48.6678177,-21.4916477],[-48.6613317,-21.5287162],[-48.6355514,-21.5665888],[-48.6236503,-21.541734],[-48.6161465,-21.5340194],[-48.6035945,-21.5140609],[-48.575525,-21.5165896],[-48.5627372,-21.5314752],[-48.5284493,-21.5198997],[-48.4868258,-21.5184388],[-48.4710754,-21.512694],[-48.4639851,-21.4923878],[-48.432058,-21.4909142],[-48.406803,-21.4728003],[-48.3940508,-21.4922078],[-48.3705665,-21.5050168],[-48.3514758,-21.4922814],[-48.3239513,-21.4844321],[-48.3064191,-21.485789],[-48.2210209,-21.4712239],[-48.197954,-21.4649606],[-48.1778485,-21.4375725],[-48.1454322,-21.4298727],[-48.1176433,-21.435117],[-48.1030204,-21.453482],[-48.0815954,-21.46375],[-48.0761138,-21.4768971],[-48.054209,-21.481364],[-48.0504935,-21.5013747],[-48.0386583,-21.5046247],[-48.024018,-21.5376615],[-48.0099039,-21.5556185],[-47.9909643,-21.5656661],[-47.9986691,-21.5817043],[-47.9937681,-21.584533],[-47.9878226,-21.5898986],[-47.9841829,-21.5954501],[-47.950138,-21.5983995],[-47.9251908,-21.5766806],[-47.9131682,-21.5893084],[-47.892896,-21.5825804],[-47.8649587,-21.6120954],[-47.8582894,-21.6013289],[-47.8371443,-21.6045194],[-47.8346077,-21.6115962],[-47.818556,-21.6147668],[-47.8068276,-21.6355115],[-47.8188381,-21.6599715],[-47.8090995,-21.699288],[-47.7681522,-21.6914638],[-47.7368293,-21.7118828],[-47.7217836,-21.7059499],[-47.7052003,-21.7206835],[-47.6814804,-21.7157865],[-47.6671571,-21.7426131],[-47.6449198,-21.7264509],[-47.6315089,-21.7269103],[-47.6235415,-21.7404543],[-47.5986362,-21.7383058],[-47.5822035,-21.7523212],[-47.5698608,-21.7843349],[-47.5524919,-21.7944394],[-47.5382466,-21.8021174]],[[-47.5382466,-21.8021174],[-47.5348359,-21.7976436],[-47.5107459,-21.8081911]],[[-47.5107459,-21.8081911],[-47.4646275,-21.7854968],[-47.4385429,-21.7808285],[-47.4415938,-21.767276],[-47.4248063,-21.7556969],[-47.3668468,-21.7787012],[-47.3468981,-21.8065311],[-47.3322516,-21.7842584],[-47.2996563,-21.7632995],[-47.2932941,-21.7573556],[-47.3036808,-21.7373111],[-47.3303403,-21.7265827],[-47.3269226,-21.7037714],[-47.337498,-21.6869864],[-47.3222221,-21.6499535],[-47.3421613,-21.6422103],[-47.3806019,-21.6498117],[-47.3997708,-21.6220886],[-47.3818819,-21.5994799],[-47.3642764,-21.5936931],[-47.3570924,-21.5700048],[-47.3316255,-21.564265],[-47.3075037,-21.5512254],[-47.2909207,-21.5535998],[-47.2763683,-21.5256697],[-47.2822922,-21.5156152],[-47.2716219,-21.457502],[-47.2369566,-21.4430202],[-47.2336477,-21.4272339],[-47.2149226,-21.4269945],[-47.2046167,-21.3849913],[-47.1870203,-21.3587776],[-47.1751159,-21.3192466],[-47.1573325,-21.3022801],[-47.1467275,-21.3054329],[-47.1275857,-21.3288151],[-47.1076666,-21.3158253],[-47.0654749,-21.2693552],[-47.0480777,-21.2682679]],[[-51.1093896,-20.2800922],[-51.1324143,-20.2955315],[-51.1780597,-20.3092856],[-51.2399055,-20.3169359],[-51.2956845,-20.3284821],[-51.321445,-20.3396192],[-51.3508686,-20.3631794],[-51.3612244,-20.3845403],[-51.3751155,-20.396527],[-51.3989579,-20.4457611],[-51.4092796,-20.4595706],[-51.4492291,-20.4828154],[-51.4928561,-20.5465063],[-51.5002223,-20.5682163],[-51.5330051,-20.5969939],[-51.5751862,-20.6234191],[-51.603296,-20.6616955],[-51.6242875,-20.7125187],[-51.6339969,-20.7474793],[-51.6223983,-20.776872],[-51.6329772,-20.8215582],[-51.6297015,-20.8614529],[-51.6150883,-20.886086],[-51.6189985,-20.9325906],[-51.6281707,-20.9490296],[-51.6596463,-20.9685035],[-51.705683,-20.9703564],[-51.7222304,-20.976768],[-51.7684823,-21.0365221],[-51.7724764,-21.0511213]],[[-51.7724764,-21.0511213],[-51.7677318,-21.0569193],[-51.7643972,-21.054683],[-51.7618578,-21.0642675],[-51.7366931,-21.0716908],[-51.719458,-21.0696246],[-51.7019579,-21.0909809],[-51.697849,-21.0954084],[-51.6907559,-21.116094],[-51.6906032,-21.1446882],[-51.6537841,-21.1674581],[-51.6418814,-21.1655496],[-51.6275231,-21.1461636],[-51.6136783,-21.1416537],[-51.5914512,-21.1486358],[-51.5934459,-21.170995],[-51.5646093,-21.1901455],[-51.5430206,-21.1916777],[-51.4866929,-21.233111],[-51.4353074,-21.2457343],[-51.4309863,-21.2548491],[-51.3994479,-21.2669321],[-51.3853483,-21.2843565],[-51.3378922,-21.293348],[-51.325357,-21.2916894],[-51.3040189,-21.3086411],[-51.2616879,-21.3275783],[-51.2377772,-21.326808],[-51.2215695,-21.347683],[-51.1897265,-21.3770868],[-51.1656989,-21.3841483],[-51.1480784,-21.3745866],[-51.122436,-21.3815943],[-51.1009539,-21.3702268],[-51.0542505,-21.4046512],[-51.0341283,-21.4084459],[-51.0258517,-21.4256077],[-50.9985668,-21.4393988],[-50.9814978,-21.4318604],[-50.9469595,-21.4478554],[-50.9248712,-21.4413593],[-50.9044807,-21.484772],[-50.8742864,-21.4888984],[-50.8647206,-21.5095796],[-50.8695237,-21.5250926],[-50.8473851,-21.5356628],[-50.8137092,-21.5423824],[-50.7942118,-21.5590592],[-50.7893367,-21.5493801],[-50.7774612,-21.542772],[-50.7735203,-21.5446233],[-50.7692616,-21.5481703],[-50.7726495,-21.5578948],[-50.7817072,-21.5629313],[-50.7424476,-21.5779551],[-50.7082688,-21.5769891],[-50.7078743,-21.5855038],[-50.6703738,-21.6049356],[-50.6521523,-21.6235328],[-50.6466327,-21.6506802],[-50.6276064,-21.6429473],[-50.6203287,-21.6459531],[-50.6208553,-21.6538629]],[[-50.6208553,-21.6538629],[-50.6140726,-21.6567784]],[[-50.6140726,-21.6567784],[-50.6066578,-21.6591145],[-50.6003902,-21.6615698],[-50.5729613,-21.6871354],[-50.5690953,-21.6906631],[-50.5690361,-21.692154],[-50.56696,-21.6907233],[-50.5651482,-21.6898561],[-50.5612036,-21.6908398],[-50.5065764,-21.7090835],[-50.4694221,-21.705892],[-50.4628418,-21.7002282],[-50.4614535,-21.6899656],[-50.4572668,-21.6872966],[-50.454983,-21.6894453],[-50.4517622,-21.6911669],[-50.4376297,-21.6953735],[-50.4006149,-21.7139625],[-50.3969488,-21.7171505],[-50.3621777,-21.7221294],[-50.3522742,-21.7117633],[-50.3177158,-21.707305],[-50.2944414,-21.7173232],[-50.2743608,-21.7075521]],[[-50.2743608,-21.7075521],[-50.2655365,-21.7032814]],[[-50.2655365,-21.7032814],[-50.248949,-21.7000788],[-50.2444168,-21.6993621],[-50.2139621,-21.6954099],[-50.207621,-21.6868129],[-50.1729222,-21.6950876],[-50.1553819,-21.6810553],[-50.1165307,-21.6918186],[-50.1001248,-21.6434938],[-50.1001188,-21.6209986],[-50.0797967,-21.610322],[-50.0611094,-21.5894354],[-50.0448072,-21.607914],[-50.0282063,-21.5892349],[-49.9967107,-21.5887823],[-49.9866446,-21.5878634],[-49.9798771,-21.5782508],[-49.9540759,-21.5770341],[-49.9335047,-21.5538485],[-49.9248074,-21.5564627],[-49.9087784,-21.5386538],[-49.9100424,-21.5230273],[-49.9108995,-21.5104603],[-49.8914839,-21.4758948],[-49.8722429,-21.4688611],[-49.869181,-21.4406538],[-49.8611456,-21.4304801],[-49.8685525,-21.3926257],[-49.8239765,-21.3303331],[-49.8180553,-21.3031039],[-49.8317876,-21.284571],[-49.8305894,-21.280817],[-49.8319166,-21.2768076],[-49.8331372,-21.2772645],[-49.8316287,-21.2749525]],[[-49.8316287,-21.2749525],[-49.8476578,-21.2718421]],[[-49.7720015,-22.5006463],[-49.748004,-22.5400975],[-49.7483337,-22.554358],[-49.7365002,-22.5883762],[-49.7070581,-22.6186891],[-49.6888333,-22.6013208],[-49.6615622,-22.6071079],[-49.6510636,-22.6206649],[-49.6301442,-22.6239856],[-49.6249953,-22.649635],[-49.6025855,-22.6654619],[-49.5896486,-22.6460869],[-49.5924182,-22.6342165],[-49.5803802,-22.616504],[-49.5853909,-22.6039021],[-49.5692365,-22.5872438],[-49.5588319,-22.5655454],[-49.5474844,-22.56105],[-49.5344439,-22.5448715],[-49.5328758,-22.5438385],[-49.5158307,-22.5181692],[-49.5092588,-22.5180119],[-49.5030166,-22.5138467],[-49.4896875,-22.5418596],[-49.4544066,-22.567697],[-49.4568624,-22.5786686],[-49.444351,-22.6004981],[-49.4247221,-22.6070853],[-49.4175799,-22.6218573],[-49.3556207,-22.6366889],[-49.3535048,-22.6452462],[-49.3570218,-22.6449236],[-49.3616388,-22.6549165],[-49.3396897,-22.6659058],[-49.3356656,-22.6763548],[-49.3589935,-22.6825815],[-49.3713344,-22.7073299],[-49.3839921,-22.7080983],[-49.3823385,-22.7139834],[-49.379801,-22.7333356],[-49.3856966,-22.7629144],[-49.3682353,-22.8188247],[-49.378128,-22.8575904],[-49.3695115,-22.8837839],[-49.3381133,-22.8901237],[-49.3090505,-22.8850174],[-49.3023166,-22.9137182],[-49.2894064,-22.933685],[-49.3036367,-22.9529004],[-49.2799883,-22.9696687],[-49.2568393,-22.9749675],[-49.2457885,-23.0128355],[-49.2220378,-23.0364807],[-49.2411529,-23.0703303],[-49.2358174,-23.0919919],[-49.2374117,-23.1184776],[-49.2484996,-23.1649804],[-49.2427,-23.20775],[-49.2124641,-23.2245388],[-49.2043476,-23.2744901],[-49.2137479,-23.2957365],[-49.2037982,-23.3070523],[-49.2150753,-23.3400122],[-49.2063248,-23.378127],[-49.2179367,-23.3867569],[-49.2204135,-23.391666]],[[-49.2204135,-23.391666],[-49.206904,-23.4049443],[-49.2079001,-23.4132555],[-49.2131171,-23.4175117]],[[-49.2131171,-23.4175117],[-49.2129551,-23.4190434],[-49.2037614,-23.4218095],[-49.1906732,-23.4293419],[-49.18293,-23.4231607],[-49.1788738,-23.4328882],[-49.1889866,-23.4410457],[-49.1744795,-23.4637939],[-49.1562283,-23.4762289],[-49.1606209,-23.498937],[-49.1612905,-23.5416555],[-49.1566537,-23.5451487],[-49.1343205,-23.5470225],[-49.1175948,-23.5601992],[-49.1236263,-23.5783602],[-49.127198,-23.5847749],[-49.1229788,-23.6050695],[-49.1357352,-23.6132713],[-49.1204292,-23.6317902],[-49.1363372,-23.6615736],[-49.1340905,-23.6810698],[-49.1415814,-23.7120809],[-49.1327337,-23.7214747],[-49.0327924,-23.6775923],[-49.0256789,-23.6503506],[-48.9969767,-23.6422044],[-48.9783178,-23.6234093],[-48.9251536,-23.626426],[-48.8673433,-23.6081465],[-48.8373915,-23.5944894],[-48.8187973,-23.6089592],[-48.8024695,-23.6374316],[-48.7809569,-23.6428024],[-48.766728,-23.6135899],[-48.6995935,-23.6027558],[-48.6779753,-23.5876263],[-48.6229066,-23.5944449],[-48.6072718,-23.5749431],[-48.6267542,-23.5619649],[-48.644623,-23.5206954],[-48.6245379,-23.4971187],[-48.6313424,-23.4746222],[-48.642741,-23.4718918],[-48.6493693,-23.4221657],[-48.6331238,-23.3978751],[-48.6279332,-23.3563704],[-48.6474606,-23.3290778],[-48.5905088,-23.314921],[-48.5370618,-23.2731957],[-48.5044245,-23.2697722],[-48.4915389,-23.2611333],[-48.4360667,-23.2733929],[-48.4060447,-23.2676308],[-48.4028636,-23.2852816],[-48.3683777,-23.297022],[-48.3388334,-23.282011],[-48.3369499,-23.268],[-48.3003553,-23.257879],[-48.2731334,-23.2737022],[-48.2403,-23.2799602],[-48.2391606,-23.2629519],[-48.2538032,-23.2575413],[-48.260767,-23.2299453],[-48.2453295,-23.2096259],[-48.2211461,-23.191752],[-48.2054874,-23.1894959],[-48.1900508,-23.1752196],[-48.1819929,-23.1418865],[-48.1832362,-23.1131063],[-48.1628518,-23.0889431],[-48.1566882,-23.0865298],[-48.1100599,-23.0904949],[-48.0917034,-23.0865004],[-48.0768522,-23.0905335],[-48.0683387,-23.0909601],[-48.0570436,-23.1038342],[-48.0383939,-23.0892415],[-48.0383381,-23.0742776],[-48.0217969,-23.0674284],[-48.0185441,-23.0691113],[-48.0052188,-23.0652027],[-47.979323,-23.052509],[-47.9679287,-23.0301828],[-47.954681,-23.0336145],[-47.9464516,-23.0020253],[-47.9284663,-22.9798434],[-47.9328603,-22.9660254],[-47.9337867,-22.9450958],[-47.9400312,-22.9361883],[-47.9470651,-22.933386],[-47.9462385,-22.9075401],[-47.9320204,-22.8910506]],[[-47.9320204,-22.8910506],[-47.9391818,-22.8828927]],[[-47.9391818,-22.8828927],[-47.9615431,-22.8903482],[-47.9877712,-22.8879465],[-48.001227,-22.8994449],[-48.015283,-22.8841087],[-48.0012258,-22.8767532],[-48.0144435,-22.8522502],[-48.0399224,-22.8468873],[-48.031998,-22.825744],[-48.02786,-22.754213],[-48.018273,-22.741369],[-48.021126,-22.724562],[-48.026027,-22.72363],[-48.038356,-22.725163],[-48.070082,-22.736922],[-48.083882,-22.72393],[-48.098664,-22.688783],[-48.08954,-22.667004],[-48.0938849,-22.6510124],[-48.090343,-22.6323841],[-48.1160438,-22.629418],[-48.1476726,-22.6317256],[-48.1603772,-22.6378083],[-48.1761898,-22.6268276],[-48.2104662,-22.6181138],[-48.2177904,-22.5983055],[-48.2361045,-22.5987715],[-48.242629,-22.6179213],[-48.2614799,-22.6054322],[-48.2569114,-22.6001413],[-48.248555,-22.5697914],[-48.25301,-22.5506616],[-48.2606506,-22.5414861],[-48.2842532,-22.5147849],[-48.2766682,-22.4956117],[-48.2430343,-22.479432],[-48.243835,-22.4682606],[-48.2688861,-22.447904],[-48.2778305,-22.4234186],[-48.2539047,-22.3900145],[-48.2401262,-22.3933154],[-48.2372747,-22.3882185],[-48.2392485,-22.3670163],[-48.2509183,-22.3438544],[-48.2914901,-22.2694369],[-48.3266601,-22.2612137],[-48.3223164,-22.2269718],[-48.3257149,-22.2152265],[-48.3128715,-22.200676]],[[-48.3128715,-22.200676],[-48.3218744,-22.1912215]],[[-48.3218744,-22.1912215],[-48.3554797,-22.1668144],[-48.3810025,-22.1625477],[-48.3937451,-22.143278],[-48.4020238,-22.1025534],[-48.4284694,-22.0898907],[-48.4526123,-22.0514544],[-48.4768576,-22.0418268],[-48.5033114,-22.019421],[-48.5442932,-22.0345397],[-48.5690026,-22.0025936],[-48.5874091,-22.000414],[-48.6264882,-21.9712288],[-48.6448666,-21.9688532],[-48.669801,-21.9498335],[-48.6884491,-21.9126172],[-48.7180453,-21.9077209],[-48.726689,-21.8909989],[-48.7609187,-21.884046],[-48.7828562,-21.8951325],[-48.8089529,-21.8906423],[-48.807939,-21.8932874],[-48.8218121,-21.8895926],[-48.8479384,-21.9098748],[-48.879157,-21.9208652],[-48.892171,-21.906657],[-48.9034268,-21.8734164],[-48.9180721,-21.8605359],[-48.969077,-21.8481691],[-48.9819347,-21.8394249],[-48.9884971,-21.815411],[-48.9619218,-21.7849945],[-48.9602298,-21.7717361],[-48.9731228,-21.7586122],[-49.0440737,-21.7742247],[-49.0762001,-21.7577145],[-49.1084947,-21.7481258],[-49.1438275,-21.6942366],[-49.1560843,-21.6535178],[-49.1642027,-21.6473698],[-49.1762673,-21.6454343],[-49.1986811,-21.6530783],[-49.2100702,-21.6668547]],[[-49.2100702,-21.6668547],[-49.2132932,-21.6711444]],[[-49.2827183,-21.6501628],[-49.2912943,-21.6331144],[-49.3121295,-21.6163121]],[[-49.327168,-21.5619821],[-49.3327159,-21.5527124],[-49.3383134,-21.5475403],[-49.360596,-21.5386729],[-49.3770339,-21.5348989]],[[-49.3815814,-21.5351425],[-49.4073429,-21.5443332],[-49.4146079,-21.5441046],[-49.4226109,-21.5415641],[-49.4382982,-21.5309946],[-49.4473963,-21.5222905],[-49.4622519,-21.5158189]],[[-49.5259124,-21.4473449],[-49.5495357,-21.4178532],[-49.5696057,-21.4030657]],[[-49.8029796,-21.2923192],[-49.814346,-21.2806086],[-49.8316287,-21.2749525]],[[-50.2655365,-21.7032814],[-50.2715517,-21.7217703]],[[-50.2715517,-21.7217703],[-50.2585196,-21.7386619],[-50.2252185,-21.7525095],[-50.2176021,-21.7605957],[-50.1630763,-21.7784232],[-50.1474581,-21.7987594],[-50.0975382,-21.8457773],[-50.0709375,-21.8564653],[-50.0167056,-21.9101291],[-50.0064109,-21.9256381],[-49.9805335,-21.9426322],[-49.9681511,-21.9385251],[-49.9446879,-21.9538781],[-49.921077,-21.9563489],[-49.8946183,-21.9676317],[-49.8854528,-21.9713982],[-49.8685408,-21.9846041],[-49.8181372,-22.0008525],[-49.7902239,-22.0285446],[-49.7684268,-22.0434177],[-49.7612218,-22.0585125],[-49.7377629,-22.028805],[-49.6879176,-22.0487606],[-49.6845033,-22.0573945],[-49.6506914,-22.06768],[-49.6371247,-22.0748635],[-49.6270629,-22.0858712],[-49.6176673,-22.1135803],[-49.584994,-22.1127457],[-49.5621421,-22.1452769],[-49.5262267,-22.1555189],[-49.5300379,-22.1815931],[-49.5110853,-22.1897261],[-49.4887086,-22.2349206],[-49.4624305,-22.2452165],[-49.458505,-22.2465299],[-49.4418222,-22.2655676],[-49.4319173,-22.294208],[-49.4254944,-22.2957746],[-49.4412016,-22.3281169],[-49.4650723,-22.3362094],[-49.4828654,-22.3561923],[-49.4950321,-22.3829973],[-49.5197513,-22.3936177],[-49.5563551,-22.3920324],[-49.5699708,-22.3836182],[-49.5761076,-22.4170817],[-49.6039301,-22.443077],[-49.601588,-22.4604174],[-49.6285118,-22.4691534],[-49.6463794,-22.4366403],[-49.674472,-22.4687206],[-49.6943674,-22.4561984],[-49.7017976,-22.4471388],[-49.7040356,-22.4434028],[-49.7102724,-22.4442424],[-49.7215091,-22.4640341],[-49.7378448,-22.4668143],[-49.7479853,-22.4849254],[-49.7565364,-22.4970699],[-49.7556128,-22.4981541],[-49.7720015,-22.5006463]],[[-48.7493712,-21.4215768],[-48.7568576,-21.4240061]],[[-49.2274006,-21.6595359],[-49.2100702,-21.6668547]],[[-48.3218744,-22.1912215],[-48.298743,-22.1921813]],[[-48.298743,-22.1921813],[-48.2742852,-22.1922895],[-48.2554989,-22.1772074],[-48.2550345,-22.1630342],[-48.2158414,-22.1588242],[-48.2052482,-22.1503382],[-48.1818987,-22.1550681],[-48.1758824,-22.1664176],[-48.1347001,-22.183235],[-48.1047199,-22.1800811],[-48.0802878,-22.1570296],[-48.0578181,-22.1507292],[-48.0437203,-22.1288703],[-48.0479766,-22.0779394],[-48.0265796,-22.0769278],[-47.9874988,-22.1177394],[-47.9473797,-22.1111237],[-47.9275407,-22.1311259],[-47.9197894,-22.1506999],[-47.9017385,-22.1577447],[-47.8867843,-22.1524271],[-47.8515759,-22.15653],[-47.8308129,-22.1481933],[-47.8156785,-22.15474],[-47.8086526,-22.1329725],[-47.760452,-22.163217],[-47.759708,-22.184292],[-47.7112944,-22.2144991],[-47.6949446,-22.2015807],[-47.658919,-22.1895149],[-47.6452801,-22.193227],[-47.5993155,-22.1790695],[-47.5900931,-22.1520023],[-47.5588076,-22.1562192],[-47.5499748,-22.1481568],[-47.5620335,-22.113795],[-47.577034,-22.0935319]],[[-47.577034,-22.0935319],[-47.6068078,-22.0664141]],[[-47.6068078,-22.0664141],[-47.6007475,-22.0515968],[-47.5811421,-22.0323016],[-47.5746285,-22.0142922],[-47.5819182,-21.9904181],[-47.5442215,-21.9802929],[-47.5354037,-21.9556534],[-47.5119128,-21.9358967],[-47.5272424,-21.9255382],[-47.5145945,-21.9122812],[-47.5106265,-21.8793213],[-47.543294,-21.8625611],[-47.5550202,-21.8374338],[-47.5426167,-21.8213552],[-47.524066,-21.811089],[-47.5242086,-21.8023138]],[[-47.5242086,-21.8023138],[-47.5382466,-21.8021174]],[[-47.9391818,-22.8828927],[-47.9148191,-22.883417]],[[-47.9148191,-22.883417],[-47.8991406,-22.8702342],[-47.8762629,-22.8642522],[-47.8578548,-22.8669517],[-47.8687696,-22.8990093],[-47.8447611,-22.9016352],[-47.8329134,-22.8879548],[-47.8088846,-22.8777451],[-47.8074892,-22.8809717],[-47.8122265,-22.9051508],[-47.8138044,-22.9160236],[-47.8127429,-22.9206031],[-47.8151084,-22.923293],[-47.8227696,-22.9359385],[-47.8226885,-22.9435698],[-47.816289,-22.9629017],[-47.8120166,-22.9812392],[-47.7966514,-22.9782131],[-47.7774657,-22.9775571],[-47.7659915,-22.979994],[-47.7571633,-22.9978093],[-47.76692,-23.0150665],[-47.7820244,-23.0145427],[-47.7871,-23.0293096],[-47.7677085,-23.0296142],[-47.7829967,-23.0403587],[-47.8299267,-23.0823725],[-47.8308551,-23.0892319],[-47.8106249,-23.0965898],[-47.806983,-23.1127153],[-47.8128631,-23.1372328],[-47.7897292,-23.1522574],[-47.7654052,-23.1271803],[-47.7529158,-23.1217496],[-47.7416468,-23.1394003],[-47.7139763,-23.1406738],[-47.7121363,-23.1597798],[-47.6875411,-23.1729735],[-47.6842589,-23.1965266],[-47.6921669,-23.2189955],[-47.6845462,-23.2197403],[-47.6598508,-23.2020765],[-47.6328184,-23.1911041]],[[-47.6328184,-23.1911041],[-47.6290573,-23.1915128]],[[-47.6290573,-23.1915128],[-47.6159252,-23.1818367],[-47.6130074,-23.1524546],[-47.5876705,-23.1533096],[-47.5869415,-23.1453477],[-47.6067253,-23.1317885],[-47.6198035,-23.1417831],[-47.6241522,-23.1376768],[-47.6244682,-23.1141287],[-47.6171083,-23.1117206],[-47.6160587,-23.106434],[-47.6086872,-23.0992636],[-47.5813895,-23.1037254],[-47.5632346,-23.0906857],[-47.5493757,-23.0973751],[-47.5420163,-23.0983774],[-47.5286261,-23.0948139],[-47.5097134,-23.0913723],[-47.4888075,-23.107493],[-47.4653002,-23.1098863],[-47.4475045,-23.1071888]],[[-47.4475045,-23.1071888],[-47.4210149,-23.0930438]],[[-47.4210149,-23.0930438],[-47.4214813,-23.0892385],[-47.4370965,-23.0577776],[-47.4505433,-23.0419064],[-47.4607717,-23.0332092],[-47.4274067,-23.0023494],[-47.4042291,-23.0095088],[-47.3887656,-22.9836441],[-47.4065228,-22.9644533],[-47.3873551,-22.9559862],[-47.38963,-22.9250145],[-47.3970897,-22.9031056],[-47.4146028,-22.9045819],[-47.4354163,-22.8956566],[-47.449929,-22.8709491],[-47.4650576,-22.8582044],[-47.5193971,-22.854415],[-47.527417,-22.8301143],[-47.5200086,-22.8147346],[-47.5052492,-22.7858184],[-47.496479,-22.7821305],[-47.4950566,-22.7674302],[-47.4929628,-22.7534659],[-47.5033198,-22.7299307],[-47.49046,-22.7242852],[-47.474296,-22.7383149],[-47.4248748,-22.7105926],[-47.4120013,-22.7149336],[-47.3909721,-22.7039265],[-47.380759,-22.687558],[-47.361881,-22.680851],[-47.334084,-22.713321],[-47.312744,-22.687374],[-47.291789,-22.692813],[-47.2778387,-22.6801371],[-47.2786913,-22.6623013],[-47.2537658,-22.6248672],[-47.2333245,-22.6118476],[-47.2312674,-22.5806228],[-47.2184289,-22.5611156],[-47.214443,-22.5349881],[-47.2365738,-22.5205921],[-47.2472686,-22.4936349],[-47.2468057,-22.4706924],[-47.2320504,-22.4605136],[-47.2248805,-22.4479669],[-47.2152034,-22.4320598],[-47.2016483,-22.4337141],[-47.1832608,-22.4363602],[-47.1628116,-22.4638683],[-47.1485945,-22.4813348],[-47.1209416,-22.4559188],[-47.1165218,-22.4320175],[-47.1108147,-22.4157397],[-47.1058151,-22.4084652],[-47.0885044,-22.3990715],[-47.0809591,-22.3439391],[-47.0774451,-22.3310088],[-47.091217,-22.3218753],[-47.0984749,-22.2932104],[-47.120173,-22.2906766],[-47.1352916,-22.2997702],[-47.1725075,-22.2925617],[-47.1842908,-22.2920201],[-47.1833275,-22.2791708],[-47.1840241,-22.2748762],[-47.1924979,-22.2724919],[-47.1992404,-22.282609],[-47.2302655,-22.2568258],[-47.227448,-22.2385544],[-47.2277001,-22.2273967],[-47.2363711,-22.2217629],[-47.2271006,-22.2097331],[-47.2163731,-22.2044438],[-47.2045147,-22.2047526],[-47.1935456,-22.1689152],[-47.1992573,-22.149781],[-47.1935644,-22.1118137],[-47.1974889,-22.0987169],[-47.2584419,-22.091429],[-47.2765436,-22.1023367],[-47.3015174,-22.1028097],[-47.3156527,-22.0935262],[-47.3413522,-22.0908705],[-47.3774909,-22.0957894],[-47.442046,-22.0635816],[-47.4553639,-22.0829251],[-47.5014131,-22.0875006],[-47.5222537,-22.0720051],[-47.5527118,-22.0885265]],[[-47.5527118,-22.0885265],[-47.577034,-22.0935319]],[[-48.298743,-22.1921813],[-48.3128715,-22.200676]],[[-47.4210149,-23.0930438],[-47.4282105,-23.1010927]],[[-47.4282105,-23.1010927],[-47.4115361,-23.1200514],[-47.4233624,-23.1567921],[-47.3983404,-23.1618413],[-47.35204,-23.132759],[-47.339276,-23.111153],[-47.305624,-23.133952],[-47.291534,-23.156646],[-47.260271,-23.146819],[-47.257563,-23.169052],[-47.245354,-23.182815],[-47.195376,-23.186159],[-47.1566285,-23.2019471],[-47.1201435,-23.198864],[-47.1135779,-23.1787296],[-47.133716,-23.1465744],[-47.1417918,-23.1005953],[-47.1171255,-23.1031286],[-47.1111833,-23.0935862],[-47.08432,-23.0896934],[-47.0922471,-23.0582487],[-47.070169,-23.047636],[-47.0425693,-23.0525148],[-47.038051,-23.0655605],[-47.0049944,-23.1023473],[-46.9744113,-23.07168],[-46.9424035,-23.0668682],[-46.9034347,-23.0363109],[-46.9273549,-22.9879363],[-46.9261948,-22.9745448],[-46.9026623,-22.9483235],[-46.8755622,-22.9374648],[-46.889424,-22.909701],[-46.870772,-22.902721],[-46.830165,-22.906924],[-46.815929,-22.895669],[-46.834777,-22.880151],[-46.851074,-22.876245],[-46.858385,-22.8361772],[-46.8187184,-22.8450913],[-46.8012668,-22.8356295],[-46.784231,-22.8497152],[-46.7608793,-22.8478524],[-46.7545068,-22.8224485],[-46.7294501,-22.8167886],[-46.7212803,-22.7836705],[-46.703501,-22.7708211],[-46.6749499,-22.7676172],[-46.647978,-22.7731635],[-46.6539496,-22.7890155],[-46.6238959,-22.8052606],[-46.6177739,-22.8313275],[-46.5792306,-22.8474375],[-46.5428116,-22.8386472],[-46.5128334,-22.8215953],[-46.500496,-22.8263919],[-46.4500347,-22.8223612],[-46.4363673,-22.8199223],[-46.4042342,-22.8071688],[-46.3947492,-22.8183155],[-46.3785381,-22.8204242],[-46.374515,-22.820242]],[[-46.374515,-22.820242],[-46.3616955,-22.7889414],[-46.3345415,-22.7603001],[-46.3635472,-22.7556473],[-46.3937809,-22.7439725],[-46.4527231,-22.7275819],[-46.4573342,-22.7070572],[-46.4806366,-22.6783159],[-46.4277141,-22.6613577],[-46.3930589,-22.6629741],[-46.3963122,-22.645982],[-46.4206295,-22.6380795],[-46.4059705,-22.6221789],[-46.4337254,-22.5745679],[-46.4146427,-22.5579277],[-46.4179451,-22.5474557],[-46.4399824,-22.5400156],[-46.4549551,-22.5217324],[-46.4845699,-22.5192418],[-46.4911793,-22.5103867],[-46.5421469,-22.494356],[-46.5306674,-22.4708525],[-46.5498648,-22.4695489],[-46.554814,-22.44665],[-46.5851339,-22.4394475],[-46.6034679,-22.4430741],[-46.6316074,-22.4358357],[-46.6665163,-22.4151098],[-46.6663078,-22.3809903],[-46.6975028,-22.3376306],[-46.7011993,-22.321493],[-46.7179524,-22.3169443],[-46.7052841,-22.295824],[-46.7104007,-22.2623901],[-46.6781678,-22.2240419],[-46.679666,-22.2083533],[-46.6708008,-22.1842606],[-46.6464271,-22.1779461],[-46.6404581,-22.1577196],[-46.6130415,-22.1502525],[-46.6227309,-22.1099309],[-46.646755,-22.0918932],[-46.6649482,-22.096362],[-46.7188373,-22.0886791],[-46.7221634,-22.0749778],[-46.6839542,-22.0738657],[-46.664786,-22.0688631],[-46.685389,-22.0374221],[-46.6403429,-22.0088843],[-46.6132624,-22.0149627],[-46.6158686,-21.9955445],[-46.6433949,-21.9761066],[-46.6536443,-21.9417049],[-46.6679753,-21.9305782],[-46.6737785,-21.9110527],[-46.6531678,-21.8960126],[-46.6475365,-21.8804608],[-46.665285,-21.848788],[-46.6909705,-21.8369638],[-46.6512016,-21.7894427],[-46.6539913,-21.7792464],[-46.6260303,-21.7662265],[-46.6308415,-21.7408998],[-46.6230198,-21.7129462],[-46.6286736,-21.6948176],[-46.6215947,-21.675543],[-46.5930358,-21.6831783],[-46.5646313,-21.6786794],[-46.5659174,-21.6569384],[-46.5481577,-21.6481826],[-46.5473674,-21.6304338],[-46.518228,-21.6128219],[-46.5219942,-21.5845087],[-46.5007767,-21.5497611],[-46.5229777,-21.5299379],[-46.50889,-21.4891271],[-46.5092521,-21.4698989],[-46.5202007,-21.4476417],[-46.5602225,-21.44233],[-46.5765137,-21.4269572],[-46.6018899,-21.4439608],[-46.6265671,-21.4114874],[-46.6487303,-21.3917213],[-46.6471993,-21.3641931],[-46.6655312,-21.3611582],[-46.6922065,-21.382747],[-46.7006345,-21.4007889],[-46.7147217,-21.3926621],[-46.7389748,-21.3925723],[-46.776398,-21.3628248],[-46.7895373,-21.3729595],[-46.8321491,-21.3665382],[-46.842084,-21.3891083],[-46.8826741,-21.4049495],[-46.8933056,-21.4156141],[-46.9342496,-21.4252539],[-46.9647087,-21.4181135],[-46.9843674,-21.4266951],[-47.0102072,-21.420823],[-47.016168,-21.3965034],[-47.0045823,-21.3835687],[-47.0095357,-21.3707497],[-46.9968389,-21.3576981],[-47.016527,-21.3423629],[-47.0423696,-21.2899549],[-47.0480777,-21.2682679]],[[-47.5107459,-21.8081911],[-47.5242086,-21.8023138]],[[-47.6068078,-22.0664141],[-47.5783867,-22.088927],[-47.5527118,-22.0885265]],[[-51.7724764,-21.0511213],[-51.7756445,-21.0730936],[-51.7896709,-21.1021195],[-51.8080062,-21.1100231],[-51.82359,-21.1268398],[-51.8654739,-21.1305401],[-51.8789848,-21.1481377],[-51.8757603,-21.1810441],[-51.8795737,-21.1994307],[-51.8636776,-21.2267111],[-51.8485145,-21.2666384],[-51.8569297,-21.2895262],[-51.86196,-21.3416175],[-51.8687621,-21.3535302],[-51.9075357,-21.3864558],[-51.9182051,-21.4121824],[-51.9286818,-21.4558161],[-51.9491231,-21.469819],[-51.9679033,-21.5017621],[-52.0003676,-21.5166265],[-52.0620417,-21.5032685],[-52.0777894,-21.5152225],[-52.1022934,-21.5548406],[-52.0987673,-21.5749856],[-52.0688756,-21.5981075],[-52.0520923,-21.6365942],[-52.0483403,-21.6563421],[-52.0764924,-21.7148802],[-52.1028652,-21.7452912],[-52.147792,-21.7595888],[-52.1612618,-21.7707737],[-52.1839844,-21.8144605],[-52.1905614,-21.8461447],[-52.233433,-21.883754],[-52.2484061,-21.9022804],[-52.2749632,-21.9149419],[-52.3014847,-21.9421686],[-52.3190194,-21.9721319],[-52.3391918,-22.0478264],[-52.3551312,-22.0772314],[-52.377218,-22.1066782],[-52.3919064,-22.1146789],[-52.4081883,-22.1416352],[-52.4457419,-22.1769469],[-52.4799657,-22.2008818],[-52.4877143,-22.217206],[-52.5232339,-22.2290219],[-52.5420795,-22.2402663],[-52.5869392,-22.2567505],[-52.6019914,-22.2719514],[-52.6333804,-22.2849861],[-52.6502765,-22.301001],[-52.6951341,-22.3146106],[-52.7242686,-22.3351079],[-52.745835,-22.343313],[-52.7983309,-22.3782734],[-52.8398869,-22.415311],[-52.8547612,-22.4391124],[-52.885837,-22.4528736],[-52.9882459,-22.4868783],[-52.9985791,-22.4931813],[-53.0143612,-22.5206658],[-53.039801,-22.5273956],[-53.0738065,-22.5488576],[-53.1078623,-22.5955115],[-53.1087062,-22.6150398],[-53.0945825,-22.6379787],[-53.0747239,-22.6413404],[-53.0557979,-22.6326227],[-53.030807,-22.6084114],[-52.972425,-22.5704843],[-52.9247426,-22.565624],[-52.9053625,-22.5722073],[-52.8583628,-22.608001],[-52.8448621,-22.6092218],[-52.8154397,-22.5970432],[-52.7828639,-22.6020617],[-52.7503018,-22.6123689],[-52.7269043,-22.6252423],[-52.6971054,-22.6270066],[-52.6630376,-22.6119177],[-52.6113574,-22.5744716],[-52.5893444,-22.5660966],[-52.5453772,-22.6117435],[-52.5026768,-22.6345557],[-52.4676343,-22.6158782],[-52.4330458,-22.6071665],[-52.3686111,-22.6293368],[-52.3004356,-22.635445],[-52.2786947,-22.6203902],[-52.2504131,-22.6154264],[-52.2280991,-22.6425169],[-52.2225772,-22.6755354],[-52.1971818,-22.6589303],[-52.156678,-22.6447189],[-52.1609654,-22.5894509],[-52.1487619,-22.5492535],[-52.1276022,-22.519923],[-52.0896174,-22.5212499],[-52.0600478,-22.5377656],[-51.9968526,-22.5460533],[-51.9608748,-22.5634564],[-51.9405126,-22.5673428],[-51.9168213,-22.5861057],[-51.8789728,-22.624353],[-51.8470961,-22.632226],[-51.7716206,-22.6141269],[-51.7330367,-22.6286144],[-51.7258674,-22.6614648],[-51.6991709,-22.6693686],[-51.6810926,-22.6607383],[-51.6463861,-22.6563411],[-51.6158422,-22.6625934],[-51.5914778,-22.6851988],[-51.5595692,-22.6971793],[-51.5434953,-22.6895165],[-51.4989018,-22.6905293],[-51.4719041,-22.6771868],[-51.4530961,-22.6557505],[-51.4247256,-22.6535108],[-51.4020163,-22.6679055],[-51.3736492,-22.6581329],[-51.3118386,-22.67354],[-51.2982028,-22.6735075]],[[-51.2982028,-22.6735075],[-51.2876303,-22.6585293],[-51.2840824,-22.6339004],[-51.2875243,-22.6081931],[-51.2691947,-22.5470159],[-51.2171786,-22.5348723],[-51.1948037,-22.5156311],[-51.1752634,-22.5014465],[-51.1569683,-22.4829709],[-51.1455443,-22.4801356],[-51.1421077,-22.4861947],[-51.1271238,-22.4902656],[-51.1129221,-22.4904218],[-51.0632784,-22.4737469],[-51.0184554,-22.4730809],[-51.0252316,-22.4912007],[-51.0332553,-22.4970755],[-51.0355639,-22.5043218],[-51.0317749,-22.5125071],[-51.0092543,-22.5211342],[-50.9864859,-22.518517],[-50.9791379,-22.5337619],[-50.9731381,-22.5590121],[-50.9826976,-22.5692766],[-50.9687367,-22.585387],[-50.96228,-22.6331006],[-50.9484849,-22.6507515],[-50.9487464,-22.6711245],[-50.9325239,-22.6724487],[-50.9058873,-22.6377864],[-50.888881,-22.6562012],[-50.8521372,-22.6594452],[-50.828856,-22.6521918],[-50.8353134,-22.628592],[-50.8463422,-22.6165832],[-50.8393195,-22.5862507],[-50.8530279,-22.5755757],[-50.8418058,-22.5496904],[-50.8579449,-22.5287037],[-50.8364357,-22.5028277],[-50.8313471,-22.4840922],[-50.8452058,-22.4748549],[-50.843651,-22.4451744],[-50.8295581,-22.4282799],[-50.8001695,-22.4437106],[-50.7835444,-22.4351866],[-50.7866959,-22.4119235],[-50.7626964,-22.3838198],[-50.7700051,-22.349841],[-50.7589419,-22.3034925],[-50.7354282,-22.2808285],[-50.7166236,-22.2497024],[-50.7311036,-22.2199243],[-50.730184,-22.200471],[-50.7173238,-22.1881211],[-50.7259463,-22.1680081],[-50.7130424,-22.15312],[-50.7096854,-22.1336908],[-50.7250252,-22.0889777],[-50.7047942,-22.0444309],[-50.7053518,-22.0256458]],[[-50.7053518,-22.0256458],[-50.7179609,-22.0132207]],[[-50.7179609,-22.0132207],[-50.7268474,-22.0111228],[-50.7803838,-22.0024722],[-50.8323694,-21.9868284],[-50.8454677,-21.9736745],[-50.829074,-21.9494072],[-50.8138557,-21.9514009],[-50.7737162,-21.904366],[-50.7417843,-21.8813995],[-50.7255072,-21.8614433],[-50.713516,-21.8539031],[-50.711421,-21.8271549],[-50.7217547,-21.8035585],[-50.7080354,-21.7788766],[-50.6848574,-21.7898787],[-50.6810665,-21.776001],[-50.6618454,-21.7770226],[-50.6349112,-21.7666428],[-50.6384796,-21.7477937],[-50.6324172,-21.7343466],[-50.6273654,-21.726954],[-50.6149331,-21.6993131],[-50.6118276,-21.6790445],[-50.6131332,-21.6586693]],[[-50.6131332,-21.6586693],[-50.6208553,-21.6538629]],[[-50.7179609,-22.0132207],[-50.6962673,-22.0232393]],[[-50.6962673,-22.0232393],[-50.668861,-22.0283511],[-50.6221904,-22.0565774],[-50.6058043,-22.0618742],[-50.6009383,-22.0690983],[-50.5593774,-22.0784494],[-50.5505817,-22.0948887],[-50.5187697,-22.1127157],[-50.5107412,-22.136155],[-50.4685982,-22.1664537],[-50.4517294,-22.1731402],[-50.4226862,-22.1734711],[-50.395704,-22.1873109],[-50.3474877,-22.1872565],[-50.3038204,-22.216478],[-50.3096698,-22.2482001],[-50.3252999,-22.2714191],[-50.3314186,-22.3057359],[-50.330083,-22.3592862],[-50.3142059,-22.3563563],[-50.2938309,-22.3705159],[-50.2602079,-22.3706373],[-50.2530637,-22.3811161],[-50.2754768,-22.3976472],[-50.2830436,-22.4148409],[-50.3049198,-22.4349609],[-50.3353089,-22.4538213],[-50.3499943,-22.4789721],[-50.3309995,-22.5064447],[-50.3284634,-22.5262826],[-50.314559,-22.5472159],[-50.2664444,-22.5626269],[-50.2554945,-22.5567391],[-50.2288085,-22.5254235],[-50.2007614,-22.5436254],[-50.18612,-22.5440112],[-50.173594,-22.5667011],[-50.1692083,-22.5925658],[-50.1536503,-22.588041],[-50.1192412,-22.5593277],[-50.1250696,-22.540874],[-50.1202118,-22.5094872],[-50.105083,-22.5183448],[-50.0877042,-22.4904515],[-50.0607254,-22.4989028],[-50.0410431,-22.4978957],[-50.0267787,-22.5113039],[-49.9922564,-22.5070472],[-49.9828109,-22.5300232],[-49.9625616,-22.5244685],[-49.9263115,-22.5408102],[-49.9072681,-22.5408056],[-49.8878546,-22.5254694],[-49.8853851,-22.5058139],[-49.8500897,-22.5234793],[-49.8247479,-22.5258764],[-49.8030045,-22.51444],[-49.7886636,-22.5067771],[-49.7720015,-22.5006463]],[[-50.2715517,-21.7217703],[-50.2743608,-21.7075521]],[[-50.6140726,-21.6567784],[-50.6131332,-21.6586693]],[[-51.2982028,-22.6735075],[-51.2651999,-22.6676974],[-51.2428803,-22.6895762],[-51.228336,-22.7160172],[-51.1870158,-22.7298921],[-51.1644128,-22.7489629],[-51.1279231,-22.7599926],[-51.057615,-22.7660571],[-51.0111421,-22.792297],[-50.9786781,-22.7826098],[-50.9592501,-22.7879064],[-50.9456364,-22.8039323],[-50.8953334,-22.7943002],[-50.8423871,-22.8313985],[-50.8306654,-22.8621733],[-50.8170131,-22.879541],[-50.7978171,-22.8885524],[-50.7931381,-22.9051173],[-50.8061462,-22.9402993],[-50.795935,-22.9511794],[-50.7586621,-22.9476544],[-50.7295268,-22.9624986],[-50.7112162,-22.9547444],[-50.679942,-22.9032102],[-50.6615854,-22.8954775],[-50.6038084,-22.9231785],[-50.5770572,-22.9039445],[-50.5300104,-22.9191495],[-50.5267729,-22.9348221],[-50.5110192,-22.9446388],[-50.4827394,-22.9369345],[-50.459425,-22.9452012],[-50.4303025,-22.9464074],[-50.4189421,-22.9340822],[-50.4189476,-22.9139331],[-50.3790746,-22.9054056],[-50.3592495,-22.9160588],[-50.3401866,-22.9480729],[-50.3184953,-22.9506826],[-50.3004462,-22.9379366],[-50.2733879,-22.9310013],[-50.2476111,-22.9377984],[-50.2441636,-22.94955],[-50.2168821,-22.9478995],[-50.1833934,-22.9537733],[-50.1480536,-22.9351283],[-50.1154098,-22.9397912],[-50.0928258,-22.9225047],[-50.0715498,-22.9281236],[-50.0527394,-22.9052685],[-50.0162405,-22.9103352],[-50.0060579,-22.9269291],[-49.9904075,-22.9234822],[-49.998853,-22.9017499],[-49.9861649,-22.8975048],[-49.9657446,-22.9141403],[-49.9613778,-22.930863],[-49.9741983,-22.9544968],[-49.9545019,-22.9784205],[-49.9307596,-22.9830312],[-49.8995854,-23.0020053],[-49.9159033,-23.0347875],[-49.9116022,-23.0511186],[-49.8853291,-23.0650684],[-49.8505758,-23.0732551],[-49.8336586,-23.0659429],[-49.8139066,-23.0786268],[-49.7917155,-23.1024262],[-49.7629482,-23.105576],[-49.751382,-23.0977574],[-49.725551,-23.1094381],[-49.7304888,-23.1414461],[-49.6974899,-23.1649832],[-49.6833234,-23.1637756],[-49.6537516,-23.212037],[-49.6258029,-23.2866501],[-49.6308803,-23.2994757],[-49.6216945,-23.3318896],[-49.6334367,-23.3564211],[-49.6118066,-23.3546535],[-49.5954121,-23.3670914],[-49.5904025,-23.3827925],[-49.5985165,-23.3981866],[-49.58179,-23.4289548],[-49.603186,-23.4512926],[-49.5980687,-23.4582326]],[[-49.5980687,-23.4582326],[-49.5961303,-23.459754],[-49.5960749,-23.4634262],[-49.582629,-23.4805163],[-49.5800813,-23.4854561],[-49.5485197,-23.4956601],[-49.5283316,-23.5108399],[-49.5095203,-23.509889],[-49.4807326,-23.5336412],[-49.4732784,-23.5350442],[-49.4531904,-23.5275161],[-49.3915463,-23.5344989],[-49.3834497,-23.5256864],[-49.3464084,-23.5273897],[-49.3311344,-23.525356],[-49.348533,-23.5131866],[-49.322209,-23.4703018],[-49.3604983,-23.4351347],[-49.3617608,-23.4232757],[-49.3505705,-23.418733],[-49.3172519,-23.4006338],[-49.2935354,-23.4176068],[-49.2628236,-23.4122029],[-49.2518171,-23.4089016],[-49.248023,-23.4128374],[-49.2436379,-23.4140555],[-49.236653,-23.4146594],[-49.22869,-23.4209856],[-49.2141133,-23.4187717]],[[-49.2141133,-23.4187717],[-49.2083967,-23.4140057],[-49.2071471,-23.4043392],[-49.2204135,-23.391666]],[[-50.6962673,-22.0232393],[-50.7053518,-22.0256458]],[[-49.2131171,-23.4175117],[-49.2141133,-23.4187717]],[[-49.5980687,-23.4582326],[-49.6032894,-23.4784236],[-49.6213793,-23.4933252],[-49.6295249,-23.5135827],[-49.6002062,-23.5356244],[-49.6079896,-23.5652324],[-49.602017,-23.5826967],[-49.6189093,-23.594331],[-49.6209583,-23.6111137],[-49.6021338,-23.6521161],[-49.5853073,-23.6588755],[-49.5798761,-23.6783285],[-49.5491992,-23.7040164],[-49.5673236,-23.7367786],[-49.5605048,-23.7613066],[-49.5665451,-23.7719289],[-49.5600689,-23.8119307],[-49.5726784,-23.8270468],[-49.5985289,-23.8367922],[-49.6024638,-23.8682819],[-49.5631719,-23.9123424],[-49.5029134,-23.9485422],[-49.4936847,-23.9775958],[-49.4981248,-23.9938083],[-49.4634431,-24.0274358],[-49.4575401,-24.0494852],[-49.4378235,-24.0587863],[-49.4318438,-24.0856013],[-49.4122107,-24.092862],[-49.4091526,-24.1082562],[-49.3891,-24.1196287],[-49.3708465,-24.1143834],[-49.3614279,-24.1281116],[-49.3365663,-24.1375819],[-49.3398259,-24.1747945],[-49.3557624,-24.2090737],[-49.3506772,-24.2208009],[-49.3053741,-24.251431],[-49.301235,-24.2763039],[-49.2860996,-24.3040721],[-49.2698211,-24.307175],[-49.2312127,-24.3303952],[-49.2161546,-24.3558903],[-49.2476759,-24.3927177],[-49.2355492,-24.4095521],[-49.2532326,-24.4359366],[-49.2489852,-24.4715054],[-49.2638512,-24.4744273],[-49.2713419,-24.4901791],[-49.296462,-24.5018955],[-49.280272,-24.5372649],[-49.3098163,-24.5499278],[-49.3176777,-24.5666395],[-49.3035971,-24.5969487],[-49.3140964,-24.6082731],[-49.3140712,-24.6320664],[-49.2996253,-24.6549573],[-49.3120154,-24.6635327],[-49.278132,-24.6930215],[-49.2232588,-24.6985849],[-49.187123,-24.6736981],[-49.1360713,-24.6752471],[-49.1115946,-24.6883523],[-49.0746749,-24.6734165],[-49.0518457,-24.6806952],[-49.0345676,-24.65005],[-48.9632894,-24.6732153],[-48.922427,-24.6751869],[-48.9099285,-24.6707158],[-48.8404009,-24.6649768],[-48.8273144,-24.6544533],[-48.8119239,-24.6741426],[-48.7882067,-24.6811894],[-48.7786516,-24.6967322],[-48.7447499,-24.6932497],[-48.7185899,-24.6830148],[-48.6770593,-24.6925268],[-48.641642,-24.6896675],[-48.6040298,-24.6682968],[-48.5722028,-24.6906386],[-48.5691973,-24.7008116],[-48.5381446,-24.7262018]],[[-48.5381446,-24.7262018],[-48.5285928,-24.69204],[-48.5245047,-24.6826268],[-48.5212422,-24.6819799],[-48.5104818,-24.6731229],[-48.4946802,-24.6685368],[-48.4694293,-24.6633966],[-48.4645035,-24.6598452],[-48.4593405,-24.6559843],[-48.4602559,-24.6426966],[-48.4600344,-24.6407534],[-48.4539818,-24.6165878],[-48.4474726,-24.5992878],[-48.4424146,-24.5965961],[-48.4325896,-24.5910368],[-48.4040754,-24.577977],[-48.4025666,-24.5655843],[-48.4297273,-24.549607],[-48.4296854,-24.5314579],[-48.3963827,-24.5228472],[-48.3818782,-24.5033702],[-48.3941359,-24.4828488],[-48.354245,-24.4622262],[-48.3522038,-24.4474554],[-48.3485585,-24.4450744],[-48.3500446,-24.4350156],[-48.3577631,-24.4272636],[-48.3652549,-24.4209209],[-48.377307,-24.4308449],[-48.3999132,-24.426942],[-48.3599742,-24.3683346],[-48.3628456,-24.3477165],[-48.3531315,-24.3419839],[-48.3572826,-24.3062343],[-48.3831292,-24.3041742],[-48.3727336,-24.2941704],[-48.3662691,-24.2875646],[-48.3536464,-24.2852215],[-48.3523254,-24.2880235],[-48.3403355,-24.2885671],[-48.3352855,-24.2929458],[-48.3280156,-24.2987687],[-48.3175337,-24.3134362],[-48.2528954,-24.2578359],[-48.2417432,-24.2629423],[-48.2002862,-24.2617067],[-48.1711126,-24.2450401],[-48.1436856,-24.2205043],[-48.1412615,-24.1945189],[-48.0986009,-24.2020712],[-48.057514,-24.1762145],[-48.0601391,-24.1591346],[-48.0499221,-24.1378952],[-48.0087538,-24.1354029],[-47.980779,-24.1133823],[-47.9531278,-24.1198318]],[[-47.9531278,-24.1198318],[-47.9539264,-24.1107244]],[[-47.9539264,-24.1107244],[-47.9717012,-24.0997049],[-47.9800748,-24.0755827],[-47.9981028,-24.073828],[-48.0146602,-24.0547512],[-48.031311,-24.0467781],[-48.0574335,-24.0169831],[-48.0851995,-24.007924],[-48.1251385,-24.0142789],[-48.1211913,-23.9677507],[-48.1668892,-23.9222456],[-48.1678734,-23.9006101],[-48.1888907,-23.8830558],[-48.1821098,-23.8699333],[-48.2001516,-23.8430364],[-48.1687937,-23.845747],[-48.1196202,-23.8236796],[-48.0741241,-23.7797072],[-48.0595469,-23.7594038],[-48.0161744,-23.7610535],[-47.9962568,-23.7432331],[-47.9440112,-23.7541669],[-47.922833,-23.7934421],[-47.8943433,-23.7802062],[-47.8599781,-23.7770352],[-47.8402044,-23.7301496],[-47.8703205,-23.7094688],[-47.8872024,-23.6837922],[-47.8842355,-23.6585886],[-47.9006927,-23.6470911],[-47.9103768,-23.6058288],[-47.8743876,-23.5991144],[-47.8357839,-23.5865575],[-47.8168804,-23.5884257],[-47.7870676,-23.5653292],[-47.7787184,-23.5390352],[-47.7869328,-23.5065664],[-47.8071712,-23.487547],[-47.7877379,-23.4513087],[-47.7655697,-23.432569],[-47.758406,-23.3994214],[-47.7299776,-23.385597],[-47.7217128,-23.3441475],[-47.6914779,-23.3300751],[-47.6826967,-23.3349003],[-47.675562,-23.3683439],[-47.661625,-23.3713962],[-47.6429426,-23.3618321],[-47.6106947,-23.3675199],[-47.6060116,-23.3643975],[-47.5914263,-23.3658608],[-47.5835272,-23.3638412],[-47.5785072,-23.3385294],[-47.5991552,-23.3233745],[-47.6086881,-23.3020184],[-47.6057296,-23.2722611],[-47.6149013,-23.2605463],[-47.6162269,-23.207872],[-47.6319058,-23.1921004]],[[-47.6319058,-23.1921004],[-47.6328184,-23.1911041]],[[-47.9148191,-22.883417],[-47.9320204,-22.8910506]],[[-47.4282105,-23.1010927],[-47.4475045,-23.1071888]],[[-47.6290573,-23.1915128],[-47.6319058,-23.1921004]],[[-47.9539264,-24.1107244],[-47.9465439,-24.117532]],[[-47.9465439,-24.117532],[-47.93895,-24.1042959],[-47.9205831,-24.099726],[-47.9056319,-24.0932174],[-47.9017169,-24.0896324],[-47.8952397,-24.079627],[-47.8713221,-24.076605],[-47.8666354,-24.0829224],[-47.8565208,-24.1229384],[-47.837913,-24.1191791],[-47.8274617,-24.1335381],[-47.7925169,-24.1350926],[-47.7367738,-24.1252031],[-47.7219662,-24.1132288],[-47.7339888,-24.0981272],[-47.7251312,-24.0809281],[-47.7089771,-24.0715918],[-47.6982225,-24.0681388],[-47.6803041,-24.0452615],[-47.6452899,-24.0420925],[-47.6378877,-24.0438176],[-47.6137533,-24.0446841],[-47.6286908,-24.0773745],[-47.6337967,-24.1027816],[-47.6284538,-24.1139879],[-47.5828118,-24.0754528],[-47.570456,-24.0780219],[-47.562186,-24.0391371],[-47.5430044,-24.0372014],[-47.5301936,-24.046449],[-47.4988455,-24.0529062],[-47.4922383,-24.0702213],[-47.4650531,-24.076327],[-47.4525886,-24.0518871],[-47.4261222,-24.0691414],[-47.3769459,-24.0484953],[-47.3562899,-24.0224626],[-47.3103628,-24.0089812],[-47.2440182,-24.0218075],[-47.2215891,-24.0145549],[-47.2107126,-24.0014341],[-47.1999532,-24.000595]],[[-47.1999532,-24.000595],[-47.1887141,-23.9910786],[-47.2017382,-23.9452216],[-47.1880229,-23.9310897],[-47.1600035,-23.9355852],[-47.1561578,-23.9212582],[-47.1384953,-23.9049422],[-47.1324869,-23.884448],[-47.1347216,-23.8818301],[-47.1180626,-23.8497531],[-47.072649,-23.841852],[-47.028693,-23.846215],[-47.014787,-23.835596],[-47.007245,-23.815666],[-46.98647,-23.808414],[-47.019268,-23.788647],[-47.0318955,-23.7695143],[-47.0322432,-23.7430481],[-47.0498461,-23.7311247],[-47.0624598,-23.708631],[-47.0621606,-23.6824693],[-47.075984,-23.680787],[-47.083265,-23.658016],[-47.058989,-23.639732],[-47.0561783,-23.6187033],[-47.0412205,-23.6105741],[-47.020508,-23.567361],[-47.006126,-23.554358],[-47.013164,-23.536354],[-46.996915,-23.532132],[-46.993703,-23.508334],[-47.00893,-23.494664],[-47.017211,-23.472587],[-47.010532,-23.445723],[-47.037571,-23.435529],[-47.0361237,-23.3990847],[-47.0426254,-23.3867469],[-47.0429147,-23.3522613],[-46.9640341,-23.3235746],[-46.9414095,-23.3213825],[-46.9224067,-23.3079266],[-46.9019133,-23.3075829],[-46.867464,-23.277939],[-46.844371,-23.282006],[-46.834489,-23.286227],[-46.834676,-23.280627],[-46.809716,-23.274626],[-46.805947,-23.27248],[-46.802441,-23.257011],[-46.792796,-23.261192],[-46.783686,-23.265378],[-46.7445536,-23.2502751],[-46.7021117,-23.2518123],[-46.6942003,-23.259201],[-46.622762,-23.256729],[-46.615501,-23.227563],[-46.605265,-23.228468],[-46.516779,-23.238513],[-46.491828,-23.255252],[-46.472741,-23.276643],[-46.446926,-23.271495],[-46.434303,-23.279628],[-46.418451,-23.316319],[-46.396249,-23.285818],[-46.359771,-23.267791],[-46.311501,-23.227427],[-46.307736,-23.198041],[-46.286019,-23.190976],[-46.27581,-23.184938],[-46.262198,-23.186387]],[[-46.262198,-23.186387],[-46.263527,-23.183595]],[[-46.263527,-23.183595],[-46.260579,-23.176109],[-46.2560852,-23.1718348],[-46.2575016,-23.1674365],[-46.2536411,-23.1564583],[-46.2215501,-23.1230164],[-46.204872,-23.084424],[-46.180331,-23.079393],[-46.16144,-23.066122],[-46.158941,-23.049925],[-46.140472,-23.038841],[-46.125536,-23.009277],[-46.0944,-22.997241],[-46.077697,-22.977276],[-46.067217,-22.980196],[-46.05702,-22.973059],[-46.055912,-22.970054],[-46.049096,-22.954915],[-46.042557,-22.926391],[-46.0443,-22.905334]],[[-46.0443,-22.905334],[-46.0639447,-22.8916433],[-46.0952183,-22.894429],[-46.1390937,-22.9227553],[-46.1497558,-22.9104649],[-46.13828,-22.8949706],[-46.1450279,-22.8571903],[-46.1553279,-22.8641682],[-46.1921979,-22.8652306],[-46.2585307,-22.8905747],[-46.2790257,-22.8783476],[-46.2950288,-22.8978191],[-46.315332,-22.886793],[-46.3563107,-22.9003033],[-46.3724091,-22.8831304],[-46.370698,-22.8350715],[-46.374515,-22.820242]],[[-45.3335719,-23.7225775],[-45.3414736,-23.7277895],[-45.3635131,-23.7873919],[-45.3664936,-23.8110095],[-45.4619346,-23.888147],[-45.460388,-23.9141997],[-45.4443223,-23.9341456],[-45.4078725,-23.9385004],[-45.3981482,-23.932605],[-45.3572937,-23.9278012],[-45.2916865,-23.910313],[-45.2801251,-23.928477],[-45.2872038,-23.941308],[-45.2685279,-23.9652845],[-45.240545,-23.9627376],[-45.2322281,-23.944626],[-45.2484783,-23.9032372],[-45.288854,-23.873698],[-45.2868893,-23.8515278],[-45.2738816,-23.838699],[-45.2553328,-23.8360519],[-45.2298332,-23.7763327],[-45.2558742,-23.7498879],[-45.2830398,-23.7343185],[-45.3335719,-23.7225775]],[[-45.1387659,-23.7897479],[-45.1606547,-23.8017794],[-45.1470621,-23.8176192],[-45.1175715,-23.8026894],[-45.1387659,-23.7897479]],[[-45.8424023,-23.758196],[-45.8077114,-23.7591072],[-45.800668,-23.7696852],[-45.7675158,-23.7624323],[-45.7523328,-23.767653],[-45.7093247,-23.7706864],[-45.664078,-23.7789858],[-45.6436035,-23.7775924],[-45.6255157,-23.7871012],[-45.6231068,-23.8050813],[-45.5875578,-23.7926744],[-45.5601955,-23.7925316],[-45.533392,-23.8233564],[-45.5026446,-23.8426375],[-45.4669769,-23.8190682],[-45.4319897,-23.8295354],[-45.4049222,-23.8199816],[-45.3961345,-23.8091138],[-45.396868,-23.7805715],[-45.4124827,-23.7536692],[-45.398766,-23.7367442],[-45.4196571,-23.7258581],[-45.4305175,-23.6826592],[-45.4241915,-23.6461929],[-45.4074729,-23.6243404],[-45.3882545,-23.6347035],[-45.3777657,-23.6244983],[-45.3573437,-23.6243306],[-45.3434037,-23.600672],[-45.3114123,-23.5756653],[-45.2850822,-23.5723269],[-45.2726537,-23.5864209],[-45.244225,-23.5937286],[-45.2154068,-23.5686209],[-45.2306148,-23.5475821],[-45.2219509,-23.5306241],[-45.1948747,-23.5203112],[-45.1859847,-23.536796],[-45.1660244,-23.5293309],[-45.1602159,-23.5000272],[-45.1169517,-23.498322],[-45.1029214,-23.4900612],[-45.0833508,-23.4961175],[-45.0551072,-23.4591894],[-45.0671639,-23.4467816],[-45.0613964,-23.4202216],[-45.0088565,-23.4059326],[-44.9493341,-23.3786443],[-44.9421504,-23.3570614],[-44.9210299,-23.3509196],[-44.9080106,-23.3340716],[-44.8876425,-23.3387171],[-44.8891397,-23.3596666],[-44.8651678,-23.3569588],[-44.8368651,-23.3695881],[-44.8441802,-23.3872616],[-44.7850628,-23.3780342],[-44.7505718,-23.3660388],[-44.7564282,-23.3502079],[-44.7816111,-23.3258969],[-44.7874214,-23.2991069],[-44.8188487,-23.2897377],[-44.8362626,-23.257897],[-44.8694641,-23.249834],[-44.8893206,-23.2265949],[-44.8801147,-23.2133097],[-44.8727325,-23.1825022],[-44.8227272,-23.1600769],[-44.8254815,-23.143741],[-44.8105998,-23.1155346],[-44.8188437,-23.0914584],[-44.8022084,-23.0487801],[-44.7928172,-23.0098386],[-44.8012564,-22.9965004],[-44.7767395,-22.9780555],[-44.751031,-22.972011],[-44.7438207,-22.9472056],[-44.7134344,-22.9298754],[-44.7035452,-22.936102],[-44.6716121,-22.9220663],[-44.658994,-22.9279312],[-44.6396724,-22.9155878],[-44.6073108,-22.885237],[-44.5559534,-22.8880917],[-44.5052785,-22.8515493],[-44.4849432,-22.846201],[-44.4801342,-22.8665045],[-44.4661916,-22.8853713],[-44.4332925,-22.8688376],[-44.4230592,-22.8504965],[-44.3742233,-22.8580862],[-44.2965216,-22.8278766],[-44.2833648,-22.8361567],[-44.2676787,-22.8292436],[-44.2504728,-22.7575675],[-44.2295279,-22.7355418],[-44.1989603,-22.7352873],[-44.2037069,-22.7174175],[-44.1852319,-22.7120183],[-44.176813,-22.6926214],[-44.1613652,-22.6782584],[-44.1714498,-22.6594284],[-44.1901268,-22.648584],[-44.1842763,-22.6372991],[-44.2039458,-22.615971],[-44.2456062,-22.6064197],[-44.2833338,-22.6043817],[-44.3264885,-22.5884476],[-44.3449903,-22.5878487],[-44.3923701,-22.572494],[-44.4059457,-22.5989991],[-44.4314745,-22.5986518],[-44.4648767,-22.6159696],[-44.485175,-22.6110516],[-44.5085884,-22.640947],[-44.5460294,-22.6069617],[-44.583777,-22.6228551],[-44.5969551,-22.6099938],[-44.612785,-22.6173448],[-44.6229872,-22.6051234],[-44.6402486,-22.6080579],[-44.6471202,-22.5846413],[-44.6416234,-22.5602024],[-44.6771244,-22.5475284],[-44.6710072,-22.5366647],[-44.6888605,-22.5198073],[-44.7127903,-22.509367],[-44.7238223,-22.4761657],[-44.7192455,-22.4634211],[-44.7339428,-22.4328958],[-44.7553337,-22.4152692],[-44.7937922,-22.4090768],[-44.8241342,-22.4193369],[-44.8302314,-22.4281434],[-44.8595994,-22.4230432],[-44.8897308,-22.432124],[-44.8976822,-22.4491138],[-44.9140901,-22.455064],[-44.9400702,-22.4526691],[-44.9698484,-22.4719446],[-44.9918141,-22.4661729],[-45.0549289,-22.470504],[-45.0826458,-22.4863677],[-45.1284594,-22.4971103],[-45.1600093,-22.5169168],[-45.1645153,-22.5379287],[-45.1771863,-22.5467058],[-45.2230954,-22.5636307],[-45.2545407,-22.5816243],[-45.2614069,-22.6071156],[-45.2758652,-22.6169584],[-45.2938527,-22.6136686],[-45.332962,-22.6176392],[-45.3609582,-22.6387614],[-45.3705979,-22.6373159],[-45.3978765,-22.6534238],[-45.4105211,-22.651671],[-45.4129317,-22.6222155],[-45.4355472,-22.6183207],[-45.4738566,-22.5888942],[-45.4888005,-22.6287852],[-45.4991285,-22.6250112],[-45.5164596,-22.6414302],[-45.5659653,-22.6565228],[-45.5843695,-22.6516886],[-45.5599393,-22.6276023],[-45.563659,-22.6127483],[-45.5793868,-22.6053855],[-45.6050788,-22.6204322],[-45.6181281,-22.6379141],[-45.6661848,-22.6512012],[-45.6810783,-22.6363357],[-45.6661076,-22.6126952],[-45.6605737,-22.5778408],[-45.6797214,-22.5734188],[-45.6954392,-22.5863386],[-45.7267937,-22.587023],[-45.73669,-22.6101504],[-45.7174694,-22.6210098],[-45.6979552,-22.6497703],[-45.7161828,-22.6619924],[-45.7428067,-22.6591669],[-45.7505519,-22.6712425],[-45.7878589,-22.6933565],[-45.811641,-22.6987077],[-45.8199278,-22.7227186],[-45.7956339,-22.7390214],[-45.7564638,-22.72104],[-45.7325571,-22.7220027],[-45.71732,-22.7481412],[-45.7118188,-22.7715159],[-45.729029,-22.7852375],[-45.7287746,-22.8101865],[-45.7549173,-22.7929122],[-45.7709451,-22.8059268],[-45.7669649,-22.8423465],[-45.7818841,-22.8552572],[-45.8005945,-22.8476294],[-45.809802,-22.8293866],[-45.8481273,-22.8378307],[-45.8638522,-22.8687103],[-45.887282,-22.87205],[-45.891156,-22.845774],[-45.918988,-22.820677],[-45.938812,-22.846471],[-45.951145,-22.845879],[-45.973461,-22.863117],[-45.993092,-22.86981],[-46.007734,-22.889383],[-46.026798,-22.884876],[-46.0443,-22.905334]],[[-46.263527,-23.183595],[-46.238885,-23.187514]],[[-46.238885,-23.187514],[-46.232566,-23.189651],[-46.224675,-23.196238],[-46.204882,-23.209674],[-46.196283,-23.218793],[-46.183962,-23.224183],[-46.165017,-23.235146],[-46.151963,-23.267518],[-46.145215,-23.273663],[-46.136674,-23.287507],[-46.119359,-23.285482],[-46.112747,-23.288583],[-46.098649,-23.309239],[-46.098993,-23.326004],[-46.0605729,-23.3577916],[-46.047902,-23.3761788],[-46.0346451,-23.3871518],[-46.0014247,-23.3861069],[-45.9946239,-23.40581],[-45.9797063,-23.4184134],[-45.9522487,-23.4497456],[-45.9618114,-23.4718485],[-45.9616508,-23.4963364],[-45.9497086,-23.5005082],[-45.9393777,-23.4943655],[-45.9174514,-23.5057898],[-45.882723,-23.4953912],[-45.865799,-23.4833465],[-45.835352,-23.4828678],[-45.7964433,-23.491218],[-45.7876036,-23.4958056],[-45.7886341,-23.5018605],[-45.7592762,-23.5130211],[-45.7460907,-23.5398288],[-45.7403813,-23.5850474],[-45.7153279,-23.608783],[-45.7030226,-23.6042034],[-45.6977668,-23.6250323],[-45.7074982,-23.6447732],[-45.7416925,-23.6681687],[-45.763488,-23.671053],[-45.777657,-23.683061],[-45.796058,-23.682972],[-45.794878,-23.715684],[-45.8424023,-23.758196]],[[-45.0806737,-23.526167],[-45.0777006,-23.5612394],[-45.0567155,-23.5455456],[-45.0806737,-23.526167]],[[-47.9465439,-24.117532],[-47.9531278,-24.1198318]],[[-48.5381446,-24.7262018],[-48.5018968,-24.7459757],[-48.5167241,-24.7801821],[-48.5488908,-24.7972137],[-48.5678141,-24.8474996],[-48.5666761,-24.8639577],[-48.5493901,-24.8791638],[-48.5671436,-24.9038712],[-48.5715891,-24.9247315],[-48.5628676,-24.9394293],[-48.5726711,-24.9549294],[-48.5673709,-24.9722669],[-48.5884602,-24.9864393],[-48.6008313,-25.0105057],[-48.5888695,-25.0197057],[-48.5838052,-25.0415844],[-48.5579385,-25.0639725],[-48.5560079,-25.0865526],[-48.5285838,-25.1007893],[-48.4808824,-25.0369881],[-48.4740493,-25.0125524],[-48.4111527,-24.9802317],[-48.3786378,-24.9970283],[-48.3547484,-25.0199622],[-48.3469716,-25.0352408],[-48.3177739,-25.0565481],[-48.3074617,-25.0354827],[-48.2846277,-25.0391923],[-48.2633319,-24.9928045],[-48.2353924,-24.9955833],[-48.2319501,-25.0153583],[-48.214943,-25.0296741],[-48.2160543,-25.0766716],[-48.1713342,-25.1422586],[-48.1666386,-25.1660086],[-48.1933632,-25.1898656],[-48.1825203,-25.2049988],[-48.1627203,-25.2098366],[-48.1512382,-25.2281274],[-48.1148836,-25.250702],[-48.0985821,-25.2412534],[-48.0621061,-25.2400852],[-48.0402996,-25.2187445],[-48.0239381,-25.2291433],[-48.0468761,-25.2585301],[-47.945992,-25.1743206],[-47.9264866,-25.16169],[-47.9083367,-25.1185339],[-47.9023781,-25.0656706],[-47.8869055,-25.0512669],[-47.8717418,-25.0115718],[-47.8429223,-24.976605],[-47.800267,-24.9367522],[-47.7158621,-24.8683726],[-47.6230426,-24.7991402],[-47.5610293,-24.7579095],[-47.5103698,-24.7289578],[-47.4248093,-24.6851413],[-47.3752748,-24.650078],[-47.2450093,-24.5739702],[-47.2270261,-24.571252],[-47.2245171,-24.5569956],[-47.1861655,-24.5326024],[-47.1852021,-24.5244773],[-47.1408434,-24.4895432],[-47.0532789,-24.4331004],[-47.0214962,-24.422591],[-47.0037122,-24.4094793],[-47.0182394,-24.3788361],[-47.0024817,-24.3620659],[-47.0024247,-24.3369544],[-46.9718344,-24.3050536],[-46.9402013,-24.2808002],[-46.8446255,-24.2184061],[-46.6574484,-24.1160252],[-46.6052433,-24.0901393]],[[-46.6052433,-24.0901393],[-46.5994021,-24.0436937],[-46.6127351,-24.0357466],[-46.6039879,-24.0302687],[-46.6029011,-24.0218882],[-46.5921373,-24.0057449],[-46.5979561,-23.9973575],[-46.6082461,-23.9987272],[-46.6220275,-24.0087569],[-46.6425363,-24.0102009],[-46.661937,-23.988102],[-46.680297,-23.987013],[-46.685496,-23.98242],[-46.687808,-23.984771],[-46.707884,-23.990888],[-46.743319,-23.991892],[-46.755007,-23.975588],[-46.758201,-23.972543],[-46.762572,-23.964413],[-46.764893,-23.961727],[-46.775113,-23.956785],[-46.781103,-23.948724],[-46.789596,-23.940766],[-46.793259,-23.943087],[-46.806898,-23.938153],[-46.8135525,-23.9398464],[-46.8299233,-23.9473052],[-46.8553134,-23.9734973],[-46.8825104,-23.9839614],[-46.8684858,-24.0096306],[-46.9003413,-24.0461444],[-46.9282027,-24.0450112],[-46.9362067,-24.0333867],[-46.9608235,-24.0459473],[-46.9786056,-24.0642507],[-46.9965667,-24.0521025],[-47.0066926,-24.0640637],[-47.0271991,-24.0516327],[-47.0343344,-24.030847],[-47.0574588,-24.0102372],[-47.0643987,-24.022702],[-47.0883633,-24.0173766],[-47.10711,-23.9938027],[-47.1393643,-24.014195],[-47.1692117,-24.0021209],[-47.1999532,-24.000595]],[[-46.6052433,-24.0901393],[-46.4930239,-24.0385176],[-46.4454726,-24.0211132],[-46.4081497,-24.0158424],[-46.377996,-23.9937819],[-46.3717254,-23.9749121],[-46.3323278,-23.9727232],[-46.3193634,-23.9972659],[-46.3243627,-24.0222526],[-46.2994977,-24.0161004],[-46.2847189,-24.0323852],[-46.265198,-24.0040519],[-46.2473976,-23.9938581],[-46.2119003,-23.9864078],[-46.1912849,-23.9899399],[-46.1819031,-23.9611759],[-46.1655934,-23.9441573],[-46.1805433,-23.9330936],[-46.1671342,-23.9110452],[-46.1408407,-23.8921059],[-46.1293924,-23.8450825],[-46.0886796,-23.8221206],[-46.0613968,-23.8141311],[-46.0449883,-23.8253827],[-46.0342637,-23.8105568],[-45.9411516,-23.7757178],[-45.8983204,-23.7653529],[-45.8424023,-23.758196]],[[-46.238885,-23.187514],[-46.262198,-23.186387]]],"bbox":[-53.1087062,-25.2585301,-44.1613652,-19.7798888]}
