{"type":"Topology","objects":{"geometrias":{"type":"GeometryCollection","geometries":[{"type":"Polygon","arcs":[[0,1,2,3,4,5,6,7]],"properties":{"code_meso":4201,"code_state":42,"code_region":4,"name_meso":"Oeste Catarinense","abbrev_state":"SC","name_state":"Santa Catarina","name_region":"Sul","year":2020}},{"type":"Polygon","arcs":[[8,-8,9,10,11,12,13]],"properties":{"code_meso":4202,"code_state":42,"code_region":4,"name_meso":"Norte Catarinense","abbrev_state":"SC","name_state":"Santa Catarina","name_region":"Sul","year":2020}},{"type":"Polygon","arcs":[[14,15,16,17,18,19,20,21,-11,22,-6,23,-4,24,-2]],"properties":{"code_meso":4203,"code_state":42,"code_region":4,"name_meso":"Serrana","abbrev_state":"SC","name_state":"Santa Catarina","name_region":"Sul","year":2020}},{"type":"Polygon","arcs":[[25,-12,-22,26,-20,27,28,29,30,31,32,33,34,35,-14]],"properties":{"code_meso":4204,"code_state":42,"code_region":4,"name_meso":"Vale do Itajaí","abbrev_state":"SC","name_state":"Santa Catarina","name_region":"Sul","year":2020}},{"type":"Polygon","arcs":[[36,-29,37,-18,38,39,40,-35,41,-33,42,-31]],"properties":{"code_meso":4205,"code_state":42,"code_region":4,"name_meso":"Grande Florianópolis","abbrev_state":"SC","name_state":"Santa Catarina","name_region":"Sul","year":2020}},{"type":"Polygon","arcs":[[43,-40,44,-16]],"properties":{"code_meso":4206,"code_state":42,"code_region":4,"name_meso":"Sul Catarinense","abbrev_state":"SC","name_state":"Santa Catarina","name_region":"Sul","year":2020}}]}},"arcs":[[[-51.2669681,-26.3861058],[-51.2765605,-26.3887816],[-51.3004929,-26.4178719],[-51.2922039,-26.4353559],[-51.2756799,-26.4429935],[-51.2793484,-26.4538078],[-51.2530573,-26.4622957],[-51.2511304,-26.4720702],[-51.2731744,-26.4983042],[-51.2502094,-26.5194763],[-51.2471252,-26.5377186],[-51.231517,-26.5485977],[-51.2249954,-26.5911805],[-51.2367949,-26.6078918],[-51.2357544,-26.6232834],[-51.2835172,-26.6423633],[-51.2948899,-26.6558927],[-51.3253187,-26.6485981],[-51.3470325,-26.6485931],[-51.3582216,-26.6556986],[-51.3911297,-26.6632474],[-51.4053025,-26.6761477],[-51.3927778,-26.6848787],[-51.4073176,-26.70062],[-51.435346,-26.6881781],[-51.4394948,-26.6672339],[-51.4567615,-26.6531763],[-51.454883,-26.6406582],[-51.4973868,-26.5852636],[-51.507795,-26.5809242],[-51.5356074,-26.5917979],[-51.5742381,-26.5897764],[-51.5969898,-26.58406],[-51.6309939,-26.5878183],[-51.6568594,-26.5664278],[-51.671999,-26.5651968],[-51.694165,-26.5812113],[-51.7345458,-26.5723759],[-51.789399,-26.5886824],[-51.8205615,-26.5786004],[-51.8339981,-26.5900386],[-51.8734505,-26.5993625],[-51.8831782,-26.5848166],[-51.9002917,-26.5792836],[-51.9283319,-26.5843685],[-51.9433269,-26.5712026],[-52.0087675,-26.5665606],[-52.0212151,-26.5487221],[-52.0651889,-26.5230182],[-52.0813539,-26.525111],[-52.0981791,-26.5015009],[-52.096879,-26.4874797],[-52.1116325,-26.4749634],[-52.1295515,-26.4772059],[-52.1666946,-26.4649806],[-52.186343,-26.4451167],[-52.2028476,-26.4587849],[-52.2298118,-26.4670431],[-52.2616222,-26.4542808],[-52.2719421,-26.4609251],[-52.2902188,-26.4553658],[-52.3049939,-26.4402571],[-52.3774195,-26.4409567],[-52.3980605,-26.42882],[-52.4333066,-26.4402033],[-52.4636056,-26.4396036],[-52.4767233,-26.421436],[-52.496272,-26.4200194],[-52.5187326,-26.4015213],[-52.5789527,-26.4081527],[-52.5958322,-26.4160624],[-52.6153782,-26.4091241],[-52.6211027,-26.395509],[-52.6597739,-26.3738708],[-52.678622,-26.352676],[-52.7188906,-26.357301],[-52.7377632,-26.3421849],[-52.7634936,-26.3536707],[-52.7753913,-26.3478885],[-52.8469285,-26.3444065],[-52.8665078,-26.3582736],[-52.9504203,-26.3622865],[-52.9933039,-26.3475248],[-53.0464406,-26.3813775],[-53.093228,-26.3920221],[-53.1095398,-26.3763517],[-53.1269968,-26.3724881],[-53.150939,-26.344519],[-53.165447,-26.3512796],[-53.1915769,-26.3344438],[-53.2260153,-26.3184752],[-53.2400852,-26.3002441],[-53.2645345,-26.2893298],[-53.262114,-26.2773298],[-53.2890034,-26.2480361],[-53.3048557,-26.260529],[-53.3389307,-26.2482313],[-53.3495345,-26.2513491],[-53.3760719,-26.241614],[-53.3998165,-26.254013],[-53.4029752,-26.2638406],[-53.4246944,-26.2800667],[-53.4451959,-26.283981],[-53.4613865,-26.2963735],[-53.4702349,-26.2901297],[-53.4984093,-26.3030406],[-53.5237076,-26.2920211],[-53.5534836,-26.2926096],[-53.5822163,-26.2724168],[-53.5862947,-26.2558663],[-53.6035516,-26.2597131],[-53.6416505,-26.2603977],[-53.6455333,-26.2865577],[-53.6524751,-26.2903695],[-53.6710734,-26.3307319],[-53.6857281,-26.3354044],[-53.7002756,-26.3628918],[-53.6972785,-26.3788046],[-53.7100003,-26.3877357],[-53.696649,-26.4019605],[-53.7033502,-26.4171114],[-53.6877198,-26.4314332],[-53.6972919,-26.4552988],[-53.7092422,-26.5012416],[-53.7313362,-26.5103879],[-53.7227745,-26.5276649],[-53.7390348,-26.5484462],[-53.7221142,-26.5589891],[-53.7223263,-26.5810829],[-53.7346075,-26.6074378],[-53.7299537,-26.620366],[-53.7516225,-26.6354733],[-53.7261606,-26.6591855],[-53.7347264,-26.7168645],[-53.7435098,-26.7336158],[-53.7141393,-26.7513418],[-53.7285483,-26.7649803],[-53.7100255,-26.7975164],[-53.700878,-26.7975483],[-53.6983698,-26.8292995],[-53.678276,-26.8430588],[-53.6721776,-26.8616767],[-53.6855129,-26.8668057],[-53.694322,-26.8891309],[-53.6753518,-26.8928091],[-53.6800092,-26.9094373],[-53.7096874,-26.9405645],[-53.7014305,-26.953977],[-53.7124189,-26.9654737],[-53.7267291,-26.9591053],[-53.7336567,-26.9787484],[-53.718659,-26.9842058],[-53.7647967,-27.0453718],[-53.7601464,-27.0606152],[-53.7725234,-27.0663196],[-53.7933355,-27.0416191],[-53.8014678,-27.0862847],[-53.7777023,-27.1015206],[-53.824192,-27.1337135],[-53.8371493,-27.1556386],[-53.8296431,-27.1726275],[-53.8148466,-27.1758898],[-53.7801413,-27.1495899],[-53.7629422,-27.1553555],[-53.7515895,-27.1880526],[-53.7352636,-27.1907901],[-53.700899,-27.1700094],[-53.6750504,-27.1606825],[-53.6501258,-27.1788221],[-53.6511769,-27.2127152],[-53.6307258,-27.2133786],[-53.6182319,-27.1873364],[-53.5914418,-27.1874727],[-53.5711119,-27.1756628],[-53.5540029,-27.173178],[-53.518249,-27.2021778],[-53.4947061,-27.2039403],[-53.4917069,-27.1766918],[-53.5051496,-27.1614501],[-53.5043642,-27.1356415],[-53.4763393,-27.1389083],[-53.4641663,-27.1550404],[-53.4525555,-27.1561351],[-53.4179383,-27.1444445],[-53.4011986,-27.1295012],[-53.3943562,-27.1105606],[-53.3776178,-27.0919808],[-53.3649824,-27.0943479],[-53.3533047,-27.1153807],[-53.3372317,-27.1214574],[-53.3122408,-27.119688],[-53.2929369,-27.1408089],[-53.3090173,-27.181611],[-53.320727,-27.1982383],[-53.3220242,-27.2133687],[-53.3078492,-27.2165417],[-53.293067,-27.1969193],[-53.2320857,-27.1711117],[-53.1972164,-27.1926527],[-53.1811367,-27.1882679],[-53.1723622,-27.1480209],[-53.1545929,-27.1406169],[-53.1403447,-27.1744194],[-53.1321831,-27.1802287],[-53.0774788,-27.1631158],[-53.069718,-27.1515543],[-53.0790453,-27.1184736],[-53.0767,-27.1078446],[-53.0590423,-27.0882454],[-53.0298341,-27.0825743],[-53.0204394,-27.0875227],[-53.0213514,-27.1057905],[-53.0413939,-27.1249055],[-53.0450488,-27.1373317],[-53.0375501,-27.1577479],[-53.0193158,-27.1538174],[-53.0030057,-27.1356146],[-52.9837257,-27.156503],[-52.9851446,-27.1704881],[-53.0005043,-27.1851522],[-53.0025644,-27.1976227],[-52.991719,-27.2176533],[-52.9681942,-27.2111029],[-52.9677099,-27.1903744],[-52.9566923,-27.1632578],[-52.9360669,-27.1780364],[-52.9376012,-27.1983545],[-52.9293114,-27.2040764],[-52.9033596,-27.1990902],[-52.8851406,-27.1826681],[-52.8599769,-27.1704273],[-52.8430785,-27.1785255],[-52.8466916,-27.2023335],[-52.8339914,-27.2112922],[-52.8075153,-27.2023721],[-52.7635597,-27.2112333],[-52.7578757,-27.223847],[-52.7639082,-27.2429623],[-52.7575613,-27.2574918],[-52.7397649,-27.2552421],[-52.7236915,-27.2351438],[-52.7122882,-27.2400034],[-52.7072601,-27.2721932],[-52.6919561,-27.284548],[-52.6809898,-27.2740514],[-52.6767383,-27.2466088],[-52.6574574,-27.2395345],[-52.6461956,-27.2606121],[-52.6178894,-27.2657059],[-52.5874994,-27.2468901],[-52.5636001,-27.2489161],[-52.5438602,-27.2410847],[-52.5291471,-27.2626863],[-52.4930183,-27.2671533],[-52.4763924,-27.2605782],[-52.4798149,-27.2355428],[-52.4462101,-27.217412],[-52.4301649,-27.223725],[-52.44174,-27.248985],[-52.4390853,-27.2644049],[-52.4156089,-27.2852581],[-52.3936592,-27.2851463],[-52.3997418,-27.263265],[-52.3811387,-27.260818],[-52.3833275,-27.2812906],[-52.3785034,-27.3026838],[-52.3674804,-27.3045195],[-52.3502253,-27.2882432],[-52.3130843,-27.3092657],[-52.2910463,-27.3068335],[-52.3060917,-27.265723],[-52.2939566,-27.2566509],[-52.2759898,-27.2610885],[-52.2571493,-27.2562013],[-52.2385315,-27.2620837],[-52.2368566,-27.2737692],[-52.2597603,-27.2789379],[-52.2778953,-27.2949224],[-52.2729787,-27.304385],[-52.2505333,-27.3021431],[-52.2348009,-27.3106581],[-52.2271795,-27.3290007],[-52.2056261,-27.3273864],[-52.1910065,-27.2917198],[-52.1737838,-27.2720469],[-52.1593055,-27.2815636],[-52.1683643,-27.3055814],[-52.1612892,-27.3142878],[-52.1263285,-27.3025235],[-52.1056867,-27.3133503],[-52.1111215,-27.335403],[-52.103287,-27.3466956],[-52.0660571,-27.3395366],[-52.0383697,-27.3442034],[-52.0198518,-27.3319461],[-52.010832,-27.3466054],[-52.0228896,-27.3621543],[-52.0064474,-27.3746257],[-51.9904352,-27.3779244],[-51.9734125,-27.3723383],[-51.9520867,-27.3802471],[-51.952099,-27.3951736],[-51.9786975,-27.3889042],[-52.0047901,-27.3935099],[-51.9964409,-27.4102414],[-51.971862,-27.4103676],[-51.9512992,-27.4173062],[-51.9350881,-27.4298021],[-51.9404552,-27.4474783],[-51.9637942,-27.463136],[-51.9508222,-27.475325],[-51.9183845,-27.4584344],[-51.8999538,-27.4681209],[-51.9025458,-27.4913778],[-51.8941382,-27.5181078],[-51.8737661,-27.5132771],[-51.8802636,-27.4940898],[-51.8725722,-27.4788274],[-51.8451441,-27.4804948],[-51.845884,-27.4978243],[-51.8551292,-27.5154503],[-51.8370708,-27.522233],[-51.7984337,-27.5094318],[-51.8017881,-27.4939626],[-51.75968,-27.4867563],[-51.7468246,-27.4919133],[-51.7303892,-27.511502],[-51.7166827,-27.5103401],[-51.7105315,-27.4893748],[-51.6996498,-27.4790642],[-51.6732478,-27.4880457],[-51.677578,-27.5029806],[-51.6647179,-27.5172667],[-51.6466567,-27.5145299],[-51.6455803,-27.4954082],[-51.6297756,-27.4795542]],[[-51.6297756,-27.4795542],[-51.6001618,-27.4869137],[-51.5895859,-27.4738228],[-51.5617521,-27.4606061],[-51.5528303,-27.4297788],[-51.5498929,-27.3831258],[-51.5331916,-27.3702914],[-51.5650505,-27.3285793],[-51.5860404,-27.3317877]],[[-51.5860404,-27.3317877],[-51.5922077,-27.3325379],[-51.5936435,-27.3290945],[-51.5975807,-27.3268651],[-51.6005021,-27.3267902],[-51.60833,-27.330085],[-51.6111291,-27.3290904],[-51.6120554,-27.3268124],[-51.6101699,-27.3217304],[-51.5947949,-27.2960239],[-51.5686144,-27.297976]],[[-51.5686144,-27.297976],[-51.5621913,-27.2951936]],[[-51.5621913,-27.2951936],[-51.566715,-27.2765214],[-51.5651407,-27.2743478],[-51.5568473,-27.2756097],[-51.5472652,-27.2823529],[-51.5428454,-27.2833168],[-51.5395819,-27.2824903],[-51.5363428,-27.2882]],[[-51.5363428,-27.2882],[-51.5291989,-27.2939405],[-51.524035,-27.3002396],[-51.5145308,-27.3165158],[-51.4995239,-27.305987],[-51.4880003,-27.3099893],[-51.4863345,-27.3286142],[-51.4686019,-27.3318026],[-51.4587649,-27.3437004],[-51.4359192,-27.3152533],[-51.4109335,-27.3297761],[-51.3880872,-27.329264],[-51.3669296,-27.3383595],[-51.333346,-27.3300206],[-51.3264834,-27.3457281],[-51.3114203,-27.3304114],[-51.2997901,-27.290432],[-51.3099305,-27.2724756],[-51.3258516,-27.2612011],[-51.3136527,-27.2407911],[-51.2978079,-27.2319501],[-51.2941836,-27.218474],[-51.2807569,-27.2129477],[-51.2666512,-27.2279476],[-51.2209552,-27.2361037],[-51.2100567,-27.2599989],[-51.1817607,-27.2778631],[-51.1584756,-27.2874372],[-51.1430221,-27.2692177],[-51.1205814,-27.2537868],[-51.1129207,-27.2408927],[-51.0940426,-27.2509134],[-51.0659006,-27.2522431],[-51.0257295,-27.2207379],[-51.0258596,-27.1950399],[-50.9861488,-27.1619012],[-50.960505,-27.1545704],[-50.9469287,-27.1432149],[-50.9366307,-27.1233763],[-50.9134337,-27.1192979],[-50.8804091,-27.1266333],[-50.8712682,-27.1532194],[-50.8411917,-27.1655496],[-50.8284144,-27.1589119],[-50.7842658,-27.1182311],[-50.7550025,-27.1241173],[-50.7356115,-27.1203833],[-50.7209232,-27.1376914],[-50.7067109,-27.1180816],[-50.716738,-27.1045823],[-50.6911009,-27.0838242],[-50.6715371,-27.0748269],[-50.6503722,-27.0415534],[-50.6368972,-27.029161],[-50.6313654,-27.009495],[-50.6185066,-27.0011931],[-50.609318,-26.9754288],[-50.6191444,-26.9536552],[-50.6099627,-26.9399153],[-50.5910556,-26.9284242],[-50.5944291,-26.9053347],[-50.5834601,-26.8869708],[-50.5872325,-26.8613646],[-50.5578618,-26.832657],[-50.541838,-26.8347606],[-50.5063232,-26.8078226],[-50.5184968,-26.7866531],[-50.5251833,-26.7831611]],[[-50.5251833,-26.7831611],[-50.5321378,-26.7778559]],[[-50.5321378,-26.7778559],[-50.5416342,-26.7722499],[-50.5558311,-26.7711921],[-50.5705546,-26.7601421],[-50.5896822,-26.7486217],[-50.6054411,-26.7381692],[-50.6254962,-26.7195124],[-50.6435025,-26.7114773],[-50.658126,-26.6769078],[-50.6873876,-26.6586537],[-50.702478,-26.6606129],[-50.703925,-26.6743721],[-50.7170658,-26.6848148],[-50.7565087,-26.6922653],[-50.7831475,-26.6823719],[-50.8087347,-26.6527964],[-50.8559951,-26.5605958],[-50.9023032,-26.556346],[-50.915828,-26.5448164],[-50.9185744,-26.5487255],[-50.930947,-26.5502765],[-50.9432403,-26.5483515],[-50.9452262,-26.548768],[-50.9522539,-26.5404016],[-50.9574144,-26.5305634],[-50.9941078,-26.5077261],[-51.0105119,-26.489486],[-50.9951086,-26.4838173],[-51.0004189,-26.4630668],[-50.9965516,-26.447891],[-50.9766134,-26.4418909],[-50.9707589,-26.4261306],[-50.9854088,-26.4048767],[-51.0322634,-26.403435],[-51.0422255,-26.394646],[-51.0633749,-26.4021339],[-51.0892718,-26.3913215],[-51.1279813,-26.3994982],[-51.1379023,-26.4151808],[-51.1901604,-26.452145],[-51.2021081,-26.442774],[-51.2014633,-26.4271176],[-51.2342578,-26.4065016],[-51.2605665,-26.398686],[-51.2669681,-26.3861058]],[[-48.6648363,-26.5809303],[-48.6555297,-26.5568037],[-48.6267938,-26.4987825],[-48.5935453,-26.4530709],[-48.5994767,-26.4323846],[-48.5912343,-26.4048309],[-48.5625464,-26.353824],[-48.5419417,-26.3017335],[-48.5041197,-26.2372922],[-48.5061098,-26.2264892],[-48.5247558,-26.2098685],[-48.5276456,-26.1638226],[-48.5497775,-26.1708504],[-48.5768579,-26.1658064],[-48.5885762,-26.1549941],[-48.5975559,-26.1304513],[-48.6029082,-26.0956505],[-48.6024955,-26.0719734],[-48.6106081,-26.0607574],[-48.6012115,-25.9964467],[-48.6013834,-25.980806],[-48.6215282,-25.9819868],[-48.6495503,-25.9578473],[-48.6689389,-25.9792397],[-48.6820323,-25.9836713],[-48.9604784,-25.9807998],[-48.9942518,-26.0093054],[-49.0201609,-26.0157474],[-49.028959,-26.0043496],[-49.0434601,-26.0053733],[-49.054101,-26.0209346],[-49.0717076,-26.0003947],[-49.0981087,-26.0104567],[-49.1257939,-25.9961315],[-49.1384493,-26.0151852],[-49.1737641,-26.0001384],[-49.1915423,-26.0134522],[-49.239861,-26.0349863],[-49.2557627,-26.0679584],[-49.2769582,-26.0828956],[-49.2941314,-26.0855889],[-49.3000682,-26.1112838],[-49.31468,-26.108929],[-49.333957,-26.1245657],[-49.3608472,-26.1370906],[-49.3685702,-26.1528266],[-49.4033337,-26.1588252],[-49.4334457,-26.168591],[-49.4523629,-26.1619579],[-49.4793639,-26.1840571],[-49.4909621,-26.2142533],[-49.5224637,-26.2212854],[-49.5379632,-26.2128537],[-49.5556187,-26.237353],[-49.5874874,-26.2237811],[-49.6052352,-26.211931],[-49.6229226,-26.215574],[-49.6298044,-26.1975263],[-49.6509153,-26.208363],[-49.65369,-26.1869599],[-49.6807649,-26.1865019],[-49.6992924,-26.1613002],[-49.7114555,-26.1543236],[-49.727533,-26.171436],[-49.7372501,-26.1575348],[-49.7287546,-26.141796],[-49.7489641,-26.1401181],[-49.7487992,-26.1241737],[-49.7649976,-26.1140649],[-49.778346,-26.1198942],[-49.8045242,-26.1081627],[-49.808454,-26.095303],[-49.8249998,-26.0934253],[-49.8345321,-26.0692838],[-49.8635593,-26.0550485],[-49.8699694,-26.0332501],[-49.9147902,-26.0254229],[-49.9312753,-26.0303358],[-49.9631377,-26.0275984],[-49.9774544,-26.0136823],[-50.01094,-26.0133282],[-50.0110633,-26.0267338],[-50.03618,-26.0270166],[-50.063827,-26.0327058],[-50.1097613,-26.0519902],[-50.1315541,-26.0422733],[-50.1401632,-26.0265834],[-50.1702508,-26.0251885],[-50.161577,-26.0576771],[-50.1779718,-26.0785023],[-50.2087834,-26.0570194],[-50.2226853,-26.0604246],[-50.2363389,-26.0354609],[-50.2512218,-26.0304735],[-50.2873903,-26.0558091],[-50.2980142,-26.0543171],[-50.3320127,-26.0853748],[-50.3325115,-26.1078097],[-50.3207814,-26.1313312],[-50.3338993,-26.1346665],[-50.3640096,-26.1042494],[-50.3721225,-26.0787336],[-50.408416,-26.0590907],[-50.4295381,-26.0629874],[-50.4492927,-26.0449269],[-50.4591296,-26.0272142],[-50.5023602,-26.0242432],[-50.5292805,-26.0352429],[-50.5508688,-26.0382627],[-50.5619125,-26.0064933],[-50.5702306,-26.0019528],[-50.5914895,-26.0225393],[-50.5862879,-26.0476008],[-50.5525092,-26.0426318],[-50.5519076,-26.0575582],[-50.5707447,-26.0668576],[-50.5948011,-26.0703959],[-50.6309991,-26.0646211],[-50.6453051,-26.0910799],[-50.6565623,-26.1018131],[-50.6483104,-26.1303502],[-50.6775895,-26.1472181],[-50.6917766,-26.1742628],[-50.7056204,-26.1897056],[-50.7277985,-26.2014514],[-50.728554,-26.2148783],[-50.7154784,-26.2338548],[-50.7156177,-26.2445797],[-50.7459296,-26.2467729],[-50.750563,-26.2244501],[-50.7613726,-26.2218372],[-50.7976048,-26.2301802],[-50.8277425,-26.2481634],[-50.8311658,-26.2661363],[-50.846873,-26.2663831],[-50.8621338,-26.243376],[-50.8724416,-26.2445027],[-50.8819619,-26.2792658],[-50.8932472,-26.2877321],[-50.9091388,-26.2846351],[-50.908207,-26.2512143],[-50.9325129,-26.2344918],[-50.9440114,-26.2429562],[-50.9315532,-26.2684955],[-50.9473857,-26.281234],[-50.9644819,-26.2679161],[-50.9748918,-26.2441157],[-50.9989726,-26.2310534],[-51.0568457,-26.2439017],[-51.0811663,-26.2278906],[-51.101911,-26.2728112],[-51.1203944,-26.2796727],[-51.148403,-26.2787746],[-51.1619388,-26.2910267],[-51.194074,-26.3014791],[-51.2071978,-26.2963013],[-51.2158204,-26.315948],[-51.2479512,-26.3298664],[-51.2565004,-26.3441089],[-51.2570124,-26.3723302],[-51.2669681,-26.3861058]],[[-50.5321378,-26.7778559],[-50.5204912,-26.7770951]],[[-50.5204912,-26.7770951],[-50.5170029,-26.773336],[-50.5002215,-26.7710737],[-50.5001843,-26.7557547],[-50.5164454,-26.7154096],[-50.5054907,-26.6954966],[-50.5126776,-26.6815731],[-50.500026,-26.6579589],[-50.4793827,-26.6533159],[-50.4696483,-26.6609451],[-50.4729162,-26.6977208],[-50.4543379,-26.7109581],[-50.4437027,-26.7104203],[-50.4208379,-26.7253911],[-50.3858072,-26.7391439],[-50.3536471,-26.7367392],[-50.3548837,-26.7496979],[-50.3424616,-26.7636618],[-50.3342353,-26.7956737],[-50.3414495,-26.8273129],[-50.2999588,-26.8406198],[-50.2792252,-26.8380132],[-50.2769165,-26.8465028],[-50.2687201,-26.8513252],[-50.2654053,-26.8545281],[-50.2544808,-26.8630776]],[[-50.2544808,-26.8630776],[-50.2513867,-26.8516269],[-50.2237865,-26.823202],[-50.2124936,-26.813978],[-50.1994744,-26.8137132],[-50.1740638,-26.7922228],[-50.1621783,-26.7922679],[-50.1439659,-26.7969005],[-50.1319945,-26.8040565],[-50.1237159,-26.8021451],[-50.1020035,-26.8175625],[-50.0717857,-26.8067081],[-50.0721969,-26.8321028],[-50.0456278,-26.8134049],[-50.0149057,-26.810759],[-49.9798944,-26.7958697],[-49.9689747,-26.8029618],[-49.9397353,-26.8027109],[-49.9284353,-26.7893519],[-49.9059389,-26.7872688],[-49.8959014,-26.7596354],[-49.8801358,-26.7329051],[-49.8742942,-26.730654],[-49.8420973,-26.7103974],[-49.8308657,-26.7050804],[-49.8103937,-26.7124141],[-49.7925225,-26.7492205],[-49.7712773,-26.7669913],[-49.7610206,-26.774328]],[[-49.7610206,-26.774328],[-49.7552541,-26.7761861],[-49.7519875,-26.77926],[-49.749864,-26.7852698],[-49.7458328,-26.7854495],[-49.7422518,-26.7839939],[-49.737374,-26.7757483],[-49.7318172,-26.7724094],[-49.7302662,-26.7667086]],[[-49.7302662,-26.7667086],[-49.7283711,-26.7463246],[-49.7194267,-26.726322],[-49.7176761,-26.7225115],[-49.7017751,-26.7044912],[-49.6712054,-26.70045],[-49.6477806,-26.6925696],[-49.6175971,-26.7037662],[-49.6141642,-26.6903618],[-49.6193449,-26.669998],[-49.6187339,-26.6427003],[-49.5857223,-26.6245872],[-49.5801841,-26.5797353],[-49.5645973,-26.566023],[-49.5620839,-26.5485468],[-49.5384983,-26.5229511],[-49.5189121,-26.5250086],[-49.4918906,-26.5083561],[-49.4795991,-26.5107068],[-49.4529257,-26.5021738],[-49.44138,-26.4890145],[-49.4240937,-26.4980141],[-49.4172115,-26.5101262],[-49.3762581,-26.4879949],[-49.3541729,-26.5031402],[-49.3564903,-26.5132888],[-49.3381545,-26.5264795],[-49.3319426,-26.5386908],[-49.2931823,-26.5426818],[-49.2894042,-26.5605248],[-49.298964,-26.5719774],[-49.2877865,-26.5892346],[-49.2873286,-26.6043017],[-49.2624238,-26.6168776],[-49.2366001,-26.6170416],[-49.2212924,-26.6116558],[-49.2003552,-26.6223338],[-49.1752984,-26.6137857],[-49.1654241,-26.6313339],[-49.1635289,-26.6486903],[-49.110149,-26.6308306],[-49.1137577,-26.6529797],[-49.0655167,-26.6545289],[-49.0463863,-26.6499257],[-49.0319841,-26.6615685],[-49.0181754,-26.684642],[-49.0465377,-26.7049157],[-49.0400743,-26.7285321],[-49.0484201,-26.7401077],[-49.0485883,-26.7465398],[-49.0422831,-26.7657364],[-49.0145843,-26.7634883],[-49.0129161,-26.7455977],[-48.9988342,-26.7479399],[-48.9898897,-26.7368551],[-48.9800652,-26.7365475],[-48.9370151,-26.6936378],[-48.9239048,-26.6677716],[-48.9178769,-26.6450251],[-48.8985907,-26.6584759],[-48.8854495,-26.6582426],[-48.8711103,-26.6422337],[-48.8644939,-26.6375548],[-48.8611186,-26.6353533],[-48.8554541,-26.6173485],[-48.8598653,-26.559006],[-48.8480837,-26.5438359],[-48.8313903,-26.5418572],[-48.8261506,-26.5202806],[-48.8181008,-26.5167118],[-48.8063446,-26.5131907],[-48.7853749,-26.5261306],[-48.7521774,-26.5394126],[-48.7304525,-26.5715409],[-48.7294532,-26.5901677],[-48.7067275,-26.5971607],[-48.6890106,-26.5717633],[-48.6648363,-26.5809303]],[[-51.6297756,-27.4795542],[-51.6194935,-27.5002824],[-51.6306739,-27.5274638],[-51.6311317,-27.5414631],[-51.6083281,-27.5413715],[-51.5866097,-27.5221982],[-51.5783165,-27.5261035],[-51.5856355,-27.5696056],[-51.5717093,-27.5826241],[-51.5598995,-27.5822521],[-51.554876,-27.5639917],[-51.5130743,-27.5565923],[-51.4852323,-27.5618523],[-51.4784181,-27.569726],[-51.4752826,-27.6007409],[-51.4572935,-27.6074675],[-51.4366062,-27.6298497],[-51.4378687,-27.6488195],[-51.4238932,-27.6559268],[-51.4052908,-27.631861],[-51.3812886,-27.6254965],[-51.3701089,-27.6366712],[-51.3779345,-27.6600239],[-51.3601128,-27.6787943],[-51.3308702,-27.6709395],[-51.3133938,-27.678758],[-51.3020007,-27.7025595],[-51.3100359,-27.7180894],[-51.2936935,-27.7254877],[-51.276128,-27.7240242],[-51.2704828,-27.7523073],[-51.2262537,-27.7711841],[-51.1912823,-27.7761507],[-51.1577918,-27.8028892],[-51.1346065,-27.8036571],[-51.1289232,-27.8320476],[-51.0982717,-27.8274176],[-51.0765643,-27.8418454],[-51.0721612,-27.8645116],[-51.0529908,-27.869788],[-51.0582788,-27.8968387],[-51.0509794,-27.9076595],[-51.0199085,-27.9224875],[-51.0189557,-27.957048],[-51.002258,-27.964213],[-50.9936288,-27.9460069],[-50.9470437,-27.9672425],[-50.9239682,-27.9716546],[-50.9278712,-27.9905825],[-50.9232384,-28.0119878],[-50.8923361,-28.021156],[-50.8753996,-28.0401999],[-50.8813874,-28.0672564],[-50.8984814,-28.075516],[-50.8993599,-28.0896556],[-50.8759188,-28.0950754],[-50.8691838,-28.1164215],[-50.8719685,-28.13742],[-50.858991,-28.1397055],[-50.8367577,-28.1194],[-50.8259371,-28.1217127],[-50.8137868,-28.1415602],[-50.7940761,-28.1386404],[-50.7927077,-28.1578468],[-50.782816,-28.175983],[-50.7888221,-28.198335],[-50.7614854,-28.193141],[-50.7533452,-28.2456844],[-50.7107406,-28.2665167],[-50.6965973,-28.2678412],[-50.695224,-28.2885195],[-50.6649077,-28.3127962],[-50.6516748,-28.3434574],[-50.6284503,-28.3645961],[-50.6332902,-28.378916],[-50.6249515,-28.3925883],[-50.6115593,-28.3932666],[-50.5922669,-28.3819459],[-50.5765408,-28.3942598],[-50.5592689,-28.4173972],[-50.5370015,-28.4297226],[-50.531594,-28.4078106],[-50.5127266,-28.4049245],[-50.5010841,-28.4125375],[-50.4704404,-28.4149022],[-50.4568573,-28.4106514],[-50.4481437,-28.4228711],[-50.4287806,-28.433541],[-50.395171,-28.4331574],[-50.3768372,-28.4436738],[-50.3703461,-28.4227593],[-50.3599941,-28.4198395],[-50.3404469,-28.4409658],[-50.3296183,-28.4342305],[-50.3038899,-28.437901],[-50.2928469,-28.4510336],[-50.2729133,-28.4570719],[-50.2468002,-28.4282705],[-50.2357086,-28.4570291],[-50.2226487,-28.4632721],[-50.1990863,-28.4448338],[-50.1780074,-28.4522534],[-50.1620146,-28.4813851],[-50.162623,-28.4953209],[-50.1392568,-28.4939534],[-50.1455725,-28.4775672],[-50.1472781,-28.4495265],[-50.1269337,-28.4397298],[-50.1113576,-28.4444705],[-50.1268385,-28.4633719],[-50.1261868,-28.4745281],[-50.0909418,-28.4756107],[-50.0728184,-28.4808072],[-50.0258232,-28.4730834],[-50.0138764,-28.4507755],[-50.0024522,-28.458033],[-49.9886396,-28.4452528],[-49.9693758,-28.4525176],[-49.9525054,-28.4503368],[-49.9423245,-28.4824344],[-49.9284437,-28.4714096],[-49.9285138,-28.4512235],[-49.9016491,-28.4648422],[-49.8888457,-28.4594203],[-49.8635729,-28.462846],[-49.8666498,-28.4886323],[-49.8439264,-28.4851968],[-49.8361531,-28.4942901],[-49.8172655,-28.4698688],[-49.7909263,-28.4964202],[-49.7642734,-28.4621023],[-49.7639017,-28.5013738],[-49.7482615,-28.4939725],[-49.7280489,-28.519846],[-49.7467201,-28.5353911],[-49.7465325,-28.5496439],[-49.7309012,-28.551183],[-49.7259776,-28.5695039],[-49.7079683,-28.5822272],[-49.7101947,-28.6043446],[-49.6913518,-28.6208914],[-49.704704,-28.63163]],[[-49.704704,-28.63163],[-49.6708087,-28.6155171],[-49.6524014,-28.5996806],[-49.6523627,-28.5971216],[-49.6462367,-28.5786985],[-49.6560723,-28.5654756],[-49.6516976,-28.5545037],[-49.6452438,-28.5439294],[-49.6406847,-28.5421934],[-49.610038,-28.5252596],[-49.5903392,-28.5003135],[-49.5724683,-28.5011199],[-49.5627346,-28.49517],[-49.5554262,-28.4905998],[-49.5500503,-28.4856043],[-49.5626544,-28.4678033],[-49.5433346,-28.4427917],[-49.5357573,-28.4294462],[-49.5467525,-28.4372639],[-49.550172,-28.4372749],[-49.5637072,-28.4139869],[-49.5434979,-28.3884779],[-49.5588329,-28.3726377],[-49.5512276,-28.3529577],[-49.5337574,-28.3505228],[-49.5351855,-28.3139795],[-49.5256474,-28.3066469],[-49.5237243,-28.2758795],[-49.5421577,-28.2699352],[-49.5398697,-28.2340448],[-49.5286054,-28.2099295],[-49.5310222,-28.1877868],[-49.5098288,-28.1678512],[-49.5105541,-28.1550572],[-49.4754938,-28.1350079],[-49.4536802,-28.1393527],[-49.4323044,-28.1138534],[-49.3969675,-28.1110061],[-49.395088,-28.1069785],[-49.4010842,-28.0983445],[-49.3971774,-28.0742478],[-49.3675895,-28.0621994],[-49.3711034,-28.045663],[-49.3536717,-28.0265866],[-49.3488163,-27.9957589],[-49.3293826,-27.9837953],[-49.3114468,-27.974413],[-49.3092084,-27.9664169],[-49.310702,-27.9628099],[-49.3110036,-27.9519831]],[[-49.3110036,-27.9519831],[-49.3073216,-27.9300621]],[[-49.3073216,-27.9300621],[-49.299375,-27.9068373],[-49.2966348,-27.9004921],[-49.2910164,-27.8914989],[-49.2830744,-27.8837027],[-49.283442,-27.8805616],[-49.280721,-27.8733785],[-49.2969156,-27.8690244],[-49.3058289,-27.855649],[-49.3112363,-27.8550501],[-49.3133527,-27.8356967],[-49.316906,-27.8315151],[-49.3339226,-27.8364337],[-49.3475086,-27.8231216],[-49.3746892,-27.8160361],[-49.3990807,-27.7960481],[-49.4204272,-27.7871821],[-49.4356796,-27.7580884],[-49.4521155,-27.7585033],[-49.4670635,-27.7468608],[-49.4729923,-27.729433],[-49.4580858,-27.7107173],[-49.4689311,-27.6865302],[-49.503495,-27.6516984],[-49.5104056,-27.6268798],[-49.5059719,-27.6046923]],[[-49.5059719,-27.6046923],[-49.5066183,-27.6007243]],[[-49.5066183,-27.6007243],[-49.5268732,-27.6048515],[-49.5570953,-27.6179782],[-49.5822252,-27.6393664],[-49.6093618,-27.6509852],[-49.6244515,-27.6607471]],[[-49.6244515,-27.6607471],[-49.6365977,-27.6610849],[-49.6376938,-27.6414436]],[[-49.6376938,-27.6414436],[-49.620277,-27.6188617],[-49.6293973,-27.6189516],[-49.649398,-27.6373699],[-49.651895,-27.6429422],[-49.6852159,-27.6532047],[-49.7115009,-27.6435578],[-49.7268145,-27.6546162],[-49.7306386,-27.651164],[-49.7421363,-27.6312386],[-49.7321324,-27.6192612],[-49.7651657,-27.5835291],[-49.7787779,-27.5860521],[-49.7908527,-27.5703662],[-49.8149433,-27.5579823],[-49.8347088,-27.5391073],[-49.8510502,-27.5052174],[-49.8652608,-27.4986438],[-49.8935368,-27.4954449],[-49.8926785,-27.4580486],[-49.9253469,-27.4188539],[-49.9452178,-27.4245365],[-49.9478152,-27.4117655],[-49.9961217,-27.4134734],[-50.0165325,-27.3947548],[-50.0141243,-27.37939],[-50.0326562,-27.3719892],[-50.0252006,-27.3290598],[-50.0452741,-27.3179779],[-50.0989192,-27.2987059],[-50.1248565,-27.2756754],[-50.1669475,-27.2746657],[-50.1829763,-27.2545705],[-50.2039073,-27.243497],[-50.2360639,-27.242785],[-50.264955,-27.2269493],[-50.2634312,-27.2141192],[-50.2914455,-27.2002931],[-50.2866235,-27.1693381],[-50.3067594,-27.1643505],[-50.3176156,-27.1336322],[-50.3149976,-27.1229942],[-50.3315944,-27.1017818],[-50.3466437,-27.0945516],[-50.3433023,-27.0904621],[-50.3412034,-27.0841393],[-50.3311716,-27.0752221],[-50.3260265,-27.0724729],[-50.3290383,-27.0618012],[-50.3300837,-27.0574067],[-50.317271,-27.0291312],[-50.3174332,-27.0185093],[-50.3153553,-27.0118774],[-50.3129111,-27.0076146],[-50.3088957,-27.004843],[-50.3021157,-26.9905929],[-50.2889907,-26.9678371],[-50.2768774,-26.9188686],[-50.2544808,-26.8630776]],[[-50.5204912,-26.7770951],[-50.5251833,-26.7831611]],[[-51.5363428,-27.2882],[-51.5388333,-27.2830708],[-51.5476895,-27.2821997],[-51.5570639,-27.27552],[-51.5637256,-27.2741424],[-51.5663988,-27.2754354],[-51.5619394,-27.2896124],[-51.5621913,-27.2951936]],[[-51.5686144,-27.297976],[-51.594816,-27.2960751],[-51.5980623,-27.309136],[-51.6103055,-27.3219083],[-51.6119886,-27.3259462],[-51.6115176,-27.3286496],[-51.6065867,-27.3299406],[-51.6006062,-27.3268252],[-51.5980651,-27.3267459],[-51.5941071,-27.3286224],[-51.5921668,-27.3325389],[-51.5860404,-27.3317877]],[[-49.7302662,-26.7667086],[-49.7318453,-26.7724465],[-49.7372785,-26.7756475],[-49.7397637,-26.780861],[-49.7440282,-26.7848011],[-49.7503332,-26.7850787],[-49.7519038,-26.7794044],[-49.7554564,-26.776094],[-49.7610206,-26.774328]],[[-49.6376938,-27.6414436],[-49.6244515,-27.6607471]],[[-49.5066183,-27.6007243],[-49.4973496,-27.5849602]],[[-49.4973496,-27.5849602],[-49.4729261,-27.5657766],[-49.4363205,-27.5845227],[-49.4189169,-27.5722683]],[[-49.4189169,-27.5722683],[-49.4132626,-27.5623522],[-49.4113776,-27.5623386],[-49.4105161,-27.5608319],[-49.40652,-27.5618782],[-49.4039592,-27.5608998],[-49.3943438,-27.5631264]],[[-49.3943438,-27.5631264],[-49.3881916,-27.5601453],[-49.3729303,-27.5640613],[-49.3544956,-27.562657],[-49.322722,-27.5888456],[-49.3139475,-27.5888737],[-49.3045372,-27.5804153],[-49.3159505,-27.5801343],[-49.325175,-27.5618547],[-49.32209,-27.5527662],[-49.3247355,-27.5294441],[-49.3220832,-27.5180453],[-49.3026918,-27.4943028],[-49.2940814,-27.4751986],[-49.2930512,-27.4683336],[-49.3017866,-27.4514843],[-49.2959231,-27.4292957],[-49.3053559,-27.4187126],[-49.3111133,-27.3960934],[-49.293446,-27.3701135],[-49.2970522,-27.3591609],[-49.2790443,-27.3452231],[-49.278678,-27.3401375],[-49.2641901,-27.3316817],[-49.2455583,-27.3258109],[-49.2261881,-27.3151293],[-49.2192384,-27.3046839],[-49.2048348,-27.2948308],[-49.1827342,-27.2914833],[-49.1732171,-27.295307],[-49.1221815,-27.2755999],[-49.1102276,-27.2804641],[-49.0738566,-27.2780497],[-49.0375686,-27.271872],[-49.009351,-27.2489427],[-48.989687,-27.2485405],[-48.9690281,-27.2373992],[-48.9606438,-27.2255673],[-48.9333279,-27.2120146],[-48.9266247,-27.2022296],[-48.8943222,-27.1839734],[-48.8819121,-27.1844916],[-48.8582369,-27.1634855],[-48.8428883,-27.1575241],[-48.8183002,-27.1379823],[-48.8067464,-27.1413569],[-48.8027007,-27.1415046]],[[-48.8027007,-27.1415046],[-48.8001695,-27.1461702],[-48.7994103,-27.1502928],[-48.8007158,-27.1530601],[-48.7996325,-27.155131],[-48.7880595,-27.1509623],[-48.7782655,-27.1516467]],[[-48.7782655,-27.1516467],[-48.774841,-27.1358297],[-48.756273,-27.1344506],[-48.7519671,-27.1467109],[-48.7429533,-27.1484872],[-48.7057467,-27.1416443],[-48.6912088,-27.1487362],[-48.6829611,-27.153176],[-48.6901742,-27.1843224],[-48.6750647,-27.1976076],[-48.6737321,-27.1997665]],[[-48.6737321,-27.1997665],[-48.6701402,-27.2080334],[-48.6672591,-27.2126839],[-48.6617804,-27.2162115],[-48.6234822,-27.2109581],[-48.6174655,-27.2127199]],[[-48.6174655,-27.2127199],[-48.6043824,-27.212292]],[[-48.6043824,-27.212292],[-48.6019247,-27.2203884],[-48.5544793,-27.1961616],[-48.5422741,-27.1826259],[-48.499332,-27.18757],[-48.4998784,-27.1461376],[-48.5254935,-27.1289876],[-48.5474637,-27.1561695],[-48.5647744,-27.1555297],[-48.585558,-27.1449171],[-48.603446,-27.1243844],[-48.6131744,-27.103876],[-48.591817,-27.0803429],[-48.5940877,-27.0627959],[-48.5810635,-27.0274636],[-48.5828168,-27.0000756],[-48.6160277,-27.0040872],[-48.6283221,-26.9931647],[-48.6265385,-26.9332671],[-48.6417182,-26.9187798],[-48.6435342,-26.9034366],[-48.635995,-26.8604864],[-48.6275153,-26.833296],[-48.6046484,-26.8256706],[-48.5967051,-26.803554],[-48.6053124,-26.7890655],[-48.6178455,-26.7901266],[-48.6733202,-26.7599593],[-48.681839,-26.7231684],[-48.6812077,-26.7022525],[-48.6885469,-26.6768401],[-48.6794808,-26.6229647],[-48.6648363,-26.5809303]],[[-49.3943438,-27.5631264],[-49.3989956,-27.5646555],[-49.4040014,-27.5608912],[-49.4079557,-27.5618362],[-49.409818,-27.5606832],[-49.4114778,-27.5623862],[-49.4129111,-27.5619831],[-49.4189169,-27.5722683]],[[-49.4973496,-27.5849602],[-49.5059719,-27.6046923]],[[-49.3073216,-27.9300621],[-49.3036957,-27.9414618]],[[-49.3036957,-27.9414618],[-49.2871894,-27.936381],[-49.2643558,-27.9508619],[-49.2420155,-27.9505589],[-49.2279588,-27.9603831],[-49.1928774,-27.9694023],[-49.1789043,-27.9787746],[-49.1540138,-27.9686037],[-49.1448324,-27.9968061],[-49.1280541,-28.0048415],[-49.1039622,-28.0073967],[-49.0509646,-27.9901957],[-49.0348393,-28.0140791],[-49.0346948,-28.0352598],[-49.0120249,-28.0548469],[-48.9734088,-28.081459],[-48.9676677,-28.0847411],[-48.9695474,-28.0837843],[-48.9694962,-28.090045],[-48.9729073,-28.1015182],[-48.9511899,-28.0965467],[-48.9388824,-28.0911393],[-48.9377676,-28.0884286],[-48.9367714,-28.072862],[-48.9016991,-28.060854],[-48.8936953,-28.0800361],[-48.8740155,-28.0723864],[-48.8643039,-28.0778699],[-48.8322628,-28.0716341],[-48.8100894,-28.0783709],[-48.7962326,-28.0950264],[-48.7070124,-28.0826493],[-48.7107089,-28.0606297],[-48.7198988,-28.0463],[-48.7091445,-28.0300294],[-48.6849833,-28.0174658],[-48.6566048,-27.9881899],[-48.6495754,-27.9658379],[-48.6365208,-27.9562288]],[[-48.6365208,-27.9562288],[-48.6211327,-27.9452057],[-48.5731286,-27.8856976],[-48.5987365,-27.8792906],[-48.5985039,-27.853827],[-48.576882,-27.8489523],[-48.5708388,-27.8360425],[-48.5447019,-27.8302883],[-48.529472,-27.7889503],[-48.5153921,-27.7812079],[-48.493616,-27.7941354],[-48.4782557,-27.7618218],[-48.5063337,-27.747483],[-48.5055348,-27.7240717],[-48.4958736,-27.7042404],[-48.4817645,-27.6917208],[-48.467304,-27.6511865],[-48.444341,-27.6235976],[-48.4274369,-27.5939839],[-48.4176619,-27.5888688],[-48.4282701,-27.5684739],[-48.4256872,-27.5420345],[-48.4003016,-27.4993587],[-48.3760903,-27.4779866],[-48.3706022,-27.4498407],[-48.3913887,-27.4353116],[-48.4117346,-27.4049943],[-48.4166373,-27.3805606],[-48.4834723,-27.3782829],[-48.5262704,-27.408262],[-48.5343564,-27.3834982],[-48.5369689,-27.357959],[-48.5259546,-27.3440545],[-48.5381249,-27.3254253],[-48.5380321,-27.3070483],[-48.5886483,-27.3193378],[-48.6037831,-27.3006963],[-48.6154675,-27.271683],[-48.6131904,-27.2354756],[-48.6043824,-27.212292]],[[-48.6174655,-27.2127199],[-48.6614363,-27.2162482],[-48.6672382,-27.2127029],[-48.6701484,-27.2080122],[-48.6737321,-27.1997665]],[[-48.7782655,-27.1516467],[-48.7986578,-27.1551576],[-48.8005183,-27.1538853],[-48.7994088,-27.1502128],[-48.8027007,-27.1415046]],[[-49.704704,-28.63163],[-49.7159468,-28.6237925],[-49.7789039,-28.6294802],[-49.7981923,-28.6240162],[-49.8140127,-28.6355045],[-49.8240798,-28.6649572],[-49.8381736,-28.6716646],[-49.8380106,-28.6900262],[-49.8476143,-28.7037902],[-49.8719956,-28.7035699],[-49.8689623,-28.7160439],[-49.8975361,-28.7213093],[-49.9108345,-28.7127498],[-49.9346778,-28.7256765],[-49.9217437,-28.7455426],[-49.9613329,-28.7721804],[-49.9569943,-28.7836107],[-49.9661441,-28.8213279],[-49.9567607,-28.8703633],[-49.9435899,-28.8796583],[-49.9631796,-28.9189189],[-49.9580268,-28.9625515],[-49.9336567,-28.9658216],[-49.9591547,-29.0104812],[-49.9469385,-29.0318308],[-49.9609987,-29.0508076],[-49.9569425,-29.0629374],[-49.9697599,-29.1005732],[-49.9682774,-29.1147769],[-50.0049122,-29.1406371],[-50.0386135,-29.1774386],[-50.0628447,-29.1859154],[-50.0876318,-29.1837495],[-50.0889976,-29.2235466],[-50.1330356,-29.1973491],[-50.1347366,-29.2150717],[-50.148226,-29.2199227],[-50.1406832,-29.2377834],[-50.1552287,-29.2476875],[-50.1425247,-29.2713911],[-50.143734,-29.2842521],[-50.134067,-29.3021625],[-50.0906541,-29.3108993],[-50.0595088,-29.3412031],[-50.051215,-29.3241113],[-50.0995917,-29.2884012],[-50.1154827,-29.2622804],[-50.0365467,-29.2378462],[-50.0099322,-29.2254095],[-49.9965852,-29.2282623],[-49.9696791,-29.2121376],[-49.9627342,-29.1988546],[-49.935434,-29.2082815],[-49.912866,-29.2079428],[-49.8692354,-29.2244388],[-49.8571037,-29.2330584],[-49.8522,-29.2536409],[-49.8173798,-29.2856538],[-49.7905422,-29.2858847],[-49.7759297,-29.2974099],[-49.7420974,-29.2988203],[-49.7435636,-29.3197173],[-49.7295941,-29.3291254],[-49.7129375,-29.3255835],[-49.7048471,-29.3097299],[-49.6263555,-29.2153597],[-49.5886011,-29.1727733],[-49.4343545,-29.0091056],[-49.3625057,-28.9430673],[-49.2442803,-28.8451053],[-49.1475363,-28.7755045],[-49.0787653,-28.7321151],[-48.9745782,-28.6714801],[-48.9298582,-28.6482071],[-48.8635538,-28.6172662],[-48.8162252,-28.6060575],[-48.81531,-28.5882263],[-48.7891843,-28.5611353],[-48.7818609,-28.5482293],[-48.7614945,-28.5354858],[-48.7629064,-28.5246263],[-48.7466706,-28.5033699],[-48.7603413,-28.4952658],[-48.7664203,-28.4744887],[-48.7591767,-28.4456455],[-48.7454138,-28.4264759],[-48.7439095,-28.3964378],[-48.7282227,-28.3663962],[-48.7112207,-28.3449856],[-48.709558,-28.327289],[-48.6974451,-28.2915716],[-48.6740285,-28.2549077],[-48.6454349,-28.2346067],[-48.6609978,-28.2268579],[-48.6660766,-28.2058158],[-48.6568393,-28.1956375],[-48.6624692,-28.1799737],[-48.6528704,-28.1563344],[-48.6387117,-28.142478],[-48.6318565,-28.0850364],[-48.6062357,-28.0522903],[-48.6047964,-28.0192674],[-48.6213666,-28.0212118],[-48.6309085,-28.0065198],[-48.6285847,-27.9756893],[-48.6201571,-27.9627415],[-48.6365208,-27.9562288]],[[-49.3036957,-27.9414618],[-49.3110036,-27.9519831]]],"bbox":[-53.8371493,-29.3412031,-48.3706022,-25.9578473]}
