{"type":"Topology","objects":{"geometrias":{"type":"GeometryCollection","geometries":[{"type":"Polygon","arcs":[[0,1,2,3,4,5,6]],"properties":{"code_meso":3201,"code_state":32,"code_region":3,"name_meso":"Noroeste Espírito-Santense","abbrev_state":"ES","name_state":"Espírito Santo","name_region":"Sudeste","year":2020}},{"type":"Polygon","arcs":[[7,8,9,10,-7,11,-5]],"properties":{"code_meso":3202,"code_state":32,"code_region":3,"name_meso":"Litoral Norte Espírito-Santense","abbrev_state":"ES","name_state":"Espírito Santo","name_region":"Sudeste","year":2020}},{"type":"MultiPolygon","arcs":[[[12]],[[13,14,15,-10,16,-2,17,18]]],"properties":{"code_meso":3203,"code_state":32,"code_region":3,"name_meso":"Central Espírito-Santense","abbrev_state":"ES","name_state":"Espírito Santo","name_region":"Sudeste","year":2020}},{"type":"Polygon","arcs":[[19,-15,20,-19]],"properties":{"code_meso":3204,"code_state":32,"code_region":3,"name_meso":"Sul Espírito-Santense","abbrev_state":"ES","name_state":"Espírito Santo","name_region":"Sudeste","year":2020}}]}},"arcs":[[[-40.6617346,-18.018792],[-40.6905241,-18.0127127],[-40.7053699,-18.0238854],[-40.716166,-18.0046171],[-40.725769,-18.0012172],[-40.7507676,-18.0099088],[-40.7717685,-18.0033881],[-40.7709306,-17.986422],[-40.7918768,-17.9714831],[-40.8081616,-17.9520472],[-40.8305529,-17.95418],[-40.8477314,-17.9675094],[-40.8631315,-17.9883169],[-40.8778643,-17.9817258],[-40.902823,-17.9877122],[-40.8869894,-18.000641],[-40.7733033,-18.1075627],[-40.7714961,-18.15594],[-40.7937126,-18.1601538],[-40.8052169,-18.1529703],[-40.8450758,-18.149813],[-40.8775551,-18.1194293],[-40.8890108,-18.1240161],[-40.9092833,-18.1148302],[-40.9322096,-18.1364835],[-40.9500038,-18.1292866],[-40.9545374,-18.1544944],[-40.9741926,-18.142105],[-40.9870344,-18.146774],[-40.9932169,-18.1662347],[-41.0145895,-18.1575794],[-41.0560846,-18.1666211],[-41.0665525,-18.1809131],[-41.0927345,-18.1954013],[-41.1044479,-18.2132768],[-41.0971916,-18.2565812],[-41.1589207,-18.3082435],[-41.1474978,-18.3533812],[-41.1481022,-18.3791507],[-41.1595989,-18.3814586],[-41.160448,-18.4027983],[-41.1807981,-18.4326826],[-41.1730831,-18.4427969],[-41.0230287,-18.4572609],[-41.0158793,-18.4767544],[-41.0419885,-18.6054031],[-41.0508923,-18.634154],[-41.0287477,-18.6467293],[-41.0052269,-18.667277],[-40.9520614,-18.6808293],[-40.9414976,-18.6892947],[-40.9400042,-18.7702862],[-40.9167726,-18.8155434],[-40.9418604,-18.8260568],[-40.9639135,-18.8411701],[-41.0191307,-18.837302],[-41.0837074,-18.8365836],[-41.1105065,-18.8389374],[-41.1341302,-18.7960413],[-41.1474779,-18.7980842],[-41.2325444,-18.7972788],[-41.2454775,-18.8219591],[-41.237822,-18.834765],[-41.2435824,-18.8527491],[-41.2301038,-18.8583706],[-41.2147844,-18.8776398],[-41.1990073,-18.8633344],[-41.1663607,-18.8582317],[-41.1529583,-18.8866091],[-41.1268471,-18.8945065],[-41.1036739,-18.9340607],[-41.0646541,-18.9452654],[-41.0614954,-18.9676902],[-41.0322203,-18.9908474],[-41.0617701,-19.0063175],[-41.0717907,-19.0238478],[-41.0655566,-19.0513321],[-41.0538522,-19.0688643],[-41.0126044,-19.0758017],[-41.0087437,-19.0993299],[-40.9922807,-19.1019206],[-40.9695683,-19.1228915],[-40.9561158,-19.129113],[-40.9405567,-19.1633044],[-40.9383542,-19.1833712],[-40.9264989,-19.1885475],[-40.9310227,-19.2224219],[-40.9415507,-19.2301311],[-40.9328578,-19.2511547],[-40.9161804,-19.2589323],[-40.9217079,-19.2701228],[-40.9439683,-19.2786701],[-40.9327768,-19.296053],[-40.9076927,-19.3088127],[-40.9221602,-19.320177],[-40.9384679,-19.3460655],[-40.9281839,-19.3679063],[-40.9304484,-19.3841516],[-40.9507131,-19.3929999],[-40.9622149,-19.4084294],[-40.96792,-19.4304373],[-40.9502249,-19.4581991],[-40.9535719,-19.4734409],[-40.9882782,-19.5079403],[-41.0190737,-19.5048815],[-41.0466927,-19.4873997],[-41.0496627,-19.5030204],[-41.0409019,-19.5159214],[-41.0449672,-19.5385621],[-41.0368602,-19.570457],[-41.0719177,-19.5844082],[-41.0741098,-19.5986638],[-41.0900254,-19.5957383],[-41.0993102,-19.6042054],[-41.1086014,-19.6394668],[-41.1278053,-19.641611],[-41.1386263,-19.6587247],[-41.1574989,-19.6610825],[-41.1684728,-19.6722227],[-41.1768883,-19.6986979],[-41.1743057,-19.7156371],[-41.188713,-19.7461752],[-41.1729841,-19.761639]],[[-41.1729841,-19.761639],[-41.1601588,-19.7644087],[-41.150091,-19.7640524],[-41.1413064,-19.7687262],[-41.1391957,-19.7712007],[-41.1241034,-19.7780064],[-41.1248479,-19.7886697],[-41.0969435,-19.7876021],[-41.055179,-19.762841],[-41.0346379,-19.7922773],[-40.9957672,-19.8039841],[-40.9907199,-19.7605592],[-40.9729241,-19.72524],[-40.9476113,-19.7207617],[-40.9298471,-19.6961778],[-40.937216,-19.643943],[-40.9293955,-19.6112113],[-40.9123845,-19.5994409],[-40.8826364,-19.5924948],[-40.8766532,-19.576515],[-40.8609461,-19.5671341],[-40.8412938,-19.5646713],[-40.8406796,-19.5744258],[-40.8569861,-19.5865982],[-40.8597588,-19.6036024],[-40.8529797,-19.6173965],[-40.83445,-19.6170893],[-40.8231236,-19.5933375],[-40.7850087,-19.5962479],[-40.7741025,-19.6156396],[-40.7796779,-19.6335488],[-40.7712506,-19.6478424],[-40.7564942,-19.652358],[-40.7260712,-19.6419821],[-40.7221993,-19.6243345],[-40.6871725,-19.6239213],[-40.5816935,-19.6844367],[-40.5674537,-19.6847349],[-40.5576979,-19.705119],[-40.5406536,-19.7096562]],[[-40.5406536,-19.7096562],[-40.5273416,-19.7156003]],[[-40.5273416,-19.7156003],[-40.5167442,-19.6776405],[-40.5107985,-19.6687159],[-40.5080371,-19.6667806]],[[-40.5080371,-19.6667806],[-40.5025142,-19.6576613],[-40.4979441,-19.653726],[-40.4857067,-19.6435893],[-40.4827341,-19.6389354],[-40.4748712,-19.6422081],[-40.4632383,-19.6306548],[-40.4187455,-19.6413151],[-40.3729619,-19.6196824],[-40.3757646,-19.5983247],[-40.3886499,-19.5756022],[-40.3884679,-19.5621458],[-40.3711918,-19.5564729],[-40.3756585,-19.5312164],[-40.3923689,-19.5101519],[-40.4165788,-19.5087954],[-40.431361,-19.4931124],[-40.4305009,-19.4837152],[-40.4450174,-19.4500321],[-40.4385466,-19.4330005],[-40.4564207,-19.4180842],[-40.4531454,-19.4092072],[-40.46475,-19.3922843],[-40.4766864,-19.3769629],[-40.4769389,-19.3703163],[-40.4825161,-19.3652483],[-40.4910221,-19.3711083],[-40.4939341,-19.3639865],[-40.5106519,-19.3496528],[-40.5245403,-19.3310116],[-40.5145462,-19.3249011],[-40.5088982,-19.3194267],[-40.5074557,-19.3072775],[-40.4720719,-19.293789],[-40.461594,-19.2797643],[-40.4432278,-19.2914813],[-40.4349315,-19.2796545],[-40.4204631,-19.2382321],[-40.4181137,-19.2189152],[-40.403147,-19.1984751],[-40.4122767,-19.1889758],[-40.3991798,-19.1481529],[-40.402051,-19.1358468],[-40.3869178,-19.1133876],[-40.3650477,-19.0957048],[-40.3736827,-19.0810099],[-40.3654073,-19.066281],[-40.3466146,-19.0832074],[-40.3237753,-19.0762533],[-40.3048885,-19.0842991],[-40.2909903,-19.0784992],[-40.263886,-19.0328932],[-40.2063254,-18.9066397],[-40.2070949,-18.8908902],[-40.2123576,-18.8781157],[-40.2263256,-18.8776043],[-40.261002,-18.8408363],[-40.2670116,-18.8378397],[-40.2936735,-18.8414184],[-40.317929,-18.8505273],[-40.3615012,-18.8467131],[-40.3682919,-18.8476304],[-40.3757475,-18.8474896],[-40.3859739,-18.8480223],[-40.4016915,-18.8509207],[-40.4055892,-18.8346045],[-40.4030692,-18.8305484],[-40.3943653,-18.8210765],[-40.3945158,-18.7817654],[-40.3481737,-18.7454333],[-40.3364149,-18.7258328],[-40.2842707,-18.5767975],[-40.2546837,-18.5669628],[-40.2300266,-18.5826419],[-40.1650159,-18.5443423],[-40.1653966,-18.5202884],[-40.1583402,-18.5102561],[-40.1327698,-18.4975084],[-40.1311405,-18.4880178],[-40.1590268,-18.4747555],[-40.183683,-18.4732321],[-40.2065619,-18.4902048],[-40.2373844,-18.4959419],[-40.2471692,-18.4966484],[-40.2573093,-18.4949073],[-40.2764661,-18.4909585],[-40.2924615,-18.4809712],[-40.3195016,-18.4389008],[-40.3251415,-18.4106237],[-40.3548935,-18.3777595],[-40.3862542,-18.3793502],[-40.4021361,-18.3854722],[-40.4322644,-18.3616007],[-40.4870027,-18.37736],[-40.4509054,-18.4067168],[-40.4850679,-18.4133259],[-40.4967716,-18.3902199],[-40.5097958,-18.3903112],[-40.5261727,-18.3691725],[-40.5350834,-18.3666025],[-40.5372208,-18.3616382],[-40.5488659,-18.3596329],[-40.5729069,-18.3623453],[-40.5806513,-18.3564503],[-40.5746282,-18.3491741],[-40.5862195,-18.3400939],[-40.6048752,-18.340598],[-40.6111733,-18.2979971],[-40.6188435,-18.2874965],[-40.5585455,-18.230713],[-40.5453462,-18.2004402],[-40.5635389,-18.1537397],[-40.5626376,-18.1295264]],[[-40.5626376,-18.1295264],[-40.5571214,-18.1189307],[-40.5575081,-18.1157431],[-40.5788984,-18.0960626]],[[-40.5788984,-18.0960626],[-40.5903791,-18.1093574],[-40.6138637,-18.0909875],[-40.6278777,-18.0672302],[-40.6405206,-18.0338448],[-40.6617346,-18.018792]],[[-40.5080371,-19.6667806],[-40.5150981,-19.675068],[-40.5273416,-19.7156003]],[[-40.5273416,-19.7156003],[-40.5211204,-19.7284854]],[[-40.5211204,-19.7284854],[-40.5182023,-19.7326186],[-40.5265596,-19.7861182],[-40.5327024,-19.7976687],[-40.521211,-19.8156568],[-40.50512,-19.8536688],[-40.5028913,-19.8772713],[-40.4775056,-19.9046355],[-40.4744538,-19.9370448],[-40.452759,-19.9372055],[-40.4490512,-19.9557558],[-40.4502382,-19.9812164],[-40.4484672,-19.987472],[-40.4453815,-19.9970327],[-40.412827,-20.0183972],[-40.3858297,-20.015824],[-40.3736857,-20.0228409],[-40.356673,-20.04879],[-40.3441182,-20.0366299],[-40.2958217,-20.0228662],[-40.243715,-20.041341],[-40.2338548,-20.0424921],[-40.2284896,-20.0259826],[-40.2205061,-20.0283216],[-40.2133971,-20.0291418],[-40.1993972,-20.0355169],[-40.1942881,-20.0362827],[-40.1947607,-20.049183]],[[-40.1947607,-20.049183],[-40.1836309,-20.0397075],[-40.1589145,-20.0358822],[-40.1594437,-20.0206665],[-40.1483099,-20.0058987],[-40.1350262,-19.9595744],[-40.1360006,-19.9415156],[-40.1022134,-19.9213309],[-40.0829838,-19.8759643],[-40.0691033,-19.8619978],[-40.0576515,-19.8365902],[-40.0547817,-19.8148313],[-40.0153222,-19.7681372],[-39.9680737,-19.7258444],[-39.9071834,-19.6844193],[-39.8496964,-19.6601677],[-39.8108024,-19.6496129],[-39.8090039,-19.63416],[-39.7784822,-19.5763782],[-39.7304632,-19.468371],[-39.7049824,-19.3984336],[-39.6964555,-19.3669047],[-39.6891136,-19.306034],[-39.6914533,-19.2732265],[-39.7104011,-19.1670844],[-39.7356351,-18.9775905],[-39.7427941,-18.9360835],[-39.7497524,-18.8380728],[-39.7460078,-18.6962597],[-39.7406804,-18.6504792],[-39.7283871,-18.6110842],[-39.7306515,-18.5857789],[-39.7282224,-18.518274],[-39.7147528,-18.4619453],[-39.6909376,-18.3953446],[-39.6660146,-18.3332183],[-39.6889474,-18.3208315],[-40.2223506,-17.9804174],[-40.2553548,-17.9717994],[-40.2909945,-17.9518495],[-40.3234355,-17.9389442],[-40.3339556,-17.9273598],[-40.3678286,-17.9226325],[-40.3864517,-17.9284381],[-40.4174187,-17.9270343],[-40.4450547,-17.9188255],[-40.462738,-17.9282124],[-40.4841295,-17.9086447],[-40.5033329,-17.9106792],[-40.5168219,-17.8944233],[-40.5679302,-17.9160293],[-40.5847119,-17.9181666],[-40.5871613,-17.9390208],[-40.6095329,-17.9376588],[-40.621884,-17.960566],[-40.6261519,-17.9910539],[-40.6460308,-17.9935612],[-40.6617346,-18.018792]],[[-40.5788984,-18.0960626],[-40.5586596,-18.1141379],[-40.5569498,-18.1171738],[-40.5626376,-18.1295264]],[[-29.3384236,-20.486783],[-29.3441611,-20.5102515],[-29.33053,-20.5221671],[-29.2991521,-20.5189343],[-29.3384236,-20.486783]],[[-40.9476195,-20.8853573],[-40.9265121,-20.8912177],[-40.8907549,-20.8897416]],[[-40.8907549,-20.8897416],[-40.8660158,-20.8929837],[-40.8510149,-20.8860526],[-40.8280435,-20.8908312],[-40.7588884,-20.8656525]],[[-40.7588884,-20.8656525],[-40.7464333,-20.850072],[-40.7202129,-20.8465796],[-40.6533185,-20.8058727],[-40.6291267,-20.8186801],[-40.6216299,-20.8340454],[-40.6078171,-20.8059923],[-40.5833074,-20.8027222],[-40.5760626,-20.7741894],[-40.5567203,-20.7464715],[-40.5341728,-20.7396697],[-40.5155735,-20.7080803],[-40.5118873,-20.6937142],[-40.4811598,-20.6524133],[-40.4647969,-20.6525742],[-40.4693947,-20.6326868],[-40.4552696,-20.6233914],[-40.4344093,-20.6363482],[-40.4259937,-20.6306094],[-40.4037841,-20.5976506],[-40.3935813,-20.5600929],[-40.3520228,-20.4955754],[-40.34656,-20.4762802],[-40.3229425,-20.429427],[-40.3196594,-20.406002],[-40.2966188,-20.3632253],[-40.2832585,-20.3531435],[-40.2713959,-20.3232054],[-40.2900396,-20.3076378],[-40.2891235,-20.2837799],[-40.2716626,-20.2686867],[-40.2584728,-20.2658397],[-40.2374915,-20.294985],[-40.2343543,-20.2761491],[-40.2157149,-20.2349098],[-40.1989444,-20.2168336],[-40.1838238,-20.1672882],[-40.1815522,-20.1345773],[-40.1719949,-20.1081674],[-40.1738309,-20.0749044],[-40.1947607,-20.049183]],[[-40.5211204,-19.7284854],[-40.5254523,-19.7162329],[-40.5328011,-19.7124035],[-40.5406536,-19.7096562]],[[-41.1729841,-19.761639],[-41.1739434,-19.7860514],[-41.1641051,-19.8063868],[-41.1840042,-19.8488244],[-41.1851882,-19.8899338],[-41.2066347,-19.9040544],[-41.2280447,-19.9049851],[-41.2444702,-19.9373418],[-41.2546097,-19.9321447],[-41.2726601,-19.9424386],[-41.3008581,-19.9365254],[-41.311799,-19.9724195],[-41.320015,-19.9800269],[-41.3087937,-19.9970668],[-41.3091067,-20.0163706],[-41.3185297,-20.0415132],[-41.3335563,-20.0588396],[-41.338194,-20.0881176],[-41.349135,-20.1095202],[-41.3519334,-20.1311533],[-41.3618916,-20.1420781],[-41.3821145,-20.1888131],[-41.4090918,-20.1976994],[-41.4155813,-20.2073631]],[[-41.4155813,-20.2073631],[-41.4067354,-20.2340704],[-41.3815454,-20.2235359],[-41.3731894,-20.2035161],[-41.34999,-20.1980769],[-41.3437773,-20.2005652],[-41.339925,-20.2161063],[-41.3383101,-20.2248387],[-41.3506157,-20.2343225],[-41.3480899,-20.2428082],[-41.3238858,-20.2495515],[-41.315506,-20.2621814],[-41.3116261,-20.265188],[-41.310469,-20.2693793],[-41.3128729,-20.2726507],[-41.3193715,-20.2736123],[-41.3194528,-20.2790734],[-41.3163216,-20.2823644],[-41.3140229,-20.2959915],[-41.3314078,-20.3033179],[-41.3504962,-20.3020826],[-41.3618614,-20.3209754],[-41.3612801,-20.3254512],[-41.3575077,-20.348425],[-41.3459982,-20.3743293],[-41.3232443,-20.3954159],[-41.3150572,-20.422957],[-41.324005,-20.4931001],[-41.3096297,-20.5161323],[-41.2961859,-20.5182855],[-41.2969808,-20.5175063],[-41.2878349,-20.5138454],[-41.2832898,-20.4951297],[-41.2765392,-20.4863276],[-41.2763578,-20.4892909],[-41.2666563,-20.4914285],[-41.2587999,-20.4904619],[-41.2424229,-20.5001049],[-41.2330108,-20.4895814],[-41.2100127,-20.4910406],[-41.2077092,-20.4795535],[-41.225413,-20.4612599],[-41.209565,-20.4462411],[-41.1663915,-20.4458958],[-41.1624687,-20.423477],[-41.1424762,-20.4315706],[-41.120691,-20.4239263],[-41.0823563,-20.4405877],[-41.0520259,-20.474156],[-41.0479267,-20.4797443],[-41.0193883,-20.4780134],[-41.0042001,-20.4682306],[-41.010385,-20.4337553],[-40.9928581,-20.4384377],[-40.968943,-20.4625696],[-40.9723288,-20.4807758],[-40.9594881,-20.4992472],[-40.9617497,-20.537637],[-40.9569681,-20.5518354],[-40.9683025,-20.5762726],[-40.9525071,-20.6017485],[-40.9118681,-20.6155694],[-40.9158242,-20.643945],[-40.9342204,-20.6627923],[-40.9326042,-20.6850184],[-40.9595168,-20.6966581],[-40.9567283,-20.7138545],[-40.9695543,-20.7554145],[-40.9943142,-20.7788333],[-40.9844853,-20.8017924],[-40.9800093,-20.8286051],[-40.9883901,-20.8315208],[-40.9893852,-20.8381309],[-40.9867044,-20.8615575],[-40.9476195,-20.8853573]],[[-41.4155813,-20.2073631],[-41.7567537,-20.206866],[-41.763632,-20.217973],[-41.7821404,-20.2944758],[-41.8030864,-20.2992043],[-41.8418651,-20.3265497],[-41.8595116,-20.3728426],[-41.8450581,-20.377363],[-41.8365251,-20.4093104],[-41.8036771,-20.4219806],[-41.7994356,-20.4772833],[-41.8257809,-20.4849928],[-41.8042989,-20.5384028],[-41.8283912,-20.5572962],[-41.8412992,-20.600442],[-41.8531439,-20.6075575],[-41.8509385,-20.6212613],[-41.8205019,-20.6277853],[-41.8132318,-20.6532647],[-41.8482132,-20.6869247],[-41.8635136,-20.7419435],[-41.872795,-20.7428701],[-41.8771177,-20.7646229],[-41.852166,-20.7637593],[-41.8324432,-20.7818772],[-41.8288264,-20.7943438],[-41.7991687,-20.8053185],[-41.7940261,-20.798051],[-41.7667418,-20.8019956],[-41.7398545,-20.8175037],[-41.7363089,-20.8359131],[-41.7458898,-20.8524366],[-41.7388851,-20.8657524],[-41.715697,-20.8718246],[-41.7263409,-20.8923895],[-41.7184049,-20.9007977],[-41.7224051,-20.9233064],[-41.7374022,-20.9310317],[-41.7337724,-20.9433416],[-41.7174055,-20.9530449],[-41.7116275,-20.9805924],[-41.7214215,-21.0020133],[-41.7145453,-21.0154083],[-41.7252015,-21.033078],[-41.7161889,-21.047051],[-41.7362793,-21.1014302],[-41.7183532,-21.1164195],[-41.6941579,-21.1153722],[-41.6884281,-21.1221734],[-41.6393967,-21.1461934],[-41.6219815,-21.1469585],[-41.6125895,-21.1570009],[-41.5867479,-21.1494743],[-41.5782375,-21.1697453],[-41.5560886,-21.1723936],[-41.5482883,-21.1832995],[-41.5115501,-21.1758363],[-41.4791333,-21.1936396],[-41.4603557,-21.2087711],[-41.435249,-21.2157019],[-41.4164778,-21.2001205],[-41.388013,-21.1989007],[-41.3161839,-21.2135457],[-41.303455,-21.2285988],[-41.2767152,-21.2402293],[-41.2413685,-21.2203603],[-41.2148521,-21.2372997],[-41.1937387,-21.2440657],[-41.1633039,-21.2428731],[-41.0892187,-21.2195207],[-41.0593193,-21.2346468],[-41.0445825,-21.2530586],[-41.0249052,-21.2458027],[-41.0047404,-21.2510999],[-40.9957952,-21.2861898],[-40.9776179,-21.2851351],[-40.9579091,-21.301782],[-40.9621732,-21.266684],[-40.9529703,-21.2352966],[-40.9146039,-21.1727357],[-40.8785426,-21.1402824],[-40.8584235,-21.1276302],[-40.8408439,-21.0840184],[-40.8297976,-21.0475971],[-40.8134908,-21.0353602],[-40.8048991,-21.0024585],[-40.8110689,-20.9862362],[-40.8085605,-20.9581746],[-40.7949905,-20.9251957],[-40.7583802,-20.8794797],[-40.7588884,-20.8656525]],[[-40.8907549,-20.8897416],[-40.9270152,-20.8911122],[-40.9476195,-20.8853573]]],"bbox":[-41.8771177,-21.301782,-29.2991521,-17.8944233]}
