{"type":"Topology","objects":{"geometrias":{"type":"GeometryCollection","geometries":[{"type":"Polygon","arcs":[[0,1,2,3,4,5,6,7,8,9,10,11,12,13,14,15]],"properties":{"code_meso":5101,"code_state":51,"code_region":5,"name_meso":"Norte Mato-Grossense","abbrev_state":"MT","name_state":"Mato Grosso","name_region":"Centro-Oeste","year":2020}},{"type":"Polygon","arcs":[[16,-12,17,18,19,-16,20,-14]],"properties":{"code_meso":5102,"code_state":51,"code_region":5,"name_meso":"Nordeste Mato-Grossense","abbrev_state":"MT","name_state":"Mato Grosso","name_region":"Centro-Oeste","year":2020}},{"type":"Polygon","arcs":[[-2,21,22,23,24,25]],"properties":{"code_meso":5103,"code_state":51,"code_region":5,"name_meso":"Sudoeste Mato-Grossense","abbrev_state":"MT","name_state":"Mato Grosso","name_region":"Centro-Oeste","year":2020}},{"type":"Polygon","arcs":[[-25,26,-23,27,28,29,-6,30,-4,31]],"properties":{"code_meso":5104,"code_state":51,"code_region":5,"name_meso":"Centro-Sul Mato-Grossense","abbrev_state":"MT","name_state":"Mato Grosso","name_region":"Centro-Oeste","year":2020}},{"type":"Polygon","arcs":[[32,-19,33,-10,34,-8,35,-29]],"properties":{"code_meso":5105,"code_state":51,"code_region":5,"name_meso":"Sudeste Mato-Grossense","abbrev_state":"MT","name_state":"Mato Grosso","name_region":"Centro-Oeste","year":2020}}]}},"arcs":[[[-52.6218877,-9.6828053],[-53.0004717,-9.6552689],[-54.1066155,-9.5719207],[-54.6134541,-9.5358262],[-55.6041026,-9.4559371],[-56.6718827,-9.3673969],[-56.7083858,-9.3732067],[-56.7542707,-9.4063641],[-56.7723236,-9.3909593],[-56.7755214,-9.3295274],[-56.785188,-9.3165637],[-56.8034149,-9.2674537],[-56.8201088,-9.2463404],[-56.8603337,-9.2316457],[-56.8723618,-9.2391627],[-56.9381871,-9.2304317],[-56.9522491,-9.2230836],[-56.9955493,-9.2338426],[-57.0226379,-9.2197009],[-57.0393269,-9.1970326],[-57.0601323,-9.1819673],[-57.0524179,-9.1584616],[-57.0604425,-9.1371304],[-57.0414961,-9.1150928],[-57.0392416,-9.09829],[-57.063247,-9.0785757],[-57.0596053,-9.0642778],[-57.0900292,-9.0382179],[-57.0946052,-9.0171114],[-57.1382742,-8.9946121],[-57.1950043,-8.9275137],[-57.2401898,-8.9064918],[-57.2861971,-8.9154972],[-57.3060316,-8.9099045],[-57.3178883,-8.8857123],[-57.3843829,-8.8795574],[-57.4162157,-8.8589951],[-57.413276,-8.8261891],[-57.4175043,-8.7926085],[-57.4275794,-8.7832392],[-57.4524982,-8.7866128],[-57.5230025,-8.7497337],[-57.5623651,-8.7612518],[-57.5929389,-8.756477],[-57.6010539,-8.741228],[-57.5936149,-8.7074193],[-57.6053024,-8.6628336],[-57.6205597,-8.6477445],[-57.6251036,-8.6214038],[-57.6222457,-8.5911884],[-57.6447781,-8.5819802],[-57.6505026,-8.5533713],[-57.633422,-8.5268109],[-57.6590545,-8.5003866],[-57.6539947,-8.4650723],[-57.6815844,-8.4331259],[-57.6865577,-8.4070078],[-57.6686084,-8.3745527],[-57.6802225,-8.3269407],[-57.6648349,-8.2948832],[-57.6630828,-8.2685022],[-57.6439678,-8.2310878],[-57.6432123,-8.2121753],[-57.6581904,-8.186488],[-57.6772464,-8.1713961],[-57.7046383,-8.1680236],[-57.7198593,-8.146605],[-57.7284399,-8.0942158],[-57.7765286,-8.0521753],[-57.8039975,-8.0034251],[-57.828833,-7.9728959],[-57.8327106,-7.9534917],[-57.8331651,-7.8948624],[-57.840971,-7.8614777],[-57.8684113,-7.8127219],[-57.8796423,-7.7819074],[-57.8829998,-7.7467218],[-57.896749,-7.6778845],[-57.9161933,-7.6573446],[-57.9343873,-7.6567724],[-57.9520562,-7.5801442],[-57.972582,-7.5345881],[-58.002168,-7.4881303],[-58.0398352,-7.446345],[-58.0613616,-7.3951912],[-58.118602,-7.3530631],[-58.1369999,-7.3564081],[-58.173361,-7.3943672],[-58.21306,-7.4585347],[-58.2131404,-7.493329],[-58.2227233,-7.5240378],[-58.2188625,-7.5500307],[-58.2025237,-7.5967433],[-58.2021706,-7.6208543],[-58.2397897,-7.6536067],[-58.2517941,-7.6767995],[-58.2759903,-7.6996663],[-58.2830841,-7.7408901],[-58.2940558,-7.7715405],[-58.3340604,-7.8044011],[-58.3646072,-7.8167663],[-58.3847417,-7.8439891],[-58.3746655,-7.8647604],[-58.3751355,-7.8990013],[-58.3550493,-7.9439894],[-58.3315026,-7.9687628],[-58.3217286,-8.0249817],[-58.2883921,-8.0795723],[-58.2901673,-8.1356],[-58.3174323,-8.1545474],[-58.3224642,-8.1700394],[-58.3129453,-8.2091049],[-58.3221697,-8.2320657],[-58.3205879,-8.2718688],[-58.3280835,-8.2858292],[-58.3148931,-8.3230601],[-58.3448047,-8.3407363],[-58.3545775,-8.3927541],[-58.3901503,-8.4389649],[-58.4178072,-8.4895196],[-58.4151685,-8.5234446],[-58.4051026,-8.537555],[-58.410469,-8.5703919],[-58.3895183,-8.5947925],[-58.4035242,-8.6311977],[-58.4142747,-8.6439051],[-58.4359716,-8.6954603],[-58.43353,-8.7104385],[-58.4119558,-8.7206089],[-58.3758508,-8.703714],[-58.3510264,-8.7015842],[-58.3283686,-8.7121787],[-58.3320714,-8.7264608],[-58.3546695,-8.7372636],[-58.3880024,-8.7747864],[-58.415878,-8.7928428],[-58.4428679,-8.7993991],[-59.0012826,-8.8030976],[-59.4813631,-8.8033209],[-60.0005265,-8.8008853],[-60.4201808,-8.7966226],[-61.5831348,-8.7986891],[-61.5430783,-8.8190978],[-61.5271948,-8.816858],[-61.5137215,-8.8369518],[-61.5115045,-8.8636406],[-61.469214,-8.9201143],[-61.4895398,-8.9372717],[-61.5110619,-8.9761931],[-61.555755,-9.0924026],[-61.5553819,-9.1314969],[-61.5236433,-9.1790181],[-61.5196316,-9.1951977],[-61.5280945,-9.2311652],[-61.5519857,-9.2438516],[-61.5683872,-9.237088],[-61.5996169,-9.2560351],[-61.6283434,-9.257097],[-61.6328359,-9.276471],[-61.6119925,-9.2807016],[-61.6113336,-9.3157281],[-61.6247905,-9.3364251],[-61.6259281,-9.3630117],[-61.5803064,-9.3682219],[-61.5633169,-9.3781567],[-61.5505387,-9.4147035],[-61.55672,-9.435615],[-61.5817187,-9.4591265],[-61.5627368,-9.4857714],[-61.5258126,-9.5017971],[-61.5495654,-9.5152171],[-61.5080429,-9.540463],[-61.5103714,-9.5650911],[-61.4949271,-9.5849287],[-61.5030326,-9.615345],[-61.4768074,-9.628723],[-61.4940717,-9.659381],[-61.5068828,-9.6619559],[-61.505272,-9.6913819],[-61.5324293,-9.7117765],[-61.5530502,-9.7071921],[-61.5746373,-9.7177933],[-61.5315013,-9.7399119],[-61.5326111,-9.7579842],[-61.547356,-9.7875415],[-61.5249134,-9.7957303],[-61.5079136,-9.8610818],[-61.5110765,-9.8955614],[-61.5249818,-9.9065757],[-61.5233429,-9.9484856],[-61.5312021,-9.9898503],[-61.5558735,-10.0389514],[-61.5843749,-10.0596093],[-61.5787102,-10.0792444],[-61.6012364,-10.1500901],[-61.5577505,-10.1823138],[-61.5740051,-10.2089593],[-61.5767244,-10.2485762],[-61.5440872,-10.3009945],[-61.5481076,-10.3163893],[-61.5161645,-10.3344363],[-61.5017216,-10.3537765],[-61.5031111,-10.3759259],[-61.4769134,-10.4106314],[-61.4617928,-10.4199046],[-61.4735108,-10.4749576],[-61.4808157,-10.4877483],[-61.4790698,-10.529872],[-61.4663218,-10.5412113],[-61.4799609,-10.5691537],[-61.4762363,-10.6076634],[-61.489594,-10.6298033],[-61.4789575,-10.6430436],[-61.4844843,-10.6737666],[-61.4993935,-10.6986176],[-61.4763671,-10.722504],[-61.4764168,-10.7677946],[-61.5108965,-10.7936807],[-61.5034218,-10.8084452],[-61.5099966,-10.8368279],[-61.5251489,-10.8558039],[-61.5193336,-10.891992],[-61.5300873,-10.9790195],[-61.5502579,-10.9860947],[-61.0005949,-10.9922393],[-61.0005934,-10.988351],[-60.4600501,-10.9898562],[-60.4296987,-11.0374942],[-60.4114906,-11.0467759],[-60.3915541,-11.0937926],[-60.3479707,-11.1090363],[-60.3419726,-11.0826337],[-60.301248,-11.0571521],[-60.2823584,-11.0640172],[-60.2808334,-11.0915305],[-60.2412468,-11.0968881],[-60.1914692,-11.1141134],[-60.1776041,-11.0992539],[-60.1461594,-11.1041269],[-60.1126909,-11.10254],[-60.0961909,-11.1107881],[-60.0750227,-11.1050246],[-60.0663542,-11.1209934],[-60.032028,-11.127778],[-59.9767766,-11.1223889],[-59.9950224,-11.148203],[-59.9875818,-11.1711082],[-59.9640257,-11.1891151],[-59.9811296,-11.2037619],[-59.9796883,-11.2395295],[-59.9679112,-11.2529339],[-59.9594679,-11.2947339],[-59.9277738,-11.3104346],[-59.9171931,-11.3384346],[-59.925437,-11.3617763],[-59.9206343,-11.3980076],[-59.9344129,-11.4236675],[-59.952352,-11.4364224],[-59.9762413,-11.4392225],[-59.9854077,-11.4693409],[-60.0328028,-11.4995521],[-60.0574695,-11.542096],[-60.0866925,-11.5609447],[-60.1148844,-11.591462],[-60.1099085,-11.6155403],[-60.1187981,-11.6540707],[-60.1216618,-11.7121038],[-60.1073891,-11.7489734],[-60.109156,-11.7805548],[-60.0986646,-11.7943321],[-60.1033601,-11.8191718],[-60.0766345,-11.8852893],[-60.0503863,-11.8978671],[-60.0068898,-11.894683],[-59.9857972,-11.9120801],[-59.9804138,-11.9416011],[-59.9869914,-11.9600898],[-59.9713581,-11.9699456],[-59.9665831,-12.0071625],[-59.9695798,-12.0324752],[-59.9619968,-12.0563674],[-59.9292763,-12.0784547],[-59.8998038,-12.1172227],[-59.9026053,-12.1750357],[-59.9108107,-12.1864566],[-59.9017147,-12.2238791],[-59.8867969,-12.245087],[-59.7743574,-12.3409559],[-59.7929413,-12.3457819],[-59.8192559,-12.3787482],[-59.8425487,-12.424849],[-59.84416,-12.4671729],[-59.8989333,-12.5030734],[-59.8960537,-12.5364446],[-59.9476548,-12.5992652],[-59.9774152,-12.6065175],[-59.9815739,-12.5921385],[-60.0033205,-12.5923372],[-60.0108331,-12.6091402],[-60.028942,-12.6185671],[-60.059073,-12.6635501],[-60.0658458,-12.6938228],[-60.0557303,-12.7036176],[-60.0750583,-12.7332327],[-60.0621632,-12.7581709],[-60.0587059,-12.786211],[-60.0828176,-12.852636],[-60.0791962,-12.873926],[-60.0881078,-12.9024309],[-60.1015281,-12.9134155],[-60.1171653,-12.9595556],[-60.1833444,-12.967629],[-60.2136568,-13.0070527],[-60.2152922,-13.0269807],[-60.2413314,-13.0384575],[-60.2562022,-13.063813],[-60.2829916,-13.0805523],[-60.2771203,-13.1126783],[-60.2786128,-13.1596137],[-60.3038368,-13.1783698],[-60.3082236,-13.1994875],[-60.3297838,-13.2354686],[-60.3248107,-13.2504877],[-60.3734795,-13.324443],[-60.3660926,-13.332232],[-60.3713434,-13.3675469],[-60.3795864,-13.3752343],[-60.3793059,-13.4153231],[-60.3879196,-13.4546951],[-60.4115299,-13.4616583],[-60.4320021,-13.4884356],[-60.4864221,-13.4941821],[-60.5316656,-13.5180899],[-60.5357855,-13.537301],[-60.5776508,-13.5652277],[-60.600309,-13.5727202],[-60.6347881,-13.5745178],[-60.6455062,-13.5928216],[-60.6860379,-13.6252274],[-60.7139468,-13.6759978],[-60.7046824,-13.7046713],[-60.6865712,-13.7031919],[-60.6807964,-13.7199216],[-60.6461545,-13.7387043],[-60.6235162,-13.7195351],[-60.6003771,-13.7489045],[-60.574761,-13.7474353],[-60.5694102,-13.7687045],[-60.5319304,-13.7715548],[-60.4984569,-13.789018],[-60.4726823,-13.7937191],[-60.4842355,-13.848864],[-60.4674284,-13.8561433],[-60.4551528,-13.8809775],[-60.450121,-13.9286386],[-60.4275955,-13.9435763],[-60.4187643,-13.9745128],[-60.3890708,-13.9788613],[-60.382096,-13.9874563],[-60.3775112,-14.011267]],[[-60.3775112,-14.011267],[-60.3387816,-14.0196818],[-60.3142663,-14.0608419],[-60.2548754,-14.0481086],[-60.2379246,-14.0367136],[-60.1678275,-14.0122202],[-60.1271275,-14.0267845],[-60.0974284,-14.0244711],[-60.0311421,-14.0354238],[-60.0005132,-14.0515952],[-59.973131,-14.0414661],[-59.950891,-14.0563005],[-59.9497813,-14.0778519],[-59.9187746,-14.0832357],[-59.902244,-14.1229589],[-59.8419451,-14.1709526],[-59.839142,-14.1448418],[-59.8251671,-14.1196744],[-59.8271816,-14.0814737],[-59.8069104,-14.0432238],[-59.749671,-14.0331757],[-59.7361172,-14.0961429],[-59.707385,-14.1104374],[-59.6660363,-14.0916778],[-59.6326144,-14.0884605],[-59.6149001,-14.0735703],[-59.5796808,-14.0569081],[-59.5357432,-14.0098504],[-59.492293,-14.0163113],[-59.4566653,-14.0419175],[-59.4129317,-14.014321],[-59.3803709,-13.9834778],[-59.3641255,-14.002469],[-59.344259,-14.0524107],[-59.3680979,-14.0922904],[-59.374747,-14.1300451],[-59.4069651,-14.1520178],[-59.405559,-14.16072],[-59.4234392,-14.2145079],[-59.4104037,-14.246306],[-59.4054666,-14.2778869],[-59.3958026,-14.2904074],[-59.3859676,-14.3315105],[-59.3674249,-14.3436179],[-59.3435381,-14.4007195],[-59.3441977,-14.4180749],[-59.3185674,-14.5016731],[-59.2994211,-14.4579351],[-59.3072413,-14.4339045],[-59.290887,-14.3894459],[-59.2555252,-14.3628598],[-59.2227542,-14.3509203],[-59.163998,-14.3489229],[-59.1442323,-14.3431307],[-59.1264322,-14.3170312],[-59.1089477,-14.3116849],[-59.0937538,-14.2883088],[-59.0955723,-14.2421387],[-59.1039719,-14.2297466],[-59.092184,-14.1926567],[-59.0671405,-14.1662899],[-59.0789202,-14.1450083],[-59.0377898,-14.0579714],[-59.0456212,-13.9999611],[-58.0840608,-13.9999858],[-58.0922941,-14.0531866],[-58.0927385,-14.1349843],[-58.1302084,-14.2005285],[-58.1446681,-14.2037836],[-58.1547353,-14.2250091],[-58.1799738,-14.2459562],[-58.1804763,-14.2584227],[-58.2180871,-14.3010205],[-58.2299093,-14.3431052],[-58.2320338,-14.385776],[-57.8352005,-14.2985058],[-57.8144079,-14.302625],[-57.7347131,-14.2916043]],[[-57.7347131,-14.2916043],[-57.7328659,-14.3034131]],[[-57.7328659,-14.3034131],[-57.7239424,-14.3030025],[-57.7125114,-14.2950302],[-57.6973867,-14.2970024],[-57.6755936,-14.2868322],[-57.6715542,-14.2696695],[-57.6570202,-14.2361806]],[[-57.6570202,-14.2361806],[-57.6305906,-14.2090578],[-57.6179105,-14.1999304],[-57.6025308,-14.1951448]],[[-57.6025308,-14.1951448],[-57.5748388,-14.1996873],[-57.5595647,-14.225577],[-57.547235,-14.2289242],[-57.5337638,-14.2214084],[-57.5018142,-14.2214633],[-57.4782624,-14.2115143],[-57.455451,-14.190166],[-57.418073,-14.1791097],[-57.4100628,-14.1630455],[-57.3770056,-14.1556265],[-57.3633163,-14.1800563],[-57.3318055,-14.1858501],[-57.3055953,-14.1731281],[-57.2380771,-14.1681357],[-57.2020252,-14.1887064],[-57.1744985,-14.1864746],[-57.1490065,-14.1643232],[-57.1179332,-14.1737586],[-57.0892213,-14.1563492],[-57.0788138,-14.1652751],[-57.0814535,-14.1888541],[-57.0636067,-14.1985256],[-57.0301505,-14.1936838],[-57.0013711,-14.1928129],[-56.934517,-14.1529319],[-56.890639,-14.1480436],[-56.7689056,-14.1507267],[-56.7259086,-14.1329973],[-56.7154147,-14.1570174],[-56.73024,-14.1705498],[-56.7065367,-14.1982736],[-56.6776763,-14.1987413],[-56.6556812,-14.2152981],[-56.6179445,-14.1997352],[-56.6045586,-14.2009935],[-56.519551,-14.2557698],[-56.5390007,-14.2629363],[-56.5434915,-14.2794971],[-56.5698272,-14.3132108],[-56.5751354,-14.3351688],[-56.5571975,-14.341603],[-56.5412834,-14.3955517],[-56.5232809,-14.4184093],[-56.4762924,-14.4504515],[-56.4298283,-14.4632369],[-56.4140207,-14.4603322],[-56.3883768,-14.4864346],[-56.3884017,-14.5204644],[-56.3955802,-14.5331314],[-56.4556744,-14.5763468],[-56.5268713,-14.6688781],[-56.4811613,-14.6666759],[-56.4626731,-14.6779178],[-56.4528403,-14.7037308],[-56.4589183,-14.7180451],[-56.447958,-14.7381403],[-56.4164702,-14.7505161],[-56.3332443,-14.7669191],[-56.318957,-14.7485483],[-56.2984104,-14.7661875],[-56.255344,-14.7342772],[-56.260935,-14.7170744],[-56.2497659,-14.6968678],[-56.2050066,-14.6679007],[-56.1716925,-14.6789112],[-56.1623913,-14.6605277],[-56.1379834,-14.6522047],[-56.12182,-14.6622107],[-56.1023337,-14.6961408],[-56.0284315,-14.6811485],[-56.0225157,-14.6687626],[-55.9944558,-14.6786453],[-55.9729061,-14.6753286],[-55.9301105,-14.6830855],[-55.8561406,-14.6560366],[-55.8371509,-14.6277716],[-55.8340853,-14.5998336],[-55.8498304,-14.581278],[-55.8438532,-14.5649836],[-55.8559652,-14.5517569],[-55.8372132,-14.5235664],[-55.7986446,-14.5061487],[-55.7706641,-14.5013657],[-55.7423682,-14.480585],[-55.7281844,-14.4586617],[-55.6948963,-14.4748096],[-55.6617086,-14.4421239],[-55.6350835,-14.4515201],[-55.6242942,-14.4384312],[-55.571791,-14.4262853],[-55.5685331,-14.4145979],[-55.5353003,-14.4071926],[-55.4984426,-14.3656978],[-55.4794389,-14.353845],[-55.4590783,-14.3578521],[-55.4364674,-14.3508443],[-55.4297949,-14.3202786],[-55.4062356,-14.336376],[-55.3653666,-14.3390909],[-55.3601249,-14.3266897],[-55.3283609,-14.3229384],[-55.298912,-14.2945343],[-55.2377947,-14.2928979],[-55.22209,-14.2885837],[-55.2141498,-14.2623357],[-55.2266293,-14.2385078],[-55.2008549,-14.2178042],[-55.1869855,-14.2232811],[-55.1626968,-14.2109899],[-55.1422303,-14.2216211],[-55.1188375,-14.2032846],[-55.0929608,-14.2143797],[-55.0693355,-14.2047945],[-55.0392356,-14.2298882],[-55.0264344,-14.2487529],[-54.9841309,-14.2241378],[-54.9687223,-14.2244395],[-54.9395425,-14.2405295],[-54.9212844,-14.2376421],[-54.8983505,-14.2196897],[-54.8759477,-14.2168071],[-54.8505327,-14.2291538],[-54.8432003,-14.2591428],[-54.8259772,-14.2535109],[-54.8137822,-14.26081],[-54.808864,-14.2648458],[-54.8111168,-14.2781446],[-54.8371081,-14.3197386],[-54.8435854,-14.3263867],[-54.8583962,-14.3311553],[-54.8554924,-14.338125],[-54.8586664,-14.3483744],[-54.8711979,-14.3849987],[-54.8922133,-14.3977469],[-54.8978684,-14.4020369],[-54.8981657,-14.3949646],[-54.9164649,-14.4093105],[-54.9238564,-14.4131832],[-54.9564402,-14.4347679],[-54.959903,-14.4356828],[-54.9775728,-14.4398923],[-54.9892826,-14.4419492],[-55.0006657,-14.4503243],[-55.0441196,-14.4429897],[-55.0931506,-14.4294005],[-55.1185939,-14.4536996],[-55.1145198,-14.4727183],[-55.1224076,-14.5091872],[-55.1371202,-14.5243841],[-55.1667735,-14.4955452],[-55.1908856,-14.4940603],[-55.2165651,-14.5092888],[-55.2047344,-14.5243576],[-55.2069674,-14.5503993],[-55.2317264,-14.5619687],[-55.2744126,-14.6146679],[-55.30958,-14.5968974],[-55.3557263,-14.5623424],[-55.3821894,-14.5516427],[-55.3981193,-14.5556559],[-55.3920396,-14.6024888],[-55.4001152,-14.6285189],[-55.4334956,-14.6441135],[-55.4396737,-14.6594281],[-55.4664309,-14.6639753],[-55.4774008,-14.6957156],[-55.5223822,-14.7565223],[-55.6016213,-14.7850026],[-55.6031355,-14.787976],[-55.6021393,-14.7899721],[-55.6071083,-14.7923675],[-55.636574,-14.8041801],[-55.6424572,-14.8130119],[-55.643344,-14.8179575],[-55.6471589,-14.8198719],[-55.650631,-14.8229493],[-55.6527207,-14.8241283],[-55.6310792,-14.8357645],[-55.5956362,-14.8421348],[-55.576902,-14.8719545],[-55.5515721,-14.8575334],[-55.4928304,-14.8786039],[-55.4565475,-14.8652753],[-55.4171529,-14.8438048],[-55.3777136,-14.8350329],[-55.3556682,-14.8201438],[-55.3334509,-14.8456058],[-55.3103059,-14.8098701],[-55.2877027,-14.8137974],[-55.2848472,-14.8076357],[-55.2527102,-14.81024],[-55.2263601,-14.8226221],[-55.2162769,-14.8243131],[-55.1982247,-14.825996],[-55.1937184,-14.8080685],[-55.1898468,-14.804739],[-55.1761998,-14.7956877],[-55.1619742,-14.7910502],[-55.1597137,-14.7870794],[-55.1514991,-14.7878561],[-55.1591482,-14.7929523],[-55.1571488,-14.7946498],[-55.1565319,-14.7998781],[-55.1433286,-14.8110499],[-55.1429492,-14.8161487],[-55.1519355,-14.8378043],[-55.1433423,-14.9007615],[-55.1152863,-14.9340345],[-55.1078128,-14.9665391],[-55.1313562,-14.9692423],[-55.1810799,-15.0169816],[-55.1698389,-15.0945889],[-55.1574996,-15.1165628],[-55.1099373,-15.1092841]],[[-55.1099373,-15.1092841],[-55.0961773,-15.1045927]],[[-55.0961773,-15.1045927],[-55.078907,-15.0957306],[-55.0581767,-15.0989707],[-55.0172569,-15.0836919],[-54.9967981,-15.0836671],[-54.9457837,-15.0708311],[-54.9152561,-15.0687444],[-54.8443184,-15.0668779],[-54.7364385,-14.9707565],[-54.6974313,-14.9530573],[-54.6563261,-14.917024],[-54.5851384,-14.8950132],[-54.5400441,-14.8856899]],[[-54.5400441,-14.8856899],[-54.5234984,-14.8823838],[-54.4983143,-14.8631027]],[[-54.4983143,-14.8631027],[-54.4966117,-14.8418427],[-54.5147221,-14.7927959],[-54.476642,-14.7729974],[-54.4303138,-14.7601096],[-54.3987164,-14.7632093],[-54.3415173,-14.7346141],[-54.2900979,-14.7169415],[-54.2441276,-14.7065108],[-54.1965295,-14.6849604],[-54.1837674,-14.6525435],[-54.1446191,-14.644166],[-54.1336486,-14.6279038],[-54.1099517,-14.6156406],[-54.0959189,-14.6206439],[-54.0310916,-14.6051046],[-54.0157682,-14.613043],[-53.9897011,-14.6113425],[-53.973578,-14.6084894],[-53.960548,-14.6038609],[-53.9474957,-14.611415],[-53.9415783,-14.6168192],[-53.9203242,-14.6343835],[-53.8697886,-14.6200504],[-53.8317235,-14.6169138],[-53.7977008,-14.6285021],[-53.7956555,-14.6302901],[-53.7896962,-14.6331736],[-53.7828161,-14.6331141],[-53.7828584,-14.6342149]],[[-53.7828584,-14.6342149],[-53.7726598,-14.634324]],[[-53.7726598,-14.634324],[-53.7544331,-14.6261205],[-53.7499974,-14.6249145],[-53.7457621,-14.6223703],[-53.7215616,-14.6124679],[-53.6975708,-14.5753923],[-53.6370017,-14.5672894],[-53.5970906,-14.5572779],[-53.5574374,-14.5201757],[-53.5605715,-14.5006157],[-53.5319296,-14.461594],[-53.5168025,-14.4596559],[-53.457282,-14.3913401],[-53.4556924,-14.3866162],[-53.4552572,-14.3807154],[-53.4546202,-14.3735114],[-53.4516241,-14.3528494],[-53.4632839,-14.3152064],[-53.4540646,-14.2889968],[-53.4551942,-14.264748],[-53.4195002,-14.2299127],[-53.4004123,-14.1829495],[-53.3762363,-14.1655235],[-53.3644341,-14.1363569],[-53.3657872,-14.0664759],[-53.3589812,-14.0270484],[-53.352785,-14.0210978],[-53.3461176,-14.001963],[-53.327226,-14.003364],[-53.3162124,-13.96008],[-53.2996764,-13.9486949],[-53.2850675,-13.9093671],[-53.2632712,-13.885357],[-53.2571671,-13.8717931],[-53.2564192,-13.8516896],[-53.2512958,-13.8294004],[-53.2504098,-13.8190331],[-53.2489569,-13.8022193],[-53.2264573,-13.785876],[-53.2170745,-13.7560434],[-53.1958489,-13.7390726],[-53.1784401,-13.7145282],[-53.1650445,-13.7079563],[-53.164352,-13.6958609],[-53.1426771,-13.6751295],[-53.1332991,-13.6520652],[-53.1199947,-13.6486492],[-53.0812428,-13.612965],[-53.0871146,-13.5921768],[-53.0746418,-13.560289],[-53.0880119,-13.536692],[-53.0895281,-13.5153708],[-53.0691858,-13.4710249],[-53.0680984,-13.445786],[-53.0488447,-13.4371324],[-53.0263017,-13.3830065],[-53.0263614,-13.3616381],[-53.0063687,-13.3422992],[-53.0092551,-13.3196252],[-52.9912888,-13.3066775],[-52.9643081,-13.2701333],[-52.9627558,-13.217188],[-52.9277635,-13.2009803],[-52.9152454,-13.1639637],[-52.9121537,-13.1580499],[-52.9019124,-13.158425],[-52.8992287,-13.1630028],[-52.8994869,-13.1264747],[-52.8835095,-13.0620852],[-52.8639078,-13.0273278],[-52.8734239,-13.0178029],[-52.8794123,-12.9869833],[-52.8558835,-12.9647835],[-52.8354255,-12.9271622],[-52.8240813,-12.8781335],[-52.8132786,-12.8717089],[-52.8130747,-12.8502945],[-52.8347175,-12.8363501],[-52.8498183,-12.8093625],[-52.8949048,-12.7845778],[-52.8912257,-12.7736562],[-52.9114313,-12.7531297],[-52.8899971,-12.7396143],[-52.9022752,-12.7294683],[-52.9244327,-12.7452299],[-52.9351397,-12.6939305],[-52.9475843,-12.6662692],[-52.9603501,-12.6709925],[-52.9607189,-12.6601302],[-52.9459543,-12.6536581],[-52.9379117,-12.6273413],[-52.9201729,-12.6214997],[-52.9248666,-12.6028342],[-52.9440865,-12.5852486],[-52.96768,-12.5859061],[-52.96573,-12.5565275],[-52.9857924,-12.5293806],[-53.0248139,-12.509274],[-53.0353995,-12.4857138],[-53.0742359,-12.4647063],[-53.1043091,-12.4356863],[-53.1089954,-12.3857354],[-53.114624,-12.3703348],[-53.1219337,-12.3594416],[-53.1366816,-12.3492432],[-53.1483862,-12.3211632],[-53.162168,-12.325332],[-53.1909024,-12.3079524],[-53.1921159,-12.2844148],[-53.1880899,-12.2754205],[-53.2126459,-12.2699953],[-53.245197,-12.2550404],[-53.2611512,-12.2280573],[-53.2812382,-12.2253687],[-53.2880672,-12.2306987],[-53.306765,-12.2292091],[-53.3093282,-12.2199854],[-53.3180013,-12.1952866],[-53.3017258,-12.171373],[-53.3096137,-12.1553473],[-53.3320639,-12.1515283],[-53.3437352,-12.1322904],[-53.3414866,-12.1001676],[-53.3588376,-12.0855363],[-53.3605736,-12.0529179],[-53.3796569,-12.0500625],[-53.3845824,-12.0290995],[-53.3945048,-12.0154652],[-53.4374124,-11.9936767],[-53.4476441,-11.978359],[-53.4806591,-11.9807979],[-53.4872918,-11.9494188],[-53.5061116,-11.9489881],[-53.5482281,-11.9359011],[-53.5479584,-11.9219336],[-53.5711581,-11.8948078],[-53.5880761,-11.8591753],[-53.5872909,-11.8254822],[-53.601639,-11.7867921],[-53.6084145,-11.7436783],[-53.5692391,-11.6514234],[-53.5715766,-11.6159046],[-53.5406459,-11.5981879],[-53.5465297,-11.5729375],[-53.516909,-11.5444645],[-53.5044166,-11.5242904],[-53.4755659,-11.5179148],[-53.4695244,-11.5004242],[-53.4419197,-11.4646278],[-53.439253,-11.4315899],[-53.4279727,-11.4249233],[-53.4003843,-11.4359036],[-53.388065,-11.4210991],[-53.3782662,-11.3913148],[-53.3667587,-11.3829435],[-53.3024333,-11.3133408],[-53.2907535,-11.3022161],[-53.2800562,-11.281094],[-53.2511735,-11.2638524],[-53.2601329,-11.2439266]],[[-53.2601329,-11.2439266],[-53.2619606,-11.2362464],[-53.2604478,-11.2289643],[-53.2401652,-11.2017417]],[[-53.2401652,-11.2017417],[-53.2404811,-11.1810237],[-53.2420823,-11.1479671],[-53.2640104,-11.1112277],[-53.2669793,-11.0908152],[-53.2852427,-11.0826916],[-53.2854889,-11.03797],[-53.3158942,-11.000419],[-53.3181399,-10.9582388],[-53.2989329,-10.9294649],[-53.2379641,-10.8714107],[-53.1941913,-10.8579199],[-53.1631302,-10.8588853],[-53.1294095,-10.8464486],[-53.1228644,-10.8178712],[-53.0991334,-10.7871158],[-53.0981816,-10.7536249],[-53.0831811,-10.7034917],[-53.0949321,-10.6863405],[-53.091864,-10.6470541],[-53.0524024,-10.6096192],[-53.0532993,-10.5859077],[-53.0879261,-10.5658373],[-53.0826352,-10.5454604],[-53.083007,-10.4997573],[-53.0670081,-10.4607967],[-53.0610908,-10.4183402],[-53.0459411,-10.3641773],[-53.02144,-10.3228289],[-52.9857867,-10.3165747],[-52.9589262,-10.302457],[-52.9542521,-10.2735988],[-52.9712608,-10.2545634],[-52.9788691,-10.224709],[-52.9784976,-10.1758236],[-52.998474,-10.1548826],[-53.0033357,-10.132992],[-52.9913551,-10.1082386],[-52.9957061,-10.0843545],[-52.9917036,-10.0709605],[-52.955824,-10.0426293],[-52.9433874,-10.026122]],[[-52.9433874,-10.026122],[-52.9191502,-10.0037089],[-52.9125115,-9.9999255],[-52.8998051,-9.9967846]],[[-52.8998051,-9.9967846],[-52.8879081,-9.9572644],[-52.8689137,-9.9488484],[-52.8584307,-9.9198078],[-52.8241662,-9.9052677],[-52.7987392,-9.8803559],[-52.7760016,-9.8325203],[-52.7334881,-9.8043032],[-52.7138368,-9.8064452],[-52.6868265,-9.7904741],[-52.6570239,-9.7819381],[-52.6301239,-9.7309939],[-52.6312911,-9.6974757],[-52.6218877,-9.6828053]],[[-53.2401652,-11.2017417],[-53.2448425,-11.2110901],[-53.2567441,-11.2242542],[-53.2615516,-11.2322035],[-53.2601329,-11.2439266]],[[-53.7726598,-14.634324],[-53.7771607,-14.6351969]],[[-53.7771607,-14.6351969],[-53.7950031,-14.6711258],[-53.8221261,-14.6733519],[-53.8617809,-14.7032869],[-53.8680108,-14.7212032],[-53.8878289,-14.7255421],[-53.9110086,-14.746618],[-53.9838207,-14.7714194],[-53.9900269,-14.784583],[-54.0179274,-14.7924785],[-54.0425459,-14.8191791],[-54.0757109,-14.8281522],[-54.0927306,-14.8250094],[-54.0829862,-14.8694334],[-54.0265644,-14.8982111],[-53.971766,-14.9736073],[-53.9329082,-14.9908686],[-53.9473099,-15.0387838],[-53.9464024,-15.0731905],[-53.9248337,-15.0831424],[-53.9384145,-15.1005859],[-53.94027,-15.1668579],[-53.9272311,-15.1827648],[-53.9494035,-15.2347901],[-53.9102061,-15.2447521],[-53.888999,-15.2584852],[-53.8749579,-15.2488789],[-53.8220567,-15.2615814],[-53.7872011,-15.2921515],[-53.7843317,-15.3074377],[-53.7329745,-15.3432908],[-53.6566178,-15.3422116],[-53.6300905,-15.3572344],[-53.6074924,-15.3488469],[-53.5500625,-15.3762813],[-53.5318833,-15.3652882],[-53.5084062,-15.3821021],[-53.4856307,-15.3819538],[-53.4797634,-15.3677682],[-53.4209188,-15.3455547],[-53.3970269,-15.3476799],[-53.3807551,-15.3742267],[-53.3230621,-15.3667153],[-53.3130044,-15.3359518],[-53.2952578,-15.3210387],[-53.2680234,-15.3409931],[-53.2669981,-15.3516132],[-53.2206833,-15.3993094],[-53.2033771,-15.4338119],[-53.1722127,-15.4348725],[-53.1658505,-15.4448605],[-53.1596949,-15.4931646],[-53.1358032,-15.5048945],[-53.1253364,-15.5201263],[-53.1367657,-15.5379058],[-53.1219732,-15.5550262],[-53.0735737,-15.5467181],[-53.0438195,-15.5590621],[-53.0185678,-15.5402966],[-53.01538,-15.5242792],[-52.992614,-15.5174751],[-52.952522,-15.5223376],[-52.8917264,-15.5094982],[-52.850959,-15.4829579],[-52.8301325,-15.4597658],[-52.8087067,-15.4518852],[-52.7516777,-15.4792718],[-52.7276268,-15.4786371],[-52.7133037,-15.5146449],[-52.7031692,-15.5558826],[-52.7085073,-15.5637429],[-52.7343559,-15.5823596],[-52.7542745,-15.6143561],[-52.7648486,-15.6268896],[-52.759581,-15.6397564],[-52.7686302,-15.6474658],[-52.7681406,-15.6628235],[-52.7659759,-15.6812842],[-52.7518732,-15.689535],[-52.7521297,-15.6970567],[-52.744636,-15.7056352],[-52.754427,-15.7136302],[-52.7368748,-15.7238431],[-52.7213672,-15.7417703],[-52.6920091,-15.7196455],[-52.6678055,-15.7278769],[-52.6161337,-15.7714267],[-52.6076699,-15.7991862],[-52.5671463,-15.8303449],[-52.5447892,-15.8420129],[-52.5095728,-15.8562091],[-52.5039371,-15.8632713],[-52.4170932,-15.8797963],[-52.3871084,-15.8833516],[-52.3669308,-15.8906536],[-52.3247564,-15.9056975],[-52.2990733,-15.9117081],[-52.2681228,-15.8981215],[-52.2599012,-15.9041304]],[[-52.2599012,-15.9041304],[-52.2479693,-15.8901847],[-52.2159323,-15.8915822],[-52.1900371,-15.8813254],[-52.1313821,-15.8954985],[-52.1096389,-15.882653],[-52.0733217,-15.8816546],[-52.0576873,-15.8875426],[-52.0116938,-15.8865082],[-51.9949235,-15.8707443],[-51.9813041,-15.8425042],[-51.9531249,-15.8344788],[-51.9484549,-15.8100984],[-51.9129113,-15.8132336],[-51.8922896,-15.8311214],[-51.879841,-15.8229438],[-51.8750577,-15.8000421],[-51.8592473,-15.7874643],[-51.8261465,-15.7339027],[-51.8051451,-15.7257712],[-51.8007188,-15.7007355],[-51.7631133,-15.6460387],[-51.754235,-15.6124359],[-51.7798514,-15.5554215],[-51.7751308,-15.5322678],[-51.760886,-15.5300637],[-51.7556134,-15.5574154],[-51.7393436,-15.5592768],[-51.7255764,-15.544129],[-51.7371803,-15.5267965],[-51.7285664,-15.5018063],[-51.7057302,-15.4975624],[-51.7000568,-15.4740008],[-51.7094595,-15.4594918],[-51.6912771,-15.4258682],[-51.6972226,-15.4091862],[-51.669531,-15.374421],[-51.6873706,-15.3468505],[-51.6914677,-15.3249149],[-51.6797381,-15.290064],[-51.6506993,-15.2730935],[-51.668793,-15.2546151],[-51.6681964,-15.2321668],[-51.6507182,-15.2033039],[-51.649292,-15.174675],[-51.6061345,-15.162297],[-51.5640798,-15.1086091],[-51.5468907,-15.1004651],[-51.5341081,-15.0652022],[-51.4620029,-15.0479797],[-51.4441342,-15.0345996],[-51.4269632,-15.0076659],[-51.4017387,-15.0028534],[-51.3769297,-15.0102626],[-51.3595787,-15.0023992],[-51.3355323,-14.9717535],[-51.3070507,-14.9809707],[-51.295042,-15.0302486],[-51.2676087,-15.044413],[-51.2190088,-15.0247016],[-51.1983989,-15.0027752],[-51.15705,-14.985611],[-51.1449181,-14.9434106],[-51.0871098,-14.9213487],[-51.0930003,-14.8935438],[-51.0896375,-14.8401805],[-51.0707095,-14.8099634],[-51.0448213,-14.7928386],[-51.0566607,-14.7612964],[-51.0531885,-14.7388819],[-51.029233,-14.7074084],[-51.0266586,-14.6593581],[-51.0100072,-14.6457339],[-50.9928355,-14.6124579],[-50.9962494,-14.5746109],[-50.9642292,-14.5282977],[-50.973025,-14.4976842],[-50.9680137,-14.4819971],[-50.9889651,-14.4535716],[-50.9849149,-14.4319171],[-50.9978306,-14.4156747],[-50.9844832,-14.3764446],[-50.9882005,-14.3599682],[-50.9693146,-14.3358323],[-50.9781733,-14.2972436],[-50.9548889,-14.2332145],[-50.9402094,-14.2184689],[-50.9100275,-14.148419],[-50.8951037,-14.1308696],[-50.8711194,-14.11793],[-50.8518089,-14.1176257],[-50.8348823,-14.0946837],[-50.8329111,-14.0708596],[-50.8550439,-14.0258773],[-50.8471508,-13.9997948],[-50.8663329,-13.979648],[-50.8626275,-13.9540243],[-50.8402336,-13.9236819],[-50.8406443,-13.8637887],[-50.8590855,-13.8287048],[-50.8543701,-13.7997614],[-50.8583114,-13.7536609],[-50.8690193,-13.7248042],[-50.8297337,-13.7098143],[-50.8062258,-13.6938146],[-50.786569,-13.6466268],[-50.7836065,-13.6203941],[-50.7715851,-13.6045005],[-50.7683782,-13.5608543],[-50.7589998,-13.5203153],[-50.7148156,-13.4914731],[-50.6940354,-13.4695508],[-50.6835249,-13.445191],[-50.6639456,-13.4349565],[-50.6696223,-13.3976196],[-50.6653237,-13.3755658],[-50.6464959,-13.3619688],[-50.6085957,-13.3175954],[-50.6066294,-13.2789389],[-50.592727,-13.2605582],[-50.5841755,-13.2176963],[-50.6059358,-13.1875102],[-50.5936237,-13.1636575],[-50.5995303,-13.1360913],[-50.5945502,-13.096701],[-50.6103187,-13.0647588],[-50.6064732,-13.0540029],[-50.5763134,-13.0541372],[-50.5690214,-13.0424957],[-50.5935939,-13.0072101],[-50.5905238,-13.0004264],[-50.548804,-12.9928203],[-50.5237278,-12.9711832],[-50.5263757,-12.9339305],[-50.5134792,-12.9128663],[-50.510974,-12.8867658],[-50.4998954,-12.8678115],[-50.5319858,-12.8436218],[-50.5669545,-12.8434234],[-50.6005434,-12.8244273],[-50.5819162,-12.7993793],[-50.6253595,-12.8000195],[-50.6302565,-12.776069],[-50.6229618,-12.7346385],[-50.6347107,-12.7253575],[-50.6547658,-12.6791794],[-50.6463495,-12.6637937],[-50.6562041,-12.6459931],[-50.6963941,-12.649685],[-50.7064888,-12.609701],[-50.6919664,-12.5927513],[-50.6864785,-12.5692042],[-50.6637105,-12.5374332],[-50.659598,-12.5060873],[-50.6470935,-12.4855232],[-50.6530391,-12.4600739],[-50.6235737,-12.4552838],[-50.618255,-12.4289922],[-50.6326753,-12.4171039],[-50.6268725,-12.384032],[-50.6445669,-12.345909],[-50.6378161,-12.325286],[-50.6489155,-12.2990896],[-50.6312602,-12.284883],[-50.6464236,-12.2560953],[-50.6437098,-12.222965],[-50.6813773,-12.2169497],[-50.6790353,-12.1553342],[-50.6676227,-12.0645602],[-50.6870762,-12.0356338],[-50.6778492,-12.0195134],[-50.682238,-11.9908876],[-50.6568339,-11.9668494],[-50.6547364,-11.9479861],[-50.6678955,-11.9277674],[-50.640571,-11.9026897],[-50.6392882,-11.8845665],[-50.6653727,-11.8644579],[-50.6863045,-11.8589954],[-50.6880448,-11.825041],[-50.7005871,-11.8034665],[-50.7078612,-11.768234],[-50.7215915,-11.7317126],[-50.6637021,-11.6775273],[-50.6574739,-11.5928064],[-50.6805146,-11.5836283],[-50.7159867,-11.5789533],[-50.7389352,-11.5445116],[-50.7347961,-11.5118226],[-50.742064,-11.4603495],[-50.7392596,-11.435385],[-50.7281426,-11.4169059],[-50.7285111,-11.3825659],[-50.7122605,-11.3598453],[-50.6968135,-11.3046578],[-50.6713266,-11.2867414],[-50.6560371,-11.2402367],[-50.6547324,-11.2150298],[-50.6644814,-11.1515989],[-50.6576348,-11.1278124],[-50.6438862,-11.1231826],[-50.6370427,-11.1005471],[-50.6175928,-11.085811],[-50.6094574,-11.0674457],[-50.6174251,-11.0320006],[-50.6202415,-10.9689077],[-50.6326193,-10.9318615],[-50.6007891,-10.9006838],[-50.6049528,-10.8724723],[-50.6190437,-10.8640944],[-50.6220066,-10.8394178],[-50.6121984,-10.8103215],[-50.5968989,-10.8047216],[-50.5705877,-10.7525041],[-50.5876039,-10.6860094],[-50.6028977,-10.658234],[-50.5825666,-10.6440813],[-50.5631719,-10.6113215],[-50.541428,-10.6093227],[-50.5197293,-10.5624786],[-50.5230342,-10.5407962],[-50.5161464,-10.5039094],[-50.4826205,-10.4900386],[-50.4878673,-10.4679723],[-50.4737254,-10.4049055],[-50.4482858,-10.3915721],[-50.4410615,-10.375566],[-50.4182853,-10.3562814],[-50.4230666,-10.3274417],[-50.4062032,-10.2882508],[-50.3980942,-10.2544301],[-50.3815645,-10.2189129],[-50.3894009,-10.1749275],[-50.3982581,-10.1554697],[-50.3778102,-10.1107158],[-50.3572811,-10.0902957],[-50.3398411,-10.0609382],[-50.3124518,-10.0456588],[-50.2942791,-10.016107],[-50.2906705,-9.9908185],[-50.2779318,-9.9707729],[-50.2642803,-9.9084975],[-50.2248064,-9.8411535],[-50.8428938,-9.8008231],[-51.3042873,-9.77286],[-52.6218877,-9.6828053]],[[-52.8998051,-9.9967846],[-52.915581,-10.0014246],[-52.9232904,-10.0072067],[-52.9433874,-10.026122]],[[-60.3775112,-14.011267],[-60.383055,-13.9926418],[-60.4032362,-13.9998022],[-60.4060405,-14.030345],[-60.4261176,-14.0489176],[-60.447631,-14.0856296],[-60.4791528,-14.0954326],[-60.482542,-14.1348699],[-60.4752133,-14.1602975],[-60.4915995,-14.1900373],[-60.4716796,-14.192731],[-60.4649069,-14.234041],[-60.4497391,-14.2510968],[-60.4652368,-14.264411],[-60.4531588,-14.3143463],[-60.4341798,-14.3358082],[-60.3954848,-14.3643105],[-60.4038727,-14.401021],[-60.3983763,-14.4257898],[-60.3831221,-14.4418251],[-60.3789319,-14.4637191],[-60.3381787,-14.5118859],[-60.3240992,-14.6021033],[-60.2930458,-14.625271],[-60.272148,-14.6202922],[-60.2443214,-15.096806],[-60.5010196,-15.0962195],[-60.5650189,-15.1086836],[-60.5004328,-15.1797951],[-60.2386048,-15.4738516],[-60.1717171,-16.2661061],[-59.5002041,-16.2784608],[-58.7861909,-16.3068836]],[[-58.7861909,-16.3068836],[-58.7944015,-16.292349],[-58.7961365,-16.2505796],[-58.7715167,-16.214824],[-58.7624176,-16.1743385],[-58.7144341,-16.1409254],[-58.7037806,-16.0925277],[-58.6861984,-16.0719774],[-58.6936359,-16.0367068],[-58.6757166,-16.0149695],[-58.6391017,-16.0038314],[-58.63099,-15.9810376],[-58.5970394,-15.963631],[-58.5817426,-15.9424907],[-58.5571152,-15.9501049],[-58.4983425,-15.940825],[-58.4856719,-15.9299985],[-58.4531327,-15.9214324],[-58.4107783,-15.8905589],[-58.3750662,-15.8873341],[-58.3493711,-15.9146061],[-58.3069562,-15.9232049],[-58.2886168,-15.9514097],[-58.2968147,-15.9929633],[-58.2362123,-16.0355352],[-58.1705243,-16.0456871],[-58.1518844,-16.0445588],[-58.16234,-16.0032502],[-58.1581371,-15.9781988],[-58.1731964,-15.9316891],[-58.1720099,-15.9064141],[-58.1550737,-15.8645006],[-58.1321063,-15.8473229],[-58.1092885,-15.8438282],[-58.0921299,-15.8202625],[-58.068174,-15.8296166],[-58.0401504,-15.8208795],[-58.0013899,-15.8235249],[-57.9791159,-15.8125079],[-57.9436565,-15.8209941],[-57.9344083,-15.7984635],[-57.9667933,-15.7711616],[-57.9768715,-15.7738848],[-57.9659591,-15.7143292],[-57.9340618,-15.7163389],[-57.9217194,-15.7313145],[-57.882319,-15.7424127],[-57.879032,-15.7195099],[-57.8999086,-15.6825881],[-57.8940345,-15.6640597],[-57.904144,-15.6504673],[-57.955127,-15.6255606],[-57.9879194,-15.6038373],[-57.9906611,-15.5617036],[-57.9585328,-15.5288141],[-57.9427173,-15.5482065],[-57.9207894,-15.5558502],[-57.9029431,-15.5410588],[-57.9164121,-15.5142264],[-57.9126074,-15.4869392],[-57.8745468,-15.4839462],[-57.832036,-15.5108606],[-57.8427387,-15.5413874],[-57.8297208,-15.5568015],[-57.8137717,-15.6109182],[-57.7958448,-15.6172452],[-57.7831431,-15.6391966],[-57.8019665,-15.6503704],[-57.8084259,-15.6715004],[-57.8089154,-15.7525327],[-57.7990262,-15.7586966],[-57.7603564,-15.6802212],[-57.742488,-15.7096284],[-57.722205,-15.7271166],[-57.6993145,-15.7127168],[-57.712819,-15.6469122],[-57.6970019,-15.6023934],[-57.7028327,-15.5775187],[-57.69529,-15.5491436],[-57.7069318,-15.5162937],[-57.7008646,-15.4789882],[-57.7122475,-15.4545028],[-57.508048,-15.510007],[-57.4852908,-15.5709419],[-57.4988617,-15.6267868],[-57.4927729,-15.6747848],[-57.510754,-15.6958026],[-57.5201544,-15.7455333],[-57.4884318,-15.7454834],[-57.4504227,-15.7548159],[-57.4199,-15.7367116],[-57.4061961,-15.7195305],[-57.3784154,-15.7137781],[-57.3444384,-15.7304528],[-57.321438,-15.7511585],[-57.3072901,-15.778485],[-57.3122195,-15.8100428],[-57.2719947,-15.8332553],[-57.2511895,-15.7948108],[-57.2249568,-15.7905895],[-57.2233554,-15.810714],[-57.1957641,-15.795823],[-57.176991,-15.7753739],[-57.1759993,-15.747693],[-57.1139779,-15.6540341],[-57.1237811,-15.6408724],[-57.0880376,-15.5744317],[-57.0687607,-15.5704233],[-57.0618768,-15.5366695],[-57.0416072,-15.5257122],[-57.0155135,-15.486578],[-56.9972863,-15.4695436],[-56.9702224,-15.4665057],[-56.9566691,-15.4558843],[-56.9837003,-15.4356458],[-56.9904744,-15.4088036],[-56.9722269,-15.3671549],[-56.8593771,-15.2129016],[-56.8299581,-15.1869399],[-56.8345408,-15.1760734],[-56.8138948,-15.1595829],[-56.8218346,-15.13948],[-56.8056644,-15.1060763],[-56.8363834,-15.0748271],[-56.8561437,-15.0415454],[-56.8585243,-15.0135915],[-56.8815765,-14.9988445],[-56.8978079,-15.0155785],[-56.9234029,-15.0095878],[-56.9547484,-15.0288215],[-56.9865447,-14.9975329],[-56.958705,-14.994512],[-56.9593945,-14.9720182],[-56.9316164,-14.9600842],[-56.9203353,-14.9249183],[-56.8897892,-14.9118313],[-56.8807432,-14.8759484],[-56.8688792,-14.8713803],[-56.8564235,-14.8266252],[-56.8439815,-14.809446],[-56.8252222,-14.8032562],[-56.8126455,-14.7775843],[-56.7819957,-14.7412069],[-56.7613721,-14.7403985],[-56.7590508,-14.6985061],[-56.7222765,-14.6833171],[-56.7187472,-14.6795475],[-56.7290053,-14.656391],[-56.7226606,-14.6511125],[-56.906676,-14.5918042],[-56.9207067,-14.5719898],[-56.9119019,-14.5480626],[-56.9497076,-14.5029943],[-56.9635806,-14.5033071],[-57.0079354,-14.5298824],[-57.029489,-14.5140977],[-57.0730268,-14.5194036],[-57.1025399,-14.533568],[-57.1033888,-14.5613666],[-57.146142,-14.561396],[-57.153483,-14.5458574],[-57.1758634,-14.5405674],[-57.1966041,-14.5485958],[-57.2293435,-14.5396],[-57.2427878,-14.5499632],[-57.2831969,-14.5560014],[-57.3291031,-14.5271845],[-57.3296702,-14.4964645],[-57.3436329,-14.4821527],[-57.3727315,-14.5044921],[-57.4082597,-14.4852595],[-57.4279778,-14.4924224],[-57.4415507,-14.4567626],[-57.4601329,-14.4398172],[-57.4842886,-14.4507514],[-57.5041653,-14.439765],[-57.5256576,-14.4666841],[-57.5460327,-14.469923],[-57.5961603,-14.5060232],[-57.6191152,-14.5356883],[-57.647295,-14.5515234],[-57.6723969,-14.5532499],[-57.701357,-14.5033969],[-57.7134454,-14.4910773]],[[-57.7134454,-14.4910773],[-57.6990492,-14.4563275],[-57.6998413,-14.441259],[-57.7036736,-14.4266259]],[[-57.7036736,-14.4266259],[-57.7198226,-14.3753722]],[[-57.7198226,-14.3753722],[-57.7347131,-14.2916043]],[[-57.7036736,-14.4266259],[-57.7015015,-14.4321251],[-57.6989725,-14.4484225],[-57.6998869,-14.4588432],[-57.7134454,-14.4910773]],[[-58.7861909,-16.3068836],[-58.4304714,-16.321295],[-58.3941679,-16.2967772],[-58.388701,-16.2610025],[-58.3657234,-16.2733408],[-58.3284134,-16.2704522],[-58.3031109,-16.3076866],[-58.3071421,-16.37019],[-58.3244181,-16.3779771],[-58.3447791,-16.4001511],[-58.3561672,-16.4263463],[-58.3337504,-16.4900151],[-58.3438582,-16.5177267],[-58.3860655,-16.5435927],[-58.3938376,-16.5628727],[-58.4213356,-16.5735517],[-58.4360882,-16.5923583],[-58.4631091,-16.6522195],[-58.4608947,-16.6666972],[-58.4705849,-16.7030229],[-58.4734442,-16.7451697],[-58.466673,-16.7568816],[-58.4760304,-16.8274445],[-58.4618988,-16.8410824],[-58.4669236,-16.9110622],[-58.474419,-16.9349574],[-58.456752,-16.9399572],[-58.4609536,-16.964724],[-58.4315048,-16.9908198],[-58.4305889,-17.0722635],[-58.4235325,-17.1132338],[-58.3958657,-17.1046488],[-58.3872829,-17.11886],[-58.3975624,-17.136756],[-58.3970015,-17.1815511],[-58.3696428,-17.2003801],[-58.3460059,-17.2327389],[-58.3034755,-17.2702707],[-58.2782571,-17.2991959],[-58.2765591,-17.323738],[-58.2635877,-17.344677],[-58.1951426,-17.3689577],[-58.1980576,-17.3861164],[-58.1772016,-17.3915664],[-58.1531693,-17.3836439],[-58.1454784,-17.4136682],[-58.1228699,-17.4146831],[-58.1183906,-17.4503746],[-58.0892817,-17.461136],[-58.0601442,-17.450721],[-58.0495309,-17.4630302],[-58.0433869,-17.4926684],[-58.0232231,-17.4943845],[-57.9929736,-17.5150583],[-57.9716991,-17.5056011],[-57.8834421,-17.449542],[-57.7522947,-17.5644631],[-57.7400515,-17.5363052],[-57.7250315,-17.5310124],[-57.712196,-17.5589094],[-57.6998343,-17.6111177],[-57.6717799,-17.6641124],[-57.6846131,-17.7164815],[-57.6635542,-17.7298538],[-57.6403039,-17.7173593],[-57.6231109,-17.736359],[-57.6093088,-17.7975415],[-57.5763315,-17.8005284],[-57.5520038,-17.8282053],[-57.5310279,-17.8391135],[-57.5347769,-17.8536338],[-57.5093604,-17.8638881],[-57.4852744,-17.8622281],[-57.4619356,-17.8985358],[-57.4262763,-17.856396],[-57.4097521,-17.8539153],[-57.3680807,-17.8261992],[-57.3534564,-17.8378584],[-57.3113845,-17.8178245],[-57.2837729,-17.8129128],[-57.2648357,-17.8203496],[-57.2271374,-17.7827847],[-57.2042483,-17.7892519],[-57.1467441,-17.7675051],[-57.1209426,-17.780164],[-57.0985808,-17.7704176],[-57.0739121,-17.7354635],[-57.0449146,-17.7303213],[-57.0333769,-17.6947411],[-57.0132748,-17.6724294],[-56.9882191,-17.65929],[-56.9838501,-17.6418931],[-56.9591079,-17.6128389],[-56.9814111,-17.6110155],[-56.9734925,-17.5803843],[-56.9503793,-17.5686349],[-56.9449609,-17.5529495],[-56.9175445,-17.5413551],[-56.8759675,-17.5329722],[-56.8502388,-17.4867813],[-56.8409099,-17.4420086],[-56.824407,-17.4230789],[-56.8297428,-17.3913258],[-56.7910296,-17.3910659],[-56.7843122,-17.3686531],[-56.7674608,-17.3645847],[-56.7568856,-17.3256863],[-56.7338542,-17.3098602],[-56.7016512,-17.3199384],[-56.6831814,-17.3165664],[-56.663575,-17.3388297],[-56.6514596,-17.3265476],[-56.6200181,-17.3220326],[-56.6118524,-17.3319082],[-56.5510156,-17.3228763],[-56.5138734,-17.3128227],[-56.5080719,-17.2952844],[-56.4773991,-17.305408],[-56.442331,-17.3312821],[-56.4325993,-17.3185875],[-56.38893,-17.3019463],[-56.3830663,-17.2879584],[-56.3440177,-17.2852847],[-56.313541,-17.2694291],[-56.2865701,-17.2704402],[-56.2690411,-17.239792],[-56.2130102,-17.2259386],[-56.1844615,-17.1945709],[-56.1288482,-17.1794232],[-56.1123441,-17.1663486],[-56.0827304,-17.1777458],[-56.0160675,-17.1902288],[-56.0185698,-17.2094581],[-55.9857339,-17.2584002],[-55.9601547,-17.2501906],[-55.9462038,-17.2725045],[-55.9093871,-17.263146],[-55.8865622,-17.2847647],[-55.8696498,-17.2753556],[-55.8452305,-17.2986061],[-55.805011,-17.3094399],[-55.7876445,-17.3286458],[-55.7612066,-17.323532],[-55.7196727,-17.3488597],[-55.6892624,-17.3404395],[-55.6389256,-17.3497901],[-55.6263398,-17.3640297],[-55.6027802,-17.3673651]],[[-55.6027802,-17.3673651],[-55.5936136,-17.3692318],[-55.5940611,-17.3655288],[-55.5917062,-17.3608792],[-55.5853883,-17.3505209],[-55.5846398,-17.3538166],[-55.5756261,-17.3520321],[-55.532809,-17.3330761],[-55.5042225,-17.3505767],[-55.4907213,-17.3447482],[-55.4612539,-17.350576],[-55.4363539,-17.369411],[-55.4067111,-17.3570963],[-55.370929,-17.3625262],[-55.3648392,-17.3603081],[-55.3512469,-17.3388287],[-55.3266806,-17.3360733],[-55.3065609,-17.3223141],[-55.3001599,-17.2899593],[-55.254984,-17.2945418],[-55.2204572,-17.2675981],[-55.1971014,-17.2368333],[-55.1841468,-17.2098756],[-55.1461117,-17.189491],[-55.1180822,-17.1829047],[-55.08182,-17.1333032],[-55.0665791,-17.1314598],[-55.0228514,-17.1033712],[-54.9909474,-17.1166576],[-54.967777,-17.1063614],[-54.9471982,-17.1074507],[-54.9355838,-17.0860676],[-54.9133203,-17.0866301],[-54.8950991,-17.0741552],[-54.8998047,-17.0723939],[-54.9218446,-17.0581194],[-54.9049711,-17.0155933],[-54.9325252,-17.0156647],[-54.9258865,-16.9799014],[-54.9144796,-16.9760004],[-54.9312746,-16.9259002],[-54.9310262,-16.9048056],[-54.9190467,-16.8788723],[-54.9013329,-16.8767673],[-54.8961571,-16.8365457],[-54.9033732,-16.8162946],[-54.8951651,-16.7991443],[-54.9463155,-16.7448636],[-54.9567174,-16.6845536],[-54.9932466,-16.6619228],[-54.9741833,-16.6535554],[-54.9586234,-16.6270214],[-54.9675936,-16.6087378],[-54.9604657,-16.5897696],[-54.9583234,-16.5411895],[-54.9365181,-16.5348629],[-54.9698907,-16.470641],[-55.0170352,-16.5047139],[-55.0320025,-16.4827262],[-55.0352873,-16.4626863],[-55.0601074,-16.446239],[-55.1009797,-16.4402727],[-55.1167835,-16.449138],[-55.1483661,-16.4464822],[-55.1566004,-16.4652757],[-55.140237,-16.4746954],[-55.1524338,-16.5047595],[-55.1805916,-16.5293403],[-55.2166001,-16.5241645],[-55.2660046,-16.5302363],[-55.2880077,-16.5116646],[-55.2827111,-16.4666648],[-55.2986831,-16.4524982],[-55.3165996,-16.4211092],[-55.3474328,-16.4223795],[-55.3849326,-16.3987379],[-55.3574328,-16.3742906],[-55.3646548,-16.3516654],[-55.3526411,-16.3168739],[-55.385766,-16.3317843],[-55.390766,-16.3147214],[-55.4140992,-16.3173361],[-55.4244474,-16.3045139],[-55.4582656,-16.3046107],[-55.4692914,-16.287499],[-55.5190987,-16.3089678],[-55.5324319,-16.2794432],[-55.5407278,-16.2792032],[-55.5241349,-16.2724991],[-55.5262507,-16.2413176],[-55.5057654,-16.2271046],[-55.4915988,-16.1958328],[-55.4582022,-16.1683964],[-55.4382279,-16.1624996],[-55.4299324,-16.1446522],[-55.4121351,-16.1424997],[-55.4040235,-16.1191665],[-55.3649328,-16.1106664],[-55.3624328,-16.1055744],[-55.3735277,-16.1052611],[-55.3710159,-16.0958333],[-55.3700507,-16.0859513],[-55.3694567,-16.0483335],[-55.3657661,-16.0377387],[-55.3576891,-16.0258336],[-55.3542508,-16.019849],[-55.3599995,-16.0232669],[-55.3674327,-16.026396],[-55.3932659,-16.0022921],[-55.3940993,-15.9891403],[-55.4333638,-15.9658339],[-55.4261825,-15.9425007],[-55.4223133,-15.9358341],[-55.4239014,-15.9343652],[-55.4722788,-15.9593203],[-55.507432,-15.9878675],[-55.5159167,-15.9748492],[-55.4811623,-15.9329369],[-55.4695559,-15.9029583],[-55.5090986,-15.8895631],[-55.519307,-15.9066675],[-55.5440985,-15.9073822],[-55.5679046,-15.9204736],[-55.5718605,-15.8714057],[-55.5595151,-15.8695844],[-55.5424319,-15.8458345],[-55.5575254,-15.8174077],[-55.5540983,-15.8086688],[-55.573265,-15.8079026],[-55.5704746,-15.7766682],[-55.5340986,-15.7590332],[-55.5387177,-15.7371209],[-55.6191197,-15.7373688],[-55.5824293,-15.7141164],[-55.5467718,-15.6836654],[-55.5163434,-15.6472554],[-55.4701491,-15.581032],[-55.446245,-15.5613039],[-55.4235262,-15.5645714],[-55.4011085,-15.5319094],[-55.4043033,-15.4883411],[-55.3841668,-15.46317],[-55.3907836,-15.4355097],[-55.4178422,-15.4302963],[-55.4091597,-15.4110715],[-55.372769,-15.3972841],[-55.3607321,-15.4065473],[-55.3287342,-15.4040364],[-55.3093469,-15.390408],[-55.2965202,-15.3590284],[-55.30944,-15.3536531],[-55.3103627,-15.3305095],[-55.3268071,-15.2730016],[-55.2766448,-15.255336],[-55.2842876,-15.2363533],[-55.1991065,-15.2289155],[-55.1692161,-15.2054892],[-55.0986074,-15.1060796]],[[-55.0986074,-15.1060796],[-55.1099373,-15.1092841]],[[-57.6025308,-14.1951448],[-57.6119828,-14.1975268],[-57.6237312,-14.2033327],[-57.6361968,-14.2143468],[-57.6570202,-14.2361806]],[[-57.7328659,-14.3034131],[-57.7198226,-14.3753722]],[[-55.6027802,-17.3673651],[-55.5829072,-17.3790709],[-55.5852567,-17.4076463],[-55.5748727,-17.434666],[-55.5597307,-17.4396546],[-55.5150329,-17.4836213],[-55.4654475,-17.4868574],[-55.4437374,-17.5117761],[-55.4052044,-17.5123968],[-55.3537599,-17.531617],[-55.3518155,-17.5476916],[-55.2996749,-17.541193],[-55.2503096,-17.5848767],[-55.2089503,-17.6157483],[-55.127256,-17.6527223],[-55.1113648,-17.6312286],[-55.0726482,-17.6316326],[-55.0473123,-17.640333],[-54.9143075,-17.6084507],[-54.8970355,-17.620346],[-54.8608638,-17.6238535],[-54.8515863,-17.6130333],[-54.8250042,-17.6096759],[-54.8213108,-17.5973862],[-54.7773872,-17.5706656],[-54.7587809,-17.5656964],[-54.7570029,-17.5344943],[-54.746913,-17.5199422],[-54.6955269,-17.503521],[-54.6694458,-17.5042341],[-54.6074189,-17.4871305],[-54.5816628,-17.468007],[-54.5541884,-17.4886684],[-54.536332,-17.4775852],[-54.484664,-17.4890941],[-54.4669149,-17.5290742],[-54.4263032,-17.5370001],[-54.4059423,-17.5536054],[-54.3859105,-17.5814497],[-54.3770818,-17.607434],[-54.3877987,-17.6319367],[-54.3716358,-17.6450507],[-54.3308523,-17.661479],[-54.2745496,-17.6540482],[-54.2437438,-17.6289046],[-54.2139957,-17.6201748],[-54.1934133,-17.6061271],[-54.1620475,-17.6072396],[-54.1341872,-17.6187264],[-54.1229426,-17.613223],[-54.0846925,-17.6190348],[-54.0732693,-17.5878013],[-54.051633,-17.5627701],[-54.045908,-17.5372274],[-54.0580771,-17.5131293],[-54.0232666,-17.4770731],[-53.9730501,-17.472244],[-53.9311006,-17.4394503],[-53.9146006,-17.4144145],[-53.8879887,-17.3926058],[-53.8683836,-17.3683775],[-53.8332681,-17.3571102],[-53.834963,-17.3357604],[-53.8200727,-17.2946157],[-53.7857133,-17.2875151],[-53.7590784,-17.2431425],[-53.73321,-17.2309018],[-53.705145,-17.2281538],[-53.6800749,-17.2535697],[-53.6934025,-17.5002017],[-53.7046075,-17.6635095],[-53.739769,-17.6650093],[-53.7569664,-17.6734603],[-53.8002416,-17.6707893],[-53.8546834,-17.7030036],[-53.8609367,-17.7207118],[-53.8883811,-17.7489926],[-53.8954943,-17.7770247],[-53.910353,-17.8038856],[-53.9359416,-17.8320981],[-53.9550243,-17.8712438],[-53.9477716,-17.8987829],[-53.9522962,-17.9146877],[-53.9242445,-17.9199634],[-53.8985506,-17.9088024],[-53.8769378,-17.9235289],[-53.854247,-17.9258343],[-53.8241628,-17.9487043],[-53.8086091,-17.9722466],[-53.7945174,-17.9772828],[-53.7742172,-18.0007701],[-53.7338219,-17.9953349],[-53.7268023,-18.0034729],[-53.6927188,-18.0069201],[-53.6777472,-17.9897936],[-53.6520434,-17.9763287],[-53.6125462,-17.9780328],[-53.6069948,-17.9954897],[-53.5750192,-18.0126507],[-53.5178768,-18.0206482],[-53.4860712,-18.0404003],[-53.4601554,-18.0220326],[-53.4572943,-17.999699],[-53.4350488,-17.9845827],[-53.4057084,-17.9920489],[-53.3807712,-18.0087572],[-53.3356748,-18.0069075],[-53.307573,-17.9959785],[-53.2415444,-18.0047098],[-53.1987916,-18.0203061],[-53.1767934,-18.0415807],[-53.0722775,-18.0339753],[-53.0647494,-17.9845366],[-53.071315,-17.9659132],[-53.1047187,-17.9276243],[-53.1248223,-17.918015],[-53.1227249,-17.8982747],[-53.135743,-17.8756462],[-53.1337961,-17.8324855],[-53.159894,-17.7960312],[-53.1553716,-17.7852182],[-53.1739929,-17.7542098],[-53.2021732,-17.7259884],[-53.2337892,-17.7130374],[-53.2366639,-17.6794998],[-53.2483442,-17.6421667],[-53.2362465,-17.5782373],[-53.2441223,-17.5229237],[-53.2344451,-17.479059],[-53.2234972,-17.4586332],[-53.2281141,-17.4378245],[-53.2009055,-17.3718219],[-53.2019544,-17.340922],[-53.2118412,-17.3272933],[-53.2080973,-17.2931612],[-53.1718272,-17.2331751],[-53.1551668,-17.1868367],[-53.1566662,-17.1706845],[-53.1275167,-17.1545758],[-53.110745,-17.1081403],[-53.0874917,-17.1008125],[-53.0548061,-17.0641756],[-53.071421,-17.0496052],[-53.0608971,-17.0305634],[-53.053547,-16.9788949],[-53.0350329,-16.9424731],[-53.0394551,-16.9126931],[-53.0191666,-16.9002232],[-53.0174078,-16.8782915],[-53.0054934,-16.8652765],[-52.9450246,-16.8551914],[-52.9232654,-16.8182183],[-52.8927581,-16.7940898],[-52.8844177,-16.7764073],[-52.8594506,-16.7685953],[-52.8293704,-16.7701427],[-52.8081932,-16.7422776],[-52.7925243,-16.7401439],[-52.7856585,-16.714447],[-52.7640304,-16.6979826],[-52.7590414,-16.6711255],[-52.7410747,-16.6520897],[-52.7260216,-16.6144966],[-52.7275853,-16.5863466],[-52.7032115,-16.5963439],[-52.6732905,-16.5849219],[-52.6702748,-16.558683],[-52.6544824,-16.5607108],[-52.6255931,-16.5309265],[-52.6316352,-16.5001506],[-52.6127559,-16.5017547],[-52.6060783,-16.4860242],[-52.6192182,-16.4463069],[-52.6386778,-16.4375587],[-52.6516772,-16.408483],[-52.6745488,-16.4124041],[-52.687412,-16.3990005],[-52.6775937,-16.3809965],[-52.692787,-16.3671524],[-52.68258,-16.3441296],[-52.6825566,-16.3017423],[-52.6579667,-16.2800754],[-52.6193461,-16.2838801],[-52.5891948,-16.269497],[-52.5689264,-16.2338872],[-52.545272,-16.2226104],[-52.5505031,-16.1875631],[-52.5473373,-16.1632322],[-52.5020554,-16.1421354],[-52.488136,-16.1304309],[-52.4605729,-16.1277183],[-52.4395408,-16.1100841],[-52.3988793,-16.0933424],[-52.372894,-16.0981299],[-52.3299379,-16.0721758],[-52.3240427,-16.0378143],[-52.3108158,-16.0070365],[-52.28913,-15.9794146],[-52.2903395,-15.9655473],[-52.2568953,-15.9308847],[-52.2599012,-15.9041304]],[[-53.7771607,-14.6351969],[-53.7828584,-14.6342149]],[[-54.4983143,-14.8631027],[-54.5228485,-14.8820741],[-54.5400441,-14.8856899]],[[-55.0961773,-15.1045927],[-55.0986074,-15.1060796]]],"bbox":[-61.6328359,-18.0415807,-50.2248064,-7.3530631]}
