{"type":"Topology","objects":{"geometrias":{"type":"GeometryCollection","geometries":[{"type":"Polygon","arcs":[[0,1,2,3,4,5,6,7]],"properties":{"code_meso":5001,"code_state":50,"code_region":5,"name_meso":"Pantanais Sul Mato-Grossense","abbrev_state":"MS","name_state":"Mato Grosso do Sul","name_region":"Centro-Oeste","year":2020}},{"type":"Polygon","arcs":[[8,-6,9,10,11,12,13,14,15,-8]],"properties":{"code_meso":5002,"code_state":50,"code_region":5,"name_meso":"Centro Norte de Mato Grosso do Sul","abbrev_state":"MS","name_state":"Mato Grosso do Sul","name_region":"Centro-Oeste","year":2020}},{"type":"Polygon","arcs":[[16,-15,17,18,19,20,21,22,23]],"properties":{"code_meso":5003,"code_state":50,"code_region":5,"name_meso":"Leste de Mato Grosso do Sul","abbrev_state":"MS","name_state":"Mato Grosso do Sul","name_region":"Centro-Oeste","year":2020}},{"type":"Polygon","arcs":[[24,-2,25,-24,26,27,-21,28,-19,29,-13,30,-11,31,-4]],"properties":{"code_meso":5004,"code_state":50,"code_region":5,"name_meso":"Sudoeste de Mato Grosso do Sul","abbrev_state":"MS","name_state":"Mato Grosso do Sul","name_region":"Centro-Oeste","year":2020}}]}},"arcs":[[[-55.1389964,-17.6478325],[-55.170614,-17.640834],[-55.1740705,-17.6306315],[-55.2089503,-17.6157483],[-55.2503096,-17.5848767],[-55.2751489,-17.558826],[-55.2996749,-17.541193],[-55.331581,-17.5492658],[-55.3518155,-17.5476916],[-55.3537599,-17.531617],[-55.4052044,-17.5123968],[-55.4437374,-17.5117761],[-55.4654475,-17.4868574],[-55.5150329,-17.4836213],[-55.5597307,-17.4396546],[-55.5748727,-17.434666],[-55.5852567,-17.4076463],[-55.5829072,-17.3790709],[-55.6389256,-17.3497901],[-55.6892624,-17.3404395],[-55.7043718,-17.3516831],[-55.7215605,-17.3494956],[-55.7612066,-17.323532],[-55.7876445,-17.3286458],[-55.805011,-17.3094399],[-55.8452305,-17.2986061],[-55.8696498,-17.2753556],[-55.8865622,-17.2847647],[-55.9093871,-17.263146],[-55.9469868,-17.2712912],[-55.9601547,-17.2501906],[-55.9917599,-17.2502234],[-56.0120377,-17.2366818],[-56.0185698,-17.2094581],[-56.0160675,-17.1902288],[-56.0554506,-17.1837167],[-56.0616804,-17.1707109],[-56.0827304,-17.1777458],[-56.1123441,-17.1663486],[-56.1288482,-17.1794232],[-56.1844615,-17.1945709],[-56.2130102,-17.2259386],[-56.2337303,-17.2273371],[-56.2690411,-17.239792],[-56.2865701,-17.2704402],[-56.313541,-17.2694291],[-56.3440177,-17.2852847],[-56.3606549,-17.2808443],[-56.3830663,-17.2879584],[-56.38893,-17.3019463],[-56.4325993,-17.3185875],[-56.442331,-17.3312821],[-56.4773991,-17.305408],[-56.5080719,-17.2952844],[-56.5138734,-17.3128227],[-56.5510156,-17.3228763],[-56.6118524,-17.3319082],[-56.6200181,-17.3220326],[-56.6514596,-17.3265476],[-56.663575,-17.3388297],[-56.6831814,-17.3165664],[-56.7016512,-17.3199384],[-56.7338542,-17.3098602],[-56.7387664,-17.3244993],[-56.7568856,-17.3256863],[-56.7674608,-17.3645847],[-56.7843122,-17.3686531],[-56.7910296,-17.3910659],[-56.8297428,-17.3913258],[-56.824407,-17.4230789],[-56.8409099,-17.4420086],[-56.8502388,-17.4867813],[-56.8759675,-17.5329722],[-56.9175445,-17.5413551],[-56.9449609,-17.5529495],[-56.9503793,-17.5686349],[-56.9734925,-17.5803843],[-56.9814111,-17.6110155],[-56.9591079,-17.6128389],[-56.9838501,-17.6418931],[-56.9882191,-17.65929],[-57.0132748,-17.6724294],[-57.0192699,-17.6921665],[-57.0333769,-17.6947411],[-57.0449146,-17.7303213],[-57.0739121,-17.7354635],[-57.0931034,-17.7536734],[-57.0985808,-17.7704176],[-57.1209426,-17.780164],[-57.1467441,-17.7675051],[-57.2042483,-17.7892519],[-57.2271374,-17.7827847],[-57.2454666,-17.8063147],[-57.2648357,-17.8203496],[-57.2837729,-17.8129128],[-57.3113845,-17.8178245],[-57.3252263,-17.8291508],[-57.3534564,-17.8378584],[-57.3680807,-17.8261992],[-57.4097521,-17.8539153],[-57.4262763,-17.856396],[-57.4467253,-17.8745041],[-57.4459197,-17.8919683],[-57.4619356,-17.8985358],[-57.4852744,-17.8622281],[-57.5093604,-17.8638881],[-57.5347769,-17.8536338],[-57.5310279,-17.8391135],[-57.5520038,-17.8282053],[-57.5763315,-17.8005284],[-57.6093088,-17.7975415],[-57.6231109,-17.736359],[-57.6403039,-17.7173593],[-57.6635542,-17.7298538],[-57.6846131,-17.7164815],[-57.6717799,-17.6641124],[-57.6968904,-17.6206428],[-57.712196,-17.5589094],[-57.7250315,-17.5310124],[-57.7400515,-17.5363052],[-57.7522947,-17.5644631],[-57.7928672,-17.5557418],[-57.7777497,-17.5844599],[-57.7840251,-17.6074213],[-57.7743313,-17.6261798],[-57.7829185,-17.6361722],[-57.7756908,-17.6570178],[-57.7622474,-17.6606126],[-57.7490399,-17.6932195],[-57.730967,-17.7187723],[-57.709642,-17.7298838],[-57.7201344,-17.7717191],[-57.6832259,-17.8080026],[-57.6831673,-17.8281371],[-57.7206673,-17.8278599],[-57.6319187,-17.9856326],[-57.600112,-18.0463673],[-57.5748646,-18.1318873],[-57.5051406,-18.2003416],[-57.4805248,-18.20676],[-57.453919,-18.2311941],[-57.5578344,-18.2403485],[-57.7666753,-18.8992853],[-57.7198374,-18.8990654],[-57.7193149,-18.977049],[-57.6970058,-18.9973912],[-57.7102033,-19.0325932],[-57.7844457,-19.0339013],[-58.1318187,-19.7584974],[-57.8581517,-19.9714168],[-57.8624267,-19.9856452],[-57.8873471,-20.0154973],[-57.902348,-20.0421143],[-57.9277073,-20.0229986],[-57.9579053,-20.0214339],[-57.9725993,-20.0481103],[-57.9875137,-20.0585966],[-58.0228438,-20.0581684],[-58.0372913,-20.0718584],[-58.0439877,-20.0987806],[-58.0567652,-20.1072692],[-58.0931544,-20.110354],[-58.115353,-20.1437452],[-58.1526595,-20.152869],[-58.1671536,-20.167267],[-58.1593346,-20.1814165],[-58.1399603,-20.1806667],[-58.1218462,-20.1943926],[-58.154222,-20.215731],[-58.1664182,-20.2366334],[-58.159397,-20.2638484],[-58.1445503,-20.2717774],[-58.1195235,-20.2495816],[-58.089891,-20.264528],[-58.0947535,-20.3012547],[-58.1030505,-20.3211688],[-58.0939362,-20.3513566],[-58.0763752,-20.3846884],[-58.0246189,-20.4000963],[-58.0043487,-20.4265916],[-57.99856,-20.4555636],[-58.0135964,-20.4802642],[-58.0201755,-20.509763],[-57.9970131,-20.5755259],[-58.0131283,-20.6082964],[-57.9955743,-20.6317264],[-57.970386,-20.6441918],[-57.9882287,-20.6867291],[-57.9810273,-20.7057461],[-57.950181,-20.6982951],[-57.9367946,-20.6700127],[-57.9136749,-20.6707641],[-57.9032882,-20.6898206],[-57.870173,-20.7254706],[-57.8648347,-20.7422987],[-57.8789114,-20.7505168],[-57.9341543,-20.7459545],[-57.9495254,-20.7652765],[-57.9594917,-20.7979086],[-57.9412272,-20.8008159],[-57.9110131,-20.7889558],[-57.8932904,-20.7907824],[-57.8593969,-20.8248557],[-57.8578964,-20.850928],[-57.8726808,-20.8539],[-57.9289443,-20.8952298],[-57.8865311,-20.9086465],[-57.8746115,-20.9398031],[-57.8636024,-20.9488495],[-57.8197813,-20.9379956],[-57.8252691,-20.965241],[-57.8175295,-20.9805825],[-57.8681955,-21.0418754],[-57.865794,-21.0667101],[-57.8458909,-21.0969282],[-57.8649891,-21.1363361],[-57.8489583,-21.1878573],[-57.8530214,-21.2271316],[-57.9064641,-21.265551],[-57.9204283,-21.2846397],[-57.8949626,-21.3071725],[-57.8547358,-21.3168718],[-57.8611244,-21.3506169],[-57.8924513,-21.3779487],[-57.9080965,-21.4026099],[-57.9100862,-21.4209737],[-57.927257,-21.4498314],[-57.9344177,-21.4841208],[-57.9604876,-21.5099208],[-57.9685265,-21.5353372],[-57.9616162,-21.5624435],[-57.918964,-21.5822012],[-57.9145595,-21.5956142],[-57.9422158,-21.6208996],[-57.9300377,-21.6573316],[-57.8871923,-21.6820763],[-57.8985469,-21.7058784],[-57.9408933,-21.7329073],[-57.9402748,-21.7583507],[-57.9084931,-21.7739686],[-57.9311093,-21.824589],[-57.9719784,-21.8458866],[-57.916173,-21.8762919],[-57.947985,-21.9003903],[-57.9369953,-21.9279206],[-57.9650196,-21.9836133],[-57.9749461,-22.015409],[-58.0061611,-22.0312131],[-58.0095925,-22.0452751],[-57.9876849,-22.0591377],[-57.9920301,-22.0904636],[-57.9419989,-22.0829157],[-57.9297197,-22.1202719],[-57.8860855,-22.1303112],[-57.8627107,-22.1309544],[-57.8290297,-22.1201906],[-57.8052315,-22.1500503],[-57.7792735,-22.1251745],[-57.747723,-22.1390495],[-57.7234044,-22.1102015],[-57.6892317,-22.088592],[-57.677376,-22.1015604],[-57.636983,-22.1058067],[-57.6181636,-22.0953892],[-57.607533,-22.1269456],[-57.5864271,-22.1444473],[-57.5807663,-22.175337],[-57.547718,-22.1820566],[-57.5168337,-22.173625]],[[-57.5168337,-22.173625],[-57.5078775,-22.1713569],[-57.5064831,-22.1626559],[-57.5094395,-22.161276]],[[-57.5094395,-22.161276],[-57.5090628,-22.1592296],[-57.5049058,-22.1580149],[-57.5019213,-22.1590036],[-57.5017268,-22.167181]],[[-57.5017268,-22.167181],[-57.4970359,-22.1657748],[-57.4935333,-22.1604224],[-57.4905619,-22.1410515],[-57.4769393,-22.1314118],[-57.4656907,-22.1270277],[-57.4608556,-22.0878274],[-57.4480729,-22.0729473],[-57.4298433,-22.06935],[-57.417492,-22.024661],[-57.3855898,-21.984448],[-57.3751626,-21.9700128],[-57.3374745,-21.9613114],[-57.3070025,-21.9312984],[-57.277594,-21.940988],[-57.2471276,-21.9256476],[-57.2258054,-21.8995807],[-57.2062543,-21.8870203],[-57.1905459,-21.8533271],[-57.1926849,-21.8390801],[-57.1765573,-21.8043813],[-57.1568047,-21.7853313],[-57.1662664,-21.7568864],[-57.135707,-21.7254541],[-57.1413248,-21.7093283],[-57.1180136,-21.7063113],[-57.1066656,-21.679277],[-57.0736276,-21.6588901],[-57.0450089,-21.653787],[-57.0278222,-21.630488],[-57.0114395,-21.6226419],[-56.9589511,-21.6371705],[-56.9631594,-21.6195889],[-56.9450434,-21.6148936],[-56.944356,-21.5930672],[-56.9305786,-21.5547296],[-56.8860898,-21.5023472],[-56.8745336,-21.4994117],[-56.8519301,-21.4605194],[-56.8263141,-21.4628905],[-56.8117286,-21.4866741],[-56.8008538,-21.4756899],[-56.8035836,-21.4346806],[-56.8150525,-21.4021727],[-56.8040995,-21.3501585],[-56.8119667,-21.326052],[-56.788296,-21.292337],[-56.7965622,-21.2294895],[-56.8312971,-21.1518126],[-56.8588922,-21.1137473],[-56.8447441,-21.0753421],[-56.8670339,-21.0444445],[-56.8694076,-21.0179775],[-56.8604689,-20.9825197],[-56.8805055,-20.9305154],[-56.8596664,-20.8863761],[-56.8738329,-20.8575607],[-56.8586071,-20.8350364],[-56.8464587,-20.7923869],[-56.8685223,-20.763798],[-56.8718866,-20.7280883],[-56.8927127,-20.6841799],[-56.8689016,-20.6387906],[-56.8733714,-20.5801993],[-56.8940477,-20.5568469],[-56.9060985,-20.5333542],[-56.9107313,-20.5072335],[-56.9239774,-20.490901],[-56.9205519,-20.464831],[-56.9391606,-20.4420732],[-56.9420616,-20.4150592],[-56.9675099,-20.4249409],[-56.9903015,-20.4215945],[-56.9905406,-20.3946913],[-57.0101495,-20.3588478],[-57.0068303,-20.3407578],[-56.9489903,-20.3334162],[-56.9464825,-20.3036082],[-56.9633366,-20.2919075],[-56.9574221,-20.2459934],[-56.9658106,-20.2214675],[-56.9979761,-20.1889198],[-56.9471153,-20.1869624],[-56.9306863,-20.1971442],[-56.9269793,-20.2141059],[-56.9054354,-20.2367935],[-56.8871084,-20.2394589],[-56.8781008,-20.2570843],[-56.8256917,-20.272581],[-56.8342979,-20.3132691],[-56.8329381,-20.35495],[-56.8191172,-20.3866433],[-56.7937216,-20.3993227],[-56.7795648,-20.4171778],[-56.7524513,-20.4023977],[-56.702088,-20.4044999],[-56.6778776,-20.3700021],[-56.6806293,-20.3576937],[-56.5680762,-20.3563249],[-56.5493548,-20.3626334],[-56.5164872,-20.3565074],[-56.5096196,-20.3444217],[-56.4717873,-20.3286897],[-56.4507035,-20.3137112],[-56.430147,-20.3189597],[-56.4115875,-20.3338498],[-56.3916095,-20.3372638],[-56.3983618,-20.3621709],[-56.3944603,-20.4098255],[-56.4021796,-20.4371695],[-56.3930046,-20.4836556],[-56.3729295,-20.494241],[-56.3643792,-20.5318516],[-56.3383243,-20.5532143],[-56.2853549,-20.6169338],[-56.2746454,-20.644395],[-56.2472051,-20.6377351],[-56.2291944,-20.6583953],[-56.2147998,-20.6459853],[-56.2177016,-20.6129546],[-56.1845568,-20.6322003],[-56.1686819,-20.6162208],[-56.1497499,-20.6249607],[-56.140863,-20.6917724],[-56.1176511,-20.7409509],[-56.0738997,-20.7681083],[-56.0550154,-20.7630081],[-56.0217369,-20.7730649],[-56.0064636,-20.8016993],[-55.9679343,-20.8196701],[-55.9384624,-20.8216896],[-55.9251118,-20.8115055],[-55.8920124,-20.8076615],[-55.8709705,-20.7862664],[-55.8710661,-20.775806],[-55.8457119,-20.7550081],[-55.8455664,-20.7333508],[-55.7920782,-20.7483589],[-55.7706923,-20.7642279],[-55.7545623,-20.7545444],[-55.7301681,-20.7756959],[-55.7094636,-20.8477807],[-55.6885082,-20.8871026],[-55.686528,-20.9179057],[-55.6378105,-20.9498868],[-55.6209494,-20.9752767],[-55.5624235,-20.9957426],[-55.5562143,-20.9908172],[-55.5155186,-20.9943437],[-55.4887989,-21.0208823],[-55.4733,-21.0194122],[-55.4311911,-21.0503564],[-55.3786284,-21.0453893],[-55.3589208,-21.0340974],[-55.3190242,-21.0509065],[-55.3008255,-21.0215364],[-55.2663957,-20.9983316],[-55.2540427,-21.0156699]],[[-55.2540427,-21.0156699],[-55.2077277,-21.0355096]],[[-55.2077277,-21.0355096],[-55.2111991,-21.0130851],[-55.2009201,-20.9985199]],[[-55.2009201,-20.9985199],[-55.1890958,-20.9967392],[-55.1830353,-20.9896103],[-55.195592,-20.9743811]],[[-55.195592,-20.9743811],[-55.2028941,-20.948602],[-55.1973333,-20.9318797],[-55.200363,-20.9158115],[-55.2007216,-20.9098143],[-55.1949269,-20.8827347],[-55.1917456,-20.8796886],[-55.1838681,-20.8723686],[-55.1645692,-20.8606912],[-55.170837,-20.8448748],[-55.1561854,-20.831644],[-55.1547661,-20.8102868],[-55.1530154,-20.7990691],[-55.1694732,-20.7666674],[-55.1778459,-20.7350827],[-55.20492,-20.7218861],[-55.2031703,-20.7067948],[-55.2208953,-20.6922359],[-55.2195315,-20.6787309],[-55.2179396,-20.6522565],[-55.2086543,-20.6287919],[-55.2055613,-20.5997143],[-55.2082572,-20.5908094],[-55.2096127,-20.589367],[-55.2061078,-20.5762327],[-55.2057364,-20.5740768],[-55.2149862,-20.5540578],[-55.2177052,-20.5447374],[-55.2274691,-20.5372219],[-55.2364213,-20.5312496],[-55.2386733,-20.5304327],[-55.2403739,-20.5242655],[-55.2558281,-20.4978365],[-55.2521292,-20.4809208],[-55.2728908,-20.4735913],[-55.2760765,-20.4481903],[-55.2945218,-20.4382427],[-55.2982579,-20.4320021],[-55.3060842,-20.4227758],[-55.3080739,-20.4240468],[-55.3069798,-20.4198208],[-55.3061371,-20.4164168],[-55.3188515,-20.4098449],[-55.342202,-20.4174179],[-55.3453646,-20.4322208],[-55.3490908,-20.4325614],[-55.3495647,-20.4431075],[-55.3601781,-20.4374517],[-55.3796423,-20.4437198],[-55.3909402,-20.4324592],[-55.3876539,-20.4093441],[-55.355951,-20.3872747],[-55.3556624,-20.3470473],[-55.3408161,-20.3379316],[-55.3454631,-20.3151532],[-55.2949186,-20.337341],[-55.2790395,-20.322129],[-55.2585072,-20.3309582],[-55.247234,-20.2862432],[-55.2710169,-20.2867516],[-55.2681889,-20.2495086],[-55.2294893,-20.2020384],[-55.1912169,-20.1726778],[-55.1727195,-20.1669767],[-55.1373554,-20.1446368],[-55.1328696,-20.156632],[-55.1058335,-20.1488226],[-55.0834995,-20.1541862],[-55.065682,-20.1161681],[-55.0755901,-20.0886528],[-55.0963868,-20.0455978],[-55.0981688,-20.0203509],[-55.1286081,-19.9991424],[-55.1396748,-19.9717971],[-55.1796668,-19.9927563],[-55.1997223,-19.9941283],[-55.2223978,-19.978997],[-55.2516166,-19.9828494],[-55.2679981,-20.0005976],[-55.2851557,-19.9903823],[-55.3169571,-19.9882221],[-55.3233724,-19.9722599],[-55.3102469,-19.9471188],[-55.329762,-19.9243142],[-55.33676,-19.8820453],[-55.3546444,-19.8628067],[-55.3788075,-19.8495309],[-55.3887367,-19.8329663],[-55.3946094,-19.8014974],[-55.3465947,-19.7607357],[-55.3241208,-19.6931324],[-55.3057655,-19.6726688],[-55.2884572,-19.6073923],[-55.2659397,-19.5857835],[-55.2411352,-19.5213971],[-55.2399308,-19.5006663],[-55.225964,-19.496234],[-55.203931,-19.4167572],[-55.1874889,-19.4042216],[-55.1634778,-19.403467],[-55.1445703,-19.3871446],[-55.1119051,-19.3699429],[-55.1240117,-19.3529602],[-55.101672,-19.3349992],[-55.1043634,-19.3349678],[-55.107025,-19.3283366],[-55.1169079,-19.3301115],[-55.1424276,-19.3457548],[-55.1699846,-19.3333449],[-55.1768434,-19.3155616],[-55.2057886,-19.2840833],[-55.2395849,-19.2658546],[-55.2513518,-19.2507936],[-55.2767282,-19.2489393],[-55.3043683,-19.2579294],[-55.3200907,-19.2386884],[-55.3450775,-19.2443848],[-55.3506694,-19.2624935],[-55.3743857,-19.2579778],[-55.4220351,-19.2577506],[-55.4306945,-19.2411112],[-55.4649957,-19.2182463],[-55.3990029,-18.5820937],[-55.3061819,-18.2479791],[-55.1389964,-17.6478325]],[[-55.195592,-20.9743811],[-55.1920353,-20.9826507],[-55.184545,-20.9878579],[-55.1833188,-20.9906102],[-55.1892029,-20.9967951],[-55.2009201,-20.9985199]],[[-55.2077277,-21.0355096],[-55.2668646,-21.009432],[-55.2695026,-21.008928],[-55.2719601,-21.0103],[-55.2741707,-21.0143846],[-55.2791393,-21.0357356]],[[-55.2791393,-21.0357356],[-55.3034544,-21.0761501],[-55.3087633,-21.0909663],[-55.306845,-21.0964415]],[[-55.306845,-21.0964415],[-55.3075284,-21.1056866],[-55.3116524,-21.1096026],[-55.3176812,-21.1102376],[-55.3214906,-21.1164679],[-55.3215368,-21.1207464],[-55.3193374,-21.1259256],[-55.3148575,-21.1295222],[-55.3086194,-21.1319701],[-55.3063858,-21.1384483]],[[-55.3063858,-21.1384483],[-55.3257707,-21.1694863],[-55.3292214,-21.1762767],[-55.3219406,-21.1863811],[-55.3184184,-21.2016039],[-55.3170376,-21.2156269],[-55.3194994,-21.2421188],[-55.3004675,-21.2488742],[-55.2958054,-21.290677],[-55.3016887,-21.3048592],[-55.2878228,-21.3111262],[-55.2908283,-21.3288547],[-55.2940803,-21.3313989],[-55.2970053,-21.3465225],[-55.2850527,-21.3540802],[-55.2676037,-21.3974564],[-55.2615476,-21.4003908],[-55.2397122,-21.4174767],[-55.2120637,-21.4278646],[-55.2107208,-21.4420104],[-55.1671264,-21.4607366],[-55.1492306,-21.4746666],[-55.1384351,-21.4836211],[-55.1417052,-21.5083573],[-55.1033155,-21.5392801],[-55.0983078,-21.5689571],[-55.0868513,-21.5657936],[-55.0768093,-21.5552073],[-55.0583668,-21.5640441],[-55.0594101,-21.5863131],[-55.0362618,-21.5778428],[-55.0179546,-21.5600277],[-55.013362,-21.4845837],[-54.8925741,-21.3377201],[-54.8644231,-21.3369539],[-54.8414433,-21.351064],[-54.8175074,-21.3377247],[-54.7829877,-21.347357],[-54.7851843,-21.3672484],[-54.7701302,-21.3781266],[-54.7014275,-21.3554424],[-54.6807723,-21.3450853],[-54.672725,-21.3048261],[-54.630844,-21.2925045],[-54.5995609,-21.2628575],[-54.5879163,-21.2624652],[-54.5735287,-21.2390968],[-54.5302539,-21.2125626],[-54.5242379,-21.1895821],[-54.5590497,-21.1483414],[-54.5215751,-21.1271778],[-54.5019128,-21.1308765],[-54.4822451,-21.122512],[-54.5089239,-21.0095125],[-54.5068311,-20.9941304],[-54.4910535,-21.0022901],[-54.4635912,-21.0084833],[-54.4522984,-21.0232076],[-54.4253451,-21.0278304],[-54.408242,-21.0421611],[-54.3765541,-21.105999],[-54.3550807,-21.1017616],[-54.3362865,-21.1208611],[-54.292169,-21.1397689],[-54.2960149,-21.1740108],[-54.2792501,-21.1751807],[-54.2603479,-21.2047619],[-54.266801,-21.2276663],[-54.2435131,-21.2569667],[-54.2295811,-21.2911454],[-54.205716,-21.2975878],[-54.1990017,-21.3351352],[-54.1473808,-21.3740589],[-54.1457394,-21.3819961],[-54.1019284,-21.4188178],[-54.1051193,-21.42969],[-54.0565079,-21.4657044],[-54.0375603,-21.4756758],[-54.0057887,-21.5132079],[-53.9409907,-21.5460051],[-53.9015305,-21.5487819],[-53.8822074,-21.5610358],[-53.8514167,-21.5643428],[-53.8267907,-21.5569339],[-53.763142,-21.5734048],[-53.7406651,-21.568129],[-53.7283949,-21.5784934],[-53.6739085,-21.5522833],[-53.639201,-21.5796444],[-53.6250806,-21.5725869]],[[-53.6250806,-21.5725869],[-53.6196212,-21.5671978]],[[-53.6196212,-21.5671978],[-53.6038903,-21.5355938],[-53.6095581,-21.5083538],[-53.6108618,-21.4992719],[-53.6130475,-21.4791828],[-53.6180393,-21.473795],[-53.6222969,-21.4702973],[-53.636339,-21.4595323],[-53.6372647,-21.4561188],[-53.6281692,-21.4433604],[-53.6291305,-21.4414486],[-53.6246294,-21.4372185],[-53.6275027,-21.4312874],[-53.625817,-21.4271094],[-53.6209807,-21.420116],[-53.6190417,-21.4206835],[-53.6175696,-21.4146007],[-53.6214276,-21.4119097],[-53.6220699,-21.4084087],[-53.6150854,-21.3864816],[-53.6148968,-21.3839306],[-53.6173067,-21.3699461],[-53.6214297,-21.3628169],[-53.6330712,-21.3399709],[-53.6380211,-21.3365132],[-53.6415788,-21.3150226],[-53.6424259,-21.3064453],[-53.6460256,-21.3003703],[-53.6540326,-21.2867724],[-53.6837593,-21.2243077],[-53.6833663,-21.2156129],[-53.6832593,-21.2053205],[-53.6842603,-21.1936297],[-53.6823958,-21.1945194],[-53.6857167,-21.1827549],[-53.6923309,-21.1731101],[-53.6969533,-21.1735252],[-53.7172207,-21.1527328],[-53.7229707,-21.1462279],[-53.726206,-21.1423301],[-53.7392169,-21.1089647],[-53.7411858,-21.1053399],[-53.7571077,-21.0836152],[-53.7611468,-21.0792199],[-53.8096628,-21.0707054],[-53.8282281,-21.0507244],[-53.8480144,-21.0439868],[-53.8472342,-21.0075431],[-53.8562723,-20.9896351],[-53.876129,-20.9830714],[-53.9084267,-20.9579058],[-53.9524473,-20.9602744],[-53.9710173,-20.9532823],[-53.9735671,-20.9499452],[-53.9825017,-20.9423712],[-53.9860535,-20.933918],[-53.9973972,-20.9282201],[-54.0048553,-20.9154832],[-54.0058868,-20.8918438],[-54.0195007,-20.8637568],[-54.0340556,-20.8499843],[-54.0726462,-20.8293393],[-54.0920974,-20.7980308],[-54.1141463,-20.7848057],[-54.1285635,-20.7883975],[-54.1494254,-20.7760782],[-54.1637405,-20.7558031],[-54.1754035,-20.7251896],[-54.2023852,-20.7110335],[-54.2066303,-20.6746248],[-54.1960016,-20.6575476],[-54.1777123,-20.595818],[-54.1925559,-20.5586648],[-54.1954817,-20.5370372],[-54.1864709,-20.5096775],[-54.1840494,-20.476424],[-54.1728204,-20.4569503],[-54.1520524,-20.4477255],[-54.1412856,-20.4568039],[-54.112831,-20.4355403],[-54.0609133,-20.4204175],[-54.0376193,-20.4210376],[-54.0292796,-20.4036137],[-54.0076323,-20.3955974],[-53.9855559,-20.3973426],[-53.9663377,-20.3814913],[-53.9410169,-20.3822146],[-53.9218727,-20.3712404],[-53.8877858,-20.3649204],[-53.9149492,-20.3413812],[-53.9297786,-20.3431922],[-53.9538467,-20.3313153],[-53.9897969,-20.304381],[-53.9858175,-20.2748427],[-54.0113433,-20.2495797],[-54.0086681,-20.2389865],[-54.0415306,-20.2103444],[-54.0660229,-20.1775538],[-54.0689105,-20.1492143],[-54.1000434,-20.1180924],[-54.0856001,-20.1011888],[-54.0594212,-20.0876048],[-54.0543328,-20.0698101],[-53.9761344,-20.0480935],[-53.9582984,-20.0310095],[-53.9509796,-19.9984884],[-53.8955689,-19.9951508],[-53.9076594,-19.9376645],[-53.9193081,-19.9130455],[-53.9489724,-19.8698031],[-53.9482652,-19.8673923],[-53.9631081,-19.8615461],[-53.9780714,-19.8024722],[-53.9769096,-19.7857903],[-53.9919226,-19.7665561],[-53.9896174,-19.7420995],[-53.9932224,-19.7257996],[-53.9659099,-19.722494],[-53.954643,-19.7099551],[-53.9270204,-19.7144021],[-53.9043477,-19.7022435],[-53.8625875,-19.5302819],[-53.8391469,-19.5372986],[-53.7945155,-19.5813791],[-53.7826961,-19.6168757],[-53.7620228,-19.6367223],[-53.7213448,-19.6642605],[-53.7103875,-19.6812967],[-53.6485646,-19.7078205],[-53.6339546,-19.7400269],[-53.6003189,-19.7716524],[-53.5840066,-19.7708179],[-53.5507896,-19.7845747],[-53.5329153,-19.7809629],[-53.4941617,-19.794272],[-53.4712347,-19.7881352],[-53.4551503,-19.7980028],[-53.4262862,-19.7874776],[-53.4492277,-19.7468282],[-53.4674093,-19.6976714],[-53.4882768,-19.6908115],[-53.4774125,-19.6025672],[-53.5042268,-19.5684532],[-53.5041001,-19.5510669],[-53.5265369,-19.5154549],[-53.5286313,-19.4933116],[-53.5511746,-19.4617321],[-53.5716826,-19.3772422],[-53.582352,-19.3511606],[-53.6030909,-19.3289187],[-53.6069671,-19.302451],[-53.6377598,-19.2667827],[-53.6221013,-19.2549746],[-53.6089721,-19.2144048],[-53.6079427,-19.1833055],[-53.5407165,-19.1864931],[-53.5186674,-19.1810324],[-53.4870993,-19.1860676],[-53.4434269,-19.1784002],[-53.4287233,-19.1598321],[-53.4213941,-19.1118859],[-53.4039727,-19.0999493],[-53.3949035,-19.080036],[-53.3546064,-19.0628934],[-53.3396987,-19.0500962],[-53.3693373,-19.02061],[-53.4019337,-19.0063824],[-53.3869505,-18.9811463],[-53.3824253,-18.9435443],[-53.4010749,-18.9412359],[-53.4161042,-18.9127696],[-53.4365441,-18.8962283],[-53.4562128,-18.8944276],[-53.4632206,-18.8745131],[-53.4895711,-18.8497398],[-53.4885514,-18.837547],[-53.3453389,-18.775399],[-53.3771821,-18.7413519],[-53.3816904,-18.7230468],[-53.3730825,-18.6803973],[-53.4126333,-18.6543503],[-53.4331452,-18.6545586],[-53.4349445,-18.6305624],[-53.456683,-18.6298402],[-53.4691794,-18.6182931],[-53.4724507,-18.5774885],[-53.5005437,-18.5214605],[-53.518135,-18.5139181],[-53.5517899,-18.4742635],[-53.5664117,-18.4373204],[-53.5457409,-18.4189695],[-53.5247229,-18.4168228],[-53.4989159,-18.4013155],[-53.4877911,-18.4105344],[-53.4618056,-18.4033994],[-53.4419751,-18.3867327],[-53.4355312,-18.3825803],[-53.4488953,-18.3506228],[-53.4309878,-18.3313951],[-53.4464348,-18.3095847],[-53.4588891,-18.2813814],[-53.4569515,-18.2736328],[-53.4394762,-18.2540337],[-53.4002185,-18.2399752],[-53.3630815,-18.2563844],[-53.3474946,-18.2570197],[-53.3312898,-18.2348158],[-53.3801001,-18.2059341],[-53.3727073,-18.1993338],[-53.3577426,-18.1939951],[-53.317157,-18.2085187],[-53.3054737,-18.2035787],[-53.2652821,-18.164412],[-53.2488805,-18.1599934],[-53.2264104,-18.1349582],[-53.2242346,-18.1094552],[-53.2254701,-18.0661818],[-53.2363156,-18.05134]],[[-53.2363156,-18.05134],[-53.2415444,-18.0047098],[-53.307573,-17.9959785],[-53.3356748,-18.0069075],[-53.3807712,-18.0087572],[-53.4057084,-17.9920489],[-53.4350488,-17.9845827],[-53.4572943,-17.999699],[-53.4601554,-18.0220326],[-53.4860712,-18.0404003],[-53.5178768,-18.0206482],[-53.5750192,-18.0126507],[-53.6069948,-17.9954897],[-53.6125462,-17.9780328],[-53.6520434,-17.9763287],[-53.6777472,-17.9897936],[-53.6927188,-18.0069201],[-53.7268023,-18.0034729],[-53.7338219,-17.9953349],[-53.7742172,-18.0007701],[-53.7945174,-17.9772828],[-53.8086091,-17.9722466],[-53.8241628,-17.9487043],[-53.854247,-17.9258343],[-53.8769378,-17.9235289],[-53.8985506,-17.9088024],[-53.9242445,-17.9199634],[-53.9522962,-17.9146877],[-53.9477716,-17.8987829],[-53.9550243,-17.8712438],[-53.9359416,-17.8320981],[-53.910353,-17.8038856],[-53.8954943,-17.7770247],[-53.8883811,-17.7489926],[-53.8609367,-17.7207118],[-53.8546834,-17.7030036],[-53.8002416,-17.6707893],[-53.7569664,-17.6734603],[-53.739769,-17.6650093],[-53.7046075,-17.6635095],[-53.6934025,-17.5002017],[-53.6800749,-17.2535697],[-53.6944957,-17.2339839],[-53.73321,-17.2309018],[-53.7590784,-17.2431425],[-53.7857133,-17.2875151],[-53.8200727,-17.2946157],[-53.834963,-17.3357604],[-53.8332681,-17.3571102],[-53.8683836,-17.3683775],[-53.8879887,-17.3926058],[-53.9146006,-17.4144145],[-53.9311006,-17.4394503],[-53.9730501,-17.472244],[-54.0232666,-17.4770731],[-54.0580771,-17.5131293],[-54.045908,-17.5372274],[-54.051633,-17.5627701],[-54.0732693,-17.5878013],[-54.0846925,-17.6190348],[-54.0995493,-17.6131178],[-54.1341872,-17.6187264],[-54.1620475,-17.6072396],[-54.1934133,-17.6061271],[-54.2139957,-17.6201748],[-54.2437438,-17.6289046],[-54.2745496,-17.6540482],[-54.3308523,-17.661479],[-54.3716358,-17.6450507],[-54.3877987,-17.6319367],[-54.3770818,-17.607434],[-54.3859105,-17.5814497],[-54.4059423,-17.5536054],[-54.4263032,-17.5370001],[-54.4669149,-17.5290742],[-54.484664,-17.4890941],[-54.536332,-17.4775852],[-54.5541884,-17.4886684],[-54.5816628,-17.468007],[-54.5886138,-17.4771219],[-54.6360808,-17.4957244],[-54.6463065,-17.4906128],[-54.6679499,-17.5035633],[-54.6955269,-17.503521],[-54.746913,-17.5199422],[-54.7570029,-17.5344943],[-54.7587809,-17.5656964],[-54.7773872,-17.5706656],[-54.8213108,-17.5973862],[-54.8250042,-17.6096759],[-54.8515863,-17.6130333],[-54.8608638,-17.6238535],[-54.8970355,-17.620346],[-54.9143075,-17.6084507],[-55.0473123,-17.640333],[-55.0726482,-17.6316326],[-55.1113648,-17.6312286],[-55.127256,-17.6527223],[-55.1389964,-17.6478325]],[[-53.6340024,-23.0033823],[-53.6074235,-22.9513335],[-53.5707711,-22.9284913],[-53.5468271,-22.8900963],[-53.4847612,-22.8638542],[-53.4296507,-22.8329554],[-53.3987296,-22.8067269],[-53.3775322,-22.8032341],[-53.3520355,-22.7756806],[-53.3001456,-22.7538518],[-53.2441288,-22.7346976],[-53.2067208,-22.7312603],[-53.1888907,-22.7219472],[-53.1476084,-22.6780813],[-53.1051872,-22.6219296],[-53.108915,-22.5983165],[-53.0738065,-22.5488576],[-53.039801,-22.5273956],[-53.0143612,-22.5206658],[-52.9985791,-22.4931813],[-52.9796933,-22.4835477],[-52.885837,-22.4528736],[-52.8547612,-22.4391124],[-52.8398869,-22.415311],[-52.7983309,-22.3782734],[-52.745835,-22.343313],[-52.7242686,-22.3351079],[-52.6951341,-22.3146106],[-52.6502765,-22.301001],[-52.6333804,-22.2849861],[-52.6019914,-22.2719514],[-52.5869392,-22.2567505],[-52.4877143,-22.217206],[-52.4799657,-22.2008818],[-52.4606752,-22.1887434],[-52.4081883,-22.1416352],[-52.3919064,-22.1146789],[-52.377218,-22.1066782],[-52.3391918,-22.0478264],[-52.3190194,-21.9721319],[-52.3014847,-21.9421686],[-52.2749632,-21.9149419],[-52.2484061,-21.9022804],[-52.233433,-21.883754],[-52.1905614,-21.8461447],[-52.1839844,-21.8144605],[-52.1612618,-21.7707737],[-52.147792,-21.7595888],[-52.1028652,-21.7452912],[-52.0764924,-21.7148802],[-52.0483403,-21.6563421],[-52.0688756,-21.5981075],[-52.0987673,-21.5749856],[-52.1022934,-21.5548406],[-52.0777894,-21.5152225],[-52.0620417,-21.5032685],[-52.0003676,-21.5166265],[-51.9679033,-21.5017621],[-51.9523993,-21.4736037],[-51.9286818,-21.4558161],[-51.9182051,-21.4121824],[-51.9075357,-21.3864558],[-51.8687621,-21.3535302],[-51.8610618,-21.336671],[-51.8569297,-21.2895262],[-51.8485145,-21.2666384],[-51.8636776,-21.2267111],[-51.8795737,-21.1994307],[-51.8789848,-21.1481377],[-51.8654739,-21.1305401],[-51.82359,-21.1268398],[-51.7896709,-21.1021195],[-51.7756445,-21.0730936],[-51.7719774,-21.0459252],[-51.7596476,-21.0221968],[-51.7136957,-20.971458],[-51.6657334,-20.9705204],[-51.6281707,-20.9490296],[-51.6189985,-20.9325906],[-51.6150883,-20.886086],[-51.6297015,-20.8614529],[-51.6329772,-20.8215582],[-51.6223983,-20.776872],[-51.6348992,-20.7548484],[-51.6242875,-20.7125187],[-51.5941482,-20.6438477],[-51.5775049,-20.6251725],[-51.5330051,-20.5969939],[-51.5002223,-20.5682163],[-51.4928561,-20.5465063],[-51.4443681,-20.4789171],[-51.4092796,-20.4595706],[-51.3751155,-20.396527],[-51.3508686,-20.3631794],[-51.321445,-20.3396192],[-51.2956845,-20.3284821],[-51.2399055,-20.3169359],[-51.1780597,-20.3092856],[-51.1369683,-20.2974622],[-51.117583,-20.2869446],[-51.0691631,-20.2500495],[-51.0589327,-20.2351607],[-51.048812,-20.1985769],[-51.0215848,-20.1333489],[-51.0011911,-20.0963348],[-51.0178884,-20.0483925],[-51.0060365,-20.0252998],[-51.0048071,-19.9992171],[-51.0211489,-19.9640283],[-51.0024986,-19.9247949],[-50.9994713,-19.9063755],[-51.0193069,-19.8704502],[-51.0181987,-19.8372811],[-51.0236289,-19.8039456],[-51.0399394,-19.7771183],[-51.0303071,-19.7514419],[-51.0454329,-19.7375557],[-51.0365743,-19.6870124],[-50.9904676,-19.6054019],[-50.9875546,-19.5895076],[-50.9618022,-19.5817398],[-50.9465426,-19.5916898],[-50.9279982,-19.5878001],[-50.9229091,-19.5716248],[-50.9308813,-19.5422439],[-50.9629462,-19.5005788],[-50.9638634,-19.4863539],[-50.9349978,-19.4674775],[-50.9521315,-19.4426335],[-50.9853022,-19.4313828],[-50.9869467,-19.4121607],[-51.0189384,-19.4010838],[-51.029906,-19.3669788],[-51.0448451,-19.3444242],[-51.086857,-19.3139993],[-51.1265369,-19.3032868],[-51.1432251,-19.2870724],[-51.1691682,-19.2869631],[-51.1876418,-19.2689996],[-51.2573458,-19.2664855],[-51.2759732,-19.2611265],[-51.2978876,-19.2386039],[-51.3076456,-19.2178764],[-51.3639605,-19.222506],[-51.3701184,-19.1995871],[-51.3926331,-19.1962778],[-51.4053572,-19.175547],[-51.4272881,-19.1651906],[-51.4585146,-19.1677776],[-51.4740732,-19.1537129],[-51.4976479,-19.1614011],[-51.5271028,-19.138922],[-51.5509349,-19.1406521],[-51.592212,-19.1267874],[-51.6084347,-19.1409997],[-51.6338214,-19.1313634],[-51.6599195,-19.1343787],[-51.682563,-19.1209272],[-51.7414278,-19.1007365],[-51.751782,-19.0855882],[-51.7910824,-19.0798312],[-51.796312,-19.0664318],[-51.8168818,-19.0547208],[-51.8576816,-19.0505313],[-51.8906643,-19.0177686],[-51.9067679,-18.9945819],[-51.9400077,-18.968472],[-51.9956616,-18.9742346],[-52.0344708,-18.9580622],[-52.0799944,-18.9508492],[-52.1057927,-18.9259298],[-52.105569,-18.9068189],[-52.1462319,-18.8946598],[-52.1730423,-18.8569967],[-52.1873538,-18.8458754],[-52.2505018,-18.839869],[-52.2632303,-18.8282244],[-52.2933538,-18.8292451],[-52.3051407,-18.8404398],[-52.3442559,-18.8181456],[-52.4082737,-18.7564979],[-52.4480256,-18.6919665],[-52.4741711,-18.6861859],[-52.5315493,-18.6574807],[-52.5524044,-18.6570821],[-52.5886921,-18.6879335],[-52.6404504,-18.6905284],[-52.6873098,-18.6783425],[-52.7161033,-18.6914091],[-52.746015,-18.6924069],[-52.7651871,-18.6806226],[-52.7852626,-18.6815089],[-52.8091012,-18.667215],[-52.8464687,-18.666953],[-52.872214,-18.6461177],[-52.9167596,-18.6402946],[-52.9176575,-18.6152409],[-52.9518167,-18.5766716],[-52.9623514,-18.5408197],[-52.942511,-18.5170307],[-52.9157605,-18.5089029],[-52.8990952,-18.4768327],[-52.8809573,-18.4654927],[-52.8732937,-18.4267916],[-52.8067938,-18.4176957],[-52.7588732,-18.3631404],[-52.7593196,-18.3480709],[-52.7759033,-18.3287534],[-52.814259,-18.3112978],[-52.8732067,-18.3148335],[-52.9352301,-18.2965543],[-52.9652657,-18.2989407],[-53.0139382,-18.3261391],[-53.020866,-18.3462792],[-53.0699358,-18.3428798],[-53.0996557,-18.3136191],[-53.1020397,-18.2726203],[-53.1101876,-18.2195633],[-53.1297381,-18.1607025],[-53.1290165,-18.1384845],[-53.14324,-18.0818367],[-53.1236517,-18.0588283],[-53.0786288,-18.0530295],[-53.0722775,-18.0339753],[-53.1767934,-18.0415807],[-53.1987916,-18.0203061],[-53.237764,-18.0074432],[-53.2363156,-18.05134]],[[-53.6196212,-21.5671978],[-53.617369,-21.5779182]],[[-53.617369,-21.5779182],[-53.6083537,-21.5902361],[-53.6263347,-21.6131957],[-53.7335757,-21.6215031],[-53.727188,-21.6643757],[-53.7417778,-21.6841551],[-53.7323389,-21.7302932],[-53.7370633,-21.7893943],[-53.7277019,-21.8057354],[-53.7559226,-21.83384],[-53.7625361,-21.8472166],[-53.7869533,-21.8787792],[-53.7908092,-21.9079471],[-53.7927535,-21.9226521],[-53.7892115,-21.9432841],[-53.760318,-21.9604084],[-53.7537707,-21.9859748],[-53.7315383,-21.9941327],[-53.7376055,-22.0163751],[-53.7139862,-22.0229441],[-53.6866844,-22.0403252],[-53.6926575,-22.0546194],[-53.6730713,-22.0737847],[-53.663408,-22.1116755],[-53.6445212,-22.1165867]],[[-53.6445212,-22.1165867],[-53.6273705,-22.1223739],[-53.6239669,-22.1274503],[-53.6241707,-22.1324509],[-53.6268076,-22.1388258]],[[-53.6268076,-22.1388258],[-53.5961324,-22.1477278],[-53.5939684,-22.1717337],[-53.5903376,-22.2031394],[-53.562813,-22.2315245],[-53.5744346,-22.2425493],[-53.5568309,-22.3049155],[-53.5337857,-22.3349777],[-53.5389482,-22.3749275],[-53.5279642,-22.3960414],[-53.5143712,-22.402932],[-53.5101348,-22.4339823],[-53.4963134,-22.4349813],[-53.4829139,-22.4553185],[-53.5184624,-22.5318283],[-53.5330183,-22.5430617]],[[-53.5330183,-22.5430617],[-53.5476183,-22.5446276],[-53.5526796,-22.5472254],[-53.5606648,-22.5563192],[-53.5627604,-22.5669724]],[[-53.5627604,-22.5669724],[-53.5605329,-22.5706384],[-53.5503941,-22.5709745],[-53.5448502,-22.5775286],[-53.5402074,-22.5792637],[-53.5334838,-22.5803454],[-53.510124,-22.5769131]],[[-53.510124,-22.5769131],[-53.4991097,-22.5871588],[-53.5004402,-22.6055266],[-53.5143607,-22.6001561],[-53.5244202,-22.6096586],[-53.5240399,-22.6147307],[-53.5125236,-22.6319003],[-53.5580854,-22.6716433],[-53.5589217,-22.6845899],[-53.5476528,-22.7106847],[-53.5346719,-22.7206193],[-53.5189141,-22.7549169],[-53.5057199,-22.7627602],[-53.5248636,-22.7934773],[-53.5600008,-22.8103077],[-53.5683414,-22.8353119],[-53.6121834,-22.8595752],[-53.6223975,-22.9019975],[-53.6345028,-22.909952],[-53.6520762,-22.9224224],[-53.6528566,-22.939515],[-53.6491914,-22.9568617],[-53.6564509,-22.9814197],[-53.6340024,-23.0033823]],[[-57.5017268,-22.167181],[-57.5018107,-22.1591248],[-57.504545,-22.1580173],[-57.5089608,-22.1590704],[-57.5094395,-22.161276]],[[-57.5168337,-22.173625],[-57.4835499,-22.1922816],[-57.4448357,-22.1877668],[-57.3862672,-22.2044165],[-57.3713845,-22.2317503],[-57.3576889,-22.2264003],[-57.3158021,-22.2361892],[-57.2959932,-22.2191034],[-57.2704357,-22.2371283],[-57.2377612,-22.2512801],[-57.2179698,-22.2410823],[-57.2032521,-22.2117245],[-57.1841904,-22.2293179],[-57.1484636,-22.2338362],[-57.1363038,-22.2262593],[-57.1086453,-22.2314046],[-57.1022908,-22.2484589],[-57.0794982,-22.2495249],[-57.0000043,-22.2229663],[-56.9874526,-22.2426378],[-56.9590973,-22.237984],[-56.9472109,-22.2561111],[-56.9157353,-22.2553976],[-56.8890809,-22.245303],[-56.8753501,-22.2635159],[-56.8798582,-22.2777037],[-56.8423859,-22.3015878],[-56.8026856,-22.2835045],[-56.8019673,-22.2490303],[-56.7724664,-22.2584168],[-56.7630014,-22.2424148],[-56.7441029,-22.2412392],[-56.7203029,-22.2566662],[-56.6824244,-22.2215012],[-56.6789775,-22.2464656],[-56.6385734,-22.2603803],[-56.6313169,-22.2454508],[-56.6055921,-22.2319817],[-56.5823173,-22.2056444],[-56.5698954,-22.207325],[-56.5570985,-22.1880783],[-56.5570521,-22.1690914],[-56.5378432,-22.1577436],[-56.5226885,-22.1377567],[-56.5188509,-22.1082824],[-56.4708908,-22.0798515],[-56.4345803,-22.0849081],[-56.4022531,-22.080079],[-56.3676632,-22.1368542],[-56.3738377,-22.1499626],[-56.3462492,-22.1879613],[-56.3218538,-22.2143943],[-56.299425,-22.2174598],[-56.2850974,-22.2321428],[-56.26304,-22.2396433],[-56.2374592,-22.2366225],[-56.2335641,-22.2559499],[-56.2090751,-22.2782067],[-56.193285,-22.2710097],[-56.1743279,-22.2856057],[-56.1305909,-22.2842049],[-56.1245682,-22.2706425],[-56.0866096,-22.2863124],[-56.0635321,-22.2764259],[-56.0078013,-22.2926982],[-55.9799898,-22.2793142],[-55.9459982,-22.2835833],[-55.9165691,-22.2777171],[-55.901812,-22.2851819],[-55.8431265,-22.2871094],[-55.8323762,-22.3256525],[-55.8209895,-22.3451086],[-55.8008553,-22.3553042],[-55.8037116,-22.372243],[-55.7798183,-22.3843248],[-55.7487056,-22.3834175],[-55.7372206,-22.4111581],[-55.7339153,-22.4415317],[-55.7511166,-22.4746765],[-55.7472827,-22.505515],[-55.7236467,-22.5517823],[-55.698471,-22.5632723],[-55.6828835,-22.5888691],[-55.641368,-22.6127055],[-55.6251579,-22.6282529],[-55.6144219,-22.6550953],[-55.6172826,-22.6776087],[-55.6133942,-22.717023],[-55.6201529,-22.7533634],[-55.6506364,-22.7933309],[-55.6658547,-22.8524621],[-55.6612184,-22.882188],[-55.6509664,-22.8872855],[-55.6368276,-22.9647894],[-55.6219274,-22.9844943],[-55.6339058,-22.991781],[-55.6393893,-23.0259092],[-55.6113185,-23.047665],[-55.6113109,-23.0768353],[-55.5958235,-23.1194677],[-55.5967818,-23.1525977],[-55.5733963,-23.1433433],[-55.5418854,-23.1561324],[-55.5430994,-23.1807879],[-55.5232812,-23.197787],[-55.5402337,-23.2208337],[-55.5372784,-23.2512624],[-55.5226578,-23.259713],[-55.5530803,-23.2795321],[-55.5491776,-23.3037066],[-55.5559125,-23.3163231],[-55.5345664,-23.3333552],[-55.5194212,-23.3651743],[-55.5044807,-23.3784698],[-55.5155897,-23.4095754],[-55.5446944,-23.4493317],[-55.5516965,-23.4894396],[-55.5466839,-23.5226098],[-55.526527,-23.5673511],[-55.5381803,-23.5918935],[-55.5304278,-23.6278216],[-55.4746739,-23.6504699],[-55.4759663,-23.6751962],[-55.462156,-23.6839427],[-55.4634672,-23.7119674],[-55.4362574,-23.7167603],[-55.4486744,-23.7422695],[-55.4301796,-23.7901412],[-55.4538885,-23.8192704],[-55.4415458,-23.8293466],[-55.4355666,-23.8723807],[-55.4463353,-23.9169315],[-55.4278692,-23.9263193],[-55.4199855,-23.9572967],[-55.3975574,-23.9741481],[-55.3875992,-23.9675007],[-55.3454859,-23.9945972],[-55.336089,-23.9929515],[-55.3177216,-23.9628938],[-55.3041758,-23.9650266],[-55.2777987,-23.9845562],[-55.235373,-24.006622],[-55.2069243,-24.0036025],[-55.1984203,-23.9866936],[-55.1786588,-23.9937987],[-55.1287264,-23.98373],[-55.1069709,-23.9652119],[-55.0903576,-23.9825746],[-55.0623315,-23.9932886],[-55.0332878,-23.9739009],[-54.9985893,-23.9575893],[-54.9666801,-23.9661658],[-54.9252523,-23.9602818],[-54.9268771,-23.924814],[-54.9086879,-23.9113704],[-54.8601131,-23.9052013],[-54.8363205,-23.8839164],[-54.8143204,-23.8904277],[-54.7927967,-23.8680787],[-54.7452925,-23.8687084],[-54.7051834,-23.8646063],[-54.6985731,-23.8419968],[-54.6686473,-23.8171906],[-54.6467748,-23.8337631],[-54.6165884,-23.8350205],[-54.6097366,-23.8513764],[-54.5814792,-23.8458011],[-54.5148814,-23.8851784],[-54.4401395,-23.9042761],[-54.4147006,-23.9581102],[-54.394308,-23.9652556],[-54.3868621,-23.9828167],[-54.351957,-24.0076726],[-54.337917,-24.0015631],[-54.3188541,-24.0105075],[-54.3216312,-24.0245429],[-54.3099595,-24.0463149],[-54.284134,-24.0675568],[-54.2494639,-24.0559018],[-54.2171949,-24.0359906],[-54.1746867,-24.0019728],[-54.1402563,-23.9884028],[-54.101765,-23.9519635],[-54.0794097,-23.880756],[-54.0881053,-23.8445303],[-54.0804586,-23.7808971],[-54.0526388,-23.7250676],[-54.0535148,-23.7016786],[-54.0446082,-23.6686559],[-54.0322298,-23.6516617],[-54.0240178,-23.5860784],[-54.0084866,-23.5490387],[-54.0043425,-23.51108],[-53.9865967,-23.4647936],[-53.9601976,-23.4434149],[-53.932055,-23.4459488],[-53.8765944,-23.4197884],[-53.8160218,-23.3856449],[-53.7754879,-23.3751314],[-53.7413238,-23.3356384],[-53.7252209,-23.3104334],[-53.7055967,-23.2632524],[-53.699341,-23.2349043],[-53.6795624,-23.1952574],[-53.6679996,-23.1823501],[-53.6547546,-23.1441601],[-53.6365887,-23.1250308],[-53.6298958,-23.0135048],[-53.6340024,-23.0033823]],[[-53.510124,-22.5769131],[-53.517717,-22.5754684],[-53.5341165,-22.5804068],[-53.5435033,-22.5781725],[-53.5509278,-22.5707193],[-53.5627604,-22.5669724]],[[-53.5627604,-22.5669724],[-53.5614428,-22.5579699],[-53.556904,-22.5512644],[-53.5501834,-22.5455227],[-53.5330183,-22.5430617]],[[-53.6268076,-22.1388258],[-53.6237553,-22.1298924],[-53.626284,-22.1230195],[-53.6383328,-22.1178688],[-53.6445212,-22.1165867]],[[-53.617369,-21.5779182],[-53.6250806,-21.5725869]],[[-55.3063858,-21.1384483],[-55.3179005,-21.127498],[-55.3208166,-21.1234691],[-55.3217082,-21.1192338],[-55.3209896,-21.1146738],[-55.3184847,-21.1109189],[-55.3142098,-21.1090886],[-55.311169,-21.1093553],[-55.3073311,-21.1051694],[-55.306845,-21.0964415]],[[-55.2791393,-21.0357356],[-55.2728798,-21.0114001],[-55.2683552,-21.0090471],[-55.2540427,-21.0156699]]],"bbox":[-58.1671536,-24.0675568,-50.9229091,-17.1663486]}
