{"type":"Topology","objects":{"geometrias":{"type":"GeometryCollection","geometries":[{"type":"Polygon","arcs":[[0,1,2,3]],"properties":{"code_meso":2801,"code_state":28,"code_region":2,"name_meso":"Sertão Sergipano","abbrev_state":"SE","name_state":"Sergipe","name_region":"Nordeste","year":2020}},{"type":"Polygon","arcs":[[4,5,6,-4]],"properties":{"code_meso":2802,"code_state":28,"code_region":2,"name_meso":"Agreste Sergipano","abbrev_state":"SE","name_state":"Sergipe","name_region":"Nordeste","year":2020}},{"type":"Polygon","arcs":[[7,-2,8,-6]],"properties":{"code_meso":2803,"code_state":28,"code_region":2,"name_meso":"Leste Sergipano","abbrev_state":"SE","name_state":"Sergipe","name_region":"Nordeste","year":2020}}]}},"arcs":[[[-37.154725,-10.1843631],[-37.1504675,-10.1631679],[-37.0664591,-10.1364347]],[[-37.0664591,-10.1364347],[-37.0679654,-10.0922995],[-37.062024,-10.0615473],[-37.0297839,-10.0569375],[-37.0069411,-10.0377451],[-36.9534541,-10.0228196]],[[-36.9534541,-10.0228196],[-36.9616864,-9.9963701],[-36.9963712,-9.9723746],[-37.0330877,-9.9875786],[-37.0624048,-9.9825197],[-37.0859392,-9.9516958],[-37.1138859,-9.9256234],[-37.1625382,-9.8938468],[-37.1806734,-9.8994168],[-37.2411061,-9.8954489],[-37.2619127,-9.8491387],[-37.2852199,-9.8306289],[-37.3005087,-9.8315612],[-37.3259371,-9.8169225],[-37.3466157,-9.7911833],[-37.3936189,-9.7792353],[-37.4099011,-9.7626496],[-37.4730916,-9.7463641],[-37.515373,-9.7458745],[-37.577684,-9.7368078],[-37.5941126,-9.7231758],[-37.6540515,-9.6863334],[-37.670392,-9.6559792],[-37.7052049,-9.634498],[-37.7469947,-9.6249209],[-37.7861268,-9.6389131],[-37.7915152,-9.6228227],[-37.8182483,-9.5928939],[-37.8861699,-9.5501668],[-37.9142479,-9.5485891],[-37.9893302,-9.5273587],[-38.0032899,-9.5150299],[-38.0226164,-9.5406648],[-38.0209014,-9.560914],[-38.0617041,-9.5911632],[-38.0488721,-9.6323926],[-38.0166551,-9.6388738],[-38.0322192,-9.6606865],[-38.0343001,-9.6867161],[-38.0450383,-9.6974549],[-38.038619,-9.7500946],[-38.020426,-9.797863],[-37.9999705,-9.8143261],[-37.9954442,-9.8460787],[-38.007183,-9.8687177],[-37.9951654,-9.8784874],[-37.9983653,-9.9059246],[-37.9750295,-9.9369297],[-37.9554324,-9.9429999],[-37.9134407,-9.9331128],[-37.8625558,-9.9885966],[-37.8520777,-9.9904569],[-37.8270049,-10.0341612],[-37.7909033,-10.0327032],[-37.7826444,-10.0435984],[-37.7883725,-10.0714104],[-37.8004816,-10.091709],[-37.8020145,-10.1124474],[-37.7779303,-10.1341413],[-37.7822309,-10.1855917],[-37.7656811,-10.1960449],[-37.7470908,-10.2380727],[-37.7503827,-10.2894991],[-37.7433128,-10.3383907],[-37.7786833,-10.3431919],[-37.8076254,-10.3675035],[-37.839048,-10.3788204],[-37.8432688,-10.403109],[-37.8592687,-10.4284957],[-37.820987,-10.4836401],[-37.8126051,-10.507247],[-37.8180577,-10.5251698],[-37.8411986,-10.5550589],[-37.8308505,-10.5729916],[-37.8050824,-10.5944981]],[[-37.8050824,-10.5944981],[-37.7852879,-10.600947],[-37.7685318,-10.611684],[-37.7315585,-10.6301382],[-37.7245183,-10.6407229],[-37.7066001,-10.6330613],[-37.6979278,-10.6474752],[-37.7150392,-10.6689163],[-37.6739125,-10.7026263],[-37.677443,-10.7154116],[-37.662941,-10.712018],[-37.66856,-10.6745329],[-37.6402816,-10.6047205],[-37.5585747,-10.6194508],[-37.5304611,-10.6457986],[-37.50946,-10.626232],[-37.4745009,-10.5664591],[-37.4597452,-10.5943099],[-37.4226444,-10.5762908],[-37.3945425,-10.5823203],[-37.3428391,-10.5410043],[-37.3281224,-10.5434977],[-37.3202916,-10.5383648],[-37.3468073,-10.5068304],[-37.3699448,-10.4601693],[-37.3682209,-10.4517055],[-37.4103647,-10.4167983],[-37.4114396,-10.3292409],[-37.4027973,-10.2897153],[-37.3623142,-10.3282986],[-37.3502551,-10.3557818],[-37.350684,-10.3809318],[-37.3259657,-10.3666809],[-37.2958003,-10.3201236],[-37.2740238,-10.3064939],[-37.2546557,-10.3051779],[-37.2414728,-10.2873717],[-37.2581841,-10.2682336],[-37.2929051,-10.255812],[-37.2612124,-10.2383751],[-37.2513612,-10.2552265],[-37.2384073,-10.2724274],[-37.2232395,-10.2983458],[-37.2099237,-10.2958657],[-37.1723926,-10.3155467],[-37.1688162,-10.333333],[-37.1722436,-10.334557],[-37.1716475,-10.3376225],[-37.1525538,-10.3238314],[-37.1512071,-10.3192499],[-37.154105,-10.308139],[-37.1391351,-10.2800449],[-37.1407158,-10.2463281],[-37.150998,-10.2358117],[-37.1506148,-10.2251676],[-37.1435471,-10.211309],[-37.1377575,-10.1934431],[-37.154725,-10.1843631]],[[-37.8050824,-10.5944981],[-37.8113881,-10.6255361],[-37.8029907,-10.6521623],[-37.8151346,-10.6848568],[-37.8374288,-10.6854657],[-37.8475103,-10.6992649],[-37.9096224,-10.7155103],[-37.9454812,-10.7565173],[-37.9768025,-10.7579327],[-38.0250319,-10.7255192],[-38.0318754,-10.7079966],[-38.0485734,-10.7034538],[-38.067792,-10.7156658],[-38.0983533,-10.7124371],[-38.1435605,-10.7190129],[-38.1833944,-10.7053632],[-38.2098023,-10.7152557],[-38.21464,-10.7472407],[-38.2093598,-10.7604353],[-38.2185886,-10.7832972],[-38.238345,-10.8001848],[-38.2392662,-10.8263759],[-38.2313983,-10.8429341],[-38.2374459,-10.8761491],[-38.2281683,-10.9141839],[-38.1806156,-10.9427672],[-38.1865421,-10.9642065],[-38.1700454,-10.9889955],[-38.1019991,-11.0158945],[-38.1024196,-11.0439829],[-38.0809638,-11.0640434],[-38.0884012,-11.1162559],[-38.0656188,-11.1229761],[-38.0712201,-11.143546],[-38.0571807,-11.1720853],[-38.0233545,-11.177767],[-38.0029487,-11.193824],[-37.9822963,-11.1911066],[-37.9764057,-11.2155386],[-37.990642,-11.2279944],[-37.9836406,-11.248288],[-37.9958538,-11.259476],[-37.9922089,-11.2788293],[-38.0013459,-11.3033025],[-37.9772855,-11.3421511]],[[-37.9772855,-11.3421511],[-37.9503708,-11.3065471],[-37.9221231,-11.2414585],[-37.9047926,-11.2219551],[-37.8724489,-11.2173894],[-37.8674576,-11.2213261],[-37.87638,-11.1865902],[-37.8464968,-11.1607612],[-37.7934412,-11.1329744],[-37.7695986,-11.1352027],[-37.7612053,-11.1416648],[-37.7067905,-11.1743166],[-37.6467198,-11.1261992],[-37.6495457,-11.1088792],[-37.622419,-11.0674753],[-37.5651514,-11.0400518],[-37.5685133,-11.0254575],[-37.531008,-10.9962223],[-37.5196612,-10.9603419],[-37.4556426,-10.9775498],[-37.4942326,-10.9047067],[-37.4583661,-10.8840157],[-37.406934,-10.8321713],[-37.3975418,-10.8479099],[-37.3696653,-10.8518842],[-37.3393789,-10.8472685],[-37.2445086,-10.7783836],[-37.2725273,-10.7528384],[-37.2830605,-10.7317337],[-37.2589259,-10.701732],[-37.2384961,-10.7083608],[-37.2269482,-10.6840483],[-37.244169,-10.6605525],[-37.2963995,-10.6010278],[-37.281343,-10.5872924],[-37.2645932,-10.586763],[-37.217563,-10.6112645],[-37.1761449,-10.5802518],[-37.1808145,-10.5628024],[-37.1396678,-10.5070334],[-37.1371291,-10.4537536],[-37.118728,-10.4414772],[-37.110742,-10.4231159],[-37.1155584,-10.3983258],[-37.1201247,-10.3953348],[-37.1203802,-10.3913965],[-37.1293212,-10.3857552],[-37.1294809,-10.3799541],[-37.1149992,-10.3706941],[-37.1128328,-10.3728979],[-37.1111706,-10.3728232],[-37.1077715,-10.3698723],[-37.0899171,-10.3576207],[-37.0663657,-10.3302105],[-37.054333,-10.3370838],[-37.0261214,-10.330342],[-37.0151282,-10.3307112],[-37.0084499,-10.3292378],[-37.0033411,-10.3290777],[-37.0005224,-10.3279726],[-37.0000099,-10.3349713],[-36.9953335,-10.3584015],[-36.978998,-10.3713898],[-36.9841869,-10.3978469],[-36.9612852,-10.442273],[-36.9332907,-10.4419047],[-36.9329383,-10.4262098],[-36.9055524,-10.4166327],[-36.9157572,-10.3934145],[-36.9125589,-10.3695496],[-36.9007488,-10.3501212],[-36.9026627,-10.3242115],[-36.9358844,-10.3066811],[-36.9337251,-10.2761459],[-36.9523737,-10.2665204],[-36.9290282,-10.2228287],[-36.9611888,-10.2356638],[-36.9715941,-10.2045478],[-36.9947943,-10.1776004],[-37.0169026,-10.1910129],[-37.0575196,-10.1810599],[-37.1503834,-10.1631198]],[[-37.1503834,-10.1631198],[-37.154725,-10.1843631]],[[-37.9772855,-11.3421511],[-37.9786506,-11.3656903],[-37.9528039,-11.3944876],[-37.9363691,-11.4216614],[-37.9275578,-11.4013024],[-37.9044605,-11.411759],[-37.8991544,-11.4382534],[-37.8823804,-11.4247047],[-37.8534577,-11.4674974],[-37.8235926,-11.4925822],[-37.8122886,-11.51702],[-37.7896669,-11.5249333],[-37.7589745,-11.5253783],[-37.749361,-11.5386277],[-37.6984173,-11.5634142],[-37.6819641,-11.5625182],[-37.6613297,-11.5461672],[-37.6642002,-11.5319608],[-37.6385012,-11.5184252],[-37.6157268,-11.538601],[-37.590269,-11.5284951],[-37.5785501,-11.5521789],[-37.5627166,-11.5426752],[-37.5357778,-11.5497206],[-37.5170038,-11.5469251],[-37.5047505,-11.5249101],[-37.4581857,-11.5237135],[-37.4325207,-11.5111781],[-37.3686307,-11.4598165],[-37.3552553,-11.4436993],[-37.3379097,-11.4428246],[-37.3122179,-11.4229911],[-37.2996847,-11.3636844],[-37.2603198,-11.2897955],[-37.2070498,-11.2229464],[-37.1661092,-11.1824984],[-37.1329321,-11.1141258],[-37.0663909,-11.0170781],[-37.0353692,-10.9798473],[-37.0340254,-10.9562448],[-36.9530599,-10.8515135],[-36.8580877,-10.7486818],[-36.7844259,-10.6882294],[-36.7346858,-10.6580667],[-36.6729468,-10.6307931],[-36.6127009,-10.5884047],[-36.527295,-10.5512561],[-36.4367935,-10.5170562],[-36.4087988,-10.5126924],[-36.3959408,-10.4968722],[-36.4276286,-10.4335147],[-36.4630962,-10.4084796],[-36.5019299,-10.4311324],[-36.5294169,-10.4308933],[-36.5626853,-10.4139182],[-36.5569866,-10.3748876],[-36.5718256,-10.3161472],[-36.6004501,-10.2900603],[-36.6226392,-10.2552517],[-36.6385707,-10.251963],[-36.6592757,-10.2684482],[-36.6914611,-10.2715844],[-36.7212114,-10.2645986],[-36.7352144,-10.2419349],[-36.759159,-10.2249199],[-36.7885611,-10.2280941],[-36.8014388,-10.2131064],[-36.8297543,-10.2084407],[-36.8699454,-10.1471254],[-36.9114192,-10.1387824],[-36.9288451,-10.1011833],[-36.9456955,-10.0873628],[-36.9565986,-10.053734],[-36.9534541,-10.0228196]],[[-37.0664591,-10.1364347],[-37.1503834,-10.1631198]]],"bbox":[-38.2392662,-11.5634142,-36.3959408,-9.5150299]}
