{"type":"Topology","objects":{"geometrias":{"type":"GeometryCollection","geometries":[{"type":"Polygon","arcs":[[0,1,2,3]],"properties":{"code_meso":2901,"code_state":29,"code_region":2,"name_meso":"Extremo Oeste Baiano","abbrev_state":"BA","name_state":"Bahia","name_region":"Nordeste","year":2020}},{"type":"Polygon","arcs":[[4,-4,5,-2,6,7,8,9,10]],"properties":{"code_meso":2902,"code_state":29,"code_region":2,"name_meso":"Vale São-Franciscano da Bahia","abbrev_state":"BA","name_state":"Bahia","name_region":"Nordeste","year":2020}},{"type":"Polygon","arcs":[[11,12,13,14,15,16,17,18,-10]],"properties":{"code_meso":2903,"code_state":29,"code_region":2,"name_meso":"Centro Norte Baiano","abbrev_state":"BA","name_state":"Bahia","name_region":"Nordeste","year":2020}},{"type":"Polygon","arcs":[[19,20,21,-11,-19]],"properties":{"code_meso":2904,"code_state":29,"code_region":2,"name_meso":"Nordeste Baiano","abbrev_state":"BA","name_state":"Bahia","name_region":"Nordeste","year":2020}},{"type":"Polygon","arcs":[[22,-15,23,24,25,26,27,-21,28,-17]],"properties":{"code_meso":2905,"code_state":29,"code_region":2,"name_meso":"Metropolitana de Salvador","abbrev_state":"BA","name_state":"Bahia","name_region":"Nordeste","year":2020}},{"type":"Polygon","arcs":[[-8,29,30,31,-25,32,-13,33]],"properties":{"code_meso":2906,"code_state":29,"code_region":2,"name_meso":"Centro Sul Baiano","abbrev_state":"BA","name_state":"Bahia","name_region":"Nordeste","year":2020}},{"type":"Polygon","arcs":[[34,-27,35,-31]],"properties":{"code_meso":2907,"code_state":29,"code_region":2,"name_meso":"Sul Baiano","abbrev_state":"BA","name_state":"Bahia","name_region":"Nordeste","year":2020}}]}},"arcs":[[[-44.0834286,-10.58909],[-44.1076981,-10.594873],[-44.139264,-10.6398843],[-44.1655401,-10.6429012],[-44.218377,-10.6151805],[-44.2451562,-10.6277684],[-44.2666554,-10.623153],[-44.2901819,-10.596712],[-44.3145472,-10.557363],[-44.3446125,-10.5497014],[-44.3980737,-10.6058781],[-44.4236485,-10.6132668],[-44.4436797,-10.6066379],[-44.4636318,-10.6152568],[-44.4803595,-10.6415203],[-44.5045152,-10.6507394],[-44.5274701,-10.646954],[-44.5468098,-10.6301286],[-44.5895146,-10.6324192],[-44.6127634,-10.666757],[-44.655257,-10.6766957],[-44.6687974,-10.6870872],[-44.6614818,-10.7305046],[-44.6676847,-10.7600566],[-44.6872112,-10.7692051],[-44.7145743,-10.7617251],[-44.7583388,-10.7889838],[-44.7589257,-10.8048461],[-44.7880619,-10.8085216],[-44.8103231,-10.8465842],[-44.8111427,-10.8704266],[-44.8442989,-10.9000328],[-44.8638008,-10.8852263],[-44.9312179,-10.9287563],[-44.9950448,-10.8838946],[-45.0165971,-10.8845991],[-45.0500021,-10.8521443],[-45.0732357,-10.8404226],[-45.1052963,-10.84682],[-45.2480519,-10.8219674],[-45.268466,-10.7762298],[-45.3223736,-10.7602651],[-45.358219,-10.7322075],[-45.3691162,-10.6799495],[-45.385216,-10.6516326],[-45.4188325,-10.6438196],[-45.4373282,-10.6155663],[-45.436793,-10.5767735],[-45.4461612,-10.5623236],[-45.4390528,-10.5222931],[-45.4472563,-10.507423],[-45.4002689,-10.4630743],[-45.3959943,-10.4450252],[-45.4244966,-10.4264902],[-45.4257722,-10.3702837],[-45.4846518,-10.304898],[-45.5223538,-10.2766536],[-45.5261867,-10.2369276],[-45.5508178,-10.2222808],[-45.5716489,-10.1809398],[-45.5674564,-10.1395225],[-45.5838893,-10.1169916],[-45.6086536,-10.1096427],[-45.6487641,-10.127334],[-45.6901759,-10.1554004],[-45.7019773,-10.1793504],[-45.6995761,-10.2596862],[-45.7268896,-10.3125357],[-45.7981846,-10.3232473],[-45.8212513,-10.458074],[-45.8708973,-10.5032789],[-45.9292229,-10.5216007],[-45.9746323,-10.5518698],[-46.0607652,-10.6001785],[-46.1272996,-10.6204473],[-46.1497049,-10.6359108],[-46.1607629,-10.659439],[-46.1503463,-10.691554],[-46.1651513,-10.7224792],[-46.195922,-10.745224],[-46.206199,-10.8004666],[-46.2264451,-10.7829371],[-46.260537,-10.8120374],[-46.2672663,-10.9348023],[-46.3415579,-10.9390123],[-46.4661796,-11.1337357],[-46.5522029,-11.262799],[-46.5764346,-11.341899],[-46.5674829,-11.372004],[-46.5320213,-11.3746657],[-46.5240555,-11.4636343],[-46.4402129,-11.520884],[-46.3481413,-11.5066007],[-46.2504813,-11.536689],[-46.2093463,-11.5853507],[-46.1043079,-11.6079673],[-46.1073456,-11.625734],[-46.1444858,-11.6243474],[-46.1573605,-11.6514487],[-46.2142962,-11.6427527],[-46.2385496,-11.6231161],[-46.2360793,-11.610525],[-46.3043291,-11.6061903],[-46.3608732,-11.6159496],[-46.340055,-11.6396841],[-46.3320947,-11.6723541],[-46.3077347,-11.6864407],[-46.3423999,-11.7374137],[-46.3785453,-11.7485209],[-46.3737917,-11.7663207],[-46.3436773,-11.7600875],[-46.337911,-11.814101],[-46.3721335,-11.8299619],[-46.3807875,-11.8615878],[-46.3706583,-11.8895899],[-46.3530272,-11.8843192],[-46.3067835,-11.9137471],[-46.2880029,-11.9096549],[-46.2477131,-11.9192975],[-46.1951004,-11.904136],[-46.2025928,-11.9233524],[-46.2330576,-11.9364818],[-46.3154903,-11.941993],[-46.3648267,-11.9807722],[-46.3635629,-11.9903413],[-46.3969376,-12.0139181],[-46.4448951,-12.0261783],[-46.4525443,-12.0501117],[-46.3943808,-12.0463967],[-46.385551,-12.0615016],[-46.3980347,-12.0894981],[-46.3711652,-12.0997193],[-46.3715277,-12.1231242],[-46.3980695,-12.1627045],[-46.3811393,-12.1811696],[-46.366521,-12.215083],[-46.3828769,-12.2552194],[-46.3695687,-12.2674682],[-46.3843873,-12.2945067],[-46.3491463,-12.2991233],[-46.3563495,-12.332222],[-46.3487602,-12.3518799],[-46.3000205,-12.3637318],[-46.2898836,-12.376653],[-46.3248555,-12.4075111],[-46.3370353,-12.4530633],[-46.3155489,-12.4634304],[-46.3100667,-12.4296701],[-46.2904543,-12.416632],[-46.2638259,-12.4602543],[-46.2659518,-12.4827186],[-46.2508606,-12.502217],[-46.2053289,-12.5033552],[-46.2244444,-12.528641],[-46.2549312,-12.5398977],[-46.2716121,-12.5700454],[-46.2757846,-12.5944306],[-46.305393,-12.6399891],[-46.2744064,-12.6438603],[-46.2688648,-12.6673292],[-46.301703,-12.6843133],[-46.2946262,-12.7074643],[-46.2728226,-12.7142207],[-46.2824396,-12.7670996],[-46.3097625,-12.7966012],[-46.2735822,-12.815966],[-46.2775822,-12.8435595],[-46.2998758,-12.8563612],[-46.2903724,-12.9003262],[-46.3112453,-12.9090544],[-46.3080359,-12.9399232],[-46.2942225,-12.9529523],[-46.254501,-12.9392031],[-46.2223573,-12.9502317],[-46.1715537,-12.9315481],[-46.1441501,-12.9311485],[-46.1259497,-12.9163998],[-46.104644,-12.9249255],[-46.1246636,-12.9598204],[-46.1663753,-12.977276],[-46.1938118,-12.9967524],[-46.2755338,-13.0202133],[-46.2815629,-13.0451358],[-46.316385,-13.0909773],[-46.3157947,-13.1187347],[-46.2996101,-13.1281286],[-46.3070303,-13.1706718],[-46.3043483,-13.2059795],[-46.3276793,-13.2529237],[-46.3055418,-13.2516639],[-46.2999859,-13.2828818],[-46.317902,-13.3052278],[-46.2924869,-13.3169301],[-46.2202554,-13.2956893],[-46.1748511,-13.2769535],[-46.1032194,-13.2575102],[-46.0802173,-13.2738374],[-46.0733396,-13.3113689],[-46.1354731,-13.3755242],[-46.1622858,-13.3826351],[-46.1917297,-13.4099817],[-46.2319648,-13.4185849],[-46.2373491,-13.4348044],[-46.2101648,-13.4618865],[-46.233156,-13.4817453],[-46.2302613,-13.511774],[-46.2472571,-13.5216887],[-46.2317192,-13.5832136],[-46.1996428,-13.5725394],[-46.1675389,-13.5897333],[-46.1627454,-13.6036421],[-46.2163979,-13.6359857],[-46.2561978,-13.6841624],[-46.23577,-13.7010531],[-46.2510312,-13.7368664],[-46.2229368,-13.7654029],[-46.229975,-13.7742093],[-46.2774951,-13.7908815],[-46.2324747,-13.8486074],[-46.2568302,-13.8871755],[-46.2641903,-13.9474351],[-46.2530267,-13.9695326],[-46.220066,-13.9754228],[-46.2130884,-14.0305578],[-46.2276801,-14.0442614],[-46.2243922,-14.1050276],[-46.199313,-14.1269406],[-46.1859925,-14.1555917],[-46.1181409,-14.1599493],[-46.0982283,-14.1999275],[-46.0610483,-14.1954846],[-46.0604058,-14.2327006],[-46.0295909,-14.2595295],[-45.9954281,-14.2561577],[-45.9644033,-14.2843113],[-45.9570512,-14.3213986],[-45.9422146,-14.343255],[-45.9071553,-14.3551898],[-45.9326429,-14.4098593],[-46.0000734,-14.4466222],[-46.0190031,-14.4720712],[-45.996085,-14.488406],[-46.0039971,-14.5145895],[-45.9814491,-14.5318979],[-45.9978884,-14.6035777],[-45.9843987,-14.6218787],[-45.989515,-14.658845],[-46.0105164,-14.66219],[-45.9990602,-14.7159387],[-46.007302,-14.7509791],[-46.0025841,-14.795839],[-46.0186719,-14.8185497],[-46.0411979,-14.8264946],[-46.0252869,-14.8557565],[-46.0394858,-14.8719769],[-46.00388,-14.9022898],[-45.9958369,-14.9274706],[-45.9660809,-14.9656455],[-45.9754941,-15.0388816],[-46.0184972,-15.0813013],[-46.0284766,-15.1141102],[-46.0437202,-15.1181296],[-46.0477756,-15.1637296],[-46.0787231,-15.1755061],[-46.1189155,-15.2020783],[-46.0988173,-15.2167858],[-46.0970883,-15.2431113],[-46.058113,-15.2627418],[-46.0385625,-15.2309154],[-46.0295237,-15.2018083],[-45.9845053,-15.195961],[-45.9724701,-15.1547163],[-45.9389562,-15.1356756],[-45.9029162,-15.1403797],[-45.871247,-15.1588109],[-45.8349982,-15.1373624],[-45.8116655,-15.1128378],[-45.7511095,-15.1225822],[-45.7221842,-15.1127719],[-45.7189107,-15.0973973],[-45.6748119,-15.0805426],[-45.6558189,-15.04853],[-45.6570586,-15.0273493],[-45.6246188,-15.0213685],[-45.6027119,-14.9895328],[-45.5670507,-14.9564953],[-45.534729,-14.9382576],[-45.4900515,-14.9607627],[-45.4588234,-14.9542124],[-45.4344688,-14.9217511],[-45.4102964,-14.9234388],[-45.3555693,-14.8775076],[-45.3477947,-14.8625688],[-45.3164204,-14.8512552],[-45.2397938,-14.7818437],[-45.2055737,-14.7447389],[-45.1720166,-14.7346788],[-45.1362896,-14.7474168],[-45.0827727,-14.7487667],[-45.0650718,-14.7308658],[-45.0476938,-14.690537],[-45.0319311,-14.6761701],[-44.9957479,-14.6678154],[-44.9729068,-14.6387713],[-44.9166802,-14.6196603],[-44.8910165,-14.5976553],[-44.8691947,-14.5933847],[-44.8481798,-14.5469245],[-44.8300094,-14.5334442],[-44.8345748,-14.5074923],[-44.8107661,-14.5031012],[-44.7693734,-14.4773383],[-44.7256578,-14.4576492],[-44.6883532,-14.4166809],[-44.6742097,-14.4244958],[-44.6588784,-14.3957573],[-44.6255951,-14.3761099],[-44.5983693,-14.3685005],[-44.5655652,-14.34006],[-44.5427329,-14.3405294],[-44.5108436,-14.3226879],[-44.48314,-14.3221174],[-44.4388974,-14.3028276],[-44.4219203,-14.2802118]],[[-44.4219203,-14.2802118],[-44.4252149,-14.2795769],[-44.4263251,-14.2742913],[-44.4488626,-14.2257703],[-44.462154,-14.2236808],[-44.4616837,-14.1944504],[-44.440075,-14.1884764],[-44.4474443,-14.1475165],[-44.4302002,-14.1408602],[-44.4183188,-14.0995682],[-44.4264064,-14.0816422],[-44.3908006,-14.0756425],[-44.3770833,-14.0460696],[-44.3136565,-14.0439184],[-44.2771251,-14.0314786],[-44.2688057,-14.0055248],[-44.2495336,-13.9879069],[-44.252834,-13.9716337],[-44.1978471,-13.9266668],[-44.1767696,-13.9482858],[-44.154849,-13.9497026],[-44.1102961,-13.9808549],[-44.1089136,-13.942851],[-44.0894775,-13.9075739],[-44.0643957,-13.9254776],[-44.0376283,-13.903836],[-44.0554792,-13.8741179],[-44.0730207,-13.8697937],[-44.0663329,-13.8694807],[-44.030439,-13.8740671],[-43.9998127,-13.8169275],[-43.9793471,-13.8317926],[-43.9628052,-13.8234899],[-43.9425836,-13.7882438],[-43.9100104,-13.7944074],[-43.8927999,-13.7529235],[-43.8366518,-13.7460065],[-43.8223253,-13.734312],[-43.8183979,-13.7257831],[-43.8142897,-13.7083541],[-43.9331362,-13.6562766],[-43.9167687,-13.6343842],[-43.8787844,-13.6047981],[-43.8805013,-13.5879059],[-43.8586691,-13.5641693],[-43.8352115,-13.5214721],[-43.8147158,-13.5250187],[-43.8159096,-13.4951146],[-43.8535984,-13.4801484],[-43.8978991,-13.4703783],[-43.9079486,-13.4312794],[-43.8914591,-13.3807391],[-43.8828787,-13.3361711],[-43.8597328,-13.3091235],[-43.857171,-13.2620518],[-43.8018614,-13.2194119],[-43.7720874,-13.2190979],[-43.7576114,-13.2064608],[-43.731976,-13.2067481],[-43.7179264,-13.1818346],[-43.6757613,-13.1692213],[-43.6484021,-13.1842782],[-43.6391096,-13.1650488],[-43.6456011,-13.1385715],[-43.6815549,-13.115881],[-43.686357,-12.9331871],[-43.659729,-12.9370096],[-43.6260088,-12.9206961],[-43.5862563,-12.9264786],[-43.5496395,-12.8865977],[-43.551483,-12.8625826],[-43.536422,-12.6368587],[-43.4435977,-12.5514355],[-43.553545,-12.5065033],[-43.679363,-12.3894935],[-43.7074067,-12.3707773],[-43.6853203,-12.318992],[-43.7099399,-12.3225119],[-43.7366568,-12.2841677],[-43.7673064,-12.2807172],[-43.7817763,-12.2580365],[-43.8048254,-12.2459914],[-43.8207282,-12.2514208],[-43.8522558,-12.2423062],[-43.9086679,-12.2568317],[-43.9148932,-12.2290248],[-43.8875517,-12.1717983],[-43.8665844,-12.1586687],[-43.845793,-12.1647848],[-43.8152417,-12.1372127],[-43.7976677,-12.1116159],[-43.7945011,-12.0903244],[-43.7317464,-12.0481346],[-43.7235517,-12.0160646],[-43.7601002,-12.0036914],[-43.7396,-11.971379],[-43.7392431,-11.9484172],[-43.7217991,-11.9408184],[-43.6936657,-11.8999469],[-43.7056581,-11.8692994],[-43.6616559,-11.8652279],[-43.6774358,-11.7967756],[-43.706768,-11.7287706],[-43.7382185,-11.6756734],[-43.7627926,-11.6106368],[-43.7750807,-11.5502965],[-43.7903635,-11.5003158],[-43.7934262,-11.4693329],[-43.8057507,-11.4455897],[-43.8165351,-11.3872982],[-43.8358232,-11.3301849],[-43.8616784,-11.2808104],[-43.9216388,-11.0889971],[-43.9600768,-11.0505885],[-44.0003202,-10.9982301],[-44.0259271,-10.9542848],[-43.9902369,-10.9324942],[-43.9697296,-10.9279622],[-43.9574418,-10.9282389],[-43.9243884,-10.8992577],[-43.9222482,-10.8746271],[-43.9019855,-10.8520296]],[[-43.9019855,-10.8520296],[-43.9159843,-10.8399582],[-43.9185203,-10.8347848],[-43.9209548,-10.8128738]],[[-43.9209548,-10.8128738],[-43.9076662,-10.8036427],[-43.920549,-10.7709791],[-43.9273514,-10.7576871],[-43.9358312,-10.7350517],[-43.9510825,-10.7016956],[-43.9917599,-10.6666988],[-43.9970348,-10.6405273],[-44.0581984,-10.6218201],[-44.0834286,-10.58909]],[[-38.0666307,-9.5898639],[-38.0209014,-9.560914],[-38.0226164,-9.5406648],[-37.9979494,-9.4992833],[-38.0221548,-9.4699909],[-38.0678462,-9.4585026],[-38.0777597,-9.4411067],[-38.1572696,-9.4403982],[-38.2047642,-9.4186743],[-38.1941767,-9.3943858],[-38.205573,-9.3636489],[-38.2395412,-9.3271289],[-38.2505456,-9.2904806],[-38.2875128,-9.2171293],[-38.2800756,-9.2072189],[-38.287601,-9.1738839],[-38.3163219,-9.1445154],[-38.3210421,-9.0700337],[-38.3037371,-9.0616433],[-38.2896758,-9.0363344],[-38.32354,-8.9900092],[-38.3624418,-9.0009412],[-38.4035158,-9.0372331],[-38.4490997,-9.0263588],[-38.5035127,-8.9814111],[-38.5193747,-8.9393497],[-38.4793182,-8.9017437],[-38.4697972,-8.8642411],[-38.5124067,-8.830586],[-38.5550678,-8.8233578],[-38.5899504,-8.8565392],[-38.6075857,-8.893264],[-38.6083358,-8.9498221],[-38.6240985,-8.9800469],[-38.6407103,-8.9872682],[-38.6725158,-8.9739755],[-38.6892326,-8.9473956],[-38.6936588,-8.9029688],[-38.7065435,-8.8622606],[-38.7396837,-8.8448477],[-38.7969895,-8.7934644],[-38.8163043,-8.786181],[-38.8681044,-8.7838654],[-38.9519332,-8.8046682],[-38.977432,-8.7930867],[-38.9919113,-8.7675519],[-39.0375772,-8.7346909],[-39.1439462,-8.7125191],[-39.1687128,-8.6915045],[-39.200781,-8.7109876],[-39.234268,-8.7053364],[-39.2454926,-8.6841059],[-39.2478833,-8.6249988],[-39.2634051,-8.6152185],[-39.2751598,-8.576825],[-39.2932156,-8.5606292],[-39.3451437,-8.5585006],[-39.3797936,-8.5328206],[-39.4160408,-8.5421279],[-39.4354904,-8.5633018],[-39.4856967,-8.5964458],[-39.5186123,-8.6039111],[-39.556658,-8.6230886],[-39.5952263,-8.6512059],[-39.6911317,-8.6623129],[-39.6930366,-8.680512],[-39.673824,-8.7454614],[-39.6746292,-8.7871572],[-39.6931964,-8.7986757],[-39.7477853,-8.794041],[-39.7887962,-8.8191096],[-39.8227319,-8.8135158],[-39.8929577,-8.828794],[-39.9012593,-8.8641588],[-39.8794186,-8.9019086],[-39.8734564,-8.9340387],[-39.8888191,-8.9658368],[-39.9580347,-9.0485916],[-39.9960306,-9.0609582],[-40.0655631,-9.0630652],[-40.0735397,-9.0753621],[-40.1298949,-9.1103046],[-40.1597208,-9.1078733],[-40.2011193,-9.0684658],[-40.2236023,-9.0566675],[-40.2478641,-9.0577378],[-40.2788467,-9.0945385],[-40.294012,-9.1520678],[-40.2861727,-9.1856114],[-40.3077871,-9.2713207],[-40.3373376,-9.335068],[-40.3337541,-9.3505383],[-40.3563971,-9.3769943],[-40.3912784,-9.3721668],[-40.4181453,-9.3520533],[-40.4358983,-9.3621587],[-40.4538185,-9.4035174],[-40.4741747,-9.4207922],[-40.5107266,-9.4071789],[-40.5408152,-9.4240433],[-40.5557585,-9.4579381],[-40.5951233,-9.4673692],[-40.6206769,-9.4825255],[-40.6813218,-9.467221],[-40.7221786,-9.4459485],[-40.7672889,-9.4457041],[-40.7649756,-9.4132164],[-40.7430889,-9.4029455],[-40.7464789,-9.3710522],[-40.7372865,-9.3368708],[-40.7564219,-9.3150323],[-40.7394418,-9.2965887],[-40.7200882,-9.3058967],[-40.7086897,-9.286876],[-40.6859879,-9.2763682],[-40.6800885,-9.2592117],[-40.6945004,-9.2334556],[-40.6698732,-9.1861325],[-40.6673957,-9.1590592],[-40.685094,-9.1376102],[-40.7098893,-9.140881],[-40.7772606,-9.1006684],[-40.804104,-9.0983359],[-40.821008,-9.0798914],[-40.8252311,-9.0381866],[-40.8519585,-8.9825849],[-40.8515959,-8.952499],[-40.8662781,-8.9233892],[-40.8812337,-8.9156278],[-40.9030382,-8.8586189],[-40.9272768,-8.8358909],[-40.9463832,-8.8449969],[-40.9790937,-8.8234171],[-41.0212409,-8.8435609],[-41.0249601,-8.8077274],[-41.0362345,-8.7858759],[-41.1033511,-8.780443],[-41.1289892,-8.7433931],[-41.1232018,-8.7187072],[-41.1329,-8.7043243],[-41.1764047,-8.7111943],[-41.2269785,-8.7047021],[-41.2385678,-8.7197312],[-41.2606246,-8.7207165],[-41.2815376,-8.7361004],[-41.3343516,-8.7276615],[-41.3583362,-8.7076202],[-41.3854557,-8.7116004],[-41.4242667,-8.8025554],[-41.4346841,-8.799096],[-41.4721841,-8.8431145],[-41.4878434,-8.8439034],[-41.5110501,-8.8776121],[-41.531346,-8.9277042],[-41.5700566,-8.9550295],[-41.6057947,-8.9574039],[-41.6334052,-8.9860073],[-41.6694039,-8.9900791],[-41.6887708,-9.0139549],[-41.7236031,-9.0135402],[-41.7308218,-9.0279572],[-41.732659,-9.0877254],[-41.7430468,-9.1038266],[-41.8000703,-9.1480266],[-41.8001263,-9.1651616],[-41.8198734,-9.1890012],[-41.8379658,-9.242272],[-41.8705206,-9.2374314],[-41.9247682,-9.277797],[-41.9722662,-9.2486381],[-41.9999053,-9.2659722],[-42.0186882,-9.250516],[-42.0665857,-9.255986],[-42.0950446,-9.2785611],[-42.1419524,-9.2881292],[-42.1794896,-9.2852662],[-42.2064354,-9.2927815],[-42.2436577,-9.2888567],[-42.2689127,-9.3104468],[-42.3160766,-9.3166123],[-42.3258774,-9.3334115],[-42.357049,-9.3525645],[-42.3646685,-9.3820875],[-42.4184943,-9.4093633],[-42.4282776,-9.4397829],[-42.4517707,-9.4621032],[-42.4890689,-9.4620372],[-42.4930918,-9.4949004],[-42.5222724,-9.503027],[-42.5548256,-9.4963025],[-42.5921064,-9.5002821],[-42.6217206,-9.5413375],[-42.6799174,-9.5491491],[-42.7122225,-9.5302284],[-42.7204159,-9.5605119],[-42.7577491,-9.5892803],[-42.7699572,-9.6191821],[-42.8205528,-9.6192304],[-42.8281932,-9.5605212],[-42.8479725,-9.5496571],[-42.8767235,-9.5616237],[-42.9040163,-9.5267542],[-42.9462488,-9.5184131],[-42.9628922,-9.4570528],[-42.9571153,-9.4324125],[-42.9868297,-9.4016072],[-43.0579143,-9.4147616],[-43.0666099,-9.3940476],[-43.161524,-9.3792501],[-43.1739285,-9.4112239],[-43.1938597,-9.4207223],[-43.2142901,-9.3996483],[-43.2423447,-9.4118835],[-43.2851174,-9.420028],[-43.2997169,-9.3945209],[-43.3363259,-9.3685182],[-43.3535557,-9.3689557],[-43.3764222,-9.3489049],[-43.399237,-9.308178],[-43.4278231,-9.2725869],[-43.4690445,-9.2608103],[-43.4975271,-9.2725256],[-43.5371418,-9.3074732],[-43.5790266,-9.3203902],[-43.6274924,-9.3766403],[-43.685759,-9.4177938],[-43.7514198,-9.4340724],[-43.7842477,-9.4547729],[-43.818433,-9.4942419],[-43.8496932,-9.5480524],[-43.8415459,-9.586048],[-43.8419522,-9.6374276],[-43.8268377,-9.6495304],[-43.7972603,-9.6964973],[-43.7976627,-9.7276804],[-43.7849218,-9.762385],[-43.7615684,-9.7778815],[-43.6972554,-9.8043009],[-43.653245,-9.8390553],[-43.6774485,-9.8865278],[-43.6946225,-9.8912518],[-43.7090353,-9.9132195],[-43.6895646,-9.9390651],[-43.6969008,-9.9740926],[-43.6663439,-9.9895402],[-43.6694806,-10.0307552],[-43.6928587,-10.0523953],[-43.6909514,-10.0727709],[-43.7592285,-10.0746052],[-43.7731135,-10.0987842],[-43.7657611,-10.1275954],[-43.7848162,-10.191678],[-43.8372651,-10.2500682],[-43.8382919,-10.304626],[-43.8950961,-10.3544907],[-43.9147933,-10.3841549],[-43.9143863,-10.419915],[-43.9367348,-10.4361303],[-43.9769335,-10.4313765],[-43.9981252,-10.4100647],[-44.0277653,-10.412474],[-44.0357645,-10.4447135],[-44.0258437,-10.4754707],[-44.0510104,-10.5062386],[-44.0721137,-10.5799277],[-44.0834286,-10.58909]],[[-43.9209548,-10.8128738],[-43.9201433,-10.8271768],[-43.9177087,-10.8375237],[-43.9019855,-10.8520296]],[[-44.4219203,-14.2802118],[-44.3615887,-14.2728126],[-44.3405958,-14.2494003],[-44.3164832,-14.2403492],[-44.302338,-14.2532425],[-44.2091227,-14.2466719],[-44.1703803,-14.268695],[-44.1603345,-14.2577596],[-44.1145298,-14.2600439],[-44.0882868,-14.2780763],[-44.0744512,-14.2706396],[-44.034621,-14.2890284],[-43.9976496,-14.2654044],[-43.9905957,-14.2725945],[-43.9208304,-14.2978039],[-43.8924798,-14.3010168],[-43.8514245,-14.3190739],[-43.8361445,-14.3111487],[-43.8000853,-14.3378272],[-43.7831867,-14.3392337],[-43.7458553,-14.2830747]],[[-43.7458553,-14.2830747],[-43.7119551,-14.2392973],[-43.697262,-14.2097325],[-43.6787343,-14.144956],[-43.670585,-14.0908853],[-43.6572377,-14.0474539],[-43.6530823,-14.0029711],[-43.6269951,-13.9601339],[-43.6243865,-13.91992],[-43.613782,-13.8953741],[-43.6142902,-13.8374554],[-43.5870509,-13.8122143],[-43.5942983,-13.7782153],[-43.5877337,-13.7570489],[-43.5586232,-13.7367742],[-43.5541584,-13.7233797],[-43.5483541,-13.7122176],[-43.5515688,-13.6912329],[-43.5567568,-13.644507],[-43.5094922,-13.5755754],[-43.4671355,-13.5671342],[-43.4443472,-13.5508906],[-43.4535924,-13.5808403],[-43.4667351,-13.6057112],[-43.486585,-13.6679537],[-43.4993336,-13.7333522],[-43.5376811,-13.7723739],[-43.4801846,-13.8321001],[-43.4825058,-13.8504526],[-43.4394639,-13.8761722],[-43.2413235,-13.6103942],[-43.1876611,-13.5190127],[-43.163065,-13.4415306],[-43.1294308,-13.4275963],[-43.1165179,-13.3239092],[-42.9600615,-13.3340575],[-42.9475468,-13.2905224],[-42.9149889,-13.2907681],[-42.9232267,-13.2464971],[-42.9070177,-13.179281],[-42.9096658,-13.139115],[-42.9260191,-13.1293185],[-42.9329141,-13.0817849],[-42.9743782,-13.0275577],[-42.9806865,-12.9710083],[-42.973262,-12.9520162],[-42.9443253,-12.9413873],[-42.8912978,-12.8892841],[-42.8872037,-12.7969831],[-42.878582,-12.7246062],[-42.8886259,-12.5416454],[-42.9112389,-12.534141],[-42.9391058,-12.5042849],[-42.9530709,-12.4708336],[-42.9278758,-12.436427],[-42.9433625,-12.4260843],[-42.9673087,-12.38346],[-42.9623539,-12.358578],[-42.9749395,-12.3281028],[-42.9630331,-12.3024884],[-42.9637149,-12.2687224],[-42.9906344,-12.193852],[-43.0280772,-12.164126],[-43.0339124,-12.1495],[-43.0636003,-12.1399492],[-43.0574372,-12.0969115],[-43.0747337,-12.0950836],[-43.0828042,-12.0699359],[-43.1109087,-12.0463766],[-43.1418774,-12.0459721],[-43.1365527,-12.019485],[-42.9454785,-11.9768517],[-42.9025966,-11.9623321],[-42.8728996,-11.964039],[-42.8135364,-11.9410499],[-42.8611932,-11.7939595],[-42.8205572,-11.7761969],[-42.7892102,-11.7486381],[-42.7599465,-11.7389435]],[[-42.7599465,-11.7389435],[-42.7484106,-11.7230263]],[[-42.7484106,-11.7230263],[-42.736559,-11.7143788],[-42.7406278,-11.7108936],[-42.7524776,-11.7050401],[-42.7884096,-11.6904713],[-42.8138643,-11.6497437],[-42.8644641,-11.5990661],[-42.8674756,-11.5619443],[-42.8614507,-11.5413117],[-42.8367685,-11.5273376],[-42.9126198,-11.2772626],[-42.8195329,-11.3082804],[-42.8368349,-11.2736939],[-42.8360452,-11.2347729],[-42.8437052,-11.2196185],[-42.8325401,-11.1985037],[-42.8383748,-11.1565115],[-42.786237,-11.119552],[-42.7653436,-11.0870195],[-42.7893366,-11.0555854],[-42.758018,-11.0438534],[-42.762563,-11.0158009],[-42.7226665,-11.0032766],[-42.6713211,-11.0146073],[-42.6363163,-11.0376787],[-42.6201065,-11.0875401],[-42.5382005,-11.0050284],[-42.5163611,-11.0132532],[-42.5247687,-11.048887],[-42.5101147,-11.0604575],[-42.5001118,-11.0962761],[-42.5164663,-11.1328059],[-42.5092517,-11.1491129],[-42.5012252,-11.1555758],[-42.486876,-11.1493162],[-42.4759469,-11.1792384],[-42.451176,-11.2169125],[-42.4541014,-11.23016],[-42.4404345,-11.2541359],[-42.4469521,-11.2574604],[-42.4403487,-11.265758],[-42.4278398,-11.285251],[-42.3748783,-11.2755626],[-42.3296857,-11.2872362],[-42.2402901,-11.261235],[-42.2582794,-11.1423102],[-42.1897145,-11.0748635],[-42.146161,-11.0472524],[-42.145262,-11.0233062],[-42.0890672,-11.0222174],[-42.0742308,-11.0274325],[-42.0888947,-10.9328926],[-41.8219723,-10.6976998],[-41.7690817,-10.7221523],[-41.7444813,-10.7081265],[-41.7139222,-10.7415271],[-41.6952465,-10.79331],[-41.6734025,-10.8106343],[-41.6594346,-10.8062632],[-41.6035435,-10.8100431],[-41.5733995,-10.7764521],[-41.57144,-10.7559448],[-41.5889828,-10.7445453],[-41.5859847,-10.7204889],[-41.5594061,-10.7053794],[-41.5460335,-10.6645716],[-41.5329703,-10.6794195],[-41.5038933,-10.6659993],[-41.506074,-10.6417486],[-41.4718093,-10.6282458],[-41.4628382,-10.6031589],[-41.4303571,-10.5894337],[-41.4272673,-10.5762802],[-41.3917692,-10.5677023],[-41.3973669,-10.5475766],[-41.3815222,-10.5187405],[-41.4148106,-10.4996553],[-41.4530028,-10.4882722],[-41.473083,-10.4653731],[-41.4457085,-10.4414729],[-41.3772361,-10.4165422],[-41.364607,-10.3939392],[-41.3350889,-10.3780712],[-41.3138705,-10.344425],[-41.2761971,-10.3437608],[-41.2433394,-10.3237857],[-41.2421652,-10.3068022],[-41.2006431,-10.2715031],[-41.180923,-10.2642378],[-41.1440005,-10.2230027],[-41.1714288,-10.1962837],[-41.1576295,-10.1566523],[-41.1669481,-10.1299703],[-41.159054,-10.1140161],[-41.1894248,-10.0869935],[-41.1932314,-10.0656175],[-41.169002,-10.0317541],[-41.1694043,-10.0140343],[-41.1932527,-10.0085052],[-41.2558199,-9.9729705],[-41.2369708,-9.929127],[-41.2275273,-9.930565],[-41.2063449,-9.9515036],[-41.1821686,-9.955664],[-41.1436623,-9.9272811],[-41.1035208,-9.9180296],[-41.1055208,-9.9434846],[-41.0835397,-9.9458587],[-41.0577703,-9.9158159],[-41.0425927,-9.9275095],[-40.9633841,-9.8838386],[-40.9445662,-9.881278],[-40.927597,-9.8986413],[-40.8915579,-9.913711],[-40.831628,-9.8644707],[-40.816578,-9.8716844],[-40.6433264,-9.8868044],[-40.5027422,-9.9711545],[-40.4121828,-9.9735127],[-40.3835096,-9.944302],[-40.3407449,-9.9266999],[-40.3163848,-9.9078998],[-40.2860699,-9.9457958],[-40.2259581,-9.9213429],[-40.1824424,-9.8873012],[-39.9818821,-9.8046406],[-39.9204361,-9.7911123],[-39.9029084,-9.7816744],[-39.897959,-9.7406573],[-39.8823411,-9.7458873],[-39.852542,-9.807088],[-39.7957647,-9.8438103]],[[-39.7957647,-9.8438103],[-39.6857157,-9.7628357],[-39.6628186,-9.750663],[-39.6689216,-9.7291686],[-39.6441021,-9.7068286],[-39.6000655,-9.6996446],[-39.3595727,-9.6156913],[-39.3308224,-9.5943626],[-39.3075302,-9.6074754],[-39.2809868,-9.6347026],[-39.2237003,-9.634628],[-39.2116173,-9.6456938],[-39.1750821,-9.6363323],[-39.1656714,-9.6460373],[-39.1173278,-9.6457453],[-39.1100528,-9.6256943],[-38.9652883,-9.6391201],[-38.8517888,-9.6313571],[-38.8201404,-9.6514224],[-38.7847894,-9.6468173],[-38.548946,-9.6854742],[-38.487785,-9.7125109],[-38.4432358,-9.6985996],[-38.3636533,-9.7068404],[-38.3508638,-9.6779705],[-38.3076047,-9.660971],[-38.285333,-9.6906314],[-38.2248159,-9.6744712],[-38.1566607,-9.6775208],[-38.1484371,-9.6495849],[-38.1207819,-9.6254726],[-38.1186142,-9.6190161],[-38.0896621,-9.6111978],[-38.0666307,-9.5898639]],[[-42.7484106,-11.7230263],[-42.7421352,-11.7287323]],[[-42.7421352,-11.7287323],[-42.7378716,-11.7307898],[-42.7261229,-11.7242207],[-42.6805867,-11.7199168],[-42.6618694,-11.7089955],[-42.6441085,-11.7178484],[-42.5821144,-11.7141334],[-42.5652111,-11.7358934],[-42.5203324,-11.7490303],[-42.4876149,-11.7753728],[-42.4721506,-11.7252347],[-42.454241,-11.747852],[-42.4315683,-11.7601771],[-42.415019,-11.7631238],[-42.4046802,-11.7596146],[-42.3820563,-11.7551858],[-42.3765337,-11.7598314],[-42.3662715,-11.7565556],[-42.3651568,-11.7459205],[-42.3604047,-11.7358056],[-42.3592199,-11.7163601],[-42.3600246,-11.7139868],[-42.3565091,-11.7200266],[-42.3505492,-11.7200247],[-42.3427307,-11.7296237],[-42.3401352,-11.737185],[-42.3017861,-11.7838018],[-42.2918579,-11.8124147],[-42.2824763,-11.8777258],[-42.2740714,-11.8862985],[-42.231626,-11.9738495],[-42.242021,-12.0057075],[-42.2356918,-12.0224351],[-42.2460325,-12.047036],[-42.2183358,-12.0705587],[-42.0772193,-12.2466938],[-42.1631738,-12.2380053],[-42.1241208,-12.2776792],[-42.1203783,-12.2940204],[-42.1064598,-12.3072732],[-42.09856,-12.2915687],[-42.039818,-12.2911217],[-42.0582812,-12.2451082],[-42.056267,-12.2204984],[-42.0318458,-12.2302825],[-41.9848722,-12.2914472],[-41.9681123,-12.2658948],[-41.9890508,-12.2310953],[-41.971528,-12.2049868],[-41.9688601,-12.1412636],[-41.9765514,-12.1072173],[-41.9697822,-12.0922403],[-41.9159672,-12.1063833],[-41.8884151,-12.1242754],[-41.796198,-12.1587907],[-41.7833645,-12.1606041],[-41.7690007,-12.1949795],[-41.7428051,-12.2368305],[-41.7651352,-12.272596],[-41.7540679,-12.3031633],[-41.7510757,-12.3156635],[-41.7456045,-12.3178219],[-41.7444525,-12.3285893],[-41.7287119,-12.3691687],[-41.6658261,-12.3826568],[-41.6184207,-12.3802935],[-41.5402463,-12.3568581],[-41.5177133,-12.3719556],[-41.5137693,-12.3702094],[-41.4796744,-12.3705849],[-41.4578374,-12.3797536],[-41.4526879,-12.3884689],[-41.4467568,-12.4021075],[-41.4414762,-12.4132056],[-41.4379763,-12.3974845],[-41.4270396,-12.382212],[-41.4297114,-12.3709327],[-41.4397406,-12.3606721],[-41.4410294,-12.3522333],[-41.4250955,-12.3431855],[-41.4434698,-12.3085859],[-41.4345287,-12.2645007],[-41.4118595,-12.2477986],[-41.4152387,-12.2234408],[-41.4001688,-12.2000178],[-41.3548676,-12.1683991],[-41.3715996,-12.1187441],[-41.36823,-12.0829587],[-41.3934481,-12.0764011],[-41.4076367,-12.0489004],[-41.4166127,-11.9980168],[-41.4447086,-11.9861146],[-41.4556563,-11.969639],[-41.4475242,-11.9460501],[-41.4255465,-11.9341421],[-41.4226243,-11.8716596],[-41.3989078,-11.8127686],[-41.3961341,-11.7800295],[-41.3831295,-11.7703956],[-41.3261273,-11.7843105],[-41.3216707,-11.7980758],[-41.254233,-11.8125656],[-41.243907,-11.8392049],[-41.2547141,-11.8756204],[-41.2538099,-11.9032222],[-41.2233297,-11.9186528],[-41.1089905,-11.948062],[-41.0861161,-11.9191831],[-41.06353,-11.9317196],[-41.0489455,-11.9698193],[-41.0248883,-12.0022421],[-40.9725254,-12.0164165],[-40.920524,-12.0143719],[-40.8970771,-11.9902822],[-40.9089697,-12.0595765],[-40.8735935,-12.1257414],[-40.8940104,-12.1549166],[-40.9721215,-12.1290509],[-40.9972642,-12.1486808],[-41.0408782,-12.1476004],[-41.0490687,-12.1816167],[-41.0407715,-12.2111488],[-41.0151923,-12.2418439],[-40.9834896,-12.2626081],[-41.061353,-12.2653157],[-41.0627597,-12.2849377],[-41.158603,-12.3860004],[-41.1566313,-12.4085224],[-41.170152,-12.4478031],[-41.204595,-12.4769751],[-41.1929032,-12.4987222],[-41.1009401,-12.4731947],[-41.0839458,-12.4654258],[-41.0526515,-12.4756748],[-40.9809539,-12.4604409],[-40.9635696,-12.4932257],[-40.9774411,-12.5168632],[-40.9785057,-12.5658837],[-41.0074422,-12.6211097],[-40.9833653,-12.7006448],[-40.9822096,-12.7365964],[-40.9673314,-12.7930407],[-41.0199753,-12.9153972],[-40.9887808,-12.9111215],[-40.9768575,-12.9267384],[-40.9943277,-12.9720679],[-40.9579843,-12.982087],[-40.9534398,-13.0327873],[-40.9282809,-13.0438392],[-40.8890971,-13.0064703],[-40.8365231,-13.015403],[-40.7862889,-13.04406],[-40.7382106,-13.0387399],[-40.7152479,-13.0172799],[-40.6986524,-13.0250537],[-40.6523514,-13.0001434],[-40.6079909,-12.9974012],[-40.5752877,-13.0031749],[-40.5464642,-12.9913163],[-40.5079806,-12.9461769],[-40.4856461,-12.958719],[-40.4718329,-12.9998944],[-40.4562911,-13.0158808],[-40.415802,-13.0875016],[-40.400147,-13.0662057],[-40.3611857,-13.0839802],[-40.3393489,-13.0800185],[-40.3420137,-13.0534827],[-40.3058097,-13.043417],[-40.1991753,-13.048685],[-40.1440151,-12.9823025],[-40.1026349,-12.9831087],[-40.0654392,-12.9927184],[-40.0327603,-12.9848436],[-39.9911395,-12.9631873],[-39.9881075,-12.9306306],[-39.8998045,-12.8746445],[-39.9281213,-12.8170832],[-39.8941956,-12.7533925],[-39.839698,-12.8162312],[-39.7991653,-12.841242],[-39.7274652,-12.8769852],[-39.7126842,-12.8621419],[-39.6787469,-12.8872611],[-39.6448071,-12.9299525],[-39.6052979,-12.9358622],[-39.5819293,-12.9569051],[-39.5750494,-12.9596259],[-39.5422594,-13.0067455],[-39.5317161,-13.0204077],[-39.5078683,-13.0015515],[-39.4738796,-12.9841647],[-39.4658949,-12.9532291]],[[-39.4658949,-12.9532291],[-39.458935,-12.9495572]],[[-39.458935,-12.9495572],[-39.4641246,-12.9102319],[-39.478701,-12.8635849],[-39.474412,-12.8476293],[-39.5027213,-12.8127561],[-39.4974715,-12.7402783],[-39.4732288,-12.7239366],[-39.4672906,-12.6994417],[-39.4349895,-12.6759476],[-39.4409098,-12.6241691],[-39.4397153,-12.6146776],[-39.4146887,-12.615509],[-39.394136,-12.5930236],[-39.3700478,-12.5833601],[-39.3398316,-12.5596018],[-39.277357,-12.5373961],[-39.2618455,-12.5487199],[-39.2265132,-12.5464623],[-39.2048091,-12.5123858],[-39.1418201,-12.5020793],[-39.0936093,-12.4941767],[-39.0751628,-12.5008663],[-39.0575239,-12.5409613],[-39.0044522,-12.5634911],[-38.947496,-12.5399887],[-38.9106412,-12.5179],[-38.8465518,-12.5105285],[-38.8340598,-12.4921362],[-38.8519427,-12.4837827],[-38.8310643,-12.3878693]],[[-38.8310643,-12.3878693],[-38.8362905,-12.380543],[-38.8386014,-12.3715763],[-38.8364776,-12.3682752],[-38.7951897,-12.3695005]],[[-38.7951897,-12.3695005],[-38.775202,-12.3641758],[-38.6562927,-12.3731132],[-38.622573,-12.3202895],[-38.5797239,-12.314247],[-38.5685867,-12.3083291],[-38.564905,-12.3286236],[-38.5312813,-12.339318],[-38.5292453,-12.2974644],[-38.5291955,-12.2881332],[-38.5283304,-12.2817881],[-38.5295854,-12.2756998]],[[-38.5295854,-12.2756998],[-38.5255636,-12.2724691]],[[-38.5255636,-12.2724691],[-38.520802,-12.2593044],[-38.5494365,-12.2447725],[-38.5866668,-12.1936777],[-38.5887466,-12.1776642],[-38.5704631,-12.1252589],[-38.5902002,-12.0374917],[-38.6073193,-12.0213688],[-38.6074146,-11.9929985],[-38.6312852,-11.9332609],[-38.5970437,-11.9530403],[-38.6048782,-11.9044985],[-38.587788,-11.8508266],[-38.5764362,-11.8326509],[-38.5775741,-11.8000018],[-38.5430977,-11.7577877],[-38.5637385,-11.7409823],[-38.5744507,-11.7359025],[-38.6024661,-11.7145208],[-38.6364198,-11.7000221],[-38.6419693,-11.694862],[-38.6434185,-11.6921256],[-38.6642039,-11.6929463],[-38.684108,-11.6982726],[-38.7202774,-11.6915936],[-38.7382917,-11.6961242],[-38.7583904,-11.6986505],[-38.7639686,-11.7007596],[-38.7806841,-11.7133497],[-38.7920627,-11.7236344],[-38.7981825,-11.7379592],[-38.8019101,-11.7408783],[-38.8085712,-11.7459644],[-38.823273,-11.7718068],[-38.8650577,-11.8009084],[-38.9006478,-11.8817087],[-38.9283009,-11.8723189],[-38.9349321,-11.8371412],[-38.9685698,-11.8255468],[-38.9816371,-11.8098108],[-39.0390941,-11.8259919],[-39.0746704,-11.8281155],[-39.0831156,-11.8591694],[-39.1063322,-11.8883756],[-39.120581,-11.9246893],[-39.1639838,-11.9508182],[-39.1749652,-11.9813766],[-39.2966769,-11.9907993],[-39.3229141,-11.9736441],[-39.360238,-11.9667168],[-39.388965,-11.9920121],[-39.4125766,-12.0029532],[-39.5366242,-12.0255033],[-39.5769031,-12.0391404],[-39.5938198,-12.0611244],[-39.613995,-12.0207062],[-39.6239474,-12.0192443],[-39.6449708,-11.9657215],[-39.6777616,-11.9236546],[-39.7191058,-11.9055069],[-39.7431332,-11.9030756],[-39.7484251,-11.8600414],[-39.7452674,-11.8186258],[-39.8109496,-11.8246257],[-39.8128591,-11.8111449],[-39.8462876,-11.7739413],[-39.8406534,-11.7553098],[-39.8851467,-11.7401442],[-39.9085779,-11.7205959],[-39.9255327,-11.6674613],[-39.9473696,-11.6582844],[-39.9580012,-11.6299544],[-39.9616545,-11.6191998],[-39.9604311,-11.558207],[-39.9685841,-11.4908669],[-39.9370541,-11.4783024],[-39.9087982,-11.4952834],[-39.8832174,-11.4812348],[-39.8388291,-11.4949844],[-39.8146545,-11.4927017],[-39.7912896,-11.4783335],[-39.7609137,-11.4468542],[-39.7652296,-11.4290825],[-39.7575625,-11.4209873],[-39.787281,-11.4043938],[-39.7970466,-11.3941477],[-39.8485707,-11.3503379],[-39.8618464,-11.3129368],[-39.9552984,-11.2486547],[-39.9529984,-11.1568736],[-39.9819104,-11.1511593],[-40.0245161,-10.9809159],[-40.018536,-10.9690909],[-40.0174381,-10.9025379],[-40.015828,-10.8850927],[-40.0099411,-10.8805962],[-39.9990504,-10.8842182],[-39.960757,-10.8973323],[-39.9483105,-10.9049834],[-39.9377192,-10.9071755],[-39.9235033,-10.9176325],[-39.8795184,-10.9075063],[-39.8651129,-10.9050768],[-39.8253582,-10.9396193],[-39.7988478,-10.9388289],[-39.7821762,-10.954799],[-39.7522686,-10.9531698],[-39.7222577,-10.9629586],[-39.716902,-10.9535379],[-39.6693974,-10.947046],[-39.6275726,-10.9149719],[-39.6317354,-10.8964802],[-39.626025,-10.8746644],[-39.6419624,-10.8604891],[-39.6432596,-10.8531657],[-39.6385145,-10.8460401],[-39.6404,-10.8430202],[-39.6657936,-10.8381027],[-39.682996,-10.7647971],[-39.6984993,-10.749621],[-39.7049776,-10.7277662],[-39.7017515,-10.7163189],[-39.6961623,-10.6762395],[-39.6979484,-10.6707768],[-39.7463931,-10.6399599],[-39.7628466,-10.5623772],[-39.7729354,-10.5502945],[-39.7557859,-10.4541084],[-39.7312995,-10.4099212],[-39.7393173,-10.3490461],[-39.7353405,-10.3368806],[-39.7219214,-10.3291215],[-39.7194956,-10.3226779],[-39.71378,-10.3093789],[-39.7212704,-10.2705502],[-39.7442512,-10.2427816],[-39.7374581,-10.2289679],[-39.7286575,-10.1156025],[-39.7342953,-10.0892246],[-39.7582077,-10.0735892],[-39.7651838,-10.0400433],[-39.7598016,-9.9917423],[-39.7671113,-9.97027],[-39.7493118,-9.9524475],[-39.7382949,-9.9010964],[-39.7673293,-9.8669767],[-39.7877802,-9.8518661],[-39.7957647,-9.8438103]],[[-38.5255636,-12.2724691],[-38.527279,-12.2750905]],[[-38.527279,-12.2750905],[-38.468907,-12.2851537],[-38.4613684,-12.2684178],[-38.4341124,-12.2688824],[-38.3941631,-12.2493624],[-38.3776993,-12.2186719],[-38.3367719,-12.2413799],[-38.3100814,-12.2488136],[-38.2730623,-12.2783676],[-38.1202109,-12.2514321],[-38.1109732,-12.2358223],[-38.0765778,-12.2390583],[-38.076611,-12.1821117],[-38.0818995,-12.1581095],[-38.0667509,-12.1376657],[-38.0564642,-12.1446124],[-38.0192601,-12.1828995],[-38.0175376,-12.2181884],[-37.9225316,-12.2643218],[-37.9133942,-12.3094582],[-37.9711806,-12.3698139],[-37.8993237,-12.3800363],[-37.8950122,-12.382656],[-37.8932418,-12.390187],[-37.8952382,-12.3951125],[-37.8932837,-12.4082421]],[[-37.8932837,-12.4082421],[-37.8256041,-12.3096162],[-37.767268,-12.2352777],[-37.6907662,-12.1082642],[-37.6101041,-11.9556663],[-37.5247061,-11.766242],[-37.4446968,-11.6086071],[-37.4063284,-11.5365898],[-37.3491581,-11.4621022],[-37.3686307,-11.4598165],[-37.4108864,-11.4954325],[-37.4554887,-11.5231383],[-37.5047505,-11.5249101],[-37.5170038,-11.5469251],[-37.5627166,-11.5426752],[-37.590269,-11.5284951],[-37.6157268,-11.538601],[-37.6385012,-11.5184252],[-37.6642002,-11.5319608],[-37.6721037,-11.5578279],[-37.6984173,-11.5634142],[-37.749361,-11.5386277],[-37.7589745,-11.5253783],[-37.8122886,-11.51702],[-37.8235926,-11.4925822],[-37.8534577,-11.4674974],[-37.8823804,-11.4247047],[-37.9044605,-11.411759],[-37.9682775,-11.389536],[-38.0013459,-11.3033025],[-37.9836406,-11.248288],[-37.990642,-11.2279944],[-37.9764057,-11.2155386],[-37.9822963,-11.1911066],[-38.0029487,-11.193824],[-38.0233545,-11.177767],[-38.0571807,-11.1720853],[-38.0712201,-11.143546],[-38.0656188,-11.1229761],[-38.0884012,-11.1162559],[-38.0809638,-11.0640434],[-38.1024196,-11.0439829],[-38.1019991,-11.0158945],[-38.1700454,-10.9889955],[-38.1865421,-10.9642065],[-38.1806156,-10.9427672],[-38.2281683,-10.9141839],[-38.2374459,-10.8761491],[-38.2313983,-10.8429341],[-38.238345,-10.8001848],[-38.2185886,-10.7832972],[-38.2093598,-10.7604353],[-38.2165189,-10.7268057],[-38.2091676,-10.7118697],[-38.1833944,-10.7053632],[-38.1435605,-10.7190129],[-38.0983533,-10.7124371],[-38.067792,-10.7156658],[-38.0485734,-10.7034538],[-38.0250319,-10.7255192],[-37.9768025,-10.7579327],[-37.9454812,-10.7565173],[-37.9096224,-10.7155103],[-37.8475103,-10.6992649],[-37.8151346,-10.6848568],[-37.8029907,-10.6521623],[-37.8167229,-10.6313785],[-37.806319,-10.6005274],[-37.8412315,-10.5547936],[-37.8126051,-10.507247],[-37.820987,-10.4836401],[-37.8527055,-10.4387027],[-37.853109,-10.4062775],[-37.839048,-10.3788204],[-37.8076254,-10.3675035],[-37.7786833,-10.3431919],[-37.7433128,-10.3383907],[-37.7503827,-10.2894991],[-37.7470908,-10.2380727],[-37.7656811,-10.1960449],[-37.7822309,-10.1855917],[-37.7779303,-10.1341413],[-37.8020145,-10.1124474],[-37.7826444,-10.0435984],[-37.7909033,-10.0327032],[-37.8270049,-10.0341612],[-37.8520777,-9.9904569],[-37.8625558,-9.9885966],[-37.9134407,-9.9331128],[-37.9554324,-9.9429999],[-37.9750295,-9.9369297],[-37.9983653,-9.9059246],[-37.9954442,-9.8460787],[-37.9999705,-9.8143261],[-38.020426,-9.797863],[-38.038619,-9.7500946],[-38.0450383,-9.6974549],[-38.0322192,-9.6606865],[-38.0166551,-9.6388738],[-38.0488721,-9.6323926],[-38.0525472,-9.605277],[-38.0666307,-9.5898639]],[[-38.7951897,-12.3695005],[-38.835222,-12.3680809],[-38.8385693,-12.3713602],[-38.8356345,-12.3822744],[-38.8310643,-12.3878693]],[[-39.458935,-12.9495572],[-39.464112,-12.9600402]],[[-39.464112,-12.9600402],[-39.456978,-12.9769321],[-39.4469268,-12.9874297],[-39.4432331,-12.9932495],[-39.4208731,-12.9911779],[-39.3957188,-13.0015766],[-39.3818141,-13.0270729],[-39.3507071,-13.0488525],[-39.3421131,-13.0604501],[-39.3329091,-13.0627382],[-39.3231501,-13.0575801],[-39.3116609,-13.0603051],[-39.2625192,-13.0580583],[-39.2464074,-13.095327],[-39.2199836,-13.0833333],[-39.1955255,-13.0904423],[-39.1893748,-13.1091118],[-39.1587273,-13.0960605],[-39.1255237,-13.1005648],[-39.1243606,-13.104498],[-39.1799547,-13.1173223],[-39.2139276,-13.1090329],[-39.2247595,-13.1122883],[-39.2451681,-13.1311818],[-39.285699,-13.138715],[-39.2958392,-13.1425528],[-39.3024104,-13.1603724],[-39.3021397,-13.1635481],[-39.291217,-13.1736359],[-39.2418433,-13.2012009],[-39.2351877,-13.2074473],[-39.2186025,-13.1998744],[-39.2008199,-13.1996421],[-39.1949378,-13.2106713],[-39.1846402,-13.2212768],[-39.1809132,-13.2263659]],[[-39.1809132,-13.2263659],[-39.1630347,-13.2359394]],[[-39.1630347,-13.2359394],[-39.1505853,-13.2253365],[-39.1203376,-13.2466565],[-39.1150725,-13.2535047],[-39.0813405,-13.2561807],[-39.0752491,-13.2437694],[-39.0266509,-13.2449972],[-39.0079568,-13.2259802],[-38.9896974,-13.2528818],[-38.9465626,-13.2093543],[-38.9305012,-13.2085905]],[[-38.9305012,-13.2085905],[-38.917904,-13.2140413],[-38.8672058,-13.1862386],[-38.8360504,-13.1564842],[-38.7622769,-13.1189343],[-38.7126181,-13.0611023],[-38.6572126,-13.0335314],[-38.6433387,-13.0153131],[-38.5278289,-13.0099454],[-38.4884231,-13.0172697],[-38.4547273,-13.006586],[-38.4264913,-12.9815481],[-38.3872729,-12.956841],[-38.3527085,-12.9567855],[-38.3176276,-12.9285517],[-38.2799207,-12.8803754],[-38.243694,-12.8524768],[-38.1025681,-12.6860058],[-38.0467738,-12.6346095],[-38.0408934,-12.6104278],[-38.001464,-12.5780112],[-37.9719443,-12.5191764],[-37.8932837,-12.4082421]],[[-38.527279,-12.2750905],[-38.5295854,-12.2756998]],[[-43.7458553,-14.2830747],[-43.8036191,-14.3715419],[-43.8193879,-14.3893051],[-43.8319646,-14.4430072],[-43.8738773,-14.5205836],[-43.8872301,-14.5851792],[-43.8708944,-14.6208355],[-43.8835365,-14.6525478],[-43.8468677,-14.672105],[-43.8005063,-14.6873135],[-43.7262579,-14.6981614],[-43.7198617,-14.7295389],[-43.6971108,-14.7237147],[-43.6590308,-14.7448733],[-43.6150001,-14.7598926],[-43.5907803,-14.7508694],[-43.5416401,-14.7791284],[-43.5391991,-14.805736],[-43.4783768,-14.792051],[-43.4721724,-14.7623647],[-43.4562273,-14.7401572],[-43.4253132,-14.7199792],[-43.3727734,-14.6991056],[-43.3541617,-14.698089],[-43.3112274,-14.6697481],[-43.2981427,-14.6760843],[-43.2450549,-14.6565111],[-43.2076646,-14.6583546],[-43.1763498,-14.6505438],[-43.1514964,-14.6663341],[-43.1011077,-14.6754951],[-43.0839365,-14.6982726],[-43.0663892,-14.6805592],[-43.0383074,-14.6828079],[-43.0109473,-14.7016622],[-42.9773253,-14.6983871],[-42.9526882,-14.7084023],[-42.9121978,-14.7444719],[-42.9038303,-14.7619561],[-42.8808002,-14.7692902],[-42.8423875,-14.796068],[-42.8202472,-14.8206286],[-42.790992,-14.8393791],[-42.7551378,-14.8464214],[-42.7472194,-14.8677547],[-42.7233598,-14.8856124],[-42.7041635,-14.8828283],[-42.648629,-14.9299879],[-42.6207127,-14.9436952],[-42.6025435,-14.9246771],[-42.5871896,-14.9302344],[-42.5606855,-14.9622972],[-42.4957414,-14.9948584],[-42.4759116,-15.0170404],[-42.4435981,-15.0206461],[-42.4429392,-15.0613198],[-42.3964917,-15.0779916],[-42.3718571,-15.0736296],[-42.354907,-15.0982031],[-42.337247,-15.0804663],[-42.2826217,-15.1178927],[-42.2589842,-15.1220829],[-42.2231295,-15.0995589],[-42.1553586,-15.0978508],[-42.1514947,-15.1182742],[-42.1249903,-15.1347445],[-42.0960683,-15.1824421],[-41.9946916,-15.1588745],[-41.9534344,-15.1756645],[-41.8970388,-15.1518993],[-41.8704306,-15.1151801],[-41.8483105,-15.1168421],[-41.8007101,-15.1010971],[-41.4994053,-15.3726109],[-41.3564227,-15.5002861],[-41.3312061,-15.7446734],[-41.2929477,-15.7390055],[-41.2717587,-15.74813],[-41.2153964,-15.7371659],[-41.197049,-15.7503601],[-41.1425302,-15.772047],[-41.1215557,-15.7430118],[-41.0981309,-15.7410515],[-41.0775579,-15.7192879],[-41.0484153,-15.72387],[-41.0060594,-15.7138373],[-40.9780972,-15.6881049],[-40.9631251,-15.6484003],[-40.9143317,-15.6609776],[-40.9025697,-15.6918421],[-40.8554496,-15.6871571],[-40.8313144,-15.6706535],[-40.8190283,-15.646342],[-40.7803371,-15.680198],[-40.7676637,-15.7140794],[-40.7398608,-15.7036467],[-40.7321546,-15.674899],[-40.7005752,-15.667309],[-40.6823087,-15.6990212],[-40.6611991,-15.7071257],[-40.6449466,-15.7288594],[-40.6260312,-15.7182097],[-40.6010286,-15.7434102],[-40.5930999,-15.7717467],[-40.5674174,-15.7759231],[-40.5649021,-15.8015478],[-40.5398103,-15.7947951],[-40.5063082,-15.7669015],[-40.4841247,-15.7757966],[-40.4614286,-15.7532317],[-40.4324702,-15.7786532],[-40.4281657,-15.8017066],[-40.3779678,-15.8184217],[-40.3567198,-15.8130148],[-40.3210087,-15.82074],[-40.274711,-15.8180443],[-40.2375823,-15.8050556],[-40.2074987,-15.8473114],[-40.1739661,-15.8704902],[-40.1647447,-15.9102313],[-40.1493,-15.9053675],[-40.0748468,-15.9200533],[-40.0611601,-15.9640017],[-40.0457735,-15.9623563],[-40.0136907,-15.9840065],[-40.0044365,-16.0018382],[-39.9699071,-16.0041514],[-39.9557464,-15.9914283],[-39.9102435,-16.001421]],[[-39.9102435,-16.001421],[-39.9018221,-15.9995456],[-39.8635051,-15.995382],[-39.8562445,-15.983289],[-39.8465517,-15.9754336],[-39.8709067,-15.9528224],[-39.9090952,-15.9466435],[-39.9486271,-15.8980308],[-39.9109832,-15.8671251],[-39.8772663,-15.8804491],[-39.8146878,-15.8657972],[-39.8161463,-15.8462643],[-39.7884636,-15.8146902],[-39.7565624,-15.8040818],[-39.7418405,-15.7905842],[-39.7317409,-15.7779256],[-39.6931829,-15.7721931],[-39.6649257,-15.7518465],[-39.6539244,-15.7483716],[-39.6538374,-15.7454128],[-39.6439791,-15.7433339],[-39.6239624,-15.7662484],[-39.6163253,-15.7738045],[-39.6147197,-15.771333],[-39.6003501,-15.7661409],[-39.5790994,-15.7749962],[-39.5676442,-15.7731794],[-39.5366347,-15.7518927],[-39.5336239,-15.6894469],[-39.544257,-15.6659637],[-39.5325788,-15.6188378],[-39.5829381,-15.5926864],[-39.6159003,-15.6201861],[-39.6327414,-15.6193433],[-39.6451605,-15.5949927],[-39.6556759,-15.5933082],[-39.6751247,-15.6218126],[-39.6740475,-15.6368674],[-39.695667,-15.6301448],[-39.6830527,-15.6178305],[-39.7141166,-15.591279],[-39.7131724,-15.5658338],[-39.7518338,-15.5554121],[-39.7689313,-15.5660787],[-39.7867282,-15.5500471],[-39.8033742,-15.5408945],[-39.8301792,-15.5317869],[-39.836651,-15.5189445],[-39.8357705,-15.5172393],[-39.8363041,-15.5087406],[-39.8419453,-15.4824127],[-39.8296756,-15.4592578],[-39.7906719,-15.423662],[-39.7661196,-15.3783715],[-39.7885116,-15.3746056],[-39.809605,-15.3254129],[-39.8476861,-15.3110427],[-39.895543,-15.101721],[-39.8964266,-15.0530034],[-39.9765514,-14.9589132],[-39.9443525,-14.9095267],[-39.9405383,-14.855552],[-39.9210475,-14.8466352],[-39.9067436,-14.809998],[-39.8737985,-14.8172312],[-39.8706575,-14.8003441],[-39.8303094,-14.773478],[-39.8136541,-14.7512861],[-39.7739639,-14.7319547],[-39.7583531,-14.7123281],[-39.7457291,-14.6579072],[-39.7294087,-14.6378078],[-39.7156405,-14.5785682],[-39.7353549,-14.555289],[-39.7318045,-14.5090285],[-39.7069348,-14.4472766],[-39.7089564,-14.4223832],[-39.7129604,-14.4180549],[-39.7153313,-14.4156826],[-39.714069,-14.4107816],[-39.6994834,-14.3757105],[-39.7144987,-14.3694724],[-39.7321313,-14.3720671],[-39.7422488,-14.3626863],[-39.7901191,-14.3506165],[-39.8192507,-14.3830581],[-39.8497849,-14.3748425],[-39.8601259,-14.3859995],[-39.8912768,-14.3803097],[-39.9068268,-14.3645071],[-39.9483333,-14.362948],[-39.9823261,-14.321681],[-40.0020398,-14.2816508],[-39.9829092,-14.2100285],[-39.9799358,-14.1730751],[-39.9702655,-14.1642238],[-39.9189304,-14.1819145],[-39.8889953,-14.1383263],[-39.8567799,-14.143951],[-39.8253642,-14.1138611],[-39.8312061,-14.0824778],[-39.7940502,-14.0666772],[-39.7944774,-14.0126241],[-39.7539123,-13.9872158],[-39.7357277,-13.9322085],[-39.7050151,-13.9098901],[-39.6822508,-13.8824811],[-39.7037588,-13.8608772],[-39.6886967,-13.8078432],[-39.7276175,-13.7706931],[-39.7199806,-13.7419485],[-39.757184,-13.6661967],[-39.7641934,-13.6316783],[-39.7776052,-13.6069591],[-39.7933397,-13.589542],[-39.7934272,-13.5850663],[-39.795855,-13.5783719],[-39.8135826,-13.5635682],[-39.8082713,-13.5555411],[-39.791265,-13.5389256],[-39.7866973,-13.5291236],[-39.7530254,-13.5105091],[-39.7164692,-13.511656],[-39.712176,-13.5125408],[-39.6991613,-13.5183063],[-39.6685949,-13.5369759],[-39.6250983,-13.4815392],[-39.6040703,-13.4658952],[-39.5839597,-13.4792487],[-39.5621911,-13.476839],[-39.5416686,-13.4396399],[-39.5026742,-13.4197096],[-39.484477,-13.3803956],[-39.4648599,-13.3737493],[-39.4799824,-13.337593],[-39.4260988,-13.2659169],[-39.4352949,-13.2419763],[-39.3808089,-13.2330821],[-39.3469515,-13.2510948],[-39.3344773,-13.2180747],[-39.3154276,-13.2060813],[-39.2688506,-13.2639294],[-39.2477691,-13.2659872],[-39.2281611,-13.2931446],[-39.2049994,-13.2885735],[-39.2088463,-13.276514],[-39.2084808,-13.271163],[-39.2158788,-13.264563],[-39.2181176,-13.2668633],[-39.2186216,-13.2627961],[-39.2156243,-13.2324877],[-39.2122867,-13.2271292],[-39.1865979,-13.2369911],[-39.1713228,-13.2332741]],[[-39.1713228,-13.2332741],[-39.1809132,-13.2263659]],[[-39.464112,-12.9600402],[-39.4658949,-12.9532291]],[[-42.7421352,-11.7287323],[-42.7599465,-11.7389435]],[[-39.9102435,-16.001421],[-39.9221984,-16.0286254],[-39.8820034,-16.068033],[-39.8746732,-16.0940679],[-39.8568289,-16.1138248],[-39.8805142,-16.1437454],[-39.8833906,-16.194693],[-39.898403,-16.2013672],[-39.9365211,-16.2457808],[-39.9201017,-16.2637394],[-39.9522397,-16.2978551],[-39.9604959,-16.3218827],[-39.991102,-16.3127343],[-40.0258067,-16.3664681],[-40.0455701,-16.4220389],[-40.0627169,-16.4319863],[-40.0794094,-16.4642299],[-40.1033027,-16.4370103],[-40.1406657,-16.4967728],[-40.1701688,-16.5312792],[-40.1544457,-16.5654902],[-40.1578974,-16.5794549],[-40.2298106,-16.5614449],[-40.2754901,-16.5734177],[-40.2876388,-16.5975704],[-40.298248,-16.652466],[-40.3129879,-16.6754341],[-40.3030011,-16.7036876],[-40.3101667,-16.7362155],[-40.3358372,-16.7797142],[-40.3236055,-16.8012692],[-40.2700764,-16.7953294],[-40.2508293,-16.8311546],[-40.2521215,-16.8600506],[-40.2719675,-16.8701937],[-40.2816371,-16.9011836],[-40.3027738,-16.8922436],[-40.331523,-16.9080273],[-40.366485,-16.8741723],[-40.3759008,-16.8858723],[-40.4157167,-16.8995006],[-40.4603851,-16.8784552],[-40.4923269,-16.8873987],[-40.4971418,-16.9173327],[-40.5169976,-16.9610515],[-40.5454433,-16.9841997],[-40.559856,-17.0416056],[-40.5714143,-17.0638855],[-40.5567855,-17.089602],[-40.5629147,-17.1263273],[-40.5791587,-17.1482483],[-40.5725269,-17.1823691],[-40.5523839,-17.1991531],[-40.5583942,-17.2306761],[-40.5722499,-17.2513728],[-40.5528438,-17.2875212],[-40.572244,-17.2947661],[-40.5948417,-17.3235648],[-40.6046846,-17.3561943],[-40.5975065,-17.4206333],[-40.5700817,-17.4158915],[-40.5541591,-17.4355679],[-40.520579,-17.4448113],[-40.5209414,-17.4583486],[-40.4824147,-17.4925902],[-40.4890624,-17.5197897],[-40.4604149,-17.5685022],[-40.4106843,-17.5682273],[-40.4182146,-17.5990974],[-40.3968117,-17.6256053],[-40.3799343,-17.6113093],[-40.3614456,-17.6366708],[-40.334049,-17.6321484],[-40.3228247,-17.6613147],[-40.2990206,-17.6745676],[-40.2955147,-17.6994936],[-40.2703222,-17.7270585],[-40.2207966,-17.7372474],[-40.2136573,-17.7536875],[-40.2180757,-17.795659],[-40.1741273,-17.8515612],[-40.2126577,-17.8957941],[-40.2635475,-17.9220233],[-40.2654631,-17.9323213],[-40.2268229,-17.9582598],[-40.2223506,-17.9804174],[-39.6889474,-18.3208315],[-39.6630558,-18.3312954],[-39.636916,-18.2357966],[-39.5859794,-18.1468753],[-39.5489449,-18.1018555],[-39.5416073,-18.0784976],[-39.4976912,-18.0064787],[-39.4564532,-17.9587515],[-39.4273055,-17.9341748],[-39.3619092,-17.9053893],[-39.3644416,-17.890754],[-39.3195987,-17.8916576],[-39.266167,-17.8599909],[-39.2581949,-17.8267608],[-39.2059762,-17.7726664],[-39.208052,-17.747346],[-39.1909005,-17.7419167],[-39.1358003,-17.6902527],[-39.1876871,-17.606152],[-39.1918304,-17.4443496],[-39.2166191,-17.3407045],[-39.2210726,-17.3017741],[-39.2129101,-17.2394895],[-39.2120619,-17.1612608],[-39.19803,-17.1271658],[-39.182016,-17.1123553],[-39.1714432,-17.0369372],[-39.1721848,-17.0130467],[-39.155532,-16.9803552],[-39.1514591,-16.9422489],[-39.1236855,-16.9043497],[-39.1419621,-16.8684413],[-39.145462,-16.8088443],[-39.1416455,-16.7614573],[-39.1069849,-16.7089152],[-39.0900501,-16.6284817],[-39.094417,-16.6097047],[-39.0852328,-16.5473059],[-39.0593248,-16.4569464],[-39.0617288,-16.4340665],[-39.0399398,-16.3958624],[-39.0087732,-16.3749211],[-39.0060608,-16.3327553],[-39.0204055,-16.3239733],[-39.0218557,-16.2853373],[-39.0110638,-16.2457858],[-38.9717695,-16.19868],[-38.9481067,-16.1556665],[-38.9566285,-16.1301953],[-38.9520495,-16.0969527],[-38.9025435,-15.9636021],[-38.8528393,-15.8493541],[-38.894601,-15.7644432],[-38.910326,-15.7191784],[-38.9274387,-15.6909923],[-38.9382182,-15.6447601],[-38.9441581,-15.5918158],[-38.9421675,-15.5394209],[-38.9516766,-15.4691144],[-38.9727812,-15.3880162],[-38.9907516,-15.2881607],[-38.9966538,-15.2146172],[-38.9949171,-15.1502154],[-38.9964192,-15.0008721],[-39.0187067,-14.9201762],[-39.0274128,-14.7830074],[-39.0490714,-14.7774283],[-39.0621871,-14.7469531],[-39.0651113,-14.6692704],[-39.0616264,-14.6249854],[-39.0351742,-14.5322678],[-39.0327279,-14.4875026],[-39.0016206,-14.3444811],[-38.9799147,-14.2936579],[-38.9949362,-14.266368],[-38.9899051,-14.199321],[-38.9428314,-14.0146877],[-38.9433312,-13.9971141],[-38.9276929,-13.9398459],[-38.9287859,-13.9068342],[-38.9814637,-13.8286408],[-39.0003368,-13.7757142],[-38.9916572,-13.7248077],[-38.9512386,-13.6706617],[-38.9287308,-13.6575309],[-38.8984879,-13.665992],[-38.8911288,-13.6405308],[-38.9039475,-13.6249321],[-38.9013877,-13.6017516],[-38.9333737,-13.5631951],[-38.9170404,-13.4837908],[-38.892562,-13.4609772],[-38.9056233,-13.4272646],[-38.9131994,-13.3786407],[-38.9462404,-13.3989233],[-38.9640337,-13.3568768],[-38.9647167,-13.294884],[-38.9484147,-13.2455322],[-38.9305012,-13.2085905]],[[-39.1630347,-13.2359394],[-39.1713228,-13.2332741]]],"bbox":[-46.5764346,-18.3312954,-37.3491581,-8.5328206]}
