{"type":"Topology","objects":{"geometrias":{"type":"GeometryCollection","geometries":[{"type":"Polygon","arcs":[[0,1,2,3,4,5,6,7,8,9]],"properties":{"code_meso":5201,"code_state":52,"code_region":5,"name_meso":"Noroeste Goiano","abbrev_state":"GO","name_state":"Goiás","name_region":"Centro-Oeste","year":2020}},{"type":"Polygon","arcs":[[10,11,12,13,14,15,-10,16,-8]],"properties":{"code_meso":5202,"code_state":52,"code_region":5,"name_meso":"Norte Goiano","abbrev_state":"GO","name_state":"Goiás","name_region":"Centro-Oeste","year":2020}},{"type":"Polygon","arcs":[[17,-4,18,19,20,21,22,23,-14,24,-12,25,-6]],"properties":{"code_meso":5203,"code_state":52,"code_region":5,"name_meso":"Centro Goiano","abbrev_state":"GO","name_state":"Goiás","name_region":"Centro-Oeste","year":2020}},{"type":"Polygon","arcs":[[-24,26,-22,27,28,29,30,31,-15]],"properties":{"code_meso":5204,"code_state":52,"code_region":5,"name_meso":"Leste Goiano","abbrev_state":"GO","name_state":"Goiás","name_region":"Centro-Oeste","year":2020}},{"type":"Polygon","arcs":[[32,-31,33,-29,34,-20,35,-2]],"properties":{"code_meso":5205,"code_state":52,"code_region":5,"name_meso":"Sul Goiano","abbrev_state":"GO","name_state":"Goiás","name_region":"Centro-Oeste","year":2020}}]}},"arcs":[[[-49.371834,-13.276707],[-49.3683159,-13.2723014],[-49.9092331,-12.9748676],[-49.9330662,-12.9566911],[-49.9499656,-12.9592881],[-50.0093375,-12.9310255],[-50.0374525,-12.9356091],[-50.0558533,-12.9202356],[-50.0917026,-12.9085261],[-50.1470251,-12.9032391],[-50.1578672,-12.8931307],[-50.185178,-12.8936382],[-50.2244967,-12.87304],[-50.225444,-12.8599517],[-50.2504494,-12.85349],[-50.2960416,-12.8314538],[-50.3075478,-12.8177422],[-50.3107784,-12.7916062],[-50.3024772,-12.7473437],[-50.2882198,-12.7348842],[-50.2954765,-12.6836702],[-50.271462,-12.6832418],[-50.2684329,-12.6517489],[-50.2363815,-12.6236716],[-50.2447603,-12.5974743],[-50.207071,-12.5665508],[-50.2136392,-12.5466268],[-50.2295244,-12.531189],[-50.2184498,-12.514831],[-50.2176095,-12.4873571],[-50.1791191,-12.4383606],[-50.170666,-12.418804],[-50.2117812,-12.4355973],[-50.2283186,-12.4541338],[-50.2530304,-12.4616048],[-50.2616921,-12.477218],[-50.3104161,-12.4953762],[-50.3695501,-12.557338],[-50.386478,-12.5898503],[-50.4181009,-12.6244473],[-50.4171486,-12.6349777],[-50.4363734,-12.6781082],[-50.4389381,-12.6975408],[-50.4608311,-12.6927772],[-50.477353,-12.7164962],[-50.4833995,-12.7393087],[-50.4749808,-12.7707892],[-50.4932856,-12.7836871],[-50.4838415,-12.8105787],[-50.4958557,-12.844634],[-50.5109811,-12.8608983],[-50.5134792,-12.9128663],[-50.5263757,-12.9339305],[-50.5241438,-12.9736516],[-50.548804,-12.9928203],[-50.5905238,-13.0004264],[-50.5935939,-13.0072101],[-50.5690214,-13.0424957],[-50.5763134,-13.0541372],[-50.6064732,-13.0540029],[-50.6103187,-13.0647588],[-50.5945502,-13.096701],[-50.5995303,-13.1360913],[-50.5936237,-13.1636575],[-50.6059358,-13.1875102],[-50.5841755,-13.2176963],[-50.592727,-13.2605582],[-50.6066294,-13.2789389],[-50.6085957,-13.3175954],[-50.6464959,-13.3619688],[-50.6653237,-13.3755658],[-50.6696223,-13.3976196],[-50.6639456,-13.4349565],[-50.6835249,-13.445191],[-50.6940354,-13.4695508],[-50.7148156,-13.4914731],[-50.7589998,-13.5203153],[-50.7683782,-13.5608543],[-50.7715851,-13.6045005],[-50.7836065,-13.6203941],[-50.786569,-13.6466268],[-50.8062258,-13.6938146],[-50.8297337,-13.7098143],[-50.8613369,-13.7186374],[-50.8732996,-13.7324117],[-50.8583114,-13.7536609],[-50.8543701,-13.7997614],[-50.8590855,-13.8287048],[-50.8406443,-13.8637887],[-50.8402336,-13.9236819],[-50.8626275,-13.9540243],[-50.8663329,-13.979648],[-50.8471508,-13.9997948],[-50.8550439,-14.0258773],[-50.8329111,-14.0708596],[-50.8348823,-14.0946837],[-50.8518089,-14.1176257],[-50.8711194,-14.11793],[-50.8951037,-14.1308696],[-50.9037008,-14.1102235],[-50.9197824,-14.1266249],[-50.9100275,-14.148419],[-50.9402094,-14.2184689],[-50.9548889,-14.2332145],[-50.9781733,-14.2972436],[-50.9684662,-14.3166155],[-50.9693146,-14.3358323],[-50.9882005,-14.3599682],[-50.9844832,-14.3764446],[-50.9978306,-14.4156747],[-50.9849149,-14.4319171],[-50.9889651,-14.4535716],[-50.9680137,-14.4819971],[-50.973025,-14.4976842],[-50.9642292,-14.5282977],[-50.9962494,-14.5746109],[-50.9928355,-14.6124579],[-51.0100072,-14.6457339],[-51.0266586,-14.6593581],[-51.029233,-14.7074084],[-51.0531885,-14.7388819],[-51.0566607,-14.7612964],[-51.0448213,-14.7928386],[-51.0707095,-14.8099634],[-51.0896375,-14.8401805],[-51.0930003,-14.8935438],[-51.0871098,-14.9213487],[-51.1449181,-14.9434106],[-51.15705,-14.985611],[-51.1983989,-15.0027752],[-51.2190088,-15.0247016],[-51.2403049,-15.0292875],[-51.2676087,-15.044413],[-51.295042,-15.0302486],[-51.3070507,-14.9809707],[-51.3355323,-14.9717535],[-51.3595787,-15.0023992],[-51.3769297,-15.0102626],[-51.4017387,-15.0028534],[-51.4269632,-15.0076659],[-51.4441342,-15.0345996],[-51.4620029,-15.0479797],[-51.5341081,-15.0652022],[-51.5468907,-15.1004651],[-51.5640798,-15.1086091],[-51.6061345,-15.162297],[-51.649292,-15.174675],[-51.6507182,-15.2033039],[-51.6681964,-15.2321668],[-51.668793,-15.2546151],[-51.6506993,-15.2730935],[-51.6797381,-15.290064],[-51.6914677,-15.3249149],[-51.6873706,-15.3468505],[-51.669531,-15.374421],[-51.6972226,-15.4091862],[-51.6912771,-15.4258682],[-51.7094595,-15.4594918],[-51.7000568,-15.4740008],[-51.7057302,-15.4975624],[-51.7285664,-15.5018063],[-51.7371803,-15.5267965],[-51.7255764,-15.544129],[-51.7393436,-15.5592768],[-51.7556134,-15.5574154],[-51.760886,-15.5300637],[-51.7772681,-15.534985],[-51.7798514,-15.5554215],[-51.7540483,-15.6149573],[-51.7651493,-15.6495527],[-51.8025989,-15.7043354],[-51.8051451,-15.7257712],[-51.8345195,-15.7438316],[-51.8592473,-15.7874643],[-51.8763102,-15.8020547],[-51.879841,-15.8229438],[-51.8922896,-15.8311214],[-51.9129113,-15.8132336],[-51.9484549,-15.8100984],[-51.9531249,-15.8344788],[-51.9813041,-15.8425042],[-51.9949235,-15.8707443],[-52.0095332,-15.8858115],[-52.0605909,-15.8871222],[-52.0733217,-15.8816546],[-52.1096389,-15.882653],[-52.1313821,-15.8954985],[-52.1926654,-15.880842],[-52.2159323,-15.8915822],[-52.2479693,-15.8901847],[-52.2568953,-15.9308847],[-52.266918,-15.9477238],[-52.2903395,-15.9655473],[-52.28913,-15.9794146],[-52.3108158,-16.0070365],[-52.3240427,-16.0378143],[-52.3299379,-16.0721758],[-52.3524048,-16.0846898],[-52.367252,-16.0833084],[-52.3806109,-16.0989217],[-52.3988793,-16.0933424],[-52.4395408,-16.1100841],[-52.4605729,-16.1277183],[-52.4766344,-16.1264621],[-52.5264499,-16.1553939],[-52.5473373,-16.1632322],[-52.5505031,-16.1875631],[-52.545272,-16.2226104],[-52.5701092,-16.231041],[-52.5545962,-16.2524165],[-52.5827195,-16.2546894],[-52.5880889,-16.2688137],[-52.6103955,-16.2717467],[-52.6193461,-16.2838801],[-52.6579667,-16.2800754],[-52.6825566,-16.3017423],[-52.68258,-16.3441296],[-52.692787,-16.3671524],[-52.677574,-16.3804251],[-52.687412,-16.3990005],[-52.6745488,-16.4124041],[-52.6516772,-16.408483],[-52.6386778,-16.4375587],[-52.6192182,-16.4463069],[-52.6061466,-16.4865167],[-52.6294216,-16.5177702]],[[-52.6294216,-16.5177702],[-52.6221702,-16.5147],[-52.6105297,-16.5128161],[-52.6073302,-16.5228317],[-52.5995908,-16.5331953],[-52.5719454,-16.5181011],[-52.5658977,-16.5469006],[-52.5512282,-16.5438353],[-52.5492495,-16.5454675],[-52.5461726,-16.5523552],[-52.5063735,-16.542687],[-52.4937026,-16.5635017],[-52.4570714,-16.5577423],[-52.4409502,-16.5449285],[-52.4172858,-16.5425643],[-52.4038896,-16.554829],[-52.3642839,-16.5362018],[-52.3331669,-16.5530473],[-52.3099503,-16.5787518],[-52.2770813,-16.586622],[-52.2597305,-16.5986558],[-52.2456168,-16.5802694],[-52.2326979,-16.5388022],[-52.210803,-16.5084259],[-52.1980821,-16.4789046],[-52.194212,-16.4661823],[-52.1794197,-16.4616591],[-52.1750582,-16.4733896],[-52.1675016,-16.4770279],[-52.1466728,-16.4693839],[-52.0887815,-16.4735967],[-52.0582733,-16.4881287],[-52.0491708,-16.4983441],[-52.0440261,-16.5386011],[-52.0243375,-16.5464314],[-52.003504,-16.5677404],[-51.9787233,-16.6229138],[-51.917998,-16.6508884],[-51.8994974,-16.634156],[-51.8662278,-16.6590035],[-51.8076976,-16.630092],[-51.7745021,-16.6049584],[-51.752773,-16.5989074],[-51.7433897,-16.6215471],[-51.70869,-16.6431028],[-51.6758287,-16.6256682],[-51.6690823,-16.5990725],[-51.6325771,-16.5953087],[-51.595303,-16.6045007],[-51.5747772,-16.6537665],[-51.5512049,-16.6423223],[-51.5395179,-16.605455],[-51.5065284,-16.580096],[-51.5053351,-16.5393649],[-51.4890634,-16.5417206],[-51.4478583,-16.5214977],[-51.4422141,-16.5182144],[-51.4041354,-16.4724579],[-51.4000541,-16.4682217],[-51.3937183,-16.4663879]],[[-51.3937183,-16.4663879],[-51.3796121,-16.4658834],[-51.3738513,-16.4463371]],[[-51.3738513,-16.4463371],[-51.3920498,-16.4502476],[-51.4036898,-16.4025015],[-51.4158301,-16.3948484],[-51.4121061,-16.3719348],[-51.4398869,-16.3492568],[-51.4290553,-16.3201507],[-51.4089348,-16.3015559],[-51.4047451,-16.267302],[-51.3902428,-16.2736977],[-51.3829142,-16.2809403],[-51.3677166,-16.2846153],[-51.1124054,-16.3068532],[-51.1297134,-16.2575921],[-51.1331341,-16.2288034],[-51.1560232,-16.1963054],[-51.1709028,-16.1897405],[-51.1624377,-16.157146],[-51.1773548,-16.1470446],[-51.1784991,-16.1151805],[-51.1959915,-16.0990618],[-51.2108521,-16.0216329],[-51.2066549,-16.0036097],[-51.2356616,-15.9943897],[-51.2407098,-15.9496888],[-51.2215296,-15.9412635],[-51.2051064,-15.9633525],[-51.1785179,-15.9538423],[-51.1311291,-15.9663166],[-51.1146577,-15.9611156],[-51.0870205,-15.9782291],[-51.0671,-15.969127],[-51.0336616,-15.9885403],[-51.0298297,-15.9987966],[-50.9841337,-16.0294925],[-50.9784958,-16.0195649],[-50.9402974,-16.020911],[-50.9142357,-16.0537382],[-50.8855466,-16.0439147],[-50.8720692,-16.0109505],[-50.8435983,-16.0096122],[-50.8142681,-16.0236304],[-50.7953466,-15.9959825],[-50.7839112,-15.9959572],[-50.7802637,-15.9681672],[-50.7939355,-15.9461529],[-50.77352,-15.9394855],[-50.7718491,-15.9264551],[-50.746485,-15.9227429],[-50.7422401,-15.8999014],[-50.7234926,-15.8771101],[-50.7111297,-15.8999164],[-50.6841258,-15.9098846],[-50.6834316,-15.9521168],[-50.6222084,-15.9625278],[-50.6036549,-16.0006775],[-50.592262,-16.0058328],[-50.5848796,-16.0382287],[-50.5062348,-16.008314],[-50.5099029,-16.0368504],[-50.4896212,-16.0407072],[-50.4753266,-16.0681812],[-50.4772612,-16.1024829],[-50.4797334,-16.1175527],[-50.4779614,-16.1199496],[-50.4652913,-16.1205959],[-50.4499635,-16.119216],[-50.4404302,-16.1016904],[-50.3980362,-16.0818114],[-50.367431,-16.075726],[-50.3335658,-16.0914072],[-50.2958446,-16.083336],[-50.2804317,-16.0931964],[-50.2573769,-16.0942471],[-50.2265738,-16.0765866],[-50.1857802,-16.0725257],[-50.1146031,-16.0428957],[-50.0998699,-16.0330308],[-50.0833724,-16.0445869],[-50.0589236,-16.0282563],[-50.0417612,-16.0303706],[-50.0223966,-16.0115231],[-50.0053368,-16.0127132],[-49.9784824,-15.9929068],[-49.9632091,-15.9732403],[-49.9135957,-15.9692051],[-49.8861465,-15.9754544],[-49.8671736,-15.9884456],[-49.8655386,-15.9839419],[-49.8548376,-15.9582111],[-49.8326456,-15.927512],[-49.8403967,-15.9064534],[-49.8163114,-15.9067378],[-49.8045937,-15.887137],[-49.798342,-15.8778231],[-49.8123348,-15.8461102],[-49.809867,-15.8241728],[-49.8595362,-15.7751131],[-49.8863419,-15.7575068],[-49.9033973,-15.7592964],[-49.9386195,-15.7490955],[-49.9683185,-15.7663485],[-49.9801898,-15.7631947],[-50.0207093,-15.7817115],[-50.0493054,-15.7729415],[-50.0726215,-15.7823922],[-50.0862614,-15.7695861],[-50.074176,-15.7467398],[-50.0664487,-15.7172537],[-50.0764839,-15.6999607],[-50.0788994,-15.6883696],[-50.1089269,-15.6635048]],[[-50.1089269,-15.6635048],[-50.1215934,-15.6602133],[-50.1251155,-15.6540053],[-50.1242611,-15.6434682],[-50.1266456,-15.6341905]],[[-50.1266456,-15.6341905],[-50.1366735,-15.5709014],[-50.1566754,-15.5603991],[-50.1657026,-15.5245888],[-50.1575089,-15.4993827],[-50.1589299,-15.4784355],[-50.1647556,-15.4430605],[-50.1508942,-15.4048463],[-50.1439843,-15.4036967],[-50.133529,-15.392592],[-50.1257361,-15.3536982],[-50.1307854,-15.3531624],[-50.1318441,-15.3380279],[-50.112677,-15.3219387],[-50.1041436,-15.3030104],[-50.1068687,-15.290611],[-50.1047302,-15.2833837],[-50.0979561,-15.2790982],[-50.0930125,-15.2729711],[-50.0806716,-15.2375959],[-50.0590438,-15.2247179],[-50.0390474,-15.1974525],[-50.0555931,-15.1830154],[-50.0519236,-15.1651273],[-50.0360067,-15.144303],[-50.0482362,-15.1347405],[-50.0610676,-15.1080586],[-50.0483449,-15.0630675],[-49.9877889,-15.0148097],[-49.9693385,-15.0202018],[-49.9659517,-14.9999864],[-49.9300147,-14.9840165],[-49.9242284,-14.9702523],[-49.8809821,-14.9854102],[-49.8515934,-14.9794413],[-49.839003,-14.9653985],[-49.8504469,-14.9364778],[-49.8299222,-14.8049831],[-49.8178906,-14.7933874],[-49.8159249,-14.7689146],[-49.7810909,-14.7615834],[-49.7660036,-14.7238889],[-49.752978,-14.7053113],[-49.7323987,-14.6943389],[-49.7321209,-14.6871833],[-49.7401199,-14.6760336],[-49.7457006,-14.6703284],[-49.7429246,-14.6673385],[-49.7459816,-14.6570988],[-49.7767805,-14.6405068],[-49.7848925,-14.6197551],[-49.8176496,-14.6014389],[-49.8195038,-14.5916446],[-49.8230283,-14.565729],[-49.8203138,-14.5561245],[-49.8099806,-14.5420778],[-49.7857002,-14.5334744],[-49.7710915,-14.5068291],[-49.7554491,-14.5038408],[-49.7569208,-14.4942921],[-49.7720314,-14.4807408],[-49.7638423,-14.4752642],[-49.7226498,-14.4792379],[-49.7140596,-14.4642337],[-49.7131442,-14.4679397],[-49.702817,-14.4691385],[-49.6940049,-14.4660027]],[[-49.6940049,-14.4660027],[-49.6972257,-14.4620675]],[[-49.6972257,-14.4620675],[-49.7020042,-14.4601431],[-49.7126412,-14.4532032],[-49.7381495,-14.4425752],[-49.7323905,-14.4287958],[-49.7322831,-14.4194523],[-49.7495563,-14.4152803],[-49.7515568,-14.412496],[-49.759783,-14.4164402],[-49.7620565,-14.402603],[-49.7545917,-14.3991234],[-49.7665531,-14.393694],[-49.7794807,-14.366774],[-49.7749196,-14.3498393],[-49.8002278,-14.3203062],[-49.7889549,-14.2997178],[-49.8208719,-14.2583188],[-49.8079467,-14.2219467],[-49.8296206,-14.2044899],[-49.8466221,-14.1765572],[-49.8313631,-14.1359639],[-49.8465637,-14.1150727],[-49.8671466,-14.1181034],[-49.8941404,-14.0614611],[-49.87342,-14.0451919],[-49.8842803,-14.0332919],[-49.8734239,-14.0098222],[-49.8818413,-13.9863649],[-49.85362,-13.9811416],[-49.8660347,-13.960827],[-49.8557312,-13.9479645],[-49.8350329,-13.9557798],[-49.8185057,-13.9408343],[-49.837949,-13.8994978],[-49.8654243,-13.9129768],[-49.872927,-13.8973758],[-49.9060608,-13.900883],[-49.9365988,-13.8845269],[-49.9371136,-13.9018406],[-49.9510649,-13.914419],[-49.9740372,-13.8863797],[-49.9609207,-13.8675477],[-49.9588685,-13.8467073],[-49.9415053,-13.8347684],[-49.9390615,-13.825799],[-49.9576167,-13.8173378],[-49.9560068,-13.8120004],[-49.9465651,-13.8144586],[-49.9312254,-13.7906417],[-49.931509,-13.7865611],[-49.9207282,-13.7714363],[-49.9361712,-13.7474949],[-49.9604472,-13.7435647],[-49.9627285,-13.7135574],[-49.9713109,-13.6902585],[-49.9963386,-13.6847733],[-50.0192848,-13.6885236],[-50.0323908,-13.6798864],[-50.0529563,-13.7057222],[-50.0595377,-13.7047184],[-50.0685053,-13.6857743],[-50.0841499,-13.6885102],[-50.1014856,-13.6615853],[-50.1132866,-13.6592814],[-50.1138136,-13.6847822]],[[-50.1138136,-13.6847822],[-50.1163416,-13.6892588],[-50.1214489,-13.6882301],[-50.1360306,-13.6807001],[-50.1406462,-13.6749457],[-50.1523441,-13.6451396]],[[-50.1523441,-13.6451396],[-50.1586705,-13.651751],[-50.2284252,-13.651662],[-50.2347367,-13.6460228],[-50.2396249,-13.6540526],[-50.2420938,-13.6266895],[-50.233643,-13.619879],[-50.2513631,-13.5568366],[-50.2328145,-13.5572564],[-50.2273681,-13.5397788],[-50.2033127,-13.5350539],[-50.1664846,-13.5523147],[-50.1632002,-13.5335809],[-50.1427584,-13.5369666],[-50.1190091,-13.5085644],[-50.0569546,-13.5232291],[-50.0258679,-13.5047894],[-50.0092861,-13.5025848],[-50.0004229,-13.4866354],[-49.9578662,-13.496435],[-49.9355867,-13.4931367],[-49.9106441,-13.5072607],[-49.8856754,-13.4932803],[-49.8756121,-13.5051299],[-49.8634793,-13.500538],[-49.8546634,-13.4984035],[-49.8435292,-13.4837683],[-49.8224514,-13.4528309],[-49.8108056,-13.4638993],[-49.7789454,-13.4503746],[-49.7585875,-13.4263195],[-49.7224225,-13.4231764],[-49.672001,-13.3710034],[-49.6562851,-13.3689985],[-49.6439434,-13.3503395],[-49.6250298,-13.3542788],[-49.5906588,-13.3018337],[-49.5530887,-13.2786469],[-49.5312545,-13.2805734],[-49.4941127,-13.2539231],[-49.4783857,-13.2545245],[-49.4596913,-13.2484284],[-49.4423054,-13.2463997],[-49.4090535,-13.2678177],[-49.371834,-13.276707]],[[-49.6972257,-14.4620675],[-49.6904285,-14.4697537]],[[-49.6904285,-14.4697537],[-49.6841159,-14.4785447],[-49.6796411,-14.478653],[-49.6605315,-14.4809778],[-49.6632859,-14.5256758],[-49.6514517,-14.5529543],[-49.6337541,-14.5702509],[-49.6426742,-14.6309744],[-49.6248713,-14.6765568],[-49.5668151,-14.6448],[-49.5727863,-14.6290302],[-49.5573337,-14.5988433],[-49.542894,-14.5344947],[-49.5487282,-14.4990142],[-49.5416177,-14.4638946],[-49.5228905,-14.475286],[-49.4980218,-14.4639515],[-49.4735935,-14.4624857],[-49.4970621,-14.2551857],[-49.5616434,-14.2328365],[-49.5591185,-14.2108301],[-49.517395,-14.2147666],[-49.4740607,-14.2591222],[-49.4814439,-14.2690693],[-49.4650844,-14.2879054],[-49.4258329,-14.2615774],[-49.4297523,-14.284526],[-49.4169989,-14.30322],[-49.4183662,-14.3353783],[-49.4068328,-14.368936],[-49.4159467,-14.3930344],[-49.402553,-14.4008512],[-49.4093619,-14.4297251],[-49.4040325,-14.4420661],[-49.3567746,-14.5003298],[-49.3704224,-14.5106379],[-49.3884501,-14.5075842],[-49.40117,-14.5334347],[-49.442085,-14.5521627],[-49.4536031,-14.5695396],[-49.4525334,-14.5889338],[-49.4321145,-14.606288],[-49.4327876,-14.6222511],[-49.3913591,-14.6379504],[-49.3725025,-14.6232222],[-49.3560811,-14.6086279],[-49.3409411,-14.6261621],[-49.3280303,-14.6374834],[-49.320421,-14.668246],[-49.2895862,-14.6763632],[-49.2814462,-14.7025676],[-49.2410575,-14.7242453],[-49.2325582,-14.7247829],[-49.2004682,-14.7462781],[-49.1905584,-14.7680871],[-49.1521352,-14.7685839],[-49.1505873,-14.7369983],[-49.1313052,-14.7364668],[-49.1256913,-14.7449547],[-49.1161628,-14.746185],[-49.0867171,-14.7308269],[-49.0696346,-14.7435806],[-49.0610027,-14.7235243],[-49.0419726,-14.7086762],[-49.0103042,-14.7204507],[-49.0093558,-14.698398],[-49.0217716,-14.684995],[-49.014886,-14.6627143],[-49.0286987,-14.6349298],[-49.0540827,-14.6171083],[-49.0344119,-14.6029631],[-48.9917218,-14.5864599],[-48.9790759,-14.6156107],[-48.9912537,-14.6303975],[-48.9822723,-14.6465114],[-48.9598077,-14.6607744],[-48.9502798,-14.6810444],[-48.924666,-14.6798036],[-48.9063552,-14.670973],[-48.8813872,-14.6800523],[-48.8759412,-14.6945355],[-48.8182197,-14.6765144],[-48.8070861,-14.6654331],[-48.7976039,-14.6604203]],[[-48.7976039,-14.6604203],[-48.7826949,-14.666537],[-48.7749152,-14.6598063],[-48.7805178,-14.6521243],[-48.779582,-14.6501213],[-48.7751316,-14.6490196],[-48.7736574,-14.6434953]],[[-48.7736574,-14.6434953],[-48.7643551,-14.6434681],[-48.7472735,-14.6604376],[-48.7247503,-14.6853689],[-48.7316307,-14.7093072],[-48.71278,-14.726555],[-48.7267978,-14.810934],[-48.7606625,-14.8462841],[-48.7574387,-14.8616829]],[[-48.7574387,-14.8616829],[-48.7440297,-14.885636],[-48.7516921,-14.9050476],[-48.7492773,-14.9347565],[-48.7200204,-14.9513177],[-48.6901095,-14.9546527],[-48.6859937,-14.9578987],[-48.6982147,-14.9807728],[-48.6837546,-14.9797126],[-48.6681876,-14.9825613],[-48.6552403,-14.9613145],[-48.6487768,-14.9673598],[-48.6494962,-14.9776873],[-48.6332154,-14.9898477],[-48.615886,-14.9881514],[-48.5562441,-15.0148083],[-48.5471666,-15.0066628],[-48.522081,-15.0177509],[-48.5100815,-15.0123203],[-48.5003547,-14.9846499],[-48.4487484,-14.9572642],[-48.422045,-14.9374255],[-48.3859099,-14.944642],[-48.3517877,-14.9079895],[-48.3251573,-14.8991791],[-48.2920504,-14.8969126],[-48.2566856,-14.8730678],[-48.2368546,-14.8809077],[-48.1857689,-14.8489134],[-48.1339649,-14.8463124],[-48.1013519,-14.8486422],[-48.0826272,-14.8591057],[-48.0908509,-14.8852678],[-48.0767999,-14.8920703],[-48.0594561,-14.858461],[-48.0407719,-14.8575135],[-48.0409096,-14.8381414],[-48.0130173,-14.8230532],[-47.9902358,-14.8026207],[-47.9516011,-14.8029085],[-47.9226593,-14.7943277],[-47.9077121,-14.7988088],[-47.8942127,-14.7822138],[-47.8565709,-14.7656602],[-47.8258815,-14.7295048],[-47.8144373,-14.6999781],[-47.786327,-14.6902897],[-47.7734031,-14.6451658],[-47.7170482,-14.6529405],[-47.7053466,-14.6717023],[-47.6895711,-14.7359826],[-47.6746562,-14.7287734],[-47.6599012,-14.7064347],[-47.6317958,-14.750896],[-47.6413741,-14.7591425],[-47.6463462,-14.8309627],[-47.6342954,-14.8302539],[-47.6142971,-14.793829],[-47.5669643,-14.7572028],[-47.557738,-14.7322841],[-47.5340119,-14.7381956],[-47.5236177,-14.7762132],[-47.478288,-14.7993349],[-47.4617577,-14.8155799],[-47.4225037,-14.8292104],[-47.392454,-14.8165486],[-47.3753787,-14.816123],[-47.3600737,-14.8030988],[-47.3547582,-14.7811662],[-47.3525721,-14.7745519],[-47.3099007,-14.7600844],[-47.3144823,-14.7548525],[-47.3224028,-14.7498961],[-47.3150997,-14.7448996],[-47.316314,-14.7384712],[-47.312,-14.748238],[-47.3090146,-14.7509364],[-47.3040395,-14.7385129],[-47.290145,-14.7014292],[-47.2759181,-14.6949387],[-47.2503398,-14.7002653],[-47.2314563,-14.6798106],[-47.2340353,-14.6437802],[-47.2157897,-14.6268583],[-47.217451,-14.6057711],[-47.19501,-14.5768699],[-47.1917558,-14.5562146],[-47.1777037,-14.5395776],[-47.1543105,-14.5477115],[-47.1572324,-14.4662647],[-47.1837895,-14.4387072],[-47.1911521,-14.3737405],[-47.1822052,-14.3491534],[-47.1877046,-14.3311657],[-47.1844309,-14.3027144],[-47.1716539,-14.2674982],[-47.1389994,-14.2543611],[-47.1369574,-14.2187623],[-47.1292851,-14.2006073],[-47.0854046,-14.1707185],[-47.0842906,-14.1423734],[-47.0609219,-14.1116108],[-47.0321125,-14.0895085],[-46.968484,-14.0957438],[-46.9552033,-14.0908562],[-46.9380375,-14.103],[-46.9224234,-14.0882042],[-46.8890938,-14.0705675],[-46.8755858,-14.0333836],[-46.8363163,-14.0434626],[-46.8266501,-14.027613],[-46.832285,-14.0061448],[-46.8509549,-13.9864407],[-46.8376185,-13.9683577],[-46.8412362,-13.9502681],[-46.8371719,-13.9116762],[-46.8607021,-13.8978624],[-46.8667211,-13.8807806],[-46.8393119,-13.8639744],[-46.825503,-13.847963],[-46.8518105,-13.8288244],[-46.8464216,-13.8165677],[-46.8171696,-13.7959635],[-46.8376212,-13.7651777],[-46.8213386,-13.7501602],[-46.8108147,-13.7252989],[-46.7922837,-13.728264],[-46.7857538,-13.7028808],[-46.8016049,-13.6948181],[-46.8159486,-13.6571477],[-46.8505643,-13.6332782],[-46.8543282,-13.6225361],[-46.818753,-13.5888065],[-46.8138418,-13.5876078],[-46.7970649,-13.5942974],[-46.7934216,-13.5806925],[-46.7885899,-13.5558626],[-46.7723905,-13.5401938],[-46.7848674,-13.5118289],[-46.7681697,-13.4907274],[-46.7694777,-13.4701051],[-46.762032,-13.4379224],[-46.7514752,-13.4335539],[-46.7486208,-13.4074865],[-46.7333914,-13.3863065],[-46.7228382,-13.3864826],[-46.7147025,-13.387622],[-46.7068961,-13.382211],[-46.699059,-13.3689114],[-46.7005327,-13.3415668],[-46.7087801,-13.330817],[-46.7086423,-13.3230958],[-46.70363,-13.3067837],[-46.7023645,-13.2967055],[-46.6774838,-13.2836831],[-46.6840054,-13.2544456],[-46.6775597,-13.2398399],[-46.6157557,-13.2238005],[-46.5787244,-13.2031597],[-46.5307544,-13.1540063],[-46.5062805,-13.0971287],[-46.4808394,-13.0868043],[-46.4530828,-13.065891],[-46.4511059,-13.0549914],[-46.2987271,-13.063779]],[[-46.2987271,-13.063779],[-46.2815629,-13.0451358],[-46.2755338,-13.0202133],[-46.1938118,-12.9967524],[-46.1663753,-12.977276],[-46.1246636,-12.9598204],[-46.1068577,-12.9357294],[-46.120116,-12.9256799],[-46.1509947,-12.9377361],[-46.1777318,-12.9393773],[-46.195902,-12.956977],[-46.2810157,-12.968555],[-46.304931,-12.97854],[-46.3706226,-12.987923],[-46.3724272,-12.9445488],[-46.3652006,-12.9346972],[-46.3684008,-12.9025899],[-46.3657643,-12.863354],[-46.3829617,-12.8485596],[-46.4091181,-12.8455928],[-46.4179848,-12.8224367],[-46.4325688,-12.9306408],[-46.4459259,-12.9357678],[-46.4546499,-12.9711526],[-46.750611,-12.969155],[-46.8228182,-13.0067893],[-46.8614231,-13.0667377],[-46.8916768,-13.0523851],[-46.9275007,-13.0897505],[-46.9791473,-13.1218422],[-47.0053109,-13.1265186],[-47.0078393,-13.1386366],[-47.0712409,-13.1589459],[-47.0854035,-13.1717336],[-47.1321165,-13.1778641],[-47.1335041,-13.1993901],[-47.1679426,-13.2111178],[-47.1969246,-13.1936844],[-47.2296138,-13.1947384],[-47.2523793,-13.2126088],[-47.2482667,-13.2278975],[-47.2683979,-13.2374476],[-47.2821518,-13.2651268],[-47.3063623,-13.249093],[-47.3238054,-13.2582586],[-47.3381852,-13.2463509],[-47.3797227,-13.2306025],[-47.3914681,-13.2583855],[-47.4171999,-13.2708326],[-47.4364455,-13.2667829],[-47.4544222,-13.2505276],[-47.4321613,-13.2379692],[-47.4421239,-13.2223176],[-47.4651907,-13.227158],[-47.4878931,-13.2112802],[-47.4774514,-13.1871897],[-47.5410293,-13.1917981],[-47.5652595,-13.179662],[-47.5685676,-13.1434514],[-47.5609943,-13.1255621],[-47.6156147,-13.1036851],[-47.6458713,-13.1198323],[-47.6516952,-13.1498235],[-47.6661664,-13.1726605],[-47.6652143,-13.2183676],[-47.639661,-13.2642926],[-47.6614696,-13.3027767],[-47.6536575,-13.3134643],[-47.6500735,-13.3491826],[-47.6287514,-13.365694],[-47.6377011,-13.3898225],[-47.6709903,-13.4412691],[-47.6797484,-13.4681748],[-47.7982282,-13.3289841],[-47.8236019,-13.3117114],[-47.8740603,-13.3204879],[-47.8986464,-13.3125729],[-47.9064982,-13.2991233],[-47.9363044,-13.2898552],[-47.9439503,-13.303586],[-47.9705718,-13.3115825],[-47.9885408,-13.2763636],[-48.0252513,-13.2798336],[-48.034061,-13.2537272],[-48.0541503,-13.2395873],[-48.0760426,-13.2427307],[-48.0792374,-13.2853782],[-48.1430995,-13.3061551],[-48.1698794,-13.3003456],[-48.1532145,-13.2783113],[-48.1571961,-13.2500059],[-48.1667655,-13.2325899],[-48.1543121,-13.2210279],[-48.1659237,-13.1892998],[-48.1529748,-13.1561787],[-48.1797662,-13.1515657],[-48.193604,-13.1730343],[-48.2307606,-13.1712946],[-48.2447494,-13.1926502],[-48.2625454,-13.1976362],[-48.2920688,-13.2199679],[-48.3621149,-13.2429505],[-48.3854841,-13.2662822],[-48.430047,-13.2711776],[-48.435071,-13.2901429],[-48.4577023,-13.2824783],[-48.458876,-13.2523081],[-48.476282,-13.2300904],[-48.4723679,-13.2010499],[-48.4772668,-13.1788007],[-48.4701744,-13.1458577],[-48.4946538,-13.1368825],[-48.5173926,-13.1463231],[-48.5296886,-13.1914152],[-48.5537521,-13.2035451],[-48.5535925,-13.3026334],[-48.5876603,-13.3100071],[-48.5998625,-13.2879857],[-48.5889337,-13.2635269],[-48.5999452,-13.2386606],[-48.5844342,-13.2270548],[-48.5774783,-13.1952471],[-48.5907997,-13.1514697],[-48.578456,-13.1173228],[-48.6022296,-13.0772677],[-48.6022054,-13.057559],[-48.6270937,-13.0518591],[-48.6386632,-13.0134339],[-48.6561079,-13.0117733],[-48.6749137,-12.9927556],[-48.7157524,-13.0022834],[-48.7325583,-12.9837304],[-48.7333252,-12.9356951],[-48.7736691,-12.8884402],[-48.805945,-12.8692098],[-48.8248181,-12.8453398],[-48.8428259,-12.8425068],[-48.8464274,-12.8092887],[-48.8703122,-12.8032618],[-48.9762335,-12.9578931],[-48.9793848,-12.9468414],[-49.0029909,-12.9337856],[-49.0091156,-12.9164814],[-49.0330387,-12.9022575],[-49.0754895,-12.9052517],[-49.0874736,-12.887177],[-49.0732435,-12.869707],[-49.0737183,-12.8458037],[-49.1046307,-12.8354203],[-49.1176838,-12.7900847],[-49.1380501,-12.801185],[-49.1441475,-12.8177577],[-49.1795587,-12.8466265],[-49.2106839,-12.8779345],[-49.2261652,-12.8782885],[-49.2488814,-12.9060402],[-49.2492919,-12.9265398],[-49.2797504,-12.9669855],[-49.2757252,-12.979242],[-49.3069216,-13.0331474],[-49.3372722,-13.0643396],[-49.3520922,-13.0926942],[-49.3543037,-13.1123772],[-49.3410799,-13.1274961],[-49.3557086,-13.1557731],[-49.3470578,-13.1676757],[-49.3489569,-13.2105459],[-49.3397354,-13.2537749],[-49.371834,-13.276707]],[[-50.1523441,-13.6451396],[-50.1472332,-13.6461709],[-50.1425354,-13.6589079],[-50.1413439,-13.672411],[-50.1378932,-13.6793589],[-50.1184806,-13.6892841],[-50.1148696,-13.6879756],[-50.1138136,-13.6847822]],[[-50.1266456,-15.6341905],[-50.1239811,-15.647384],[-50.1254532,-15.652919],[-50.1223975,-15.6596214],[-50.1089269,-15.6635048]],[[-51.3738513,-16.4463371],[-51.3704926,-16.4656898]],[[-51.3704926,-16.4656898],[-51.3494389,-16.4766929],[-51.3483527,-16.491666],[-51.3025812,-16.5313658],[-51.2878798,-16.5990131],[-51.2719904,-16.6152016],[-51.2566641,-16.6166972],[-51.2514612,-16.6508907],[-51.2221317,-16.6947098],[-51.2239349,-16.7101427],[-51.2284704,-16.71043],[-51.2155782,-16.7356064],[-51.226883,-16.7611458],[-51.2209357,-16.7920662],[-51.2056098,-16.8105271],[-51.1957995,-16.8395258],[-51.1734363,-16.8472553],[-51.1688243,-16.8663828],[-51.1516629,-16.8698555],[-51.145546,-16.8927885],[-51.1039657,-16.8945351],[-51.0789959,-16.9408058],[-51.057356,-16.9521491],[-51.0580494,-16.9232089],[-51.0515728,-16.8701798],[-51.0571129,-16.8604408],[-51.0079613,-16.8478636],[-50.9855975,-16.8282915],[-50.9711836,-16.7935562],[-50.9241542,-16.7834907],[-50.897072,-16.7547193],[-50.849269,-16.726946],[-50.8296062,-16.6886692],[-50.8116889,-16.6953965],[-50.8183742,-16.7218436],[-50.8040722,-16.7342672],[-50.806965,-16.7558911],[-50.790406,-16.7964941],[-50.7996165,-16.8234761],[-50.7602425,-16.8168293],[-50.7360724,-16.8068607],[-50.7054018,-16.8095524],[-50.65138,-16.8397663],[-50.6412158,-16.8349807],[-50.5761766,-16.8479397],[-50.5751264,-16.8380416],[-50.5463744,-16.8187601],[-50.5068229,-16.8116224],[-50.4817953,-16.7975446],[-50.4491817,-16.7971569],[-50.4209584,-16.745082],[-50.3979868,-16.7162194],[-50.3772707,-16.7178534],[-50.3615476,-16.7026265],[-50.3510189,-16.7257936],[-50.3600818,-16.7413879],[-50.3349252,-16.7556924],[-50.3004346,-16.7628426],[-50.2731813,-16.7982627],[-50.2549285,-16.762148],[-50.2532917,-16.7331624],[-50.1858128,-16.6829073],[-50.1546524,-16.6811047],[-50.0055661,-16.6201203],[-49.9727923,-16.5901991],[-49.9368644,-16.6107946],[-49.9279812,-16.6279592],[-49.9106717,-16.614447],[-49.8865645,-16.6401488],[-49.7768197,-16.6384737],[-49.7454551,-16.65271],[-49.734734,-16.6389035],[-49.7065032,-16.6630166],[-49.6885861,-16.6708933],[-49.6906464,-16.6910688],[-49.6732001,-16.7127924],[-49.6757008,-16.7245825],[-49.655372,-16.7379492],[-49.6535109,-16.760484],[-49.641007,-16.7706151],[-49.6325634,-16.8042507],[-49.5989519,-16.8022014],[-49.610732,-16.8418279],[-49.6288658,-16.8463071],[-49.6653164,-16.8753005],[-49.6857867,-16.8729475],[-49.7148374,-16.8807862],[-49.7368121,-16.91086],[-49.7207886,-16.9543157],[-49.6997881,-16.9425061],[-49.6735028,-16.9568444],[-49.5951196,-16.9527124],[-49.6342261,-17.0105222],[-49.6154746,-17.0541297],[-49.6062616,-17.0638823],[-49.5769752,-17.0482747],[-49.5685606,-17.0354532],[-49.5473982,-17.0458646],[-49.5274502,-17.0261822],[-49.5203122,-17.0005099],[-49.5033712,-16.9963423],[-49.4872811,-16.979899],[-49.4698925,-16.9920976],[-49.484556,-17.0225801],[-49.4814514,-17.0422858],[-49.4882567,-17.0761725],[-49.4749485,-17.0949392],[-49.4891469,-17.1595714],[-49.462031,-17.1654464],[-49.4529537,-17.1455962],[-49.4365869,-17.1448283],[-49.4244998,-17.1589055],[-49.3901094,-17.1576743],[-49.3679487,-17.142293],[-49.3207845,-17.1311495],[-49.2943983,-17.1097303],[-49.2316978,-17.0825395],[-49.2157767,-17.0921034],[-49.1919192,-17.1372951],[-49.1780069,-17.1230077],[-49.1554174,-17.122696],[-49.1113039,-17.1359802],[-49.1193629,-17.1179101],[-49.1084176,-17.0810631],[-49.0900162,-17.0785615],[-49.0831392,-17.0633724],[-49.0545482,-17.0527202],[-49.0351781,-17.0669248],[-49.0139022,-17.0675767],[-48.9823533,-17.0923876],[-48.9406931,-17.0783698],[-48.9238651,-17.0590812],[-48.909405,-17.0645066],[-48.8869207,-17.0479359],[-48.8599356,-17.0489703],[-48.844574,-17.0605584],[-48.8413516,-17.0862259],[-48.8286508,-17.1060736],[-48.7953244,-17.1896839],[-48.7460015,-17.1654739],[-48.7034189,-17.1584241],[-48.6523082,-17.1787452],[-48.6411141,-17.1778741],[-48.6473881,-17.1496576],[-48.6458876,-17.124682],[-48.6813028,-17.112578],[-48.6884165,-17.093941],[-48.7070807,-17.0803778],[-48.7053034,-17.0568865],[-48.7152233,-17.0396123],[-48.7517205,-17.0173664],[-48.7688635,-17.0130959],[-48.7661914,-16.9926501],[-48.7805037,-16.979552],[-48.769417,-16.9370624],[-48.7776895,-16.9204235],[-48.8017772,-16.9161993],[-48.803774,-16.8913959],[-48.7874664,-16.8359993],[-48.7910264,-16.8070187],[-48.8073295,-16.7912166],[-48.8282791,-16.7952181],[-48.8310257,-16.7667046],[-48.8560598,-16.7514326],[-48.9118007,-16.7313794],[-48.9146191,-16.727973],[-48.901995,-16.70119],[-48.8726632,-16.6571366],[-48.8188549,-16.6508464],[-48.8057201,-16.6330195],[-48.7857178,-16.6315123],[-48.7234716,-16.6865023],[-48.7188276,-16.6765771],[-48.7179715,-16.629248],[-48.7271339,-16.6044772],[-48.755123,-16.6056507],[-48.7857762,-16.5876996],[-48.8402752,-16.502607],[-48.8648207,-16.4864574],[-48.8628869,-16.4543286],[-48.8830829,-16.4422025],[-48.9003067,-16.4184324],[-48.8653073,-16.3940039],[-48.8492495,-16.4007311],[-48.821115,-16.3987195],[-48.8011122,-16.3828739],[-48.7604972,-16.3854901],[-48.7502443,-16.3754125],[-48.7627437,-16.354379],[-48.7508573,-16.3321647],[-48.7677755,-16.3075682],[-48.7696122,-16.29127]],[[-48.7696122,-16.29127],[-48.7734132,-16.2775575]],[[-48.7734132,-16.2775575],[-48.8055501,-16.2693118],[-48.8261351,-16.2559016],[-48.8290536,-16.2334841],[-48.848443,-16.2269387],[-48.8718329,-16.2385094],[-48.8972239,-16.2371653],[-48.9221954,-16.2190343],[-48.9468854,-16.2439065],[-48.9543405,-16.2368994],[-48.9611783,-16.2275447],[-48.9480048,-16.2034274],[-48.9335266,-16.1922839],[-48.9226362,-16.1635714],[-48.9420529,-16.1312462],[-48.9810571,-16.1253538],[-49.0123232,-16.1407272],[-49.0584421,-16.1286509],[-49.1062748,-16.1461267],[-49.1402209,-16.1290177],[-49.1650551,-16.1375697],[-49.1822115,-16.1265897],[-49.1710059,-16.095939],[-49.149863,-16.0833299],[-49.1463183,-16.0437562],[-49.1551349,-16.0266481],[-49.1409587,-16.014677],[-49.1525947,-15.9820274],[-49.1807754,-15.9587804],[-49.1746038,-15.9400884],[-49.1988872,-15.9278421],[-49.1998047,-15.8867163],[-49.2173473,-15.8560155],[-49.1286973,-15.6242838],[-49.1494469,-15.6158406],[-49.1702814,-15.6274701],[-49.1830296,-15.6132699],[-49.1848024,-15.5984065],[-49.1477241,-15.5868197],[-49.1301402,-15.5739439],[-49.107785,-15.5445116],[-49.0890323,-15.538637],[-49.0815644,-15.4860124],[-49.0920512,-15.469018],[-49.0748357,-15.4551866],[-49.077863,-15.4411164],[-49.0712515,-15.3963674],[-49.0847202,-15.3850865],[-49.0791338,-15.3428745],[-49.0625232,-15.3076076],[-49.0422717,-15.3003229],[-49.0271951,-15.2770298],[-49.0139141,-15.2821988],[-49.0006637,-15.2652592],[-48.9381168,-15.2588156]],[[-48.9381168,-15.2588156],[-48.9281379,-15.2518629],[-48.9224688,-15.2432877],[-48.9200279,-15.2259289]],[[-48.9200279,-15.2259289],[-48.9205548,-15.2164027],[-48.9082814,-15.16394],[-48.8855302,-15.1424396],[-48.8847177,-15.123526],[-48.8689102,-15.0983284],[-48.8529193,-15.0866004],[-48.8538534,-15.0601594],[-48.8320507,-15.0404106],[-48.8283334,-15.0207697],[-48.803636,-14.9961773],[-48.8062732,-14.9594034],[-48.8023312,-14.9474351],[-48.7977209,-14.9295704],[-48.7867762,-14.91513],[-48.7617186,-14.8879671],[-48.7652485,-14.8688571],[-48.7574387,-14.8616829]],[[-48.7736574,-14.6434953],[-48.7755793,-14.6494834],[-48.7800538,-14.6505857],[-48.7796634,-14.6542042],[-48.7748076,-14.6589034],[-48.7817785,-14.6659852],[-48.7859726,-14.6657277],[-48.7976039,-14.6604203]],[[-49.6904285,-14.4697537],[-49.6940049,-14.4660027]],[[-48.9200279,-15.2259289],[-48.9213627,-15.240884],[-48.9262664,-15.2498473],[-48.9381168,-15.2588156]],[[-48.7734132,-16.2775575],[-48.7658069,-16.2904162]],[[-48.7658069,-16.2904162],[-48.7189735,-16.2816324],[-48.7021828,-16.2901263],[-48.6502245,-16.2904827],[-48.6312773,-16.282712],[-48.6229375,-16.3042692],[-48.5453002,-16.3410949],[-48.5232969,-16.3411724],[-48.520362,-16.3346657],[-48.4986908,-16.3242556],[-48.4967117,-16.317013],[-48.4887439,-16.3043916],[-48.4848036,-16.2987346],[-48.4363369,-16.2836521],[-48.3987138,-16.2923053],[-48.374219,-16.3089653],[-48.3811865,-16.3137668],[-48.3930211,-16.3209011],[-48.4027202,-16.3405626],[-48.3999692,-16.3513179],[-48.4003809,-16.369626],[-48.4014588,-16.3827362],[-48.3586614,-16.4015491],[-48.3416071,-16.4441483],[-48.305797,-16.453154],[-48.2874972,-16.4838025]],[[-48.2874972,-16.4838025],[-48.2698608,-16.4928914],[-48.2653232,-16.4974197],[-48.257548,-16.5296099]],[[-48.257548,-16.5296099],[-48.2443839,-16.556281],[-48.2291616,-16.6023476],[-48.1952183,-16.6413952],[-48.1897731,-16.6778627],[-48.1947174,-16.7350037],[-48.1686063,-16.7329568],[-48.1462417,-16.7426742],[-48.1052169,-16.7483132],[-48.101885,-16.7657088],[-48.0766041,-16.7992011],[-48.0852198,-16.8601091],[-48.0783747,-16.8796063],[-48.0896586,-16.8911224],[-48.0792661,-16.9207646],[-48.0666026,-16.9324886],[-48.0352408,-16.9215961],[-48.0065464,-16.9344882],[-48.0018226,-16.9516014],[-47.9267941,-17.0011418],[-47.9213251,-16.9821682],[-47.9009356,-16.9532779],[-47.911294,-16.9246946],[-47.902823,-16.9154958],[-47.8729087,-16.9228261],[-47.833572,-16.9252007],[-47.807955,-16.9171207],[-47.7896007,-16.9280955],[-47.7716009,-16.9191885],[-47.7306823,-16.9292834],[-47.6952143,-16.912249],[-47.6845462,-16.9444677],[-47.6968433,-16.9612902],[-47.7001523,-17.0026874],[-47.7173717,-17.0246517],[-47.7132381,-17.0543309],[-47.6897895,-17.0818034],[-47.662737,-17.0874381],[-47.6594341,-17.1085437],[-47.6415968,-17.1323588],[-47.6292133,-17.1530788],[-47.5982919,-17.1669596],[-47.5704029,-17.2110796],[-47.5307644,-17.2425886],[-47.5312349,-17.2490132],[-47.5225435,-17.2792971],[-47.5184895,-17.2883258],[-47.4995431,-17.3020078],[-47.5099869,-17.3242576]],[[-47.5099869,-17.3242576],[-47.4879548,-17.3495063],[-47.4652936,-17.3558535],[-47.455017,-17.3306853],[-47.4378685,-17.3178782],[-47.4241852,-17.3240292],[-47.4171009,-17.2695165],[-47.4101452,-17.2475929],[-47.3896233,-17.2451251],[-47.3853226,-17.2280486],[-47.3661276,-17.2217757],[-47.3484877,-17.176223],[-47.3265203,-17.1541597],[-47.2971259,-17.1420425],[-47.2827101,-17.1440996],[-47.2819575,-17.1148932],[-47.2395492,-17.0836899],[-47.2055403,-17.0706816],[-47.1820537,-17.0532688],[-47.1780595,-17.0407701],[-47.146632,-17.032326],[-47.1403427,-17.018583],[-47.1441213,-16.9909364],[-47.1294759,-16.9751591],[-47.1590458,-16.9630068],[-47.1672751,-16.9526489],[-47.1818762,-16.9013299],[-47.2031153,-16.8928856],[-47.2096329,-16.8635581],[-47.2064375,-16.8383888],[-47.2211844,-16.8077662],[-47.2197008,-16.7780734],[-47.2364892,-16.7553454],[-47.2289826,-16.7121525],[-47.2461895,-16.700457],[-47.2508621,-16.6648074],[-47.2737876,-16.6619406],[-47.3011068,-16.6249778],[-47.339147,-16.6026508],[-47.3473129,-16.5908332],[-47.3744293,-16.584915],[-47.4060723,-16.5578251],[-47.4442298,-16.5393026],[-47.446005,-16.5173669],[-47.4595246,-16.5041259],[-47.4461699,-16.4501464],[-47.4269215,-16.4340202],[-47.4201416,-16.3831948],[-47.4030493,-16.3759185],[-47.3654888,-16.3298811],[-47.3524215,-16.3066762],[-47.3516084,-16.2754134],[-47.334288,-16.2585865],[-47.3219811,-16.2314256],[-47.3345377,-16.1983935],[-47.3319567,-16.1717392],[-47.3505851,-16.1385341],[-47.336561,-16.1194875],[-47.3329111,-16.0867316],[-47.3131586,-16.0856078],[-47.3085041,-16.0499714],[-48.2778112,-16.0495978],[-48.2513944,-15.955654],[-48.2587351,-15.9296878],[-48.2771091,-15.9074416],[-48.2716483,-15.883715],[-48.2858068,-15.8445339],[-48.280657,-15.8239459],[-48.2429068,-15.7973121],[-48.2096863,-15.754044],[-48.2088841,-15.7153612],[-48.2376815,-15.7085121],[-48.241331,-15.6867065],[-48.2341602,-15.6419091],[-48.2182154,-15.6233359],[-48.1997298,-15.622914],[-48.200009,-15.5022782],[-47.4184069,-15.5018199],[-47.4177866,-15.546259],[-47.4027651,-15.5474564],[-47.3765167,-15.5766676],[-47.3208407,-15.5865891],[-47.3319763,-15.628512],[-47.3266032,-15.652618],[-47.3281031,-15.6889177],[-47.3124896,-15.6972871],[-47.3207455,-15.7230306],[-47.313691,-15.7448666],[-47.3259497,-15.7610215],[-47.3394977,-15.7949824],[-47.368099,-15.8356435],[-47.3719887,-15.8740795],[-47.3788324,-15.8842243],[-47.3620936,-15.9292016],[-47.3786171,-15.9623013],[-47.3690542,-16.0032595],[-47.3485985,-16.0062169],[-47.3256782,-16.0296187],[-47.3100062,-16.0362735],[-47.2967716,-16.0153307],[-47.2765091,-16.0093563],[-47.2447732,-16.017722],[-47.2217175,-16.0121546],[-47.2095607,-15.9926771],[-47.1672988,-15.9683774],[-47.1717381,-15.9541297],[-47.1386268,-15.9290202],[-47.1149112,-15.9536681],[-47.0768869,-15.9581333],[-47.0603838,-15.9400587],[-47.0220964,-15.9287803],[-46.9843092,-15.9240313],[-46.824868,-15.8857186],[-46.8068987,-15.879249],[-46.8055018,-15.8593948],[-46.8232217,-15.8246331],[-46.813149,-15.7872043],[-46.8274702,-15.7512492],[-46.8271475,-15.7299712],[-46.8424533,-15.714671],[-46.8557027,-15.6831245],[-46.8548835,-15.6183005],[-46.888818,-15.6056067],[-46.8970606,-15.5931796],[-46.9177476,-15.5900078],[-46.948688,-15.5578444],[-46.9442146,-15.5181869],[-46.9324305,-15.4831717],[-46.9293133,-15.4399397],[-46.9151246,-15.4148348],[-46.8494784,-15.373164],[-46.8678404,-15.3572925],[-46.847957,-15.3467604],[-46.8356758,-15.3251277],[-46.8753369,-15.2839233],[-46.8893183,-15.2822469],[-46.8914846,-15.2352596],[-46.9063464,-15.2366187],[-46.9276553,-15.2550953],[-46.9408666,-15.2307016],[-46.9373469,-15.2050198],[-46.9128412,-15.1557732],[-46.8884431,-15.1156449],[-46.8977634,-15.0942172],[-46.9260374,-15.0735624],[-46.9205918,-15.050859],[-46.8641705,-15.0203851],[-46.856899,-15.010266],[-46.8205547,-15.0107669],[-46.7818569,-15.0193214],[-46.7532595,-15.0327456],[-46.7264771,-15.0384155],[-46.6816692,-15.0586204],[-46.6515351,-15.0846034],[-46.6280595,-15.0894905],[-46.5880057,-15.0811231],[-46.5753084,-15.0836319],[-46.5513197,-15.0638756],[-46.5319982,-15.0563939],[-46.5154789,-15.0617918],[-46.502722,-15.0508979],[-46.5206716,-15.0137398],[-46.5308107,-15.0052785],[-46.5210077,-14.967394],[-46.5408375,-14.9516036],[-46.5465359,-14.9254445],[-46.521556,-14.8511795],[-46.5319268,-14.8302984],[-46.5585055,-14.8221536],[-46.5638389,-14.7833849],[-46.5432281,-14.7686732],[-46.5441922,-14.7530124],[-46.5102818,-14.7382606],[-46.5097242,-14.7160762],[-46.4765621,-14.7050974],[-46.4631397,-14.7311744],[-46.4473617,-14.7316769],[-46.4238049,-14.7559729],[-46.4045319,-14.7603312],[-46.3657836,-14.795406],[-46.3550072,-14.7942008],[-46.3221999,-14.8145803],[-46.325087,-14.8456231],[-46.3004725,-14.8580787],[-46.3181674,-14.8832583],[-46.3193358,-14.900439],[-46.29467,-14.9086131],[-46.2868648,-14.9281457],[-46.2600565,-14.9300408],[-46.2322235,-14.9222961],[-46.2113038,-14.9369656],[-46.1755505,-14.9494252],[-46.1615537,-14.9310482],[-46.1203001,-14.9200586],[-46.110393,-14.9370152],[-46.0881416,-14.9363926],[-46.0793361,-14.9048431],[-46.0673034,-14.9097754],[-46.0485611,-14.8782827],[-46.0252869,-14.8557565],[-46.0411979,-14.8264946],[-46.0186719,-14.8185497],[-46.0191571,-14.8030889],[-46.0025841,-14.795839],[-45.9989273,-14.7682823],[-46.007302,-14.7509791],[-45.9990602,-14.7159387],[-46.0055037,-14.688998],[-46.0279691,-14.6810075],[-46.0105164,-14.66219],[-45.989515,-14.658845],[-45.9843987,-14.6218787],[-45.9978884,-14.6035777],[-45.9852551,-14.5781326],[-45.9913237,-14.5651792],[-45.9814491,-14.5318979],[-46.0039971,-14.5145895],[-45.996085,-14.488406],[-46.0190031,-14.4720712],[-46.0000734,-14.4466222],[-46.0036893,-14.4254522],[-45.9758064,-14.434248],[-45.9326429,-14.4098593],[-45.9071553,-14.3551898],[-45.9422146,-14.343255],[-45.9570512,-14.3213986],[-45.9644033,-14.2843113],[-45.9954281,-14.2561577],[-46.0295909,-14.2595295],[-46.0604058,-14.2327006],[-46.0525646,-14.2044721],[-46.0610483,-14.1954846],[-46.0982283,-14.1999275],[-46.1129411,-14.1804138],[-46.1181409,-14.1599493],[-46.1321884,-14.1528501],[-46.1581407,-14.1605914],[-46.1841003,-14.1569481],[-46.199313,-14.1269406],[-46.2243922,-14.1050276],[-46.2276801,-14.0442614],[-46.2130884,-14.0305578],[-46.220066,-13.9754228],[-46.2544873,-13.9674639],[-46.2641903,-13.9474351],[-46.2568302,-13.8871755],[-46.2324747,-13.8486074],[-46.2647782,-13.8117487],[-46.2774951,-13.7908815],[-46.229975,-13.7742093],[-46.2229368,-13.7654029],[-46.2510312,-13.7368664],[-46.23577,-13.7010531],[-46.2561978,-13.6841624],[-46.2163979,-13.6359857],[-46.1627454,-13.6036421],[-46.1675389,-13.5897333],[-46.1996428,-13.5725394],[-46.2317192,-13.5832136],[-46.24138,-13.5713861],[-46.2374522,-13.5445555],[-46.2472571,-13.5216887],[-46.2302613,-13.511774],[-46.233156,-13.4817453],[-46.2101648,-13.4618865],[-46.2373491,-13.4348044],[-46.2319648,-13.4185849],[-46.1917297,-13.4099817],[-46.1622858,-13.3826351],[-46.1354731,-13.3755242],[-46.0993391,-13.3344932],[-46.0733396,-13.3113689],[-46.0682755,-13.2954418],[-46.0802173,-13.2738374],[-46.1032194,-13.2575102],[-46.1748511,-13.2769535],[-46.2202554,-13.2956893],[-46.2924869,-13.3169301],[-46.317902,-13.3052278],[-46.2999859,-13.2828818],[-46.3055418,-13.2516639],[-46.3276793,-13.2529237],[-46.3043483,-13.2059795],[-46.3070303,-13.1706718],[-46.2996101,-13.1281286],[-46.3157947,-13.1187347],[-46.316385,-13.0909773],[-46.2987271,-13.063779]],[[-52.6294216,-16.5177702],[-52.6257262,-16.5322091],[-52.6631217,-16.5513785],[-52.6729273,-16.5696264],[-52.7032115,-16.5963439],[-52.7275853,-16.5863466],[-52.7399149,-16.591926],[-52.7260216,-16.6144966],[-52.7410747,-16.6520897],[-52.762629,-16.6823471],[-52.7623086,-16.7070228],[-52.7856585,-16.714447],[-52.7925243,-16.7401439],[-52.8081932,-16.7422776],[-52.8293704,-16.7701427],[-52.8594506,-16.7685953],[-52.8844177,-16.7764073],[-52.9082498,-16.8106902],[-52.9282442,-16.8169],[-52.9450246,-16.8551914],[-53.0054934,-16.8652765],[-53.0174078,-16.8782915],[-53.0191666,-16.9002232],[-53.0394551,-16.9126931],[-53.0350329,-16.9424731],[-53.053547,-16.9788949],[-53.0608971,-17.0305634],[-53.071421,-17.0496052],[-53.0548061,-17.0641756],[-53.0874917,-17.1008125],[-53.110745,-17.1081403],[-53.1275167,-17.1545758],[-53.1566662,-17.1706845],[-53.1551668,-17.1868367],[-53.1718272,-17.2331751],[-53.2080973,-17.2931612],[-53.2118412,-17.3272933],[-53.2019544,-17.340922],[-53.2009055,-17.3718219],[-53.2109679,-17.4026593],[-53.2331888,-17.4411221],[-53.223504,-17.4584896],[-53.2344451,-17.479059],[-53.2441223,-17.5229237],[-53.2362465,-17.5782373],[-53.2483804,-17.6372489],[-53.2366639,-17.6794998],[-53.2337892,-17.7130374],[-53.2021732,-17.7259884],[-53.172069,-17.7569311],[-53.1553716,-17.7852182],[-53.159894,-17.7960312],[-53.1337961,-17.8324855],[-53.135743,-17.8756462],[-53.1227249,-17.8982747],[-53.1248223,-17.918015],[-53.1047187,-17.9276243],[-53.071315,-17.9659132],[-53.0647494,-17.9845366],[-53.0757114,-18.0507954],[-53.1236517,-18.0588283],[-53.14324,-18.0818367],[-53.1290165,-18.1384845],[-53.1297381,-18.1607025],[-53.1101876,-18.2195633],[-53.1020397,-18.2726203],[-53.0996557,-18.3136191],[-53.0699358,-18.3428798],[-53.0278517,-18.351596],[-53.0147372,-18.3268831],[-52.9652657,-18.2989407],[-52.9352301,-18.2965543],[-52.8732067,-18.3148335],[-52.814259,-18.3112978],[-52.7759033,-18.3287534],[-52.7593196,-18.3480709],[-52.7588732,-18.3631404],[-52.8067938,-18.4176957],[-52.8732937,-18.4267916],[-52.8809573,-18.4654927],[-52.8990952,-18.4768327],[-52.9157605,-18.5089029],[-52.942511,-18.5170307],[-52.9623514,-18.5408197],[-52.9518167,-18.5766716],[-52.9176575,-18.6152409],[-52.9127675,-18.6419798],[-52.872214,-18.6461177],[-52.8464687,-18.666953],[-52.8091012,-18.667215],[-52.7852626,-18.6815089],[-52.7651871,-18.6806226],[-52.746015,-18.6924069],[-52.7161033,-18.6914091],[-52.6873098,-18.6783425],[-52.6404504,-18.6905284],[-52.5886921,-18.6879335],[-52.5666335,-18.6648205],[-52.5315493,-18.6574807],[-52.4741711,-18.6861859],[-52.4480256,-18.6919665],[-52.4096939,-18.7548644],[-52.3539008,-18.8002034],[-52.3442559,-18.8181456],[-52.3051407,-18.8404398],[-52.2933538,-18.8292451],[-52.2632303,-18.8282244],[-52.2505018,-18.839869],[-52.1873538,-18.8458754],[-52.1730423,-18.8569967],[-52.1462319,-18.8946598],[-52.105569,-18.9068189],[-52.1057927,-18.9259298],[-52.0799944,-18.9508492],[-52.0344708,-18.9580622],[-51.9956616,-18.9742346],[-51.9400077,-18.968472],[-51.9067679,-18.9945819],[-51.8906643,-19.0177686],[-51.8576816,-19.0505313],[-51.8168818,-19.0547208],[-51.7910824,-19.0798312],[-51.751782,-19.0855882],[-51.7418615,-19.10057],[-51.682563,-19.1209272],[-51.6599195,-19.1343787],[-51.6338214,-19.1313634],[-51.6084347,-19.1409997],[-51.592212,-19.1267874],[-51.5509349,-19.1406521],[-51.5271028,-19.138922],[-51.4976479,-19.1614011],[-51.4740732,-19.1537129],[-51.4585146,-19.1677776],[-51.4272881,-19.1651906],[-51.4053572,-19.175547],[-51.3926331,-19.1962778],[-51.3701184,-19.1995871],[-51.3639605,-19.222506],[-51.3070969,-19.2180815],[-51.2978876,-19.2386039],[-51.2759732,-19.2611265],[-51.2573458,-19.2664855],[-51.1876418,-19.2689996],[-51.1691682,-19.2869631],[-51.1432251,-19.2870724],[-51.1265369,-19.3032868],[-51.086857,-19.3139993],[-51.0455374,-19.3433676],[-51.029906,-19.3669788],[-51.0189384,-19.4010838],[-51.0047644,-19.4129623],[-50.9880034,-19.4084441],[-50.9853022,-19.4313828],[-50.9521315,-19.4426335],[-50.9343326,-19.4680997],[-50.889467,-19.4808963],[-50.8493869,-19.4981367],[-50.8304513,-19.4922756],[-50.8290442,-19.467035],[-50.868584,-19.4339229],[-50.8753571,-19.4228408],[-50.8415857,-19.3508004],[-50.8359989,-19.3272746],[-50.8188904,-19.2917345],[-50.7859507,-19.2626272],[-50.770439,-19.2609848],[-50.7465327,-19.239907],[-50.7341529,-19.187695],[-50.6838926,-19.1760808],[-50.671757,-19.1627133],[-50.6776879,-19.1398107],[-50.6567471,-19.1336973],[-50.5877655,-19.1399476],[-50.5730293,-19.1223828],[-50.5351625,-19.0988871],[-50.5049146,-19.0507551],[-50.4950762,-19.0128685],[-50.5040182,-19.0044822],[-50.5006273,-18.9762627],[-50.5118782,-18.9519649],[-50.5056842,-18.9322003],[-50.468216,-18.9191611],[-50.4415031,-18.8907899],[-50.4234927,-18.8326532],[-50.3862367,-18.819731],[-50.3656856,-18.7944115],[-50.3523236,-18.7602978],[-50.31449,-18.7007498],[-50.2502634,-18.6778911],[-50.1988769,-18.6790799],[-50.164288,-18.6643525],[-50.0800431,-18.6722438],[-50.0502051,-18.6435418],[-50.0426032,-18.6198727],[-50.0200643,-18.5993635],[-49.9814547,-18.6046454],[-49.9738163,-18.6143197],[-49.9316515,-18.6239931],[-49.9043716,-18.6213046],[-49.8893049,-18.6099351],[-49.870211,-18.6143407],[-49.8361535,-18.6366896],[-49.8197929,-18.6325772],[-49.7848196,-18.6422477],[-49.7721992,-18.6132646],[-49.7328262,-18.616023],[-49.6937324,-18.590641],[-49.6669645,-18.5906591],[-49.6478626,-18.6018142],[-49.6355382,-18.5900196],[-49.6526051,-18.5735899],[-49.6420083,-18.5552431],[-49.5752534,-18.5423262],[-49.5589651,-18.5467658],[-49.5444763,-18.535998],[-49.5464672,-18.5011279],[-49.5353064,-18.4918071],[-49.499833,-18.4910228],[-49.4857626,-18.5094353],[-49.4817256,-18.5605478],[-49.455975,-18.5778985],[-49.4057131,-18.645098],[-49.3850575,-18.6460619],[-49.3438841,-18.5978656],[-49.3274973,-18.5622003],[-49.2934845,-18.564679],[-49.2856353,-18.536312],[-49.2540865,-18.5259333],[-49.2293182,-18.4803786],[-49.1925855,-18.4497216],[-49.2025283,-18.4292342],[-49.1867277,-18.4193944],[-49.1614616,-18.4182148],[-49.1548475,-18.4048896],[-49.1263129,-18.3843143],[-49.0790512,-18.4166711],[-49.0487005,-18.3974989],[-49.0296362,-18.36882],[-49.0059642,-18.374359],[-48.9815012,-18.3563742],[-48.9711389,-18.3304868],[-48.9367738,-18.3062076],[-48.9177447,-18.3058794],[-48.8882794,-18.3170959],[-48.8727515,-18.3328468],[-48.8320838,-18.3461352],[-48.8280249,-18.3752488],[-48.7871685,-18.3532014],[-48.7714138,-18.3582423],[-48.7577234,-18.3447611],[-48.7422953,-18.3524984],[-48.6471697,-18.3438906],[-48.6338249,-18.3276484],[-48.6023528,-18.3348221],[-48.5614147,-18.3238865],[-48.5545426,-18.3469494],[-48.5262169,-18.3539807],[-48.5156492,-18.3664159],[-48.4927768,-18.352975],[-48.484114,-18.3785746],[-48.4420499,-18.3566186],[-48.4111716,-18.3576201],[-48.4000129,-18.3728089],[-48.3526388,-18.3676968],[-48.310541,-18.3867095],[-48.318073,-18.3670951],[-48.287235,-18.3472136],[-48.2750115,-18.3291113],[-48.2567775,-18.342977],[-48.2279685,-18.344975],[-48.2214763,-18.3619685],[-48.1972066,-18.3631719],[-48.1593809,-18.3755081],[-48.1465333,-18.4095445],[-48.1107876,-18.428594],[-48.0681178,-18.4267065],[-48.0474563,-18.4176461],[-48.0380723,-18.4347123],[-47.9966664,-18.4535262],[-47.9809103,-18.4428612],[-47.9763821,-18.4777827],[-47.9631962,-18.4937609],[-47.9295493,-18.4878432],[-47.914274,-18.4665778],[-47.8879121,-18.4772192],[-47.8579639,-18.4390126],[-47.8387927,-18.4517602],[-47.829735,-18.4113034],[-47.810572,-18.4001154],[-47.7984968,-18.4163092],[-47.7790168,-18.4241351],[-47.7571061,-18.4098729],[-47.7369631,-18.3626023],[-47.7168546,-18.3620882],[-47.6940404,-18.3749681],[-47.6624567,-18.3350847],[-47.6461849,-18.3402287],[-47.625637,-18.3305734],[-47.6106129,-18.313336],[-47.63877,-18.2876781],[-47.6073287,-18.263959],[-47.6070005,-18.2462041],[-47.5882303,-18.2264318],[-47.5706447,-18.2208957],[-47.5401466,-18.1935162],[-47.539358,-18.2150381],[-47.4969651,-18.1990171],[-47.4806058,-18.1783207],[-47.4629873,-18.1766911],[-47.4286403,-18.1399176],[-47.3918894,-18.1168725],[-47.3700398,-18.1160146],[-47.3576318,-18.0852333],[-47.3214485,-18.0688667],[-47.3027867,-18.069855],[-47.2834435,-18.0577538],[-47.2830694,-18.0442692],[-47.3118246,-18.0062874],[-47.3230084,-17.9831567],[-47.3129613,-17.9618874],[-47.3293806,-17.9540243],[-47.3412829,-17.9348564],[-47.3428603,-17.898624],[-47.3554317,-17.8954453],[-47.3541149,-17.869802],[-47.365876,-17.834548],[-47.3507473,-17.8139461],[-47.3532807,-17.7880863],[-47.3329179,-17.7683927],[-47.3421123,-17.746645],[-47.3169505,-17.7252432],[-47.3137022,-17.698963],[-47.2713657,-17.6658635],[-47.2807997,-17.6476307],[-47.2688931,-17.6362841],[-47.2648038,-17.6113892],[-47.288674,-17.5707342],[-47.3066249,-17.5584603],[-47.3254145,-17.5238006],[-47.3744483,-17.5235951],[-47.4004487,-17.5118175],[-47.4314768,-17.5237402],[-47.4547257,-17.541786],[-47.4772836,-17.5127848],[-47.5056512,-17.5079852],[-47.502948,-17.4902433],[-47.514639,-17.4609981],[-47.5413643,-17.4546104],[-47.5282939,-17.4388645],[-47.5340531,-17.4005259],[-47.5145067,-17.3749523],[-47.5166009,-17.3461032],[-47.5099869,-17.3242576]],[[-48.257548,-16.5296099],[-48.2605756,-16.513747],[-48.2665593,-16.4956691],[-48.2798235,-16.4869881],[-48.2874972,-16.4838025]],[[-48.7658069,-16.2904162],[-48.7696122,-16.29127]],[[-51.3704926,-16.4656898],[-51.3937183,-16.4663879]]],"bbox":[-53.2483804,-19.4981367,-45.9071553,-12.418804]}
