{"type":"Topology","objects":{"geometrias":{"type":"GeometryCollection","geometries":[{"type":"Polygon","arcs":[[0,1,2,3]],"properties":{"code_meso":2601,"code_state":26,"code_region":2,"name_meso":"Sertão Pernambucano","abbrev_state":"PE","name_state":"Pernambuco","name_region":"Nordeste","year":2020}},{"type":"Polygon","arcs":[[4,-2]],"properties":{"code_meso":2602,"code_state":26,"code_region":2,"name_meso":"São Francisco Pernambucano","abbrev_state":"PE","name_state":"Pernambuco","name_region":"Nordeste","year":2020}},{"type":"Polygon","arcs":[[5,-4,6,7]],"properties":{"code_meso":2603,"code_state":26,"code_region":2,"name_meso":"Agreste Pernambucano","abbrev_state":"PE","name_state":"Pernambuco","name_region":"Nordeste","year":2020}},{"type":"Polygon","arcs":[[-8,8,9,10]],"properties":{"code_meso":2604,"code_state":26,"code_region":2,"name_meso":"Mata Pernambucana","abbrev_state":"PE","name_state":"Pernambuco","name_region":"Nordeste","year":2020}},{"type":"Polygon","arcs":[[11,-10]],"properties":{"code_meso":2605,"code_state":26,"code_region":2,"name_meso":"Metropolitana de Recife","abbrev_state":"PE","name_state":"Pernambuco","name_region":"Nordeste","year":2020}}]}},"arcs":[[[-36.9082635,-8.2530931],[-36.9449468,-8.2752533],[-36.9602017,-8.3004673],[-36.9911563,-8.3029551],[-37.0402836,-8.2661796],[-37.0822268,-8.2618874],[-37.1229148,-8.2090664],[-37.1264516,-8.173684],[-37.1602253,-8.1704004],[-37.1425578,-8.1179448],[-37.1568452,-8.0645345],[-37.1517946,-8.0094148],[-37.1933946,-7.9828667],[-37.2079199,-7.9518661],[-37.2373419,-7.9733068],[-37.2917793,-7.9653109],[-37.3397846,-7.9798045],[-37.3434534,-7.9470209],[-37.3089764,-7.9341762],[-37.2873944,-7.9038765],[-37.244648,-7.8749],[-37.2471503,-7.8468039],[-37.2228137,-7.8362093],[-37.217416,-7.8066859],[-37.1915385,-7.7911694],[-37.1584813,-7.7923324],[-37.1406638,-7.750065],[-37.1545429,-7.7064038],[-37.1951312,-7.6520627],[-37.1979462,-7.6352979],[-37.1635694,-7.5747149],[-37.121524,-7.5361189],[-37.0538222,-7.5045686],[-37.0032533,-7.4963885],[-36.9842256,-7.4822617],[-37.0236157,-7.4338675],[-37.0129712,-7.4042887],[-37.0256234,-7.3860442],[-37.0674131,-7.38338],[-37.0856227,-7.3582564],[-37.1353148,-7.3466643],[-37.196674,-7.2946701],[-37.2341788,-7.2738869],[-37.2752678,-7.2742884],[-37.2883328,-7.2882889],[-37.3305857,-7.2882835],[-37.3857137,-7.3566938],[-37.4255124,-7.3529162],[-37.496038,-7.3648223],[-37.4876262,-7.3894195],[-37.5274041,-7.4483824],[-37.5279586,-7.4653107],[-37.6097708,-7.5080308],[-37.6303781,-7.532511],[-37.6558188,-7.5234166],[-37.706572,-7.5694668],[-37.7287319,-7.5797304],[-37.7558477,-7.6195218],[-37.740368,-7.6360853],[-37.7609745,-7.6668105],[-37.7858276,-7.6257982],[-37.8100395,-7.6438918],[-37.8571589,-7.6519689],[-37.8805967,-7.6836501],[-37.9239349,-7.7151119],[-37.9268505,-7.7299322],[-37.9705998,-7.7775769],[-38.003971,-7.7789864],[-38.0395816,-7.7481191],[-38.0713985,-7.7742344],[-38.0770694,-7.8305796],[-38.1161782,-7.8225602],[-38.1391963,-7.7862381],[-38.164219,-7.7799088],[-38.2385707,-7.8307261],[-38.2857074,-7.8309224],[-38.2946014,-7.7779702],[-38.3266856,-7.6937045],[-38.3549779,-7.6784252],[-38.4095078,-7.7304933],[-38.4570834,-7.718107],[-38.4639757,-7.7308921],[-38.5249571,-7.7546448],[-38.5601296,-7.7570921],[-38.6070728,-7.7402984],[-38.6264385,-7.6947249],[-38.6867416,-7.6350403],[-38.7237265,-7.626884],[-38.7418222,-7.6483733],[-38.78371,-7.6673771],[-38.8121916,-7.6687972],[-38.8219622,-7.7147944],[-38.8688517,-7.7111798],[-38.8813975,-7.7474323],[-38.9395781,-7.7587726],[-38.9397983,-7.7915557],[-38.9822446,-7.8461256],[-39.0537557,-7.8193046],[-39.0853502,-7.8517125],[-39.1063539,-7.7602263],[-39.1437127,-7.718547],[-39.1710014,-7.7152403],[-39.2083352,-7.6894803],[-39.250388,-7.698443],[-39.2703214,-7.6598973],[-39.3055665,-7.6659316],[-39.376095,-7.6117724],[-39.4196561,-7.6044123],[-39.4349335,-7.5737228],[-39.4724536,-7.575182],[-39.4851642,-7.534449],[-39.4556775,-7.5018609],[-39.4607476,-7.471219],[-39.5023605,-7.4641484],[-39.5528279,-7.4806568],[-39.5715905,-7.4298313],[-39.6266246,-7.4270352],[-39.6457183,-7.3808781],[-39.7061889,-7.3377612],[-39.7413221,-7.3268166],[-39.8286958,-7.3323702],[-39.8576968,-7.3254287],[-39.8862817,-7.33931],[-39.926345,-7.3409989],[-40.000707,-7.3744783],[-40.0511468,-7.3812201],[-40.1277543,-7.381915],[-40.1956847,-7.3581487],[-40.2629956,-7.3010209],[-40.3185632,-7.3033404],[-40.3609839,-7.3556007],[-40.3938781,-7.3681684],[-40.4335917,-7.3671782],[-40.5237232,-7.3184505],[-40.5415082,-7.3322691],[-40.5484637,-7.3926915],[-40.6523232,-7.4333422],[-40.6657054,-7.4509456],[-40.7012014,-7.4563563],[-40.715294,-7.487954],[-40.6773208,-7.5629432],[-40.6491182,-7.5907642],[-40.6265611,-7.6316836],[-40.6277497,-7.6849895],[-40.6718643,-7.7356058],[-40.6735695,-7.7616719],[-40.6451665,-7.786799],[-40.5784514,-7.8052079],[-40.5420618,-7.8384807],[-40.537943,-7.8691947],[-40.5442221,-7.9645971],[-40.5987568,-8.0808577],[-40.6038677,-8.1036877],[-40.5896984,-8.1388083],[-40.6435661,-8.1575368],[-40.700588,-8.2026077],[-40.7110611,-8.2250615],[-40.782482,-8.253304],[-40.7800896,-8.2962729]],[[-40.7800896,-8.2962729],[-40.757976,-8.3369324],[-40.7032144,-8.3473088],[-40.6556617,-8.3807038],[-40.5731262,-8.3629574],[-40.543723,-8.3764624],[-40.4624636,-8.3609142],[-40.4442776,-8.3706364],[-40.4210677,-8.4043506],[-40.3801294,-8.4162625],[-40.3606987,-8.4446509],[-40.3504342,-8.5077795],[-40.3289749,-8.5170206],[-40.2634183,-8.4987011],[-40.2373569,-8.5109119],[-40.1901213,-8.4878695],[-40.1973512,-8.4614174],[-40.1781544,-8.419497],[-40.1460019,-8.394625],[-40.1339892,-8.3607177],[-40.0951275,-8.3491481],[-40.082408,-8.3714433],[-40.00377,-8.3544902],[-39.9605766,-8.3786087],[-39.9400328,-8.3643659],[-39.8960712,-8.3729441],[-39.8510909,-8.3356187],[-39.809733,-8.3296119],[-39.7487225,-8.3454406],[-39.6797706,-8.4392315],[-39.6702552,-8.3858606],[-39.6837256,-8.3505213],[-39.5666253,-8.2474536],[-39.5389817,-8.2375764],[-39.4956093,-8.2477698],[-39.4653887,-8.2229123],[-39.5243835,-8.2167814],[-39.538393,-8.2058235],[-39.5436115,-8.2001092],[-39.547748,-8.1890591],[-39.5387129,-8.1807535],[-39.4787237,-8.1553366],[-39.46392,-8.1398129],[-39.4298078,-8.1426364],[-39.4282412,-8.1317048],[-39.4280946,-8.129307],[-39.4167052,-8.1210854],[-39.395413,-8.0730147],[-39.3816578,-8.0667462],[-39.3718317,-8.0599061],[-39.3638977,-8.0535258],[-39.3000946,-8.0473773],[-39.3154663,-8.0924057],[-39.2947787,-8.1017049],[-39.2972201,-8.1531098],[-39.3173577,-8.1825961],[-39.3017992,-8.2273303],[-39.2494942,-8.2137982],[-39.2087319,-8.2272093],[-39.0465227,-8.3796619],[-38.9968589,-8.3742885],[-38.9940151,-8.3550869],[-38.927952,-8.3563701],[-38.9151354,-8.3338885],[-38.8509101,-8.2861644],[-38.8125344,-8.2352053],[-38.7393057,-8.2450225],[-38.6496402,-8.2914958],[-38.6285615,-8.3108311],[-38.5361104,-8.2885211],[-38.4995206,-8.3201938],[-38.5173684,-8.3986334],[-38.5150139,-8.4385036],[-38.4715195,-8.4063574],[-38.4419824,-8.3703082],[-38.4066096,-8.3057959],[-38.3676763,-8.2807881],[-38.3143215,-8.2916944],[-38.2907541,-8.285067],[-38.2631748,-8.2533617],[-38.1899972,-8.3009105],[-38.1950266,-8.3138394],[-38.1677606,-8.3978734],[-38.0949535,-8.413531],[-38.0624151,-8.448925],[-38.0277195,-8.4594809],[-37.9666512,-8.4585825],[-37.9338979,-8.4390654],[-37.8941347,-8.3928393],[-37.8718427,-8.4075776],[-37.801372,-8.3728984],[-37.7877056,-8.4135139],[-37.8529226,-8.5949824],[-37.9320373,-8.6176256],[-38.006482,-8.6800517],[-38.0054931,-8.9628362],[-37.9780853,-9.0197123],[-37.9330569,-8.9982395],[-37.891967,-8.9637877],[-37.8485152,-8.9406038]],[[-37.8485152,-8.9406038],[-37.8203593,-8.9087038],[-37.8246288,-8.8859573],[-37.7554881,-8.8463841],[-37.7416683,-8.8760777],[-37.7039225,-8.9219266],[-37.6988417,-8.9447222],[-37.6383569,-9.0038029],[-37.5970513,-8.9690718],[-37.5253053,-8.9633598]],[[-37.5253053,-8.9633598],[-37.5006583,-8.9288988],[-37.4905931,-8.8863616],[-37.432397,-8.8667478],[-37.4239409,-8.8729147],[-37.4217065,-8.868253],[-37.4235564,-8.8612646],[-37.4183893,-8.8485187],[-37.4155301,-8.8405127],[-37.4212486,-8.8360522],[-37.4188468,-8.827017],[-37.4116868,-8.8149092],[-37.3905144,-8.5108862],[-37.3630959,-8.405674],[-37.2494277,-8.3906443],[-37.2019069,-8.4186117],[-37.1490412,-8.4034596],[-37.1388649,-8.426555],[-37.0902199,-8.440786],[-37.0229118,-8.4986985],[-37.0071079,-8.4466424],[-36.935521,-8.4480786],[-36.9243951,-8.4642086],[-36.9107534,-8.4485313],[-36.9484338,-8.3966444],[-36.9449191,-8.373464],[-36.9096372,-8.2956771],[-36.9082635,-8.2530931]],[[-40.7800896,-8.2962729],[-40.7927877,-8.3200313],[-40.8178961,-8.3204902],[-40.8193187,-8.3623573],[-40.8585913,-8.3796108],[-40.872523,-8.3574101],[-40.9076155,-8.3989872],[-40.9015354,-8.421627],[-40.925149,-8.4463261],[-40.9813794,-8.3979296],[-41.0389906,-8.4318292],[-41.0575952,-8.477658],[-41.078927,-8.4725032],[-41.0904899,-8.5126255],[-41.1161848,-8.5372691],[-41.1483768,-8.5330293],[-41.1652615,-8.5778868],[-41.1985662,-8.5924771],[-41.2135429,-8.6441555],[-41.2513183,-8.6616086],[-41.287434,-8.6608391],[-41.3343516,-8.7276615],[-41.2815376,-8.7361004],[-41.2269785,-8.7047021],[-41.1764047,-8.7111943],[-41.1329,-8.7043243],[-41.1289892,-8.7433931],[-41.1033511,-8.780443],[-41.0362345,-8.7858759],[-41.0212409,-8.8435609],[-40.9790937,-8.8234171],[-40.9463832,-8.8449969],[-40.9213378,-8.8354306],[-40.8964043,-8.8710254],[-40.8812337,-8.9156278],[-40.8515959,-8.952499],[-40.8519585,-8.9825849],[-40.8252311,-9.0381866],[-40.821008,-9.0798914],[-40.7098893,-9.140881],[-40.685094,-9.1376102],[-40.6673957,-9.1590592],[-40.6698732,-9.1861325],[-40.6945004,-9.2334556],[-40.6800885,-9.2592117],[-40.7200882,-9.3058967],[-40.7464789,-9.3710522],[-40.7430889,-9.4029455],[-40.7649756,-9.4132164],[-40.7672889,-9.4457041],[-40.7221786,-9.4459485],[-40.6813218,-9.467221],[-40.6206769,-9.4825255],[-40.5557585,-9.4579381],[-40.5408152,-9.4240433],[-40.5107266,-9.4071789],[-40.4741747,-9.4207922],[-40.4538185,-9.4035174],[-40.4358983,-9.3621587],[-40.4181453,-9.3520533],[-40.3912784,-9.3721668],[-40.3563971,-9.3769943],[-40.3077871,-9.2713207],[-40.2861727,-9.1856114],[-40.294012,-9.1520678],[-40.2788467,-9.0945385],[-40.2478641,-9.0577378],[-40.2011193,-9.0684658],[-40.1597208,-9.1078733],[-40.1298949,-9.1103046],[-40.0655631,-9.0630652],[-39.9960306,-9.0609582],[-39.9580347,-9.0485916],[-39.8888191,-8.9658368],[-39.8734564,-8.9340387],[-39.9012593,-8.8641588],[-39.8929577,-8.828794],[-39.8227319,-8.8135158],[-39.7887962,-8.8191096],[-39.7477853,-8.794041],[-39.6931964,-8.7986757],[-39.6746292,-8.7871572],[-39.673824,-8.7454614],[-39.6911317,-8.6623129],[-39.5952263,-8.6512059],[-39.5186123,-8.6039111],[-39.4856967,-8.5964458],[-39.4160408,-8.5421279],[-39.3797936,-8.5328206],[-39.3451437,-8.5585006],[-39.2932156,-8.5606292],[-39.2478833,-8.6249988],[-39.2454926,-8.6841059],[-39.234268,-8.7053364],[-39.200781,-8.7109876],[-39.1687128,-8.6915045],[-39.1439462,-8.7125191],[-39.0375772,-8.7346909],[-38.9519332,-8.8046682],[-38.8681044,-8.7838654],[-38.7969895,-8.7934644],[-38.7396837,-8.8448477],[-38.7065435,-8.8622606],[-38.6892326,-8.9473956],[-38.6725158,-8.9739755],[-38.6407103,-8.9872682],[-38.6083358,-8.9498221],[-38.6075857,-8.893264],[-38.5899504,-8.8565392],[-38.5550678,-8.8233578],[-38.5124067,-8.830586],[-38.4697972,-8.8642411],[-38.4793182,-8.9017437],[-38.5193747,-8.9393497],[-38.5035127,-8.9814111],[-38.4490997,-9.0263588],[-38.4035158,-9.0372331],[-38.3624418,-9.0009412],[-38.32354,-8.9900092],[-38.2896758,-9.0363344],[-38.3210421,-9.0700337],[-38.3186587,-9.1410017],[-38.287601,-9.1738839],[-38.2875128,-9.2171293],[-38.2505456,-9.2904806],[-38.23759,-9.3297945],[-38.2030806,-9.2969016],[-38.179554,-9.2912502],[-38.1573778,-9.2626192],[-38.1439087,-9.2182047],[-38.0922873,-9.172725],[-38.0639045,-9.1737805],[-38.0257874,-9.1555063],[-37.9793513,-9.148363],[-37.9515962,-9.0973095],[-37.9078751,-9.0522184],[-37.8775694,-9.035376],[-37.8795981,-9.0154139],[-37.8390986,-8.9783812],[-37.8485152,-8.9406038]],[[-35.4958272,-7.5202124],[-35.5091839,-7.5174916],[-35.527211,-7.5699614],[-35.5151939,-7.585021],[-35.5316871,-7.6216661],[-35.5196319,-7.6400175],[-35.5595634,-7.66133],[-35.6146193,-7.6563094],[-35.6315236,-7.6812374],[-35.6841139,-7.7077989],[-35.7365494,-7.709599],[-35.7805775,-7.7383514],[-35.828499,-7.751649],[-35.8721183,-7.7495389],[-35.9093578,-7.7925091],[-35.9328815,-7.7844259],[-36.0215873,-7.8102391],[-36.068992,-7.7809736],[-36.1433702,-7.7815622],[-36.1978732,-7.7903806],[-36.2166343,-7.7641042],[-36.254196,-7.7963868],[-36.2613346,-7.832077],[-36.3091315,-7.8066872],[-36.3945385,-7.8076088],[-36.4299642,-7.8271115],[-36.4296952,-7.8865592],[-36.4436973,-7.9143309],[-36.4801364,-7.9247633],[-36.5520196,-7.8987141],[-36.5781999,-7.9152476],[-36.586861,-7.9586561],[-36.6118769,-7.9478967],[-36.6278515,-7.9864066],[-36.6278519,-8.0557493],[-36.6537909,-8.0703841],[-36.6286125,-8.1110504],[-36.6678453,-8.1242659],[-36.7615697,-8.1962939],[-36.7932,-8.1894514],[-36.8617023,-8.2224268],[-36.9082635,-8.2530931]],[[-37.5253053,-8.9633598],[-37.4681995,-8.9985786],[-37.4165025,-9.0065641],[-37.3586391,-9.0538891],[-37.2965722,-9.1209173],[-37.2822858,-9.1488418],[-37.2470816,-9.1790184],[-37.2335552,-9.2065858],[-37.1983152,-9.2154825],[-37.1589467,-9.2391017],[-37.1643357,-9.2757055],[-37.1164756,-9.2409306],[-37.0906725,-9.2463621],[-37.0571996,-9.2817884],[-37.0616712,-9.304162],[-37.0285115,-9.314017],[-37.0033646,-9.3526135],[-36.9585287,-9.3787006],[-36.9365515,-9.3498863],[-36.9158205,-9.2990208],[-36.8674694,-9.2685315],[-36.8360412,-9.2886286],[-36.7617725,-9.271457],[-36.6446864,-9.3143715],[-36.603625,-9.3415125],[-36.5665761,-9.3314374],[-36.5718396,-9.2925828],[-36.4904055,-9.2612143],[-36.4871653,-9.2402014],[-36.4243709,-9.2260241],[-36.365704,-9.2226273],[-36.3215198,-9.1853806],[-36.2647196,-9.1658626],[-36.2572548,-9.1401488],[-36.2668438,-9.1023818],[-36.2409616,-9.0993929],[-36.202797,-9.0668449],[-36.1985057,-9.0466767],[-36.1272786,-9.0336695],[-36.1043282,-8.9989293],[-36.1268105,-8.9812763],[-36.1224516,-8.9527343],[-36.0864106,-8.9440674],[-36.063935,-8.9153373],[-36.0332561,-8.9084191]],[[-36.0332561,-8.9084191],[-36.0611161,-8.8950777],[-36.1254878,-8.842348],[-36.0907114,-8.776868],[-36.0557862,-8.7550805],[-36.0273474,-8.7765593],[-35.9859464,-8.7809551],[-35.9669278,-8.7431426],[-35.8610589,-8.7512807],[-35.8451454,-8.7160947],[-35.8210313,-8.7089883],[-35.8072742,-8.6498618],[-35.8555178,-8.6124904],[-35.8387083,-8.5788258],[-35.8556161,-8.5389395],[-35.8370962,-8.5254711],[-35.813507,-8.5518957],[-35.8136355,-8.584883],[-35.7740041,-8.6002508],[-35.7137612,-8.5803368],[-35.6981526,-8.5472082],[-35.6142039,-8.5294905],[-35.5490081,-8.4867515],[-35.5505774,-8.4320715],[-35.5784395,-8.4310949],[-35.5969949,-8.4094752],[-35.5478557,-8.3568265],[-35.5578724,-8.3295597],[-35.5097484,-8.3005309],[-35.5130055,-8.2222858],[-35.4925117,-8.184525],[-35.4489974,-8.1698635],[-35.4388564,-8.1269627],[-35.4792741,-8.1044645],[-35.4430367,-8.0796153],[-35.4390567,-8.03975],[-35.4656146,-8.0311391],[-35.4572379,-7.988958],[-35.3876154,-8.0034474],[-35.3044594,-7.9416459],[-35.323893,-7.9317339],[-35.405635,-7.8250436],[-35.4128388,-7.7404806],[-35.4456726,-7.6927185],[-35.4449392,-7.649736],[-35.4628695,-7.6171011],[-35.4517797,-7.5783019],[-35.4659562,-7.5509123],[-35.4896915,-7.5559444],[-35.4958272,-7.5202124]],[[-36.0332561,-8.9084191],[-36.0053839,-8.9130004],[-35.924276,-8.8846275],[-35.9114175,-8.8612891],[-35.8619307,-8.858369],[-35.8257482,-8.8703437],[-35.7962097,-8.8473997],[-35.7769157,-8.8692653],[-35.7829807,-8.8975421],[-35.748399,-8.9171517],[-35.6712041,-8.896634],[-35.517771,-8.8167578],[-35.4598277,-8.8377745],[-35.4112256,-8.836231],[-35.3945703,-8.849836],[-35.2527821,-8.887233],[-35.1682513,-8.8924711],[-35.1505733,-8.905436],[-35.1292056,-8.8665628],[-35.1343094,-8.8426906],[-35.1061176,-8.7731627],[-35.0860612,-8.7467111],[-35.0903289,-8.6949783],[-35.0475613,-8.6113008],[-35.065315,-8.5972142]],[[-35.065315,-8.5972142],[-35.0808421,-8.5564287],[-35.0775046,-8.5293193],[-35.1261,-8.51931],[-35.1679517,-8.4785599],[-35.202997,-8.4790237],[-35.2380528,-8.4174516],[-35.1707213,-8.355121],[-35.1540475,-8.3208466],[-35.1517431,-8.2791942],[-35.1957968,-8.2976953],[-35.2212022,-8.2903831],[-35.2356966,-8.2910546],[-35.2387127,-8.2719374],[-35.2659685,-8.2502495],[-35.2594813,-8.2176849],[-35.2568599,-8.2088455],[-35.2272557,-8.2068097],[-35.2282148,-8.1545281],[-35.1957694,-8.0795422],[-35.2044414,-8.0383715],[-35.2236306,-8.0208461],[-35.1780793,-7.9949747],[-35.1556861,-7.9694121],[-35.098779,-7.9725098],[-35.076241,-7.9499983],[-35.0289287,-7.9338391],[-35.0577982,-7.9057265],[-35.0661832,-7.8992466],[-35.0846597,-7.8909291],[-35.1024033,-7.8752132],[-35.1220258,-7.8494775],[-35.1399618,-7.7922596],[-35.0992594,-7.7225361],[-35.0981272,-7.7151812],[-35.0452041,-7.7444802],[-34.9828917,-7.7354115],[-34.9717492,-7.7290884],[-34.9379942,-7.7051273],[-34.9168758,-7.6869976],[-34.9111104,-7.6870833],[-34.8986887,-7.6864881],[-34.8880263,-7.7099941],[-34.8777178,-7.7096869]],[[-34.8777178,-7.7096869],[-34.8635738,-7.712382],[-34.8608767,-7.7093827],[-34.851093,-7.6889714],[-34.8423111,-7.6819493],[-34.8336415,-7.6830836],[-34.8087327,-7.6300602],[-34.8358718,-7.5457284],[-34.8673922,-7.5479595],[-34.9326776,-7.5285201],[-34.9607869,-7.538766],[-34.9842275,-7.5078883],[-34.9854187,-7.4620067],[-35.0705208,-7.398761],[-35.107964,-7.405526],[-35.1720667,-7.3880404],[-35.1907413,-7.3978912],[-35.2485947,-7.3747796],[-35.3090486,-7.4090439],[-35.3523559,-7.4223977],[-35.3732703,-7.4436477],[-35.4326034,-7.4723446],[-35.4503698,-7.4534114],[-35.4943121,-7.4822056],[-35.4958272,-7.5202124]],[[-35.065315,-8.5972142],[-35.0035784,-8.5492436],[-35.0024139,-8.4988527],[-34.9605527,-8.39567],[-34.9742406,-8.384646],[-34.948389,-8.3422626],[-34.9448979,-8.2623846],[-34.9178159,-8.2119826],[-34.9122057,-8.1643792],[-34.8831631,-8.1014769],[-34.8570725,-8.0257188],[-34.8403742,-8.0080928],[-34.8233996,-7.9464312],[-34.8237479,-7.8882217],[-34.8450402,-7.8130659],[-34.8238353,-7.7551585],[-34.8318129,-7.6997774],[-34.848463,-7.6878292],[-34.8528157,-7.6908507],[-34.8630554,-7.712178],[-34.8777178,-7.7096869]]],"bbox":[-41.3343516,-9.4825255,-34.8087327,-7.2738869]}
