{"type":"Topology","objects":{"geometrias":{"type":"GeometryCollection","geometries":[{"type":"MultiPolygon","arcs":[[[0]],[[1,2,3]],[[4]],[[5]],[[6]],[[7,8,9,10]]],"properties":{"code_micro":21001,"name_micro":"Litoral Ocidental Maranhense","code_state":21,"code_region":2,"abbrev_state":"MA","name_state":"Maranhão","name_region":"Nordeste","year":2020}},{"type":"Polygon","arcs":[[11,12,13,14]],"properties":{"code_micro":21002,"name_micro":"Aglomeração Urbana de São Luís","code_state":21,"code_region":2,"abbrev_state":"MA","name_state":"Maranhão","name_region":"Nordeste","year":2020}},{"type":"Polygon","arcs":[[15,-15,16,-13,17,18,19,20,21,22,23,24,25,26,27]],"properties":{"code_micro":21003,"name_micro":"Rosário","code_state":21,"code_region":2,"abbrev_state":"MA","name_state":"Maranhão","name_region":"Nordeste","year":2020}},{"type":"MultiPolygon","arcs":[[[28]],[[29,30,31,32,33,-26,34]],[[35,-28]],[[36]]],"properties":{"code_micro":21004,"name_micro":"Lençóis Maranhenses","code_state":21,"code_region":2,"abbrev_state":"MA","name_state":"Maranhão","name_region":"Nordeste","year":2020}},{"type":"Polygon","arcs":[[37,38,39,40,41,42,43,44,-20,45,-3,46,-8,47,48,49,50,51,52]],"properties":{"code_micro":21005,"name_micro":"Baixada Maranhense","code_state":21,"code_region":2,"abbrev_state":"MA","name_state":"Maranhão","name_region":"Nordeste","year":2020}},{"type":"Polygon","arcs":[[53,54,55,56,57,58,59,60,-22,61,-44]],"properties":{"code_micro":21006,"name_micro":"Itapecuru Mirim","code_state":21,"code_region":2,"abbrev_state":"MA","name_state":"Maranhão","name_region":"Nordeste","year":2020}},{"type":"MultiPolygon","arcs":[[[62,63,64,65,66,67,68,-51,69,-49,70,-10]],[[71]],[[72]]],"properties":{"code_micro":21007,"name_micro":"Gurupi","code_state":21,"code_region":2,"abbrev_state":"MA","name_state":"Maranhão","name_region":"Nordeste","year":2020}},{"type":"Polygon","arcs":[[73,74,75,76,77,78,79,-39,80,-53,81,-68,82,-66]],"properties":{"code_micro":21008,"name_micro":"Pindaré","code_state":21,"code_region":2,"abbrev_state":"MA","name_state":"Maranhão","name_region":"Nordeste","year":2020}},{"type":"Polygon","arcs":[[83,84,85,86,87,88,-75,89,-64]],"properties":{"code_micro":21009,"name_micro":"Imperatriz","code_state":21,"code_region":2,"abbrev_state":"MA","name_state":"Maranhão","name_region":"Nordeste","year":2020}},{"type":"Polygon","arcs":[[90,91,92,93,94,95,96,-56,97,-41,98,-79]],"properties":{"code_micro":21010,"name_micro":"Médio Mearim","code_state":21,"code_region":2,"abbrev_state":"MA","name_state":"Maranhão","name_region":"Nordeste","year":2020}},{"type":"Polygon","arcs":[[-88,99,-86,100,101,102,103,104,105,106,107,108,109,110,-92,111,-77,112]],"properties":{"code_micro":21011,"name_micro":"Alto Mearim E Grajaú","code_state":21,"code_region":2,"abbrev_state":"MA","name_state":"Maranhão","name_region":"Nordeste","year":2020}},{"type":"Polygon","arcs":[[113,-107,114,115,116,117,118,119,120,-94,121,122,-109]],"properties":{"code_micro":21012,"name_micro":"Presidente Dutra","code_state":21,"code_region":2,"abbrev_state":"MA","name_state":"Maranhão","name_region":"Nordeste","year":2020}},{"type":"Polygon","arcs":[[123,124,125,-33]],"properties":{"code_micro":21013,"name_micro":"Baixo Parnaíba Maranhense","code_state":21,"code_region":2,"abbrev_state":"MA","name_state":"Maranhão","name_region":"Nordeste","year":2020}},{"type":"Polygon","arcs":[[126,127,-60,128,129,130,131,132,-125,133,-31,134,-35,-25]],"properties":{"code_micro":21014,"name_micro":"Chapadinha","code_state":21,"code_region":2,"abbrev_state":"MA","name_state":"Maranhão","name_region":"Nordeste","year":2020}},{"type":"Polygon","arcs":[[135,-120,136,137,138,139,140,-130,141,-58,142,-96]],"properties":{"code_micro":21015,"name_micro":"Codó","code_state":21,"code_region":2,"abbrev_state":"MA","name_state":"Maranhão","name_region":"Nordeste","year":2020}},{"type":"Polygon","arcs":[[-140,143,144,145,-132,146]],"properties":{"code_micro":21016,"name_micro":"Coelho Neto","code_state":21,"code_region":2,"abbrev_state":"MA","name_state":"Maranhão","name_region":"Nordeste","year":2020}},{"type":"Polygon","arcs":[[-118,147,148,149,-145,150,-138,151]],"properties":{"code_micro":21017,"name_micro":"Caxias","code_state":21,"code_region":2,"abbrev_state":"MA","name_state":"Maranhão","name_region":"Nordeste","year":2020}},{"type":"Polygon","arcs":[[-105,152,153,154,155,156,-149,157,-116,158]],"properties":{"code_micro":21018,"name_micro":"Chapadas do Alto Itapecuru","code_state":21,"code_region":2,"abbrev_state":"MA","name_state":"Maranhão","name_region":"Nordeste","year":2020}},{"type":"Polygon","arcs":[[159,160,161,162,-101,-85]],"properties":{"code_micro":21019,"name_micro":"Porto Franco","code_state":21,"code_region":2,"abbrev_state":"MA","name_state":"Maranhão","name_region":"Nordeste","year":2020}},{"type":"Polygon","arcs":[[163,164,165,-161]],"properties":{"code_micro":21020,"name_micro":"Gerais de Balsas","code_state":21,"code_region":2,"abbrev_state":"MA","name_state":"Maranhão","name_region":"Nordeste","year":2020}},{"type":"Polygon","arcs":[[166,-156,167,-154,168,-103,169,170,-165]],"properties":{"code_micro":21021,"name_micro":"Chapadas das Mangabeiras","code_state":21,"code_region":2,"abbrev_state":"MA","name_state":"Maranhão","name_region":"Nordeste","year":2020}}]}},"arcs":[[[-44.9662021,-1.2711372],[-44.9865661,-1.2661465],[-45.0017248,-1.292035],[-44.9872873,-1.3226586],[-45.028776,-1.3180265],[-45.033862,-1.3380293],[-45.014585,-1.3535851],[-45.0214093,-1.3840191],[-45.0053356,-1.4008204],[-44.9682279,-1.3904831],[-44.9434249,-1.3649817],[-44.9014277,-1.3371745],[-44.8866174,-1.3456093],[-44.8669234,-1.3287447],[-44.8781392,-1.2854746],[-44.9290041,-1.2667719],[-44.9662021,-1.2711372]],[[-44.5481124,-3.0450846],[-44.5916374,-3.0409345]],[[-44.5916374,-3.0409345],[-44.569869,-3.0536355]],[[-44.569869,-3.0536355],[-44.5481124,-3.0450846]],[[-44.4847889,-2.7246634],[-44.5022062,-2.7264316],[-44.5363495,-2.75386],[-44.5861828,-2.8146511],[-44.5803079,-2.8594035],[-44.5896166,-2.8948399],[-44.6007605,-2.9049776],[-44.6138694,-2.9505527],[-44.6409445,-2.9697962],[-44.6365199,-2.9831289],[-44.5920609,-3.0151757],[-44.5827777,-3.0318234],[-44.5609183,-3.0225312],[-44.4897079,-2.9713835],[-44.4819137,-2.9383652],[-44.4760915,-2.876649],[-44.4821107,-2.8080102],[-44.4757596,-2.7344542],[-44.4847889,-2.7246634]],[[-44.755506,-1.4631966],[-44.7758603,-1.4785036],[-44.7719974,-1.5178172],[-44.7506781,-1.5172858],[-44.7423289,-1.4926994],[-44.755506,-1.4631966]],[[-44.7979402,-1.5316636],[-44.8335552,-1.5344377],[-44.8277878,-1.5563756],[-44.8091403,-1.5609906],[-44.7979402,-1.5316636]],[[-45.1781063,-2.0433562],[-45.0947344,-2.0502814],[-44.9669446,-2.1710423],[-44.9658608,-2.2510472],[-44.9348891,-2.2334436],[-44.9348848,-2.3295732],[-44.916549,-2.3912091],[-44.9589565,-2.4344447],[-44.9592435,-2.4594616],[-44.9367153,-2.5111956],[-44.9152166,-2.5212135],[-44.8335759,-2.5150891],[-44.8134535,-2.5326244],[-44.8123948,-2.5865269],[-44.7485808,-2.5854536],[-44.7358973,-2.6101134],[-44.7163048,-2.6152204],[-44.7836973,-2.6618112],[-44.8108871,-2.7024489],[-44.8048294,-2.7207287],[-44.8102244,-2.7741749],[-44.826342,-2.7904932],[-44.7865358,-2.8200536],[-44.7801967,-2.8461923],[-44.7927336,-2.8674234],[-44.7820454,-2.8958891],[-44.7408243,-2.8755225],[-44.7257688,-2.8863468],[-44.7029649,-2.8909722],[-44.6929096,-2.8883432],[-44.6815179,-2.8856828],[-44.6601568,-2.8900786],[-44.6553794,-2.89163],[-44.6519735,-2.8929809]],[[-44.6519735,-2.8929809],[-44.6326848,-2.8547991],[-44.6516071,-2.8074561],[-44.6454458,-2.7815071],[-44.6238064,-2.7389322],[-44.6265548,-2.702094],[-44.6065877,-2.6895843],[-44.5572532,-2.6042223],[-44.5345819,-2.527683],[-44.5121871,-2.5351872],[-44.4902258,-2.5217285],[-44.4759972,-2.4850476],[-44.4429414,-2.4575159],[-44.4464187,-2.4416072],[-44.4778895,-2.4112011],[-44.4049676,-2.4156149],[-44.3879763,-2.4088868],[-44.3723585,-2.3807378],[-44.3800655,-2.3592815],[-44.3580073,-2.3405179],[-44.3637759,-2.3121547],[-44.3837893,-2.2766636],[-44.3984631,-2.2143858],[-44.435365,-2.1658855],[-44.4641781,-2.1467091],[-44.519899,-2.1547384],[-44.539997,-2.1890102],[-44.5986412,-2.2510094],[-44.6232252,-2.2673457],[-44.6387692,-2.2958522],[-44.6717808,-2.2876893],[-44.6853746,-2.2630012],[-44.6341237,-2.2285412],[-44.5872919,-2.1655535],[-44.5886114,-2.1368446],[-44.566719,-2.1256263],[-44.5550637,-2.0974638],[-44.4979537,-2.0493448],[-44.496788,-2.0257432],[-44.5324984,-2.0362582],[-44.535555,-2.0196477],[-44.5076408,-2.0092098],[-44.4812537,-1.9868997],[-44.4958287,-1.9719053],[-44.4924108,-1.9422359],[-44.5145672,-1.8857296],[-44.5537733,-1.8816402],[-44.5389028,-1.8512743],[-44.5684406,-1.8248669],[-44.5632453,-1.8075625],[-44.6167768,-1.7589094],[-44.6010659,-1.7397075],[-44.6525225,-1.7154006],[-44.6474827,-1.7587284],[-44.6808578,-1.7726448],[-44.725642,-1.7580747],[-44.7009158,-1.7262436],[-44.7543681,-1.7179919],[-44.7775458,-1.6802269],[-44.738208,-1.6505464],[-44.6750018,-1.6413743],[-44.6584889,-1.6597566],[-44.6363315,-1.6165594],[-44.6570985,-1.5877507],[-44.704997,-1.5549676],[-44.7233624,-1.5567241],[-44.7582053,-1.5920846],[-44.7788165,-1.5784472],[-44.8026869,-1.5894386],[-44.8357046,-1.5729409],[-44.8410776,-1.6030264],[-44.861378,-1.6183573],[-44.871562,-1.6013998],[-44.9057994,-1.6046657],[-44.9177152,-1.5647063],[-44.8725439,-1.4855886],[-44.843488,-1.4784611],[-44.8305433,-1.4277163],[-44.8604482,-1.411296],[-44.8863524,-1.4201299],[-44.8992003,-1.4460825],[-44.9548712,-1.4912888],[-44.961222,-1.5433726],[-45.0064892,-1.4861296],[-45.0488938,-1.4903513],[-45.0714721,-1.4668548],[-45.0967094,-1.4554646],[-45.103193,-1.4731292],[-45.1324901,-1.4847851],[-45.1585653,-1.4747577],[-45.1665536,-1.489579],[-45.1980237,-1.488425],[-45.2054023,-1.5184448],[-45.2321302,-1.5474558],[-45.2495865,-1.5872259],[-45.2682033,-1.5985924],[-45.3237831,-1.597038]],[[-45.3237831,-1.597038],[-45.3502332,-1.6882909],[-45.3536576,-1.7233588],[-45.3318217,-1.7418895],[-45.2888467,-1.7272067],[-45.272699,-1.7325455],[-45.2359657,-1.7936351],[-45.246818,-1.82077],[-45.2406132,-1.8403333],[-45.2098946,-1.8659364],[-45.1780258,-1.8565752],[-45.1760097,-1.8833945],[-45.1442092,-1.9038603],[-45.1572098,-1.9292533],[-45.1564553,-1.9553883],[-45.1742507,-1.9571115],[-45.1832205,-2.0313232],[-45.1876381,-2.0389636]],[[-45.1876381,-2.0389636],[-45.1781063,-2.0433562]],[[-44.2657685,-2.7603878],[-44.24862,-2.7297657],[-44.2222595,-2.726325],[-44.1946156,-2.7051436],[-44.164725,-2.69956],[-44.1372329,-2.6812817],[-44.1317911,-2.6563219],[-44.1056932,-2.6292448],[-44.1056653,-2.6033728],[-44.0801434,-2.5635338],[-44.0340172,-2.5499031],[-44.0238605,-2.5082929],[-44.0526525,-2.4688077],[-44.0265249,-2.4512955],[-44.0315206,-2.4064048],[-44.0946029,-2.4066045],[-44.1519536,-2.4343493],[-44.1744068,-2.4583777],[-44.2259255,-2.4769518],[-44.2998438,-2.4861852],[-44.3208355,-2.5271834],[-44.3559533,-2.5327634],[-44.3549165,-2.5485417],[-44.3769773,-2.5641572],[-44.3540919,-2.6031972],[-44.3804292,-2.668178],[-44.3917063,-2.7205383],[-44.3886679,-2.753767],[-44.403057,-2.7695457],[-44.410043,-2.7992347]],[[-44.410043,-2.7992347],[-44.3888794,-2.7849024]],[[-44.3888794,-2.7849024],[-44.3875651,-2.7783443],[-44.3882955,-2.7659643],[-44.3859582,-2.7636073],[-44.3720117,-2.7577],[-44.367984,-2.7564104],[-44.3623118,-2.7575724]],[[-44.3623118,-2.7575724],[-44.3498514,-2.7625394],[-44.3353949,-2.7733592],[-44.3069554,-2.7791193],[-44.2657685,-2.7603878]],[[-43.761036,-2.4234599],[-43.7983976,-2.4395976],[-43.7997169,-2.3903178],[-43.8394783,-2.4185865],[-43.8468201,-2.5018685],[-43.8911662,-2.5354441],[-43.89368,-2.5564613],[-43.9312195,-2.5616223],[-43.9565437,-2.621532],[-44.003944,-2.6381525],[-44.0225752,-2.6526069],[-44.0542486,-2.7113015],[-44.0847605,-2.7488903],[-44.115564,-2.7484935],[-44.1364039,-2.7664455],[-44.1852856,-2.7641934],[-44.2414346,-2.7805082],[-44.2657685,-2.7603878]],[[-44.3623118,-2.7575724],[-44.3692676,-2.756607],[-44.387595,-2.76472],[-44.3888217,-2.7698228],[-44.3875675,-2.7769362],[-44.3888794,-2.7849024]],[[-44.410043,-2.7992347],[-44.4062131,-2.8821781],[-44.4248175,-2.9439339],[-44.4537407,-2.9872782],[-44.4961175,-3.0265815],[-44.5481124,-3.0450846]],[[-44.5481124,-3.0450846],[-44.5557664,-3.050382]],[[-44.5557664,-3.050382],[-44.5412143,-3.0642117],[-44.5493801,-3.0862753],[-44.4710499,-3.1770579],[-44.4609629,-3.1949258],[-44.4390976,-3.1964688],[-44.4442177,-3.2081459],[-44.4364118,-3.2171561]],[[-44.4364118,-3.2171561],[-44.4357067,-3.2155923]],[[-44.4357067,-3.2155923],[-44.4006799,-3.2067935],[-44.358958,-3.2389135],[-44.3582675,-3.2452578],[-44.3331824,-3.2644087],[-44.3062105,-3.2643219],[-44.2427962,-3.30847],[-44.2090868,-3.2532436],[-44.1699157,-3.2671957],[-44.1025452,-3.2534794],[-44.1178235,-3.2290951],[-44.0647887,-3.1874674],[-44.0471444,-3.2905931],[-44.0271901,-3.2940299]],[[-44.0271901,-3.2940299],[-43.7833923,-3.2925577]],[[-43.7833923,-3.2925577],[-43.6066356,-3.172094],[-43.5421452,-3.1296697]],[[-43.5421452,-3.1296697],[-43.5713136,-3.0381129]],[[-43.5713136,-3.0381129],[-43.5985688,-2.9638013],[-43.7455257,-2.6375055],[-43.6900069,-2.6039935],[-43.6879251,-2.568846],[-43.7002346,-2.5668857],[-43.7121474,-2.5273441],[-43.7108176,-2.5198651],[-43.6979529,-2.5176714]],[[-43.6979529,-2.5176714],[-43.7155538,-2.4766356],[-43.7466075,-2.4935863],[-43.7678236,-2.4939081],[-43.760094,-2.4658732],[-43.7412236,-2.4351198]],[[-43.7412236,-2.4351198],[-43.761036,-2.4234599]],[[-43.5069987,-2.4054243],[-43.5066243,-2.3839978],[-43.5268369,-2.3707381],[-43.5372177,-2.4056358],[-43.5069987,-2.4054243]],[[-43.2582132,-3.0044326],[-43.2427439,-2.9920739],[-43.2217065,-3.0222636]],[[-43.2217065,-3.0222636],[-43.1804789,-2.9950162],[-43.1686264,-3.0036867],[-43.153635,-3.0396984],[-43.1431805,-3.0716839],[-43.1502685,-3.0870068],[-43.0942545,-3.1092261]],[[-43.0942545,-3.1092261],[-43.0411455,-3.1302931]],[[-43.0411455,-3.1302931],[-42.8247554,-3.2161294],[-42.7984832,-3.1486746],[-42.7631618,-3.1233065],[-42.7575306,-3.0558489],[-42.6965592,-3.0625913],[-42.6963256,-3.175562],[-42.5346974,-3.0919022],[-42.309277,-3.0924792],[-42.1742806,-2.8406907],[-42.1708622,-2.8118333],[-42.1276371,-2.8011763],[-42.116858,-2.7580233],[-42.130251,-2.7403405],[-42.1492729,-2.721076],[-42.1845306,-2.7107976],[-42.2225544,-2.6922353]],[[-42.2225544,-2.6922353],[-42.2550401,-2.6758109],[-42.2635558,-2.7579038],[-42.3401039,-2.7485797],[-42.3646388,-2.7156394],[-42.4216335,-2.7139179],[-42.4755408,-2.69971],[-42.4938603,-2.7049288],[-42.5042444,-2.6781208],[-42.5613215,-2.6786391],[-42.5873554,-2.6690043],[-42.6210092,-2.6450801],[-42.6964332,-2.5737555],[-42.7265615,-2.5548764],[-42.7489808,-2.5607334],[-42.763197,-2.5454551],[-42.8252915,-2.5447232],[-42.9633508,-2.4752786],[-43.054906,-2.4401398],[-43.2374131,-2.3586896],[-43.3275002,-2.3365618],[-43.4027762,-2.3354842],[-43.4414269,-2.3416982],[-43.4785084,-2.3669157],[-43.4833242,-2.3853387],[-43.4520953,-2.4426008],[-43.4538463,-2.4724808],[-43.4659897,-2.4875899],[-43.5070331,-2.4775487],[-43.5209629,-2.4546667],[-43.5160764,-2.4245194],[-43.5374497,-2.4219104],[-43.554675,-2.4475319],[-43.5797943,-2.4586428],[-43.6125278,-2.5065254],[-43.6700396,-2.494629],[-43.6979529,-2.5176714]],[[-43.5713136,-3.0381129],[-43.5491262,-3.0177976],[-43.535057,-3.0069638],[-43.5011608,-3.0175289],[-43.4748553,-2.9812183],[-43.3191096,-3.021937],[-43.2978485,-3.0214673],[-43.2582132,-3.0044326]],[[-43.7412236,-2.4351198],[-43.710462,-2.4271639],[-43.6862242,-2.3973098],[-43.6452069,-2.4027164],[-43.6288315,-2.3582626],[-43.6235881,-2.3031106],[-43.594321,-2.2827108],[-43.6028905,-2.2592029],[-43.6330443,-2.2519233],[-43.7181198,-2.2888024],[-43.7218633,-2.3220543],[-43.739594,-2.3503498],[-43.7268003,-2.3864684],[-43.7582543,-2.4080823],[-43.761036,-2.4234599]],[[-43.5474219,-2.359849],[-43.598341,-2.3668571],[-43.6128797,-2.3784923],[-43.5997653,-2.4074293],[-43.5815211,-2.4232781],[-43.5618867,-2.4238154],[-43.5435019,-2.3867506],[-43.5474219,-2.359849]],[[-45.6379677,-2.9026623],[-45.6235149,-3.0619052],[-45.6106111,-3.1168228]],[[-45.6106111,-3.1168228],[-45.5997321,-3.1871406],[-45.5793471,-3.2422447],[-45.5521847,-3.2794829],[-45.4903245,-3.3068172],[-45.4440898,-3.3994245],[-45.5422404,-3.4850215],[-45.5424048,-3.5054162],[-45.5242704,-3.5407952],[-45.5211505,-3.5425854],[-45.5213225,-3.5499557],[-45.5217413,-3.5565213],[-45.5235867,-3.5571782],[-45.5267354,-3.5617173],[-45.524367,-3.5695194],[-45.5206524,-3.5743317],[-45.5149406,-3.5786361],[-45.5099648,-3.5756504],[-45.5067545,-3.5796557],[-45.5021563,-3.5991947],[-45.4818182,-3.6101751],[-45.4581684,-3.5931885],[-45.3891884,-3.5699623],[-45.3598758,-3.5761632],[-45.3447384,-3.6036041],[-45.3236515,-3.6028034],[-45.3002077,-3.5853696],[-45.2778834,-3.5893963],[-45.318436,-3.6376026],[-45.3307184,-3.6732918],[-45.3429348,-3.6840698],[-45.3225465,-3.7475309],[-45.3179222,-3.7813222],[-45.3283681,-3.8439762]],[[-45.3283681,-3.8439762],[-45.3244171,-3.8435465]],[[-45.3244171,-3.8435465],[-45.2991243,-3.7997718],[-45.2561028,-3.7989806],[-45.2196396,-3.7723603],[-45.2105569,-3.7807519],[-45.2038923,-3.784969],[-45.1990775,-3.7786684],[-45.1925642,-3.7765838],[-45.1540082,-3.7299178],[-45.1399091,-3.7263633],[-45.1131063,-3.748861],[-45.1085395,-3.7467097],[-45.1133022,-3.7446496],[-45.1075266,-3.7416659],[-45.1062303,-3.7353656],[-45.0973448,-3.7334053],[-45.0914059,-3.7301985],[-45.0907664,-3.7335956],[-45.0887525,-3.7282847],[-45.0614063,-3.7108175],[-45.0553682,-3.715269],[-45.0501659,-3.7244595],[-45.0476835,-3.7211359],[-45.0003992,-3.7942884],[-44.9331777,-3.9162645],[-44.6220798,-3.8508211],[-44.6138736,-3.8431438]],[[-44.6138736,-3.8431438],[-44.6124724,-3.8474039],[-44.6101514,-3.8477989]],[[-44.6101514,-3.8477989],[-44.6104074,-3.6590095],[-44.623875,-3.5344243]],[[-44.623875,-3.5344243],[-44.6257711,-3.4902719],[-44.6110616,-3.4826762],[-44.5358759,-3.3998944],[-44.493477,-3.3348281],[-44.4866396,-3.3081914],[-44.469077,-3.3153041],[-44.4560067,-3.2973775],[-44.4266368,-3.253169],[-44.4327592,-3.2413134],[-44.4432319,-3.2209968]],[[-44.4432319,-3.2209968],[-44.4364118,-3.2171561]],[[-44.5557664,-3.050382],[-44.569869,-3.0536355]],[[-44.5916374,-3.0409345],[-44.6582157,-3.0153773],[-44.6794481,-2.9790843],[-44.6797542,-2.9194479],[-44.6519735,-2.8929809]],[[-45.1781063,-2.0433562],[-45.1909287,-2.0405284]],[[-45.1909287,-2.0405284],[-45.1967717,-2.0425342],[-45.2049877,-2.0433462],[-45.2164036,-2.0522799],[-45.2292519,-2.0610452],[-45.233578,-2.0654151],[-45.2386914,-2.0670034],[-45.2374575,-2.0626601],[-45.2413673,-2.0671725],[-45.2404836,-2.1080154],[-45.2880958,-2.1553844],[-45.2880086,-2.2116948],[-45.3107985,-2.233213],[-45.3410999,-2.2932009]],[[-45.3410999,-2.2932009],[-45.3527968,-2.3355649]],[[-45.3527968,-2.3355649],[-45.3795131,-2.3089199],[-45.3870372,-2.2779892],[-45.4000058,-2.2804906],[-45.4302133,-2.3047411],[-45.511152,-2.3395177],[-45.5079235,-2.3465477],[-45.505499,-2.356542],[-45.509779,-2.3549566],[-45.5170915,-2.3637134],[-45.520076,-2.3595385],[-45.5416217,-2.3533709],[-45.5811751,-2.3824357],[-45.5868288,-2.3801273],[-45.5889916,-2.3804057],[-45.598369,-2.3733595],[-45.6351079,-2.3640804]],[[-45.6351079,-2.3640804],[-45.6390956,-2.3601698]],[[-45.6390956,-2.3601698],[-45.6414715,-2.361129],[-45.6415992,-2.4584817],[-45.5609584,-2.4814616],[-45.594438,-2.5572256],[-45.5943041,-2.605761],[-45.6418091,-2.6536031],[-45.6379677,-2.9026623]],[[-44.623875,-3.5344243],[-44.6104019,-3.6612599],[-44.6101514,-3.8477989]],[[-44.6101514,-3.8477989],[-44.5053946,-3.8487516]],[[-44.5053946,-3.8487516],[-44.4802633,-3.9051679],[-44.4800429,-3.9191645],[-44.4226537,-3.9322273],[-44.4156028,-3.9336756],[-44.4097693,-3.9051349],[-44.3875897,-3.8784201],[-44.3611374,-3.8649482],[-44.3536676,-3.8489275]],[[-44.3536676,-3.8489275],[-44.1988197,-3.9274449]],[[-44.1988197,-3.9274449],[-44.1659732,-3.9104703],[-44.1554957,-3.8368367],[-43.9927638,-3.8424361],[-43.9380703,-4.0004692],[-43.8950229,-3.9674792]],[[-43.8950229,-3.9674792],[-43.7283881,-3.9349298],[-43.6066977,-3.6186727]],[[-43.6066977,-3.6186727],[-43.7390894,-3.429283],[-43.7234766,-3.4150808],[-43.7140607,-3.4009637],[-43.7456215,-3.3780634],[-43.7459519,-3.3554024],[-43.7662582,-3.3204688],[-43.7864499,-3.3320155],[-43.7959289,-3.3298799],[-43.8008152,-3.2993654]],[[-43.8008152,-3.2993654],[-43.8000371,-3.2936823],[-44.0271901,-3.2940299]],[[-44.4357067,-3.2155923],[-44.4432319,-3.2209968]],[[-45.3237831,-1.597038],[-45.3434691,-1.5867941],[-45.321884,-1.5441976],[-45.3084477,-1.4968108],[-45.3162845,-1.4863264],[-45.383413,-1.4666555],[-45.3102957,-1.4379595],[-45.2979255,-1.4130962],[-45.3078855,-1.3671724],[-45.3048976,-1.3364114],[-45.3384679,-1.3148366],[-45.3562905,-1.3317941],[-45.3703829,-1.3955306],[-45.3909708,-1.4133832],[-45.4361972,-1.4283951],[-45.4555438,-1.4521479],[-45.463828,-1.4771148],[-45.4889818,-1.4707818],[-45.474976,-1.3720072],[-45.4157437,-1.3459114],[-45.4084096,-1.3066439],[-45.4195552,-1.294925],[-45.4483204,-1.2931682],[-45.4618153,-1.3170527],[-45.4944899,-1.3529629],[-45.5027106,-1.3751433],[-45.5267855,-1.3587696],[-45.5191178,-1.3193135],[-45.5449925,-1.3013778],[-45.5489371,-1.276383],[-45.5734152,-1.2867296],[-45.5937076,-1.2667204],[-45.6258967,-1.2836175],[-45.6402329,-1.2772767],[-45.633494,-1.2457315],[-45.6427317,-1.2319227],[-45.6364092,-1.1925335],[-45.6135664,-1.1629369],[-45.634618,-1.1483984],[-45.6483426,-1.2146637],[-45.6463001,-1.2321743],[-45.6898993,-1.2736014],[-45.7065024,-1.270058],[-45.73441,-1.2349627],[-45.7329876,-1.1996034],[-45.6909081,-1.1486673],[-45.7235216,-1.1291686],[-45.7424287,-1.1406046],[-45.768167,-1.1989824],[-45.8126255,-1.1639504],[-45.8295195,-1.177955],[-45.82585,-1.1985266],[-45.8444438,-1.2124599],[-45.8688529,-1.201516],[-45.8622625,-1.1811872],[-45.8830969,-1.1494545],[-45.8647027,-1.1306539],[-45.8649479,-1.1083212],[-45.8435407,-1.0828239],[-45.8539494,-1.0528055],[-45.8715496,-1.0525306],[-45.8959041,-1.0994692],[-45.8948567,-1.1126371],[-45.9465218,-1.1955882],[-45.9577631,-1.1951372],[-45.962323,-1.1102472],[-45.9854304,-1.0497949],[-46.0031998,-1.0769639],[-46.0179893,-1.0805274],[-46.0750388,-1.1609984],[-46.0770824,-1.1962431],[-46.1330409,-1.2103693],[-46.1508273,-1.2326461],[-46.1400773,-1.2476926],[-46.1615773,-1.2818889],[-46.1473091,-1.309441],[-46.1333341,-1.3097341],[-46.1145704,-1.351941],[-46.1534659,-1.4256059],[-46.1435954,-1.449737],[-46.1761387,-1.4773849],[-46.1440841,-1.5178302],[-46.1336272,-1.5818183],[-46.1658773,-1.634375],[-46.1553227,-1.6754034],[-46.1712523,-1.6983595],[-46.2035024,-1.705295],[-46.2112229,-1.7271762],[-46.2475775,-1.7209245],[-46.2658526,-1.7328418],[-46.3118822,-1.7332325],[-46.3244891,-1.772696],[-46.31413,-1.804271],[-46.2536366,-1.7958462],[-46.2303286,-1.8031233],[-46.2125422,-1.8274452],[-46.2152786,-1.8459062],[-46.2435218,-1.8786276],[-46.2227059,-1.9102252],[-46.2364854,-1.9664352],[-46.2514378,-2.0006193],[-46.2604287,-2.0460831],[-46.2745992,-2.0546288],[-46.269273,-2.0906667],[-46.2730844,-2.1201116],[-46.3002038,-2.1459426],[-46.2832969,-2.1543901],[-46.3355811,-2.1940389],[-46.3509244,-2.2240678],[-46.3911392,-2.2501412],[-46.4106359,-2.2287552],[-46.4305234,-2.2352003],[-46.4163041,-2.2738216],[-46.4324291,-2.2971111],[-46.4316473,-2.3348031],[-46.4642883,-2.3633644],[-46.4562746,-2.38675],[-46.4318916,-2.3644873],[-46.4127859,-2.3791338],[-46.442153,-2.4194111],[-46.4365825,-2.5152417],[-46.4193336,-2.5324251],[-46.4735724,-2.5465816],[-46.5094384,-2.5906125],[-46.5068486,-2.616874],[-46.5673419,-2.626783],[-46.5874738,-2.6416707],[-46.6060909,-2.6394741],[-46.6380966,-2.6872113],[-46.6648251,-2.6951673],[-46.6696138,-2.7346049],[-46.6313534,-2.7708688],[-46.6384876,-2.7909281],[-46.6252943,-2.8065459],[-46.5989568,-2.79698],[-46.6109773,-2.8552524],[-46.6400023,-2.8509089],[-46.639416,-2.8835578],[-46.680828,-2.883143],[-46.6539285,-2.9310654],[-46.6730342,-2.9450709],[-46.6474296,-2.9698118],[-46.6499217,-2.9960161],[-46.6684899,-2.9927955],[-46.6773342,-3.0342723],[-46.6731808,-3.0673062],[-46.6886218,-3.0929714],[-46.7496037,-3.1244909],[-46.7226309,-3.159132],[-46.7715436,-3.2040662],[-46.7791907,-3.2421684],[-46.8061635,-3.2440466],[-46.802059,-3.2659998],[-46.8148613,-3.3114659],[-46.8460364,-3.319271],[-46.8586432,-3.3429786],[-46.8848342,-3.3351737],[-46.92974,-3.3738319],[-46.9563218,-3.4258777],[-46.9484548,-3.476799],[-46.9697105,-3.4757747],[-46.9824151,-3.496162],[-46.9688798,-3.5144028],[-47.0040617,-3.5426413],[-47.0309157,-3.5806162],[-47.0304449,-3.6107822]],[[-47.0304449,-3.6107822],[-47.0268716,-3.6193646],[-47.0330241,-3.643416],[-47.0226421,-3.6911711],[-47.0016442,-3.7021971],[-46.983614,-3.7261404],[-46.9369385,-3.8701776],[-46.9458319,-3.9110316],[-46.9361432,-3.9609898],[-46.9203826,-3.9918869],[-46.9125191,-4.0383091],[-46.916196,-4.0772193],[-46.9271035,-4.0866471]],[[-46.9271035,-4.0866471],[-46.914951,-4.0869883]],[[-46.914951,-4.0869883],[-46.9003174,-4.0760955],[-46.8917465,-4.0439995],[-46.869636,-4.0321313],[-46.8439178,-4.0032165],[-46.8048369,-3.9987388],[-46.761087,-3.9756328],[-46.7573864,-3.9050534],[-46.7094627,-3.8779886],[-46.6973511,-3.8550024],[-46.7244644,-3.8392262],[-46.7374518,-3.7763076],[-46.7115077,-3.7441182],[-46.698858,-3.6858461],[-46.6308431,-3.6130615],[-46.6028227,-3.598258],[-46.5798539,-3.5791457],[-46.5477146,-3.5430446],[-46.4951726,-3.4963399],[-46.4594982,-3.4857537],[-46.4138286,-3.4011692],[-46.3985272,-3.3465988],[-46.3908139,-3.2751515],[-46.4001502,-3.2283106],[-46.3971714,-3.1948823],[-46.3791366,-3.1659646],[-46.3063149,-3.0890563],[-46.2602332,-3.0575771],[-46.2305281,-3.045854],[-46.206219,-3.0305038],[-46.1881912,-3.0006772],[-46.1860165,-2.972288],[-46.1701404,-2.9464241],[-46.1251214,-2.9111925],[-46.1316286,-2.8654346],[-46.0916921,-2.8077642],[-46.0908137,-2.7836863],[-46.0691864,-2.7411906]],[[-46.0691864,-2.7411906],[-46.0706277,-2.7366174],[-46.0799637,-2.722187],[-46.0799559,-2.7140461],[-46.0727462,-2.6977706]],[[-46.0727462,-2.6977706],[-46.0644074,-2.6863442],[-45.9899699,-2.6959101],[-45.998427,-2.6656611],[-45.9839203,-2.6119577],[-45.9430475,-2.5761489],[-45.9116927,-2.5290023],[-45.9006338,-2.4142728],[-45.8524094,-2.3454411],[-45.8387237,-2.287683],[-45.8319992,-2.2287747],[-45.8050159,-2.2020488],[-45.775607,-2.1872044],[-45.7430063,-2.1896585],[-45.7208332,-2.2259035],[-45.7096485,-2.2437535],[-45.6839263,-2.2268477],[-45.6841573,-2.3291466]],[[-45.6841573,-2.3291466],[-45.6351079,-2.3640804]],[[-45.3527968,-2.3355649],[-45.3407621,-2.3173465],[-45.3410999,-2.2932009]],[[-45.1909287,-2.0405284],[-45.1876381,-2.0389636]],[[-45.6889816,-1.2645685],[-45.6707437,-1.251961],[-45.668519,-1.2220026],[-45.6880151,-1.1836537],[-45.7108797,-1.2279569],[-45.7094308,-1.2442837],[-45.6889816,-1.2645685]],[[-45.5332128,-1.2258253],[-45.5393473,-1.2052159],[-45.5762587,-1.1927826],[-45.5780755,-1.2307637],[-45.5332128,-1.2258253]],[[-46.914951,-4.0869883],[-46.9242962,-4.0874643],[-46.9484847,-4.0806546]],[[-46.9484847,-4.0806546],[-46.9616509,-4.1038569],[-46.9677795,-4.1191283],[-47.0101948,-4.1746904],[-47.0296857,-4.2204608],[-47.0727402,-4.2366296],[-47.0728423,-4.2740171],[-47.0883876,-4.3035332],[-47.0626576,-4.3448123],[-47.0598813,-4.3662306],[-47.0428175,-4.3746973],[-47.0159102,-4.4146415],[-47.0061771,-4.4223283],[-47.0038054,-4.4254701],[-46.9967119,-4.4249582],[-46.9652505,-4.4252646],[-46.9322007,-4.4431593],[-46.9129735,-4.4332363],[-46.8651623,-4.4235961],[-46.8411823,-4.3947963],[-46.8429216,-4.405576],[-46.8585205,-4.433439],[-46.8584183,-4.4564435],[-46.8981893,-4.4864563],[-46.9036105,-4.5332321],[-46.9392094,-4.5853312],[-46.945202,-4.6176529],[-46.9273163,-4.6808463],[-46.9395081,-4.7386056],[-46.9250902,-4.7681125],[-46.9192802,-4.8067212],[-46.9303184,-4.8505746],[-46.4649824,-4.8509669],[-46.0893935,-4.8546173],[-46.0173724,-4.8537058]],[[-46.0173724,-4.8537058],[-46.0205678,-4.8505636]],[[-46.0205678,-4.8505636],[-46.0283542,-4.8054995],[-46.0413973,-4.799421],[-46.0292405,-4.7674891],[-45.9999831,-4.7343416],[-45.9758186,-4.7249199],[-45.9582894,-4.6986908],[-45.9567498,-4.6766088],[-45.9282772,-4.6616854],[-45.9230048,-4.6397747],[-45.8674974,-4.6275222],[-45.8490386,-4.7439472],[-45.712249,-4.7751656],[-45.7070215,-4.8335767],[-45.5895435,-4.896533],[-45.5719007,-4.9208641],[-45.5873052,-4.9780113],[-45.5992886,-4.9931486],[-45.3520792,-5.0414297],[-45.3450506,-5.0426223],[-45.2798475,-5.0552767]],[[-45.2798475,-5.0552767],[-45.2603215,-5.0279708]],[[-45.2603215,-5.0279708],[-45.2097153,-4.9997286],[-45.1329533,-4.9972092],[-45.1042715,-4.9687281],[-45.0440223,-4.9377097],[-45.0407705,-4.9122611],[-45.1185245,-4.9402496],[-45.1252512,-4.9131567],[-45.1556388,-4.8625821],[-45.1447432,-4.7410902],[-45.0400226,-4.6912045],[-45.0455017,-4.668387],[-45.0848951,-4.6238684],[-45.0820557,-4.5967833],[-45.0605422,-4.570322],[-45.0527385,-4.5176728],[-45.0424554,-4.4841757],[-45.0609964,-4.4556642],[-45.0889949,-4.4502528],[-45.0930624,-4.4236934],[-45.1186096,-4.4195866],[-45.1330687,-4.395062],[-45.1218718,-4.3780287],[-45.1164257,-4.3397782],[-45.1067243,-4.3288365],[-45.2039954,-4.197432],[-45.213652,-4.1680459],[-45.2245099,-4.1608343],[-45.2545756,-4.1483175],[-45.2699303,-4.1209347],[-45.3135243,-4.0943308],[-45.3196797,-4.0680737],[-45.2941991,-4.0238898],[-45.3162359,-3.9547074],[-45.3268553,-3.9059381],[-45.3362304,-3.9031746],[-45.3356586,-3.8979443],[-45.3342727,-3.8842205],[-45.3364317,-3.8586586],[-45.3315038,-3.853194],[-45.3269954,-3.8487119]],[[-45.3269954,-3.8487119],[-45.3283681,-3.8439762]],[[-45.6106111,-3.1168228],[-45.6217399,-3.0725884],[-45.6379677,-2.9026623]],[[-45.6390956,-2.3601698],[-45.6841573,-2.3291466]],[[-46.0727462,-2.6977706],[-46.0807935,-2.7183916],[-46.0772695,-2.7276147],[-46.0691864,-2.7411906]],[[-47.0304449,-3.6107822],[-47.0453679,-3.6238822],[-47.0447389,-3.666533],[-47.0532972,-3.7368551],[-47.0652734,-3.759364],[-47.0557157,-3.7735356],[-47.0835715,-3.8244046],[-47.0852051,-3.85664],[-47.1066248,-3.8809428],[-47.128751,-3.8766426],[-47.1469461,-3.8962017],[-47.1484961,-3.9144898],[-47.1731461,-3.9238234],[-47.1902562,-3.9837047],[-47.2389286,-3.9986308],[-47.2546134,-4.0194826],[-47.2814241,-4.0334206],[-47.2931109,-4.0522709],[-47.3194243,-4.0477745],[-47.3502036,-4.1178207],[-47.3402351,-4.1770458],[-47.3658287,-4.18064],[-47.3654569,-4.2058179],[-47.3790018,-4.2205369],[-47.3717681,-4.2455858],[-47.4010766,-4.2678237],[-47.4420493,-4.2874251],[-47.470329,-4.3107146],[-47.4795412,-4.3284996],[-47.4763146,-4.3564394],[-47.5027881,-4.4037066],[-47.5376001,-4.4525953],[-47.5637242,-4.4745575],[-47.5814777,-4.5199355],[-47.6119419,-4.5573579],[-47.6376763,-4.5714003],[-47.6821203,-4.6063812],[-47.7248128,-4.6064181],[-47.7540405,-4.5908236],[-47.7925691,-4.5864108],[-47.816153,-4.6147285],[-48.0014333,-4.75886],[-48.3155936,-5.0069924],[-48.4392993,-5.1006225],[-48.4922238,-5.1440965],[-48.7551507,-5.3491654],[-48.712127,-5.3530136],[-48.6992101,-5.3201232],[-48.6794384,-5.3058201],[-48.6061317,-5.3365008],[-48.5685726,-5.2829328],[-48.5610735,-5.2301992],[-48.5330131,-5.1987179],[-48.3639098,-5.1683805],[-48.3286879,-5.1965942],[-48.2934032,-5.2040481],[-48.2349277,-5.2283067],[-48.1785442,-5.2607761],[-48.0738428,-5.2722461],[-48.0492647,-5.2661013],[-48.0040589,-5.2346202],[-47.9281041,-5.2412355],[-47.8855715,-5.2607002],[-47.870412,-5.2805064],[-47.8676241,-5.3428159],[-47.8437594,-5.3762088],[-47.8275409,-5.3865882],[-47.7683377,-5.3782023],[-47.7409265,-5.3814482],[-47.6667723,-5.4217873],[-47.6186197,-5.4597262],[-47.5805091,-5.4700166],[-47.5602606,-5.4632127],[-47.5001205,-5.5256048],[-47.4832614,-5.5648989],[-47.4844013,-5.595604],[-47.4737045,-5.6619797],[-47.4930942,-5.7100384],[-47.4826225,-5.7593056],[-47.4665086,-5.7783003],[-47.4422786,-5.8307859],[-47.4310634,-5.8692106],[-47.4288701,-5.9194832],[-47.4463681,-5.9845441],[-47.4284652,-6.0362755],[-47.4302297,-6.0683528]],[[-47.4302297,-6.0683528],[-47.428436,-6.075758],[-47.4016024,-6.0791324],[-47.3396621,-6.0860244],[-47.3239958,-6.0733377],[-47.3060866,-6.0833887],[-47.2851009,-6.1007384],[-47.2504562,-6.1008879],[-47.2382298,-6.1151735],[-47.2061189,-6.1178753],[-47.1919108,-6.1063108],[-47.1550995,-6.1128302],[-47.1253368,-6.1492198],[-47.0882788,-6.1543275],[-47.0239141,-6.2177171],[-46.9812109,-6.2209672],[-46.9713077,-6.2281976],[-46.9195138,-6.2198763],[-46.8553971,-6.1890891],[-46.8005995,-6.2038777],[-46.7948073,-6.1924369],[-46.7874555,-6.1986291],[-46.749126,-6.193355],[-46.7410697,-6.1965114],[-46.7361705,-6.1968431],[-46.7313856,-6.1916805],[-46.7208473,-6.1912122],[-46.7040816,-6.1879657],[-46.7020367,-6.1899123]],[[-46.7020367,-6.1899123],[-46.6914407,-6.1606093]],[[-46.6914407,-6.1606093],[-46.6821095,-6.1575158],[-46.6784533,-6.153205],[-46.6722422,-6.1340124],[-46.6725542,-6.1281275],[-46.692515,-6.1110614]],[[-46.692515,-6.1110614],[-46.7106188,-6.1058551],[-46.7252584,-6.0827373],[-46.7422759,-6.0344231],[-46.7464401,-6.0049039],[-46.7523375,-5.9921389],[-46.7707856,-5.9801054],[-46.7827986,-5.9461213],[-46.7860334,-5.9302798],[-46.7823653,-5.8988319],[-46.7927294,-5.8791379],[-46.7861822,-5.8607345],[-46.7802338,-5.8281904],[-46.7781982,-5.8276397],[-46.7628043,-5.8181566],[-46.7564023,-5.7924526],[-46.7366958,-5.7610814],[-46.7347874,-5.7528554],[-46.734672,-5.7503634],[-46.720359,-5.7454932],[-46.6947364,-5.7436052],[-46.6706654,-5.7683405],[-46.6383184,-5.7504354],[-46.5498502,-5.7346445],[-46.4635604,-5.7503796],[-46.4376949,-5.7243329],[-46.397887,-5.7161354],[-46.3767507,-5.6794869],[-46.3411732,-5.6692152],[-46.3339462,-5.668207],[-46.3299733,-5.655328],[-46.3299687,-5.3340495],[-46.3479774,-5.296293],[-46.3212764,-5.2643009],[-46.3132198,-5.2209769],[-46.2868048,-5.200725],[-46.2844424,-5.1849304],[-46.2368002,-5.1425714],[-46.220085,-5.1352866],[-46.1907777,-5.0717675],[-46.1670568,-5.0539824],[-46.1375773,-5.0553331],[-46.1139969,-5.0460717],[-46.0691955,-5.0000851],[-46.0545842,-4.9673031],[-46.0260088,-4.9337007],[-46.0267924,-4.9153454],[-46.0113671,-4.86333]],[[-46.0113671,-4.86333],[-46.0173724,-4.8537058]],[[-46.9484847,-4.0806546],[-46.9271035,-4.0866471]],[[-45.2603215,-5.0279708],[-45.2710928,-5.0441718],[-45.2906458,-5.0681176]],[[-45.2906458,-5.0681176],[-45.3118299,-5.078678],[-45.3306931,-5.1217588],[-45.1249247,-5.1230152],[-45.0211217,-5.2088927],[-45.0041905,-5.1777321],[-44.9914722,-5.1321102],[-44.9759682,-5.128509],[-44.9611448,-5.101494],[-44.9693864,-5.0829184],[-44.9575236,-5.0661365],[-44.9510153,-5.0223986],[-44.9339513,-5.0221034],[-44.9320874,-4.9941618],[-44.8949827,-4.9674084],[-44.8643399,-4.9369957],[-44.782523,-4.9267597],[-44.7070515,-4.9050299],[-44.6442381,-4.8560175]],[[-44.6442381,-4.8560175],[-44.6386387,-4.8625012]],[[-44.6386387,-4.8625012],[-44.5141572,-4.9759337],[-44.4117051,-4.9757471],[-44.4133052,-4.9507739],[-44.3987557,-4.9428868],[-44.3776207,-4.9178577],[-44.3589457,-4.9059514]],[[-44.3589457,-4.9059514],[-44.3606196,-4.8787122]],[[-44.3606196,-4.8787122],[-44.3508586,-4.8576212],[-44.3467462,-4.8545509],[-44.32855,-4.8474351],[-44.3227172,-4.832236],[-44.3521709,-4.8075076],[-44.3540613,-4.7797529],[-44.4061029,-4.7444013],[-44.4186393,-4.7205329],[-44.4503905,-4.697231],[-44.3970334,-4.6653233],[-44.4068688,-4.6569856],[-44.4151866,-4.61656],[-44.3808248,-4.5830531],[-44.3528213,-4.5727521],[-44.347572,-4.5582184],[-44.4307995,-4.4808098],[-44.4236373,-4.415348],[-44.3958575,-4.3180761],[-44.4067056,-4.3212761],[-44.4731,-4.3048619],[-44.4769365,-4.2788908],[-44.5057437,-4.2790886],[-44.5001377,-4.2553136],[-44.4799035,-4.234055],[-44.486788,-4.1297029],[-44.4470062,-4.1271998],[-44.4503859,-4.1226372],[-44.4580806,-4.0869706],[-44.402088,-4.086039],[-44.4072359,-4.0431751],[-44.3874058,-4.0277385],[-44.3881788,-4.0073596],[-44.3562336,-3.964958],[-44.3676234,-3.931748],[-44.3518305,-3.9245444],[-44.3435704,-3.8989921],[-44.3196825,-3.8817867],[-44.3206774,-3.873479],[-44.3244026,-3.8682791],[-44.3229389,-3.864474]],[[-44.3229389,-3.864474],[-44.3536676,-3.8489275]],[[-44.5053946,-3.8487516],[-44.6121135,-3.847781],[-44.6138736,-3.8431438]],[[-45.3244171,-3.8435465],[-45.3269954,-3.8487119]],[[-46.692515,-6.1110614],[-46.6746298,-6.1260089],[-46.6717102,-6.1302456],[-46.6800697,-6.1557746],[-46.6847634,-6.1588858],[-46.6914407,-6.1606093]],[[-46.7020367,-6.1899123],[-46.6937962,-6.1913664],[-46.681242,-6.2032402],[-46.62873,-6.204748],[-46.6192602,-6.2364069],[-46.6204502,-6.2470173],[-46.6423336,-6.2675602],[-46.6547102,-6.2833269],[-46.6899852,-6.2991743],[-46.6767568,-6.328737],[-46.6950305,-6.3535234],[-46.6788965,-6.3733342],[-46.7171024,-6.4162077],[-46.7079131,-6.4345777],[-46.726451,-6.4532648],[-46.7189241,-6.5049049],[-46.7528594,-6.5662036],[-46.7623085,-6.5973925],[-46.7571783,-6.6245736],[-46.7298124,-6.6641039],[-46.7183689,-6.6975619],[-46.6752988,-6.7064179],[-46.6503596,-6.7294567],[-46.6143765,-6.7035874],[-46.5817513,-6.7058709],[-46.5553717,-6.7380156],[-46.5256768,-6.7428587],[-46.517497,-6.7698444],[-46.5009606,-6.7783214],[-46.4960844,-6.8069857],[-46.4638329,-6.8108713],[-46.4511171,-6.7960174],[-46.3867293,-6.8410385],[-46.3717378,-6.858157],[-46.3625947,-6.9000701],[-46.3443791,-6.9126614],[-46.3347361,-6.9085071],[-46.3189676,-6.9110423]],[[-46.3189676,-6.9110423],[-46.3022607,-6.9053854]],[[-46.3022607,-6.9053854],[-46.2906089,-6.8719377],[-46.2950544,-6.8540482],[-46.2870652,-6.8504247],[-46.2763431,-6.8530298],[-46.240697,-6.8501425],[-46.2480861,-6.8291037],[-46.2313508,-6.7881401],[-46.2122401,-6.7736777],[-46.1510165,-6.767716],[-46.1549508,-6.7120201],[-46.1348676,-6.7141741],[-46.1256121,-6.6895598],[-46.1325197,-6.6881882],[-46.1194575,-6.6852513],[-46.0934142,-6.6727784],[-46.0942303,-6.6773231],[-46.0791085,-6.6846887],[-46.0602557,-6.6694869],[-46.0570156,-6.6720575],[-46.0408868,-6.6950051],[-45.9959822,-6.670787],[-45.9913313,-6.6410452],[-45.9856485,-6.6365484],[-45.9486091,-6.6405509],[-45.9285191,-6.6425849],[-45.9260289,-6.6467509]],[[-45.9260289,-6.6467509],[-45.9108328,-6.641566]],[[-45.9108328,-6.641566],[-45.8306912,-6.596738],[-45.8089486,-6.5972471],[-45.7879488,-6.5899814],[-45.7761296,-6.5883413],[-45.7754161,-6.5854981],[-45.7666657,-6.5817209],[-45.7593158,-6.5665648],[-45.7493852,-6.5630256],[-45.7223953,-6.5298874],[-45.7289908,-6.5149487],[-45.706307,-6.4680831],[-45.6618056,-6.4778724],[-45.6283288,-6.4770382],[-45.5881094,-6.4510633],[-45.5539668,-6.4528516],[-45.5434135,-6.4390004],[-45.5161013,-6.4367318],[-45.4977937,-6.4188628],[-45.4211058,-6.4298976],[-45.3791873,-6.4216972],[-45.355413,-6.4076704],[-45.3061829,-6.3940699],[-45.2704091,-6.3529667],[-45.214129,-6.3172949],[-45.1646592,-6.3019604],[-45.1289636,-6.3062764],[-45.1040157,-6.3231329],[-45.0926554,-6.3152098],[-45.0622421,-6.351538],[-45.0439648,-6.3442197],[-44.9856058,-6.3514314],[-44.9357997,-6.3148482],[-44.9198489,-6.2936441],[-44.9117348,-6.2576526],[-44.9011306,-6.2464957],[-44.8935765,-6.2094249],[-44.8816329,-6.2056216],[-44.8663792,-6.1621168],[-44.8322155,-6.1463709],[-44.8141535,-6.124903],[-44.729588,-6.0826353],[-44.6912432,-6.0512576],[-44.6562566,-6.0379237],[-44.6367354,-6.0390125],[-44.601502,-6.0169736],[-44.6021079,-5.8285035],[-44.5545647,-5.8272987],[-44.5414214,-5.8189444]],[[-44.5414214,-5.8189444],[-44.5410086,-5.8200182]],[[-44.5410086,-5.8200182],[-44.536898,-5.8058673],[-44.5442195,-5.7832426],[-44.5202739,-5.7490919],[-44.4836568,-5.7416813],[-44.4632107,-5.7169761]],[[-44.4632107,-5.7169761],[-44.4589016,-5.71019],[-44.4531202,-5.6928803],[-44.4501282,-5.6720216],[-44.4527082,-5.6585863]],[[-44.4527082,-5.6585863],[-44.4490352,-5.6096014],[-44.4614564,-5.6086327],[-44.4879857,-5.5330133],[-44.4771826,-5.4965297],[-44.4488522,-5.4974329],[-44.4611352,-5.4521666],[-44.4815918,-5.4537493],[-44.5069026,-5.4663045],[-44.5179886,-5.4744521],[-44.5283451,-5.4714373],[-44.5365593,-5.4544204],[-44.5403677,-5.4386436],[-44.5608759,-5.3822314],[-44.5637637,-5.3625177],[-44.5644348,-5.3553626],[-44.5586271,-5.3451118],[-44.5546565,-5.3024228],[-44.569532,-5.251442],[-44.5537494,-5.246018],[-44.5390369,-5.2201836],[-44.5404452,-5.1798701],[-44.5463142,-5.1716728],[-44.5715947,-5.1627773],[-44.588439,-5.1465988],[-44.5955332,-5.1442454],[-44.6091555,-5.1377799],[-44.66236,-5.0691363],[-44.6597194,-5.0493185],[-44.6392348,-5.0377512],[-44.6150727,-5.000758],[-44.6206203,-4.9679479],[-44.6112819,-4.9506288],[-44.6321291,-4.9111719],[-44.6204672,-4.8877869],[-44.6434269,-4.8756199]],[[-44.6434269,-4.8756199],[-44.6399445,-4.8685538],[-44.6406091,-4.8619112],[-44.644207,-4.8606553],[-44.6429995,-4.8570248]],[[-44.6429995,-4.8570248],[-44.6442381,-4.8560175]],[[-45.2906458,-5.0681176],[-45.2798475,-5.0552767]],[[-46.0205678,-4.8505636],[-46.0159123,-4.8548818],[-46.0113671,-4.86333]],[[-44.4527082,-5.6585863],[-44.4504295,-5.6761157],[-44.4523437,-5.6815411],[-44.4545947,-5.6993219],[-44.4632107,-5.7169761]],[[-44.5410086,-5.8200182],[-44.5400131,-5.8226054]],[[-44.5400131,-5.8226054],[-44.524098,-5.8510231],[-44.5068971,-5.8544211],[-44.499852,-5.8709776],[-44.489995,-5.8699184],[-44.4722209,-5.8636982],[-44.4590782,-5.8262371],[-44.4983958,-5.8009953],[-44.2325838,-5.7640595],[-44.0909756,-5.8397618],[-44.0852963,-5.8176297]],[[-44.0852963,-5.8176297],[-44.0717307,-5.8125479]],[[-44.0717307,-5.8125479],[-44.0330852,-5.7914935],[-44.030516,-5.7743858],[-44.0235356,-5.7652389],[-44.0150479,-5.7605611],[-44.0099498,-5.7615235],[-43.9998643,-5.7562577],[-43.9785029,-5.7410604],[-43.9736178,-5.7350271],[-43.9758185,-5.7334759],[-43.9698398,-5.7225814],[-43.949981,-5.7089409],[-43.9304335,-5.6740936],[-43.8919632,-5.6345911],[-43.8920075,-5.6102998],[-43.8884387,-5.5964937],[-43.8868405,-5.5961023],[-43.8831716,-5.589041],[-43.8261349,-5.5572515],[-43.8173634,-5.5386705],[-43.8527003,-5.5199171],[-43.8655359,-5.5005475],[-43.8734815,-5.4530408],[-43.8601738,-5.4292671],[-43.8835105,-5.3857617],[-43.8812254,-5.3657028],[-43.8832621,-5.3508806],[-43.8795984,-5.3456683],[-43.882265,-5.344569],[-43.8803423,-5.3314289],[-43.8563441,-5.3018665],[-43.8025646,-5.2851551],[-43.7841199,-5.2737038],[-44.0168648,-5.1667195],[-44.0026319,-5.1642752]],[[-44.0026319,-5.1642752],[-43.9599023,-5.0505]],[[-43.9599023,-5.0505],[-43.983423,-5.0313261],[-43.9870791,-5.0107323],[-44.0208194,-4.9800629],[-44.0475893,-4.990868],[-44.1084914,-4.9880817],[-44.1130181,-4.9699293],[-44.1419634,-4.9515908],[-44.1143425,-4.9215514],[-44.1205095,-4.9022526],[-44.1703619,-4.9122205],[-44.1861982,-4.8792213],[-44.2080568,-4.8826948],[-44.2190874,-4.908906],[-44.2433964,-4.9065644],[-44.2956917,-4.9144413],[-44.3579273,-4.8949597]],[[-44.3579273,-4.8949597],[-44.3589457,-4.9059514]],[[-44.6386387,-4.8625012],[-44.6429995,-4.8570248]],[[-44.6429995,-4.8570248],[-44.6442539,-4.8605187],[-44.6406975,-4.8617057],[-44.6419529,-4.8673094],[-44.6399364,-4.8687582],[-44.6434269,-4.8756199]],[[-43.0411455,-3.1302931],[-43.0440862,-3.1385665]],[[-43.0440862,-3.1385665],[-43.0413974,-3.1459615],[-43.0305805,-3.1725982],[-43.0866235,-3.2178998],[-43.0868246,-3.2441567],[-43.1119452,-3.2443847],[-43.1261559,-3.2620796],[-43.1306637,-3.2762461],[-43.1347164,-3.2926234],[-43.12653,-3.3396421],[-43.1601376,-3.3601295],[-43.1630123,-3.4331437],[-43.1292205,-3.4784959],[-42.9657633,-3.4225909],[-42.9319563,-3.3875911],[-42.7529436,-3.4139883],[-42.5671613,-3.5583235],[-42.5626885,-3.5594182]],[[-42.5626885,-3.5594182],[-42.530243,-3.5114277],[-42.5269691,-3.485627],[-42.4883075,-3.4692255],[-42.4612565,-3.4846029],[-42.418981,-3.4535822],[-42.3999233,-3.4747505],[-42.3889887,-3.4490751],[-42.3558482,-3.4506558],[-42.3166987,-3.4341703],[-42.2952656,-3.4540514],[-42.2470775,-3.4325601],[-42.1995819,-3.4278288],[-42.1947444,-3.3993918],[-42.1506693,-3.3866119],[-42.1456821,-3.3544152],[-42.1257977,-3.3464177],[-42.1203067,-3.3105374],[-42.1236476,-3.2668048],[-42.0689723,-3.2643565],[-42.0483486,-3.249535],[-42.001928,-3.2422172],[-41.9736359,-3.2083594],[-41.9725504,-3.1932799],[-41.9469799,-3.1738931],[-41.925263,-3.1398717],[-41.9252738,-3.1143252],[-41.8956982,-3.0939472],[-41.8644743,-3.05218],[-41.8228453,-3.0179417],[-41.7967323,-2.9606173],[-41.8062776,-2.9383366],[-41.8351358,-2.9150608],[-41.8660379,-2.8699664],[-41.8451309,-2.8139355],[-41.8486424,-2.7838756],[-41.8260102,-2.7572674],[-41.8141601,-2.7277411],[-41.878638,-2.7203306],[-41.9937635,-2.7213606],[-42.0165117,-2.7375778],[-42.0436845,-2.7284903],[-42.0701524,-2.6871521],[-42.1283541,-2.6952237],[-42.2127713,-2.6871254],[-42.2225544,-2.6922353]],[[-43.5421452,-3.1296697],[-43.7833923,-3.2925577]],[[-43.7833923,-3.2925577],[-43.8008152,-3.2993654]],[[-43.6066977,-3.6186727],[-43.7293457,-3.9351168]],[[-43.7293457,-3.9351168],[-43.7253958,-3.9391453],[-43.7229491,-3.9461834],[-43.6021725,-4.0437127],[-43.605624,-4.1251085],[-43.5883056,-4.146775],[-43.5983473,-4.1834603],[-43.5945691,-4.2284178],[-43.5156878,-4.1867469],[-43.5003822,-4.1901827]],[[-43.5003822,-4.1901827],[-43.4292435,-4.2233224]],[[-43.4292435,-4.2233224],[-43.2666981,-4.0739806],[-43.208812,-4.0184058],[-43.1805031,-4.026604],[-43.000639,-4.0506097],[-42.8600917,-4.0764952],[-42.8559687,-4.0794396]],[[-42.8559687,-4.0794396],[-42.8415051,-4.0296258],[-42.8165846,-3.9931653],[-42.7914356,-3.9863746],[-42.7875595,-3.9629428],[-42.7392821,-3.9272592],[-42.723966,-3.9042989],[-42.7198343,-3.8750962],[-42.6840661,-3.8034277],[-42.6713615,-3.787338],[-42.684036,-3.7652214],[-42.6701707,-3.7270984],[-42.6832842,-3.7000585],[-42.6750751,-3.6726539],[-42.6433137,-3.6379537],[-42.6188251,-3.6206567],[-42.6117701,-3.5871407],[-42.5682976,-3.5704846],[-42.5626885,-3.5594182]],[[-43.0440862,-3.1385665],[-43.0942545,-3.1092261]],[[-43.2217065,-3.0222636],[-43.2427527,-2.9920423],[-43.2582132,-3.0044326]],[[-44.3606196,-4.8787122],[-44.3579273,-4.8949597]],[[-43.9599023,-5.0505],[-43.9574646,-5.047934]],[[-43.9574646,-5.047934],[-43.9258966,-5.025936],[-43.8709035,-5.0006573],[-43.8559649,-4.9780845],[-43.8482289,-4.9444063],[-43.8310167,-4.931713],[-43.8312809,-4.8980485],[-43.8528323,-4.8820958],[-43.843036,-4.8616224],[-43.8412551,-4.8106178],[-43.8265706,-4.7889671],[-43.8415925,-4.7634146],[-43.8353633,-4.7564092],[-43.700472,-4.7315945],[-43.6531983,-4.7547013],[-43.6322614,-4.7397947],[-43.6054785,-4.6781579],[-43.5926204,-4.6711253],[-43.5907318,-4.6630288],[-43.5842621,-4.6586994]],[[-43.5842621,-4.6586994],[-43.5868991,-4.6570919]],[[-43.5868991,-4.6570919],[-43.6140058,-4.6337715],[-43.6203705,-4.6122412],[-43.6662269,-4.5577985],[-43.6825898,-4.5398202],[-43.7117848,-4.5148801],[-43.7374015,-4.4814671],[-43.7014516,-4.4797215],[-43.6960082,-4.4924817],[-43.3681715,-4.3017736]],[[-43.3681715,-4.3017736],[-43.4295103,-4.2229783],[-43.5003822,-4.1901827]],[[-43.7293457,-3.9351168],[-43.8950229,-3.9674792]],[[-44.1988197,-3.9274449],[-44.3229389,-3.864474]],[[-43.5868991,-4.6570919],[-43.5831513,-4.6605961]],[[-43.5831513,-4.6605961],[-43.5583134,-4.67486],[-43.5089196,-4.6835986],[-43.4917023,-4.67663],[-43.4807585,-4.6507446],[-43.4633948,-4.6425641],[-43.4029542,-4.6303732],[-43.3667565,-4.6442435],[-43.3357898,-4.6717256],[-43.2814738,-4.6942914],[-43.2624789,-4.7126143],[-43.2119242,-4.676614],[-43.2040902,-4.6294196],[-43.1341442,-4.5625363],[-43.1219753,-4.5096973],[-43.0826724,-4.4461556],[-42.9486144,-4.3854667]],[[-42.9486144,-4.3854667],[-42.9642508,-4.3699734],[-42.9635249,-4.3272055],[-42.9847736,-4.2835362],[-42.986435,-4.2204805],[-42.9358417,-4.1591226],[-42.8967295,-4.15587],[-42.8873033,-4.1473043],[-42.8990805,-4.1164122],[-42.8697483,-4.1041016],[-42.8559687,-4.0794396]],[[-43.4292435,-4.2233224],[-43.3681715,-4.3017736]],[[-44.0717307,-5.8125479],[-44.0760644,-5.8191876]],[[-44.0760644,-5.8191876],[-44.0714441,-5.844369],[-44.0638205,-5.8696388],[-43.9053806,-6.0047781],[-43.8089325,-5.9991292],[-43.7113327,-5.9610214],[-43.6968272,-5.9270947],[-43.674866,-5.8996237],[-43.6757867,-5.871276],[-43.7193776,-5.8473876],[-43.7168202,-5.802375],[-43.7027272,-5.78001],[-43.6516106,-5.7601948],[-43.6351706,-5.7517163],[-43.6184009,-5.7417284],[-43.5973239,-5.7733582],[-43.5602559,-5.7718927],[-43.5600641,-5.8045747],[-43.5361662,-5.8376045],[-43.5503855,-5.847548],[-43.5500051,-5.8790058],[-43.5655497,-5.9130634],[-43.0964273,-5.9097102]],[[-43.0964273,-5.9097102],[-43.0770772,-5.8609096],[-43.096525,-5.8297994],[-43.090417,-5.8078268],[-43.1011671,-5.7586283],[-43.0758068,-5.7354861],[-43.0885602,-5.671597],[-43.0803547,-5.6515195],[-43.0976489,-5.6267148],[-43.0819956,-5.5995129],[-43.0332174,-5.5920741],[-43.0244021,-5.5617437],[-43.0042214,-5.542679],[-43.0002634,-5.519285],[-42.9740668,-5.4859637],[-42.9697043,-5.4575611],[-42.9306814,-5.4391741],[-42.9095318,-5.3944861],[-42.8866425,-5.3918993],[-42.8645688,-5.3687339],[-42.8243649,-5.3449061],[-42.8122357,-5.2823751],[-42.8294846,-5.2392642],[-42.8013879,-5.2013085],[-42.8053948,-5.1486048],[-42.8182455,-5.0975515],[-42.8353951,-5.0739684],[-42.8446323,-5.0242009],[-42.8632006,-4.9681237],[-42.8539165,-4.9372598],[-42.8856392,-4.9046048],[-42.8948643,-4.8831227],[-42.8974052,-4.8426144],[-42.9386462,-4.8092127],[-42.947344,-4.7633435],[-42.9262348,-4.7506827],[-42.9230768,-4.7212766],[-42.9442167,-4.706368],[-42.9446269,-4.6716971],[-42.9161689,-4.6514334],[-42.8665233,-4.5662958],[-42.8744192,-4.5339525],[-42.8501059,-4.4980412],[-42.8535976,-4.4743222],[-42.8755527,-4.4629476],[-42.8710854,-4.4300212],[-42.8966234,-4.4022265],[-42.9272121,-4.3851744],[-42.9486144,-4.3854667]],[[-43.5831513,-4.6605961],[-43.5842621,-4.6586994]],[[-43.9574646,-5.047934],[-44.0026319,-5.1642752]],[[-45.9108328,-6.641566],[-45.9313179,-6.6509026]],[[-45.9313179,-6.6509026],[-45.948077,-6.6740222]],[[-45.948077,-6.6740222],[-45.8468613,-6.7229345],[-45.826306,-6.715429]],[[-45.826306,-6.715429],[-45.8002214,-6.7189834],[-45.7464983,-6.7001317],[-45.7354468,-6.7129397],[-45.6781858,-6.7280607],[-45.6613887,-6.7418895],[-45.6421385,-6.7568634],[-45.6387426,-6.766981],[-45.6235271,-6.7918065],[-45.6018567,-6.8157241],[-45.5727757,-6.819865],[-45.555801,-6.8064815],[-45.5013269,-6.8033817],[-45.4659873,-6.7919497],[-45.4491581,-6.7778283],[-45.4004109,-6.7576207],[-45.3686344,-6.759273],[-45.3543599,-6.7803718],[-45.3309408,-6.7796011],[-45.2837466,-6.7967653],[-45.2531635,-6.7878966],[-45.1951061,-6.8037621],[-45.1700788,-6.7977953],[-45.1193562,-6.8153898],[-45.06152,-6.7735847],[-45.0618393,-6.7615331],[-45.0108025,-6.7311912],[-44.9730467,-6.7391807],[-44.9448565,-6.7319885],[-44.9398789,-6.7172185],[-44.9025569,-6.7057721],[-44.8528619,-6.7029148],[-44.8200442,-6.7112964],[-44.7362117,-6.7062258],[-44.6967783,-6.693838],[-44.6682948,-6.700279],[-44.6305475,-6.6799702],[-44.4197531,-6.7995314],[-44.4073728,-6.8368638],[-44.3885913,-6.8448763],[-44.378265,-6.8766943],[-44.3295175,-6.9196321],[-44.3227106,-6.9437608],[-44.2731445,-6.9561033],[-44.25501,-6.9818188],[-44.2492751,-7.0005408]],[[-44.2492751,-7.0005408],[-44.2359545,-6.9987123],[-44.2081719,-6.9699452],[-44.1986023,-6.9297624],[-44.1786515,-6.9271586],[-44.171346,-6.8849772],[-44.0987098,-6.8399437],[-44.1162756,-6.8057859],[-44.0590626,-6.8084375],[-44.0533707,-6.7683088],[-44.0333933,-6.7604041],[-43.9877336,-6.7572779],[-43.9567604,-6.7431544],[-43.9451026,-6.76551],[-43.9277616,-6.770447],[-43.9137943,-6.7526615],[-43.879918,-6.7577824],[-43.8537609,-6.7356117],[-43.8201262,-6.7272772],[-43.7908561,-6.702332],[-43.6985419,-6.7095514],[-43.672721,-6.7062693],[-43.6428744,-6.7165511],[-43.5843756,-6.7574843],[-43.5616591,-6.7481209],[-43.5416337,-6.7891369],[-43.5083976,-6.7988271],[-43.4834282,-6.8330325],[-43.45753,-6.8460734],[-43.4191289,-6.8440105],[-43.3664572,-6.8199615],[-43.3451933,-6.7975282],[-43.2959868,-6.799846],[-43.2712618,-6.7925679],[-43.2500549,-6.7686466],[-43.2192219,-6.7638428],[-43.1782741,-6.7673365],[-43.1475876,-6.7836885],[-43.1049784,-6.7702479],[-43.0882871,-6.7517415],[-43.0652154,-6.7499791],[-43.0479056,-6.7619503],[-43.0110623,-6.7600094],[-42.9928003,-6.7487284],[-42.977444,-6.7179372],[-42.9511065,-6.7050771],[-42.9187118,-6.66885],[-42.9077155,-6.6059212],[-42.8885014,-6.58016],[-42.886233,-6.5087383],[-42.8657951,-6.483881],[-42.8779309,-6.4184932],[-42.854454,-6.3825418],[-42.8515221,-6.3586007],[-42.8316358,-6.3446918],[-42.8491967,-6.3071447],[-42.8465222,-6.2813837],[-42.8545028,-6.2498564],[-42.8766595,-6.2253549],[-42.8930075,-6.225472],[-42.9346657,-6.1915956],[-42.9699111,-6.1773251],[-42.9797895,-6.1330731],[-42.9922986,-6.1175746],[-43.0477101,-6.1039219],[-43.0761785,-6.0427426],[-43.0506908,-6.0181595],[-43.0478658,-5.9956278],[-43.0842113,-5.9573401],[-43.0869477,-5.9191393],[-43.0964273,-5.9097102]],[[-44.0760644,-5.8191876],[-44.0852963,-5.8176297]],[[-44.5400131,-5.8226054],[-44.5414214,-5.8189444]],[[-47.4302297,-6.0683528],[-47.4344778,-6.0931153],[-47.423204,-6.1601861],[-47.4014776,-6.2092485],[-47.3853684,-6.2303915],[-47.3772358,-6.2667683],[-47.4086249,-6.3280669],[-47.4099549,-6.3696555],[-47.4342057,-6.4311886],[-47.4163425,-6.4838766],[-47.4564977,-6.5382745],[-47.4687902,-6.6212462],[-47.4986441,-6.6712316],[-47.4941187,-6.7548332],[-47.516702,-6.7902601],[-47.5296459,-6.8313891],[-47.5070392,-6.8720101],[-47.5076246,-6.9071901],[-47.5295707,-6.946013],[-47.5288692,-6.9772069],[-47.5482935,-7.0188936],[-47.574782,-7.0503378],[-47.5972327,-7.063401],[-47.6184295,-7.0911604],[-47.6274527,-7.1215814],[-47.6603749,-7.1513681],[-47.7106552,-7.1376528],[-47.7451291,-7.1625048],[-47.7498258,-7.1952617],[-47.73507,-7.2188998],[-47.6910091,-7.2382985],[-47.6539303,-7.2982028],[-47.6270111,-7.3008237],[-47.5919031,-7.2639953],[-47.5401768,-7.2657935],[-47.4997864,-7.2938583],[-47.4782024,-7.3367537],[-47.4929962,-7.3758749],[-47.5803436,-7.4192029],[-47.5915697,-7.4400683],[-47.5628339,-7.4506335],[-47.5284919,-7.4335397],[-47.501525,-7.4397949],[-47.4963582,-7.4813961],[-47.4621207,-7.5185247],[-47.4245863,-7.5294229],[-47.4342679,-7.5595947],[-47.3990893,-7.5691277],[-47.4051568,-7.5871964],[-47.383018,-7.6003894],[-47.3884071,-7.6324683],[-47.3822788,-7.6545981],[-47.3525614,-7.6417863],[-47.3321237,-7.6849116],[-47.3029899,-7.6902464],[-47.3161674,-7.7175096],[-47.2889445,-7.7295401],[-47.2603057,-7.7548823],[-47.2357944,-7.8039551],[-47.1470843,-7.8968663],[-47.1036372,-7.9540427],[-47.0997545,-7.9846888],[-47.0624465,-8.0045961],[-47.0457385,-8.0529369],[-47.020205,-8.0607748],[-46.970654,-8.0435818],[-46.9416367,-7.9979071],[-46.9178486,-7.9818579],[-46.8960416,-7.9860631],[-46.8832574,-7.9642485],[-46.830271,-7.964222],[-46.8066333,-7.9510298]],[[-46.8066333,-7.9510298],[-46.846503,-7.8803418],[-46.8308978,-7.839655],[-46.8338993,-7.8223518],[-46.8039223,-7.804221],[-46.794478,-7.7880856],[-46.8026417,-7.7489847],[-46.8120199,-7.7453641],[-46.8358097,-7.7335252],[-46.8673944,-7.7361388],[-46.8939769,-7.7478293],[-46.9044309,-7.7249739],[-46.9612797,-7.7054935],[-47.0122822,-7.7036637],[-47.0502489,-7.6694703],[-47.046991,-7.6579783],[-47.0866473,-7.6484862],[-47.1279178,-7.6572008],[-47.1686146,-7.6445068],[-47.2179673,-7.6382609],[-47.2049848,-7.5878409],[-47.1803457,-7.5644368],[-47.1443125,-7.5436966],[-47.1252804,-7.5208977],[-47.1189784,-7.4661657],[-47.1091167,-7.4351872],[-47.0874775,-7.4065074],[-47.0266396,-7.3824791],[-47.0076472,-7.3570403],[-46.9830091,-7.3548187],[-46.9680728,-7.3313708],[-46.9741919,-7.3020306],[-46.9895053,-7.2774488],[-46.9825665,-7.2578568],[-46.9266531,-7.2161321],[-46.714381,-7.2367599],[-46.7036697,-7.2275629],[-46.7110523,-7.2179231],[-46.7267871,-7.1913093],[-46.7299471,-7.1602797],[-46.7749221,-7.129035],[-46.7694478,-7.106332],[-46.771838,-7.093058],[-46.7792581,-7.0794468],[-46.8298678,-7.061584],[-46.8648713,-7.046082],[-46.8869463,-7.0176398],[-46.8853671,-6.9899881],[-46.8665557,-6.9806399],[-46.8645851,-6.9596982],[-46.8385638,-6.9300156],[-46.7604412,-6.9059804],[-46.7527551,-6.8886522],[-46.6820843,-6.8388526],[-46.6614486,-6.8476012],[-46.6467812,-6.8316542],[-46.6217565,-6.8203497],[-46.5773594,-6.8144539],[-46.5259188,-6.8345104],[-46.5072786,-6.858221],[-46.4706731,-6.8676887],[-46.4258051,-6.8644767],[-46.4160846,-6.8924585],[-46.4186641,-6.9234513],[-46.4132244,-6.9308695],[-46.3738098,-6.920329],[-46.3514723,-6.9305416],[-46.3401733,-6.939397]],[[-46.3401733,-6.939397],[-46.3065015,-6.9074924]],[[-46.3065015,-6.9074924],[-46.3189676,-6.9110423]],[[-46.8066333,-7.9510298],[-46.7861749,-7.952884],[-46.7461334,-7.927386],[-46.70928,-7.9134842],[-46.6494081,-7.9100205],[-46.6068151,-7.895552],[-46.5776207,-7.911281],[-46.5598218,-7.9408804],[-46.5102664,-7.9658306],[-46.4763892,-8.0146165],[-46.4800166,-8.0422919],[-46.4658023,-8.0728487],[-46.4825614,-8.0887668],[-46.4908179,-8.1181075],[-46.5152657,-8.1715193],[-46.4892589,-8.2078367],[-46.5091024,-8.2355974],[-46.5077205,-8.2696365],[-46.5446015,-8.3178224],[-46.6112642,-8.3277128],[-46.6338866,-8.3183546],[-46.7116354,-8.354844],[-46.7280989,-8.3863849],[-46.7824337,-8.3680837],[-46.7857303,-8.3953681],[-46.8026138,-8.4060856],[-46.7954804,-8.429969],[-46.8005095,-8.4540934],[-46.8234833,-8.4744962],[-46.8491469,-8.4746502],[-46.8433518,-8.5228537],[-46.8624212,-8.55537],[-46.9022558,-8.5862755],[-46.8977279,-8.6010165],[-46.9170946,-8.6329114],[-46.9163941,-8.6484068],[-46.8891737,-8.6697885],[-46.8869493,-8.6864898],[-46.9143685,-8.7085831],[-46.9248679,-8.7442212],[-46.9075097,-8.7720788],[-46.9028067,-8.8145359],[-46.9181468,-8.856995],[-46.9415578,-8.859479],[-46.9597282,-8.8754498],[-46.9929219,-8.8788894],[-46.9714187,-8.9164052],[-47.0112552,-8.9466044],[-47.0215615,-8.9886406],[-47.0358639,-8.989814],[-47.0577274,-9.0529545],[-47.0411236,-9.0681621],[-47.0073415,-9.0821934],[-46.9759264,-9.0817295],[-46.9402883,-9.0637411],[-46.9121494,-9.0827243],[-46.9302566,-9.1059806],[-46.9263087,-9.1349438],[-46.8999976,-9.1280193],[-46.8846186,-9.1439041],[-46.861117,-9.1464228],[-46.8478096,-9.1680103],[-46.8523673,-9.1861361],[-46.8196135,-9.2116185],[-46.8288944,-9.2400898],[-46.8189454,-9.2600573],[-46.8470632,-9.2924222],[-46.8187517,-9.3034377],[-46.7991716,-9.3388432],[-46.7586743,-9.3812175],[-46.7543134,-9.4138029],[-46.7233119,-9.3963646],[-46.6659757,-9.3919186],[-46.6337571,-9.4137633],[-46.6495644,-9.444091],[-46.6275914,-9.4657229],[-46.5732556,-9.4777617],[-46.5591976,-9.4929926],[-46.5745282,-9.5206835],[-46.5391662,-9.5601446],[-46.5923881,-9.5872005],[-46.6130575,-9.6658082],[-46.6533374,-9.6934421],[-46.6443936,-9.7403333],[-46.6236666,-9.7502102],[-46.5961386,-9.7472513],[-46.5750865,-9.7585754],[-46.579665,-9.7963455],[-46.5624781,-9.8106895],[-46.5143077,-9.7977511],[-46.4803335,-9.8552553],[-46.4708399,-9.8980472],[-46.4786115,-9.9238687],[-46.4775839,-9.9883014],[-46.457085,-10.0180174],[-46.4565293,-10.0499237],[-46.4452004,-10.0773873],[-46.420695,-10.0808792],[-46.3839691,-10.1201424],[-46.3678895,-10.1688141],[-46.3275253,-10.1836944],[-46.3130818,-10.1728238],[-46.2682935,-10.1812102],[-46.2408341,-10.1718858],[-46.2020098,-10.1740091],[-46.1633034,-10.2136326],[-46.135913,-10.2063543],[-46.0928346,-10.2099009],[-46.0584106,-10.1855633],[-46.0282782,-10.1768696],[-46.0177241,-10.2403919],[-45.9462653,-10.2585499],[-45.9552948,-10.2184428],[-45.945619,-10.1964425],[-45.9000213,-10.1527686],[-45.8785439,-10.1102993],[-45.8699363,-10.069292],[-45.8801071,-10.0610063],[-45.8670217,-10.0117517],[-45.8540563,-9.9900761],[-45.8422862,-9.9415579],[-45.8662777,-9.870719],[-45.8387355,-9.7968986],[-45.8214206,-9.7731271],[-45.8210097,-9.7392142],[-45.8385678,-9.6963177],[-45.8335115,-9.6522772],[-45.8203869,-9.6179128],[-45.8367433,-9.6021266],[-45.8419325,-9.5628899],[-45.8323329,-9.5366631],[-45.7976247,-9.4872621],[-45.7834353,-9.4794771],[-45.801624,-9.436008],[-45.7991632,-9.4163401],[-45.8246917,-9.3745778],[-45.8480022,-9.3558846],[-45.8877335,-9.3488501],[-45.9079205,-9.297005],[-45.8972877,-9.2332596],[-45.9060932,-9.191255],[-45.9294989,-9.1276255],[-45.9232199,-9.0899924],[-45.9383299,-9.0631884],[-45.943779,-9.0151149],[-45.9911913,-8.950212],[-45.9950893,-8.9269916],[-45.967338,-8.8763614],[-45.9536804,-8.8069269],[-45.9377073,-8.7812437],[-45.8898847,-8.7392622],[-45.8404069,-8.715529],[-45.8218323,-8.665927],[-45.815991,-8.6327526],[-45.7774735,-8.6174334],[-45.7948031,-8.5917974],[-45.7707796,-8.5732971],[-45.7538373,-8.5420633],[-45.7570902,-8.5269374],[-45.7386778,-8.5006556],[-45.7449161,-8.4491543],[-45.7305013,-8.4295698],[-45.7246755,-8.394824],[-45.7031008,-8.3807083],[-45.6903817,-8.3359749],[-45.667125,-8.2886542],[-45.6636264,-8.2505308],[-45.609782,-8.2054181],[-45.6150805,-8.1933337],[-45.5837278,-8.1569362],[-45.585718,-8.1027887],[-45.5630388,-8.0456436],[-45.5776554,-8.0283313],[-45.5511074,-8.0087642],[-45.5681098,-7.9941221],[-45.5554554,-7.9711117],[-45.5394653,-7.9183584],[-45.5382959,-7.8616463]],[[-45.5382959,-7.8616463],[-45.6197129,-7.8073136],[-45.6537501,-7.7999767],[-45.6731335,-7.7910022],[-45.7169144,-7.7887426],[-45.7510222,-7.7806665],[-45.8218333,-7.8132475],[-45.8353891,-7.8464619],[-45.8275819,-7.9230555],[-45.7932498,-7.9348496],[-45.7801352,-7.9647016],[-45.7730523,-7.975415],[-45.7718568,-7.9922931],[-45.7940497,-8.0170778],[-45.8412715,-7.9796207],[-45.8276022,-7.9538202],[-45.8461367,-7.914479],[-45.8419369,-7.8766813],[-45.8499818,-7.8401068],[-45.8614467,-7.8273576],[-45.8595529,-7.8177518],[-45.8442874,-7.8043067],[-45.8442146,-7.767375],[-45.7959328,-7.724794],[-45.791773,-7.7032145],[-45.8007401,-7.6580915],[-45.8011741,-7.6180441],[-45.7934671,-7.5838529],[-45.8152987,-7.5477341],[-45.8218455,-7.4954411],[-45.8321836,-7.478726],[-45.8149463,-7.452938],[-45.7794723,-7.4427117],[-45.7558278,-7.4514007],[-45.7436343,-7.4380054],[-45.719888,-7.4474807],[-45.6885174,-7.4310485],[-45.6839175,-7.4236918],[-45.6883977,-7.4148424],[-45.6761426,-7.402422],[-45.6778566,-7.3978067],[-45.6948896,-7.3929202],[-45.7102141,-7.3848691],[-45.720305,-7.366921],[-45.7701982,-7.3363192],[-45.8052388,-7.3284703],[-45.8395745,-7.3025717],[-45.8696752,-7.2896777],[-46.0717953,-7.1598928],[-46.1980899,-7.257961],[-46.2449993,-7.3409216],[-46.2576622,-7.347878],[-46.2934168,-7.3384581],[-46.3064203,-7.3161241],[-46.3124717,-7.2839062],[-46.2931399,-7.1998466],[-46.4510456,-7.0664507],[-46.4043493,-6.9985289]],[[-46.4043493,-6.9985289],[-46.3401733,-6.939397]],[[-45.5382959,-7.8616463],[-45.5112007,-7.823467],[-45.5106337,-7.8013623],[-45.4892855,-7.7856433],[-45.4823218,-7.715842],[-45.4700819,-7.6898976],[-45.43751,-7.6780512],[-45.4325307,-7.661539],[-45.398301,-7.6393154],[-45.3939766,-7.6133803],[-45.3721818,-7.6183838],[-45.3346804,-7.5776595],[-45.2617074,-7.5711843],[-45.2323263,-7.5490714],[-45.2136061,-7.5655847],[-45.1810039,-7.5419599],[-45.155528,-7.5129145],[-45.1267163,-7.5142023],[-45.0843087,-7.5021569],[-45.0492328,-7.5132098],[-44.9870148,-7.4811379],[-44.9230093,-7.4682318],[-44.9004353,-7.4254106],[-44.8697051,-7.4230572],[-44.8480283,-7.3865659],[-44.8206005,-7.375623],[-44.8164962,-7.3608938],[-44.7803456,-7.3785175],[-44.7419808,-7.3617039],[-44.7299293,-7.3907703],[-44.6895567,-7.3954617],[-44.6784272,-7.3592559],[-44.6591714,-7.3285253],[-44.6158702,-7.3086662],[-44.5940769,-7.2671767],[-44.5717854,-7.2484287],[-44.5641953,-7.227708],[-44.5351164,-7.2273081],[-44.5142335,-7.1960154],[-44.4620959,-7.1600911],[-44.4306277,-7.1515581],[-44.3860639,-7.1209154],[-44.363098,-7.1214972],[-44.3324675,-7.1086126],[-44.3051848,-7.1178122],[-44.2757784,-7.0745111],[-44.2783193,-7.0381894],[-44.2492751,-7.0005408]],[[-45.826306,-6.715429],[-45.845091,-6.7229358],[-45.8478761,-6.7226808],[-45.948077,-6.6740222]],[[-45.9313179,-6.6509026],[-45.9260289,-6.6467509]],[[-46.3022607,-6.9053854],[-46.3065015,-6.9074924]],[[-46.3065015,-6.9074924],[-46.4043493,-6.9985289]]],"bbox":[-48.7551507,-10.2585499,-41.7967323,-1.0497949]}
