{"type":"Topology","objects":{"geometrias":{"type":"GeometryCollection","geometries":[{"type":"Polygon","arcs":[[0,1]],"properties":{"code_micro":12001,"name_micro":"Cruzeiro do Sul","code_state":12,"code_region":1,"abbrev_state":"AC","name_state":"Acre","name_region":"Norte","year":2020}},{"type":"Polygon","arcs":[[-2,2,3,4]],"properties":{"code_micro":12002,"name_micro":"Tarauacá","code_state":12,"code_region":1,"abbrev_state":"AC","name_state":"Acre","name_region":"Norte","year":2020}},{"type":"Polygon","arcs":[[5,6,7,8,-4]],"properties":{"code_micro":12003,"name_micro":"Sena Madureira","code_state":12,"code_region":1,"abbrev_state":"AC","name_state":"Acre","name_region":"Norte","year":2020}},{"type":"Polygon","arcs":[[9,10,-8]],"properties":{"code_micro":12004,"name_micro":"Rio Branco","code_state":12,"code_region":1,"abbrev_state":"AC","name_state":"Acre","name_region":"Norte","year":2020}},{"type":"Polygon","arcs":[[11,-10,-7]],"properties":{"code_micro":12005,"name_micro":"Brasiléia","code_state":12,"code_region":1,"abbrev_state":"AC","name_state":"Acre","name_region":"Norte","year":2020}}]}},"arcs":[[[-71.945425,-7.6267544],[-72.5847656,-7.5520042],[-73.8015581,-7.1118244],[-73.7593778,-7.1741528],[-73.7551757,-7.1978728],[-73.7138092,-7.2338586],[-73.7157012,-7.2672167],[-73.6998092,-7.3039087],[-73.7182056,-7.3288278],[-73.7553892,-7.3464998],[-73.7695951,-7.3315391],[-73.7941194,-7.3438],[-73.8171184,-7.3349948],[-73.8522593,-7.3469005],[-73.8598963,-7.3688202],[-73.8764986,-7.3822713],[-73.9095101,-7.3776894],[-73.9308953,-7.3519169],[-73.9661735,-7.3516089],[-73.9586433,-7.3778005],[-73.9313606,-7.4228034],[-73.9193138,-7.4652919],[-73.9475119,-7.5262282],[-73.99045,-7.535961],[-73.9833394,-7.5661919],[-73.96834,-7.5673473],[-73.9423696,-7.5985696],[-73.8862021,-7.6357804],[-73.8851111,-7.655294],[-73.8729444,-7.6711139],[-73.8421729,-7.6777467],[-73.8216727,-7.7174972],[-73.7400384,-7.7337081],[-73.6838099,-7.7760549],[-73.6871278,-7.8540306],[-73.7039513,-7.8726048],[-73.7661231,-7.8702078],[-73.7530311,-7.8895578],[-73.7706702,-7.9049215],[-73.7509177,-7.9233741],[-73.7465002,-7.9525574],[-73.6976112,-7.9601963],[-73.6759694,-8.0078056],[-73.645945,-8.0030157],[-73.6268945,-8.0214883],[-73.623446,-8.0393573],[-73.6334028,-8.0567639],[-73.6155648,-8.0695963],[-73.5939507,-8.0974044],[-73.5853371,-8.1228217],[-73.5912575,-8.1423072],[-73.5864738,-8.1863764],[-73.5716423,-8.229799],[-73.540316,-8.2627455],[-73.5401176,-8.295012],[-73.529673,-8.3121486],[-73.5369514,-8.3454823],[-73.504229,-8.3787206],[-73.4820046,-8.3917564],[-73.4215646,-8.4069979],[-73.4067255,-8.4191677],[-73.3944472,-8.4672805],[-73.3650614,-8.4633761],[-73.3277309,-8.4815263],[-73.3279826,-8.5170783],[-73.3439737,-8.602084],[-73.3370309,-8.6178205],[-73.3195902,-8.6141031],[-73.2848078,-8.6663586],[-73.2478472,-8.6873417],[-73.2083462,-8.6809506],[-73.1760722,-8.6942972],[-73.1423749,-8.7227033],[-73.1382139,-8.759575],[-73.1116132,-8.7919389],[-73.1118192,-8.8155633],[-73.0942563,-8.8372193],[-73.0779829,-8.8428526],[-73.0774793,-8.8609133],[-73.0562238,-8.9069022],[-73.043231,-8.9152888],[-73.0088988,-8.9127606],[-72.9948074,-8.9198464],[-72.9705916,-8.9748771],[-72.9443695,-8.9840943],[-72.9392044,-8.9968496],[-72.9569198,-9.0106693],[-72.9483443,-9.0256468],[-72.9401503,-9.069016],[-72.9438353,-9.1022381],[-72.9643658,-9.1469826],[-73.0086575,-9.1677297],[-73.011172,-9.187591],[-72.9950587,-9.1943182],[-73.0220591,-9.2259439],[-73.0449472,-9.2368663],[-73.0562005,-9.2252964],[-73.0865889,-9.2444833],[-73.1104529,-9.2842916],[-73.1072561,-9.3075126],[-73.1393083,-9.3218],[-73.1566792,-9.3508962],[-73.187952,-9.3612217],[-73.1935366,-9.3928102],[-73.2118972,-9.4116694],[-72.7197435,-9.4116569],[-72.7048975,-9.4336234],[-72.6685267,-9.4373594],[-72.5520545,-9.4651509],[-72.504177,-9.4865433],[-72.4548713,-9.4874481],[-72.4049434,-9.4818818],[-72.3865863,-9.4930565],[-72.3693987,-9.4899031],[-72.3404069,-9.508674]],[[-72.3404069,-9.508674],[-72.304004,-9.5084212],[-72.2939508,-9.4933005],[-72.2727619,-9.4873901],[-72.2517379,-9.4593811],[-72.249293,-9.4445117],[-72.2225806,-9.415048],[-72.1831533,-9.3886753],[-72.160919,-9.3938393],[-72.1204226,-9.3187664],[-72.1011212,-9.3078599],[-72.0976062,-9.2931986],[-72.0441703,-9.197972],[-72.0677817,-9.1752387],[-72.0691501,-9.1557493],[-72.0525278,-9.1425226],[-72.0318976,-9.0688501],[-72.0426914,-9.0286579],[-72.0294196,-9.0020325],[-72.0283929,-8.9708553],[-72.0362354,-8.9448196],[-72.0537962,-8.9339812],[-72.0440076,-8.9004073],[-72.1248354,-8.8285331],[-72.1439786,-8.7118072],[-72.213975,-8.7008226],[-72.2301946,-8.5969337],[-72.2012864,-8.5519009],[-72.2283301,-8.516804],[-72.2316006,-8.4102615],[-72.2660158,-8.3908611],[-72.2256299,-8.2808912],[-72.2663,-8.2605684],[-72.2576826,-8.0714501],[-72.2616996,-8.0590986],[-72.2473251,-8.0365393],[-72.2256852,-8.0203625],[-72.216129,-7.9760666],[-72.1826849,-7.9466194],[-72.1560029,-7.937275],[-72.1293203,-7.9179989],[-72.1031473,-7.8817714],[-72.0783369,-7.8564559],[-72.000853,-7.8083759],[-71.945425,-7.6267544]],[[-72.3404069,-9.508674],[-72.3344256,-9.528392],[-72.3186542,-9.5436174],[-72.2904105,-9.5357403],[-72.2815753,-9.5470772],[-72.289005,-9.6023333],[-72.2691567,-9.6203533],[-72.2604556,-9.6448615],[-72.2463043,-9.6564751],[-72.2512388,-9.6930534],[-72.2639276,-9.7131304],[-72.2707329,-9.7422337],[-72.2431985,-9.7657159],[-72.1753123,-9.7818892],[-72.1509822,-9.7989274],[-72.165478,-9.8280307],[-72.1550867,-9.8605166],[-72.1406748,-9.8775139],[-72.1740914,-9.9215917],[-72.1558419,-9.9604768],[-72.1806755,-9.9847831],[-72.1804528,-10],[-71.3774167,-10],[-71.3529039,-9.976565],[-71.3388735,-9.9719978],[-71.3177325,-9.9912372],[-71.2710942,-9.978271],[-71.2530537,-9.9639181],[-71.210845,-9.9663901],[-71.2057029,-9.9471764],[-71.1813729,-9.9174981],[-71.163009,-9.8753209],[-71.1298706,-9.8525155],[-71.1030315,-9.8521419],[-71.0777201,-9.8277404]],[[-71.0777201,-9.8277404],[-71.1003676,-9.815937],[-71.0893152,-9.7788526],[-71.10176,-9.7505759],[-71.0887741,-9.7399986],[-71.0792381,-9.7000535],[-71.0454999,-9.6424408],[-70.9568025,-9.5862677],[-70.9510953,-9.5359571],[-70.9025943,-9.5076897],[-70.8558478,-9.4488224],[-70.7907966,-9.4488568],[-70.7704216,-9.4220468],[-70.7346482,-9.4155587],[-70.6934726,-9.3716077],[-70.6314417,-9.3768495],[-70.6395699,-9.3129807],[-70.6291823,-9.3063122],[-70.6272362,-9.2701937],[-70.5720531,-9.2131273],[-70.5276914,-9.1382566],[-70.498841,-9.1067427],[-70.4529227,-9.1037944],[-70.4371644,-9.0855626],[-70.4027833,-9.0182364],[-70.3650949,-8.9824266],[-70.3189786,-8.9636297],[-70.193502,-8.9674508],[-70.0900955,-8.9736114],[-69.8651048,-8.9574983],[-69.8396754,-8.9442345],[-69.8263143,-8.9205578],[-69.7950748,-8.8402169],[-69.7631514,-8.7849536],[-69.7258332,-8.7636214],[-69.6595354,-8.6819052],[-69.6282068,-8.6814263],[-69.6063431,-8.6607318],[-69.5717012,-8.6440374],[-69.5673968,-8.612526],[-69.550813,-8.5852018],[-69.5425811,-8.5484265],[-69.5116455,-8.4937244],[-69.5136712,-8.4784663],[-69.4983664,-8.4448311],[-69.4793683,-8.4214044],[-69.4499417,-8.3964007],[-69.4513107,-8.3882322],[-69.4475279,-8.3829689],[-69.4450951,-8.3742264],[-69.4451172,-8.368868],[-69.4443203,-8.3664854]],[[-69.4443203,-8.3664854],[-70.0549793,-7.8451491],[-71.945425,-7.6267544]],[[-71.0777201,-9.8277404],[-71.0505177,-9.8155678],[-70.9941792,-9.8172051],[-70.990172,-9.7902831],[-70.9710559,-9.7556799],[-70.9528115,-9.741955],[-70.9244928,-9.7414686],[-70.8960949,-9.7090652],[-70.8891319,-9.6895719],[-70.8535363,-9.6554078],[-70.8351417,-9.6461212],[-70.7991947,-9.6423345],[-70.7863416,-9.614219],[-70.7582669,-9.6056215],[-70.7579879,-9.5787724],[-70.7474603,-9.563128],[-70.7255064,-9.5673678],[-70.7145817,-9.5469538],[-70.6609778,-9.5217984],[-70.6366931,-9.4982098],[-70.6085862,-9.4572031],[-70.5617307,-9.4287362],[-70.5489205,-9.4345044],[-70.5095108,-9.42296],[-70.5154814,-9.5021727],[-70.5323256,-9.4997177],[-70.5477215,-9.5192722],[-70.5377008,-9.5342547],[-70.5642439,-9.5397036],[-70.570531,-9.554844],[-70.5907871,-9.5483795],[-70.6002714,-9.5629799],[-70.5850337,-9.5906183],[-70.598485,-9.6074383],[-70.5666043,-9.6679226],[-70.542164,-9.6798394],[-70.526011,-9.7244768],[-70.5362926,-9.7658027],[-70.5596386,-9.7895497],[-70.578182,-9.777613],[-70.5906986,-9.8036836],[-70.6125744,-9.8050779],[-70.6205864,-9.832251],[-70.6208803,-10.7054892]],[[-70.6208803,-10.7054892],[-70.6046141,-10.7026699],[-70.5973507,-10.7004771],[-70.5809892,-10.7033868],[-70.5706037,-10.6908413],[-70.5545748,-10.6876469],[-70.5318082,-10.6963129],[-70.5294908,-10.7176606],[-70.4850198,-10.7247866],[-70.464517,-10.7086262],[-70.4540242,-10.7148986],[-70.4176963,-10.712221],[-70.4007448,-10.725377],[-70.3820337,-10.7223937],[-70.3421332,-10.7046729],[-70.3141309,-10.7140869],[-70.3113414,-10.7011097],[-70.2530087,-10.7115885],[-70.2517749,-10.6974726],[-70.2215088,-10.6865926],[-70.2112092,-10.7006036],[-70.1794089,-10.6908624],[-70.1745595,-10.6742468],[-70.1370944,-10.6630919],[-70.101775,-10.6408653],[-70.0935353,-10.6514094],[-70.0703181,-10.6162432],[-70.0182296,-10.5962278],[-70.0055481,-10.58198],[-69.9743165,-10.584838],[-69.9390186,-10.5659069],[-69.9302424,-10.5492634],[-69.8987425,-10.5584079],[-69.8671676,-10.5428821],[-69.8332859,-10.541205],[-69.8300565,-10.5084102],[-69.7989429,-10.5057624],[-69.8062492,-10.4853706],[-69.7857679,-10.4615907],[-69.7592355,-10.4572861],[-69.7445906,-10.4472628],[-69.7248174,-10.4541525],[-69.6806468,-10.4216123],[-69.663781,-10.4267616],[-69.6269168,-10.4025446],[-69.6124436,-10.3823359],[-69.5833714,-10.3795961],[-69.5621766,-10.3885187],[-69.5410354,-10.4195429],[-69.5437329,-10.4517215],[-69.5328644,-10.4848179],[-69.5078753,-10.5050009],[-69.3418082,-10.485329]],[[-69.3418082,-10.485329],[-69.3637827,-10.4630806],[-69.3420149,-10.4028505],[-69.3108891,-10.3639175],[-69.1723685,-10.2865348],[-69.120836,-10.2689437],[-69.0372786,-10.1644308],[-68.88509,-10.0627429],[-68.8013562,-9.9620825],[-68.6943907,-9.8868387],[-68.666518,-9.8409788],[-68.6929184,-9.7503694],[-68.7000604,-9.6792667],[-68.6727219,-9.5601234],[-68.6333503,-9.5159178],[-68.6077687,-9.5052309],[-68.6012203,-9.5380189],[-68.5841514,-9.539198],[-68.5140717,-9.5887263],[-68.5102464,-9.5755387],[-68.4874997,-9.5707503],[-68.4667738,-9.5460016],[-68.4538413,-9.5519653],[-68.4352538,-9.5421795],[-68.4279456,-9.5447877],[-68.4252997,-9.5457954],[-68.4198595,-9.5440246],[-68.413083,-9.5414672],[-68.4129627,-9.5404432],[-68.4137344,-9.5372301],[-68.3980691,-9.5071582],[-68.3695793,-9.4994918],[-68.3328623,-9.4587151],[-68.3342222,-9.4541963],[-68.3302968,-9.4419778],[-68.400752,-9.323837],[-68.3476794,-9.2910619],[-68.3164304,-9.2954092],[-68.2859334,-9.2841473],[-68.2688803,-9.2660618],[-68.2463158,-9.2635587],[-68.2198982,-9.2427531]],[[-68.2198982,-9.2427531],[-68.6471864,-9.0494166],[-69.4443203,-8.3664854]],[[-69.3418082,-10.485329],[-69.337401,-10.4809666],[-69.3160714,-10.4722971],[-69.2935983,-10.4689171],[-69.277866,-10.463937],[-69.2551576,-10.4576205],[-69.2485809,-10.4478507],[-69.2464916,-10.4367424],[-69.2211255,-10.4152556],[-69.1957012,-10.4123463],[-69.1827054,-10.3987333],[-69.1516357,-10.3989078],[-69.1493981,-10.3850165],[-68.7129408,-10.3840143],[-68.7064295,-10.3640577],[-68.6832507,-10.3554356],[-68.6851266,-10.3392808],[-68.6609859,-10.3280026],[-68.6417371,-10.3059375],[-68.6169861,-10.3066345],[-68.5637539,-10.2728189],[-68.5535522,-10.2796505],[-68.5073679,-10.2595265],[-68.4911732,-10.2463913],[-68.4888313,-10.2274231],[-68.4705524,-10.2167599],[-68.4708158,-10.1927194],[-68.4425048,-10.1919651],[-68.4543414,-10.215363],[-68.4495161,-10.2535179],[-68.4334106,-10.2653126],[-68.4118307,-10.2681336],[-68.4157597,-10.3071937],[-68.3754551,-10.3115543],[-68.3508115,-10.3322071],[-68.3544866,-10.3578717],[-68.3875584,-10.379515],[-68.3248065,-10.3936512],[-68.313783,-10.4182094],[-68.2814633,-10.40359],[-68.2730624,-10.3886609],[-68.2318649,-10.3893001],[-68.2095503,-10.3799763],[-68.2053801,-10.3761162],[-68.1506454,-10.3705275],[-68.1236662,-10.3751685],[-68.097983,-10.3640113],[-68.0720776,-10.379983],[-68.0448352,-10.3889996],[-68.06381,-10.4251324],[-68.0430433,-10.4725511],[-68.0297625,-10.516747],[-68.0341265,-10.5267575],[-68.028459,-10.542151],[-68.0187413,-10.5624231],[-68.0018944,-10.5765136],[-67.9897038,-10.5968309],[-68.016347,-10.6024715],[-68.0035973,-10.6404253]],[[-68.0035973,-10.6404253],[-67.9769041,-10.6632737],[-67.9615619,-10.6497223],[-67.9410966,-10.6570003],[-67.8659244,-10.6406998],[-67.8427796,-10.6533053],[-67.8275098,-10.6514179],[-67.7914957,-10.6784541],[-67.7615891,-10.6846534],[-67.7283968,-10.7134049],[-67.7043972,-10.7000139],[-67.6756111,-10.6051611],[-67.6592208,-10.6147484],[-67.6409033,-10.5993909],[-67.6353495,-10.5803839],[-67.609802,-10.5623786],[-67.6050416,-10.5342543],[-67.5945219,-10.5215719],[-67.5456416,-10.4951699],[-67.4781861,-10.4677768],[-67.4658792,-10.4553388],[-67.4439825,-10.4530233],[-67.4318833,-10.4309386],[-67.4132151,-10.4257261],[-67.4138159,-10.4014404],[-67.423791,-10.3913996],[-67.4068489,-10.3726274],[-67.3787272,-10.3832098],[-67.3387362,-10.3760052],[-67.31984,-10.3816222],[-67.3155451,-10.3471588],[-67.3218678,-10.3215879],[-67.2762809,-10.3220206],[-67.2534741,-10.3289203],[-67.2365896,-10.3162225],[-67.1945299,-10.3253712],[-67.1884138,-10.3394276],[-67.1440185,-10.3267348],[-67.1370414,-10.29768],[-67.0991016,-10.286472],[-67.0791594,-10.2893882],[-67.051546,-10.2677655],[-67.0102561,-10.252695],[-67.0061443,-10.2300641],[-66.9918964,-10.2039313],[-66.9511711,-10.1862575],[-66.9458066,-10.1583363],[-66.9114046,-10.1389253],[-66.8971997,-10.1141317],[-66.8731617,-10.1014199],[-66.87115,-10.0806639],[-66.8436091,-10.0861937],[-66.8322848,-10.0596477],[-66.8071794,-10.0492104],[-66.7897557,-10.0218056],[-66.7416798,-9.9966068],[-66.7346632,-9.9831349],[-66.6749666,-9.9648731],[-66.6627035,-9.9367624],[-66.6370053,-9.9498531],[-66.6264588,-9.930197],[-66.6268906,-9.8980269],[-67.3258172,-9.5923815],[-67.516882,-9.5609067],[-68.2198982,-9.2427531]],[[-70.6208803,-10.7054892],[-70.6210066,-10.9996411],[-70.5300779,-10.9348139],[-70.4966249,-10.9629798],[-70.4841607,-10.9658158],[-70.4700281,-10.9878814],[-70.4483532,-11.0041163],[-70.437442,-11.0266688],[-70.4064356,-11.0475901],[-70.3449594,-11.067112],[-70.3082936,-11.0705762],[-70.265039,-11.0517336],[-70.2117917,-11.0501014],[-70.1722399,-11.0430358],[-70.1308212,-11.0233963],[-70.1091168,-10.9954619],[-70.0894884,-10.9851562],[-70.0631437,-10.9921127],[-70.0152341,-10.9701105],[-70.006989,-10.9610785],[-69.9691698,-10.9450099],[-69.9549327,-10.9277605],[-69.9011437,-10.9200124],[-69.8737261,-10.93061],[-69.8429773,-10.9249689],[-69.8327956,-10.9337175],[-69.7999761,-10.9265174],[-69.7558055,-10.9463055],[-69.7392777,-10.9654497],[-69.7187374,-10.9755138],[-69.6589938,-10.9529785],[-69.6337811,-10.9578975],[-69.5964125,-10.9409386],[-69.5671121,-10.9439565],[-69.5506165,-10.9530733],[-69.5402954,-10.9376257],[-69.5224372,-10.9358349],[-69.4781218,-10.9549587],[-69.4539068,-10.9494498],[-69.4526488,-10.9368277],[-69.4255692,-10.9280106],[-69.4050396,-10.9286743],[-69.3851376,-10.9429268],[-69.3527741,-10.9359112],[-69.3282855,-10.9497421],[-69.2911637,-10.9503425],[-69.2699475,-10.9412045],[-69.2156113,-10.9583531],[-69.2013446,-10.9481805],[-69.1608191,-10.9650205],[-69.1458685,-10.9623952],[-69.1074834,-10.9727279],[-69.0871925,-10.9697551],[-69.0613547,-10.9857171],[-69.0437782,-10.9811566],[-69.0018848,-11.0089345],[-68.9670107,-10.9874575],[-68.9475433,-11.0122387],[-68.9320615,-11.0061226],[-68.9104537,-11.02213],[-68.8604144,-11.0048298],[-68.8436908,-10.9915045],[-68.8290781,-11.0061884],[-68.8116035,-10.9943192],[-68.7872974,-11.0043111],[-68.7595231,-11.0034739],[-68.7506916,-11.0344076],[-68.7662743,-11.0492778],[-68.7652852,-11.0658626],[-68.7462972,-11.0943616],[-68.7209385,-11.1033739],[-68.7135056,-11.1243007],[-68.7161196,-11.1455615],[-68.5429714,-11.1113555],[-68.5352973,-11.0937719],[-68.5193597,-11.0880893],[-68.5040666,-11.0633302],[-68.4871861,-11.0508753],[-68.4442565,-11.0459125],[-68.4378866,-11.0355241],[-68.3917299,-11.046937],[-68.3846844,-11.0181411],[-68.360532,-11.0063974],[-68.3254208,-11.0091254],[-68.3072081,-10.991933],[-68.276713,-10.9883333],[-68.2381509,-10.9568302],[-68.2242991,-10.9116152],[-68.2072081,-10.9020372],[-68.1961278,-10.8585922],[-68.1789884,-10.8531973],[-68.1538562,-10.8211475],[-68.1182123,-10.7841013],[-68.0970148,-10.7493853],[-68.1088165,-10.7257972],[-68.0760667,-10.6853736],[-68.0035973,-10.6404253]]],"bbox":[-73.99045,-11.1455615,-66.6264588,-7.1118244]}
