{"type":"Topology","objects":{"geometrias":{"type":"GeometryCollection","geometries":[{"type":"Polygon","arcs":[[0,1,2,3,4]],"properties":{"code_micro":16001,"name_micro":"Oiapoque","code_state":16,"code_region":1,"abbrev_state":"AP","name_state":"Amapá","name_region":"Norte","year":2020}},{"type":"MultiPolygon","arcs":[[[5,6,-1]],[[7]],[[8]]],"properties":{"code_micro":16002,"name_micro":"Amapá","code_state":16,"code_region":1,"abbrev_state":"AP","name_state":"Amapá","name_region":"Norte","year":2020}},{"type":"Polygon","arcs":[[9,-6,-5,10,11]],"properties":{"code_micro":16003,"name_micro":"Macapá","code_state":16,"code_region":1,"abbrev_state":"AP","name_state":"Amapá","name_region":"Norte","year":2020}},{"type":"Polygon","arcs":[[12,-12,13,-3]],"properties":{"code_micro":16004,"name_micro":"Mazagão","code_state":16,"code_region":1,"abbrev_state":"AP","name_state":"Amapá","name_region":"Norte","year":2020}}]}},"arcs":[[[-51.9906253,1.31674],[-51.9688318,1.3381265],[-51.9727713,1.3641639],[-51.9538945,1.3928812],[-51.9486965,1.3950691],[-51.9236916,1.3868095],[-51.8776211,1.432319],[-51.8673893,1.4663138],[-51.8218661,1.5211747],[-51.7992139,1.5344659],[-51.7800088,1.5718228],[-51.7389654,1.5902257],[-51.7232962,1.6189692],[-51.7030055,1.7098714],[-51.6900574,1.7912122],[-51.6539942,1.8663787],[-51.648174,1.8888512],[-51.642866,1.9183292],[-51.6590337,1.9532604],[-51.6308672,1.9948417],[-51.589289,2.0233804],[-51.6019271,2.0483567],[-51.5836441,2.0954982],[-51.5709224,2.1142179],[-51.5259492,2.0396039],[-51.4946472,2.0239501],[-51.4650358,2.0536028],[-51.4419837,2.0631968],[-51.374703,2.0183029],[-51.3373535,2.0348627],[-51.3064783,2.0666518],[-51.2523577,2.0916158],[-51.2214847,2.1274206],[-51.1984476,2.1215896],[-51.1585681,2.1533151],[-51.1314433,2.1518123],[-51.0755229,2.1808101],[-50.9984931,2.1508661],[-50.9636821,2.1736859],[-50.8999083,2.1532038],[-50.8721709,2.1644467],[-50.8429018,2.1398736],[-50.8155542,2.1767192],[-50.7873713,2.1693724],[-50.7505422,2.1178873],[-50.7287062,2.1476233],[-50.7091623,2.134973],[-50.683965,2.1436794]],[[-50.683965,2.1436794],[-50.6866313,2.1910505],[-50.7252725,2.2557221],[-50.7226278,2.2877466],[-50.7407916,2.3090093],[-50.7563937,2.3864534],[-50.7687378,2.408979],[-50.7703726,2.4534216],[-50.7942244,2.4985492],[-50.8164994,2.5029687],[-50.8443311,2.6009843],[-50.847721,2.6403442],[-50.8824485,2.6882411],[-50.8873064,2.7462342],[-50.9053534,2.7569398],[-50.9084916,2.7888666],[-50.9449973,2.8177539],[-50.9505117,2.8821705],[-50.9925025,2.9621893],[-50.9988269,3.0110367],[-51.021168,3.0513765],[-51.0142975,3.0855578],[-51.0444104,3.1340039],[-51.0328225,3.213689],[-51.0515964,3.2529362],[-51.0865365,3.350172],[-51.1093087,3.4506267],[-51.0910111,3.4804817],[-51.0817748,3.5595385],[-51.0862124,3.5915134],[-51.0911695,3.7384705],[-51.0806825,3.8848086],[-51.101868,3.9127957],[-51.123875,3.908441],[-51.1792978,3.9194963],[-51.1756508,4.0108615],[-51.1886118,4.0778203],[-51.2143281,4.1459298],[-51.2833624,4.2502674],[-51.3942265,4.3649768],[-51.4858816,4.4371787],[-51.6376349,4.5088171],[-51.6693681,4.4538394],[-51.6637841,4.4235166],[-51.6791842,4.3660938],[-51.676804,4.332651],[-51.6493234,4.2672714],[-51.623141,4.225624],[-51.6218722,4.1950725],[-51.6349643,4.1763482],[-51.6375525,4.1332632],[-51.6560654,4.0539051],[-51.6757207,4.0360534],[-51.7457366,4.0014883],[-51.7776249,3.9745539],[-51.7815158,3.9241728],[-51.7986414,3.8869539],[-51.8564008,3.832667],[-51.8733752,3.80358],[-51.9171895,3.7818897],[-51.9227163,3.7231018],[-51.951969,3.7222908],[-51.9726057,3.7054668],[-51.9934118,3.6438007],[-51.9882722,3.6277233],[-52.0197729,3.5930574],[-52.0604098,3.5196807],[-52.0928151,3.4790486],[-52.1742298,3.3305014],[-52.2343395,3.2401105],[-52.2604514,3.2530006],[-52.2925133,3.2264208],[-52.3013258,3.1730521],[-52.3295818,3.171871],[-52.3528862,3.1269871],[-52.3431253,3.0932779],[-52.3259446,3.0778089],[-52.39513,2.9278241],[-52.3910709,2.8975584],[-52.422241,2.8910104],[-52.4734545,2.793888],[-52.4752666,2.7639579],[-52.5293373,2.6516085],[-52.5414088,2.6069983],[-52.5276727,2.5810519],[-52.5612072,2.5502874],[-52.5520602,2.5200208],[-52.6184768,2.4748359],[-52.6581531,2.4013383],[-52.6609851,2.3735908],[-52.7104685,2.3586243],[-52.7174186,2.3429196],[-52.779136,2.3178877],[-52.7937237,2.3044706],[-52.8418319,2.2913958],[-52.8876787,2.2383708],[-52.9042871,2.1891852],[-52.9390805,2.1899297],[-52.9565133,2.1729696],[-53.0529534,2.1901171],[-53.0845186,2.2127428],[-53.1386568,2.2118983],[-53.2206887,2.1936133],[-53.2427685,2.2075778],[-53.2791849,2.185988]],[[-53.2791849,2.185988],[-53.2469508,2.1510126],[-53.1391741,2.1009381],[-53.1330392,2.0189701],[-53.1162322,2.0070231],[-53.0971038,1.9782638],[-53.0734735,1.9448922],[-53.0669698,1.942742],[-53.0589177,1.9465615]],[[-53.0589177,1.9465615],[-53.0527996,1.963754]],[[-53.0527996,1.963754],[-53.0086039,1.9783513],[-52.9989912,1.9547986],[-52.9233816,1.9423821],[-52.9004852,1.9625688],[-52.9087144,2.008653],[-52.889489,2.031752],[-52.8372068,2.0363823],[-52.829354,2.0834306],[-52.7966509,2.0713723],[-52.7602144,2.0777355],[-52.6984335,2.0667185],[-52.6345413,2.0330202],[-52.5995697,2.0085688],[-52.5524044,2.0095861],[-52.485296,2.0374255],[-52.4394294,2.0450377],[-52.40696,2.0356862],[-52.410375,2.0755763],[-52.4160399,2.080103],[-52.3995977,2.0998407],[-52.3677678,2.1181044],[-52.3554347,2.1415687],[-52.3191539,2.1583619],[-52.2997406,2.1546892],[-52.2524055,2.1687657],[-52.2313189,2.2640185],[-52.1937353,2.2612692],[-52.1837863,2.2939347],[-52.1759263,2.3029383],[-52.1642356,2.2984209],[-52.1549017,2.299836],[-52.1498426,2.3056243],[-52.1185947,2.3569346],[-52.1124053,2.3869182],[-52.1132581,2.4010378],[-52.1062631,2.4016897],[-52.0599009,2.391382],[-52.0477061,2.4182012],[-52.034401,2.4362583],[-52.0400936,2.3978523],[-52.0380415,2.341908],[-52.0651218,2.2885821],[-52.0638979,2.2625101],[-52.0370531,2.2328164],[-52.0396127,2.1587384],[-52.0104606,2.0840987],[-51.9993176,2.0335004],[-52.0202804,1.9627855],[-52.013017,1.9327271],[-52.0307269,1.8961047],[-52.0491825,1.885455],[-52.0454914,1.7866118],[-52.0522468,1.7711584],[-52.0457003,1.675372],[-52.0209768,1.6441848],[-52.0221607,1.6132755],[-52.0397109,1.5755432],[-52.0339305,1.5270194],[-52.0191661,1.5020957],[-52.0238374,1.4956221],[-52.0300305,1.4876843],[-52.0384574,1.4836463],[-52.0365073,1.480235],[-52.0280108,1.4806527],[-52.0259911,1.4681906],[-52.0310055,1.4642612],[-52.0381091,1.4553803],[-52.0397109,1.436861],[-52.0333734,1.4208479],[-52.0422878,1.4161136],[-52.0419019,1.4126894],[-52.0091021,1.3701574],[-52.0089371,1.3388442],[-52.0077949,1.3202585],[-51.9906253,1.31674]],[[-51.9906253,1.31674],[-51.500865,1.3237249],[-51.3890449,1.3228085],[-51.4070606,1.2689329],[-51.4264315,1.2641805],[-51.4439009,1.2357133],[-51.4349285,1.1892693],[-51.4452081,1.182081],[-51.4487733,1.1263565],[-51.4828269,1.0875157],[-51.4666621,1.0675739],[-51.4066983,1.0505643],[-51.4095498,0.9975508],[-51.3856413,0.9650781],[-51.3780244,0.9503753],[-51.3463932,0.9794634],[-51.264935,0.9797808],[-51.2361602,0.9558757],[-51.1815938,1.0353457],[-51.153168,1.0301747],[-51.1274987,1.0093929],[-51.0765354,1.0235902],[-51.034894,1.0048641],[-51.0155469,0.9636566],[-50.9450104,0.9939388],[-50.8874921,0.9921565],[-50.8745385,0.9632826],[-50.8545735,0.9538956],[-50.8202288,0.9632826],[-50.8146434,1.0020187],[-50.7950348,1.0299416],[-50.7290788,1.0390908],[-50.69414,1.0582207],[-50.6534968,1.024357],[-50.6316303,1.0317239],[-50.6430389,1.0655875],[-50.6336506,1.0889948],[-50.5990683,1.0935099],[-50.5758946,1.0774694],[-50.5556918,1.0922029],[-50.5270515,1.0421801],[-50.484388,1.0686768],[-50.4675128,1.0961239],[-50.4609766,1.156958],[-50.4329305,1.1846418],[-50.3930004,1.1917707],[-50.3643006,1.1673543],[-50.3082677,1.1757308],[-50.2799839,1.2196918],[-50.3058909,1.2726818],[-50.2778448,1.3180669],[-50.2141467,1.3349376],[-50.1319097,1.3289972],[-50.124304,1.280048],[-50.1437937,1.2432166],[-50.1449821,1.2204047],[-50.1202634,1.2040085],[-50.0703574,1.2165025],[-49.9878761,1.2218304],[-49.901625,1.2402934]],[[-49.901625,1.2402934],[-49.9042695,1.2955915],[-49.8836418,1.3399816],[-49.8758387,1.4231385],[-49.8826094,1.50477],[-49.9029366,1.5799307],[-49.9002953,1.6023258],[-49.9238851,1.6934496],[-49.9581288,1.7196719],[-50.0322127,1.7597013],[-50.176901,1.8135554],[-50.2896941,1.8078737],[-50.3246141,1.815381],[-50.3735471,1.8011223],[-50.4237254,1.8044642],[-50.4749649,1.8385951],[-50.5073752,1.8845103],[-50.5256164,1.9299361],[-50.5579809,1.9558429],[-50.5826601,1.9896326],[-50.5981108,2.0309046],[-50.5980613,2.0638278],[-50.6430821,2.1134295],[-50.683965,2.1436794]],[[-50.4526221,2.1100467],[-50.4684307,2.1000039],[-50.5042092,2.0940301],[-50.5212302,2.0054291],[-50.4986396,1.9945379],[-50.4905843,1.9647474],[-50.4489823,1.879636],[-50.4255082,1.8670172],[-50.3669897,1.8894511],[-50.3174204,1.9475023],[-50.3267404,1.9828288],[-50.3624547,2.0220263],[-50.361836,2.0599538],[-50.4054105,2.1112592],[-50.4526221,2.1100467]],[[-50.5110733,2.1853628],[-50.550145,2.1516709],[-50.529473,2.1382537],[-50.5113326,2.1033826],[-50.4953975,2.0962017],[-50.4583402,2.1152468],[-50.4251045,2.1176002],[-50.4239065,2.1468002],[-50.4409308,2.1665131],[-50.5110733,2.1853628]],[[-51.2080541,-0.1170073],[-51.1748986,-0.1045348],[-51.1132027,-0.0966079],[-51.0656742,-0.0762263],[-51.0173382,-0.0107236],[-50.9969123,0.0034511],[-50.9809629,0.0354058],[-50.9210933,0.0761336],[-50.8035185,0.1063234],[-50.7619561,0.120978],[-50.6681975,0.1850345],[-50.623601,0.2317763],[-50.5963071,0.2503658],[-50.556148,0.3067173],[-50.5238924,0.3723908],[-50.5039997,0.4350876],[-50.4859901,0.458905],[-50.4672645,0.5309222],[-50.4365469,0.600107],[-50.35857,0.6600921],[-50.3285877,0.6743485],[-50.2260218,0.6962486],[-50.2203937,0.7431222],[-50.153397,0.7497434],[-50.097362,0.7670499],[-50.0367518,0.8325227],[-50.0202612,0.85877],[-49.9861265,0.8807603],[-50.0024735,0.9064127],[-49.989014,0.9395151],[-49.9668027,0.9437079],[-49.9274107,0.9846554],[-49.8897824,1.013597],[-49.88467,1.0471377],[-49.883083,1.169077],[-49.894451,1.1821584],[-49.901625,1.2402934]],[[-53.0527996,1.963754],[-53.059126,1.9339267]],[[-53.059126,1.9339267],[-53.027108,1.874704],[-53.026313,1.8542543],[-52.9949943,1.8197677],[-53.0123519,1.7837629],[-52.9887985,1.7535815],[-52.9737819,1.7177988],[-52.9942957,1.626729],[-52.9814735,1.5921487],[-52.9521259,1.5542537],[-52.9061776,1.5586708],[-52.8791199,1.5472293],[-52.8671204,1.5333535],[-52.8631057,1.5068533],[-52.8693599,1.4414792],[-52.890387,1.3889142],[-52.9148703,1.3577016],[-52.9280849,1.3177605],[-52.9271321,1.2823757],[-52.9323536,1.2648643],[-52.9534492,1.2655204],[-52.9649031,1.2395902],[-52.9680979,1.1884008],[-52.9600464,1.1267318],[-52.8942452,1.08842],[-52.8790162,1.0405037],[-52.8776215,0.9999302],[-52.8666787,0.9667561],[-52.8241856,0.9302417],[-52.8377072,0.9047049],[-52.8233119,0.8756227],[-52.7890302,0.8859645],[-52.7481861,0.8556626],[-52.7573797,0.8298899],[-52.7220588,0.8264672],[-52.6631771,0.8339212],[-52.6659033,0.808415],[-52.6616861,0.7919576],[-52.6187485,0.759534],[-52.6101584,0.7381718],[-52.5838362,0.7417291],[-52.5727991,0.7287682],[-52.546547,0.7209168],[-52.5194033,0.6832039],[-52.5009979,0.6722654],[-52.5035026,0.6421627],[-52.4816176,0.6318519],[-52.4678784,0.5986838],[-52.4571285,0.5723532],[-52.4147878,0.5489446],[-52.416879,0.5106715],[-52.3958479,0.4987368],[-52.376795,0.4514436],[-52.3371627,0.4394712],[-52.3369612,0.3840602],[-52.2957483,0.3924346],[-52.2807949,0.368001],[-52.2355533,0.3655343],[-52.2347315,0.3829115],[-52.2240301,0.4179982],[-52.2003736,0.4577102],[-52.1644835,0.4687522],[-52.1052372,0.5085269],[-52.0573448,0.490048],[-52.0321864,0.4697034],[-52.0107002,0.4791033],[-51.9520885,0.4466638],[-51.8754904,0.444118],[-51.8557928,0.4322938],[-51.8037707,0.4505055],[-51.7601685,0.4063399],[-51.7172555,0.4097149],[-51.6903858,0.3867081],[-51.6836239,0.3467313],[-51.6938441,0.3196957],[-51.67275,0.2950368],[-51.6245962,0.2721011],[-51.6088737,0.2452956],[-51.5741132,0.2288959],[-51.5703463,0.1664259],[-51.5716844,0.1415334],[-51.532484,0.0758941],[-51.5349796,0.0630594],[-51.5204812,0.044877],[-51.4902959,0.0375089],[-51.4696178,0.0172586],[-51.4495619,0.012732],[-51.4343224,-0.0343891],[-51.4032102,-0.0617697],[-51.3777451,-0.0716615],[-51.3288952,-0.082498],[-51.2520538,-0.0844535],[-51.2223946,-0.085807],[-51.2179824,-0.0874011],[-51.211928,-0.0979145],[-51.2080541,-0.1170073]],[[-53.2791849,2.185988],[-53.2763001,2.2251513],[-53.229515,2.2623791],[-53.2828219,2.3097569],[-53.3060226,2.3155035],[-53.3232962,2.3471142],[-53.3600212,2.3493119],[-53.367632,2.3206454],[-53.440381,2.2802968],[-53.4613234,2.2910155],[-53.4730772,2.256739],[-53.5202433,2.2665094],[-53.5499143,2.258324],[-53.59813,2.2845377],[-53.6562953,2.2845212],[-53.6822124,2.3011925],[-53.7485209,2.3224815],[-53.7279918,2.3510786],[-53.7416335,2.3749994],[-53.7672199,2.3789234],[-53.7996331,2.3650322],[-53.8240499,2.3176321],[-53.859581,2.320001],[-53.8878011,2.2987991],[-53.9420777,2.2780862],[-53.9356883,2.2593974],[-53.9749109,2.2323926],[-54.0012416,2.22999],[-54.1890791,2.1788275],[-54.4365792,2.2098867],[-54.6016931,2.3371661],[-54.6622491,2.326987],[-54.6920868,2.3613963],[-54.6849188,2.4468238],[-54.7440324,2.4714862],[-54.7973939,2.4390171],[-54.8722509,2.4337466],[-54.8746964,2.4153254],[-54.80756,2.3416749],[-54.7961664,2.3179651],[-54.8114203,2.266378],[-54.7631109,2.2023191],[-54.7678915,2.1809114],[-54.8062543,2.1389277],[-54.8038049,2.0258228],[-54.7559997,1.9742069],[-54.7701983,1.9256957],[-54.7384599,1.8248356],[-54.7544217,1.797808],[-54.7447791,1.7758008],[-54.6436397,1.7686],[-54.6019171,1.7845734],[-54.528107,1.7649425],[-54.4959444,1.7469426],[-54.4571677,1.7583028],[-54.3516918,1.7540727],[-54.3414715,1.7398184],[-54.3093044,1.7410503],[-54.2695781,1.7048118],[-54.2627439,1.6883824],[-54.2008834,1.6455793],[-54.1857503,1.6537353],[-54.1436637,1.640612],[-54.1019449,1.5843053],[-54.0987782,1.5505238],[-54.06916,1.5009694],[-54.0519674,1.4944892],[-54.0202741,1.5157631],[-53.9995265,1.5047707],[-53.9974678,1.4757713],[-53.9670765,1.4843951],[-53.8959981,1.4551258],[-53.876742,1.4354522],[-53.8877512,1.4077873],[-53.820106,1.3891676],[-53.7837222,1.4028539],[-53.7014598,1.3779189],[-53.6648539,1.3752498],[-53.6332463,1.3473586],[-53.5952181,1.3581541],[-53.5706899,1.337302],[-53.5456272,1.3474523],[-53.5333853,1.3224288],[-53.5626334,1.3065819],[-53.5527117,1.2802892],[-53.5233275,1.2613389],[-53.5463212,1.2285074],[-53.5252098,1.2117165],[-53.4699094,1.2399701],[-53.438769,1.232134],[-53.3960801,1.1792925],[-53.4044098,1.1511736],[-53.4443579,1.1513192],[-53.4591576,1.1336804],[-53.4558237,1.0773718],[-53.4223294,1.0337374],[-53.4268299,0.992426],[-53.4108033,0.9820425],[-53.4114942,0.9293442],[-53.2874946,0.8457159],[-53.2551477,0.8092116],[-53.1902726,0.7683835],[-53.1846077,0.7475027],[-53.1574069,0.7290729],[-53.1469379,0.6997862],[-53.1057436,0.6794615],[-53.1227118,0.6300909],[-53.1473221,0.6003346],[-53.1520646,0.5318937],[-53.1697689,0.4937348],[-53.1551284,0.4801797],[-53.1677453,0.4457283],[-53.1612041,0.398538],[-53.1753105,0.3817172],[-53.136459,0.3260357],[-53.131376,0.2962017],[-53.0941268,0.2589577],[-53.1058506,0.2373476],[-53.0942925,0.195307],[-53.0521271,0.1573389],[-53.029266,0.1047191],[-53.0111292,0.0950459],[-53.0149667,0.0596921],[-52.9772926,0.0237963],[-52.9710222,-0.0431101],[-52.9327437,-0.1423073],[-52.9040129,-0.1549377],[-52.8641028,-0.1447643],[-52.8360989,-0.1861492],[-52.7604398,-0.2375744],[-52.7544268,-0.2621886],[-52.6841716,-0.3143137],[-52.6818497,-0.3399645],[-52.6973482,-0.3929354],[-52.6810757,-0.415085],[-52.70068,-0.4529291],[-52.6954363,-0.4964017],[-52.640009,-0.5849061],[-52.61299,-0.5948934],[-52.5763261,-0.5764098],[-52.5322928,-0.5763552],[-52.5131837,-0.6196459],[-52.5103877,-0.679184],[-52.4971522,-0.7229462],[-52.5182377,-0.7755192],[-52.5169699,-0.8090464],[-52.5418462,-0.8365449],[-52.5169334,-0.858616],[-52.4555179,-0.8302661],[-52.4123998,-0.8626599],[-52.4012064,-0.8819116],[-52.4047158,-0.9127377],[-52.4376793,-0.9288754],[-52.4199283,-0.9659632],[-52.4167912,-1.0256118],[-52.4001787,-1.0436305],[-52.3581556,-1.0625844],[-52.3329879,-1.1158915],[-52.2147327,-1.1349578],[-52.1789319,-1.1295951],[-52.1467312,-1.1487914],[-52.1202623,-1.146198],[-52.1067638,-1.1830679],[-52.1109874,-1.2149992],[-52.070459,-1.2359841],[-52.0475632,-1.2142842],[-52.062961,-1.1928913],[-52.0409005,-1.1701323],[-51.9911221,-1.171816],[-51.9939523,-1.1347229],[-51.9619572,-1.1344374],[-51.9469037,-1.1660067],[-51.9229007,-1.1329634],[-51.8872859,-1.1663971],[-51.8090963,-1.1571011],[-51.7783994,-1.1404123],[-51.7043365,-1.067741],[-51.6856469,-1.0128623],[-51.6955135,-0.9212915],[-51.6834486,-0.7940294],[-51.5955362,-0.6504378],[-51.5151162,-0.5660446],[-51.4577885,-0.513234],[-51.4324792,-0.4733425],[-51.4236695,-0.4366112],[-51.3683699,-0.3762575],[-51.3477828,-0.2996133],[-51.3230321,-0.2637693],[-51.3024816,-0.2526427],[-51.2350362,-0.1436392],[-51.2080541,-0.1170073]],[[-53.059126,1.9339267],[-53.0589177,1.9465615]]],"bbox":[-54.8746964,-1.2359841,-49.8758387,4.5088171]}
