{"type":"Topology","objects":{"geometrias":{"type":"GeometryCollection","geometries":[{"type":"Polygon","arcs":[[0,1,2,3]],"properties":{"code_micro":24001,"name_micro":"Mossoró","code_state":24,"code_region":2,"abbrev_state":"RN","name_state":"Rio Grande do Norte","name_region":"Nordeste","year":2020}},{"type":"Polygon","arcs":[[4,5,6,7,8,-2]],"properties":{"code_micro":24002,"name_micro":"Chapada do Apodi","code_state":24,"code_region":2,"abbrev_state":"RN","name_state":"Rio Grande do Norte","name_region":"Nordeste","year":2020}},{"type":"Polygon","arcs":[[-9,9,10,11,-3]],"properties":{"code_micro":24003,"name_micro":"Médio Oeste","code_state":24,"code_region":2,"abbrev_state":"RN","name_state":"Rio Grande do Norte","name_region":"Nordeste","year":2020}},{"type":"Polygon","arcs":[[-4,-12,12,13,14,15,16,17]],"properties":{"code_micro":24004,"name_micro":"Vale do Açu","code_state":24,"code_region":2,"abbrev_state":"RN","name_state":"Rio Grande do Norte","name_region":"Nordeste","year":2020}},{"type":"Polygon","arcs":[[18,19]],"properties":{"code_micro":24005,"name_micro":"Serra de São Miguel","code_state":24,"code_region":2,"abbrev_state":"RN","name_state":"Rio Grande do Norte","name_region":"Nordeste","year":2020}},{"type":"Polygon","arcs":[[20,-20,21,22,23,-6]],"properties":{"code_micro":24006,"name_micro":"Pau dos Ferros","code_state":24,"code_region":2,"abbrev_state":"RN","name_state":"Rio Grande do Norte","name_region":"Nordeste","year":2020}},{"type":"Polygon","arcs":[[-23,24,-10,-8,25]],"properties":{"code_micro":24007,"name_micro":"Umarizal","code_state":24,"code_region":2,"abbrev_state":"RN","name_state":"Rio Grande do Norte","name_region":"Nordeste","year":2020}},{"type":"Polygon","arcs":[[26,-17,27,28,29]],"properties":{"code_micro":24008,"name_micro":"Macau","code_state":24,"code_region":2,"abbrev_state":"RN","name_state":"Rio Grande do Norte","name_region":"Nordeste","year":2020}},{"type":"Polygon","arcs":[[-16,30,31,32,33,34,-28]],"properties":{"code_micro":24009,"name_micro":"Angicos","code_state":24,"code_region":2,"abbrev_state":"RN","name_state":"Rio Grande do Norte","name_region":"Nordeste","year":2020}},{"type":"Polygon","arcs":[[-15,35,36,37,38,39,-31]],"properties":{"code_micro":24010,"name_micro":"Serra de Santana","code_state":24,"code_region":2,"abbrev_state":"RN","name_state":"Rio Grande do Norte","name_region":"Nordeste","year":2020}},{"type":"Polygon","arcs":[[40,41,42,-36,-14]],"properties":{"code_micro":24011,"name_micro":"Seridó Ocidental","code_state":24,"code_region":2,"abbrev_state":"RN","name_state":"Rio Grande do Norte","name_region":"Nordeste","year":2020}},{"type":"Polygon","arcs":[[-42,43,44,45,-38,46]],"properties":{"code_micro":24012,"name_micro":"Seridó Oriental","code_state":24,"code_region":2,"abbrev_state":"RN","name_state":"Rio Grande do Norte","name_region":"Nordeste","year":2020}},{"type":"Polygon","arcs":[[-29,-35,47,48,49]],"properties":{"code_micro":24013,"name_micro":"Baixa Verde","code_state":24,"code_region":2,"abbrev_state":"RN","name_state":"Rio Grande do Norte","name_region":"Nordeste","year":2020}},{"type":"Polygon","arcs":[[50,51,-32,-40,52,-45]],"properties":{"code_micro":24014,"name_micro":"Borborema Potiguar","code_state":24,"code_region":2,"abbrev_state":"RN","name_state":"Rio Grande do Norte","name_region":"Nordeste","year":2020}},{"type":"Polygon","arcs":[[-52,53,54,55,56,57,-49,58,-33]],"properties":{"code_micro":24015,"name_micro":"Agreste Potiguar","code_state":24,"code_region":2,"abbrev_state":"RN","name_state":"Rio Grande do Norte","name_region":"Nordeste","year":2020}},{"type":"Polygon","arcs":[[-58,59,60,61,-30,-50]],"properties":{"code_micro":24016,"name_micro":"Litoral Nordeste","code_state":24,"code_region":2,"abbrev_state":"RN","name_state":"Rio Grande do Norte","name_region":"Nordeste","year":2020}},{"type":"Polygon","arcs":[[62,63,64,65,-61,66,-56]],"properties":{"code_micro":24017,"name_micro":"Macaíba","code_state":24,"code_region":2,"abbrev_state":"RN","name_state":"Rio Grande do Norte","name_region":"Nordeste","year":2020}},{"type":"Polygon","arcs":[[67,-65]],"properties":{"code_micro":24018,"name_micro":"Natal","code_state":24,"code_region":2,"abbrev_state":"RN","name_state":"Rio Grande do Norte","name_region":"Nordeste","year":2020}},{"type":"Polygon","arcs":[[-55,68,-63]],"properties":{"code_micro":24019,"name_micro":"Litoral Sul","code_state":24,"code_region":2,"abbrev_state":"RN","name_state":"Rio Grande do Norte","name_region":"Nordeste","year":2020}}]}},"arcs":[[[-36.8556673,-4.9723196],[-36.9605329,-4.9184281],[-37.0405623,-4.9501867],[-37.1068581,-4.9223379],[-37.1586745,-4.9443551],[-37.2096537,-4.895365],[-37.2526246,-4.8313814],[-37.465795,-4.8856146],[-37.6403381,-4.9264044],[-37.6776204,-5.0540857],[-37.7250894,-5.0706243],[-37.7649556,-5.1396162],[-37.788162,-5.2191974]],[[-37.788162,-5.2191974],[-37.5830954,-5.2779323],[-37.4259809,-5.3112157],[-37.295785,-5.3913969],[-37.2946706,-5.4778988]],[[-37.2946706,-5.4778988],[-37.1727593,-5.4904923]],[[-37.1727593,-5.4904923],[-37.1261353,-5.2934245],[-36.9280504,-5.2937765],[-36.9300975,-5.1310122],[-36.9751213,-5.1307006],[-36.9525792,-5.0811869],[-36.9086857,-5.0809471],[-36.9082604,-4.9897901],[-36.8556673,-4.9723196]],[[-37.788162,-5.2191974],[-37.7831099,-5.2948155],[-37.8474704,-5.3400231],[-37.8604816,-5.4066857],[-37.8895409,-5.4522882],[-37.9015773,-5.4997924],[-37.9346995,-5.5052844],[-37.9480565,-5.5346449],[-37.9900372,-5.5557979],[-38.0342697,-5.6371528],[-38.0819854,-5.6701227],[-38.0889527,-5.7280888],[-38.0585928,-5.7548514]],[[-38.0585928,-5.7548514],[-37.8813202,-5.6969462],[-37.8560841,-5.7473796],[-37.8798605,-5.7543189],[-37.8722496,-5.8786529],[-37.9131466,-5.903535],[-37.900173,-5.9317968]],[[-37.900173,-5.9317968],[-37.895527,-5.9416547],[-37.7813788,-5.9253575]],[[-37.7813788,-5.9253575],[-37.7337899,-5.9118705],[-37.6485763,-5.9413121],[-37.593097,-5.9819198]],[[-37.593097,-5.9819198],[-37.583168,-5.9793002],[-37.565393,-5.9656188],[-37.5546052,-5.9589446],[-37.5281056,-5.9165769],[-37.4498567,-5.8994918],[-37.4674526,-5.7522805],[-37.4421202,-5.5869334],[-37.3823529,-5.4781911],[-37.2946706,-5.4778988]],[[-37.593097,-5.9819198],[-37.5573906,-6.0159821],[-37.5773795,-6.0339896],[-37.5218769,-6.1517911]],[[-37.5218769,-6.1517911],[-37.4589474,-6.1450022],[-37.4456931,-6.1122014],[-37.3936319,-6.1093877],[-37.2537948,-6.0265689],[-37.1739313,-6.0480159],[-37.1626162,-6.0221813]],[[-37.1626162,-6.0221813],[-37.1221629,-5.9548714],[-37.0669226,-5.9846024],[-36.9940975,-5.771708],[-37.0545605,-5.745788],[-37.104594,-5.6562215],[-37.1727593,-5.4904923]],[[-37.1626162,-6.0221813],[-37.1755462,-6.0529347],[-37.166381,-6.1539088],[-37.1456207,-6.1506007],[-37.1266757,-6.1568772]],[[-37.1266757,-6.1568772],[-37.129195,-6.1925501],[-37.0965278,-6.232113],[-37.0629434,-6.2182177],[-37.0031195,-6.2216917],[-36.9736656,-6.1925127],[-36.9573171,-6.1907638]],[[-36.9573171,-6.1907638],[-36.8921508,-6.1766168],[-36.894196,-6.1452928],[-36.9244638,-6.1319944],[-36.9340489,-6.088957],[-36.8987268,-6.0857739],[-36.8553922,-6.0442805],[-36.8489573,-6.0103315],[-36.8760471,-5.9638712],[-36.818067,-5.9131389],[-36.7735607,-5.861044],[-36.7760519,-5.7636222],[-36.7026797,-5.7014333]],[[-36.7026797,-5.7014333],[-36.7317648,-5.6842923],[-36.7648836,-5.6207766],[-36.7694059,-5.6084842],[-36.7672701,-5.6014652],[-36.7438487,-5.5916197],[-36.6990453,-5.5261481],[-36.6997244,-5.4638126],[-36.860405,-5.4423424],[-36.8379872,-5.3922306],[-36.5373818,-5.4127957],[-36.5156261,-5.4022381]],[[-36.5156261,-5.4022381],[-36.5147749,-5.3018874],[-36.5421022,-5.3015108],[-36.5425049,-5.2431848],[-36.5793803,-5.2158296],[-36.7291158,-5.1750295],[-36.7214449,-5.1353875],[-36.7504194,-5.1004799],[-36.7514743,-5.0958093],[-36.7155904,-5.0808986]],[[-36.7155904,-5.0808986],[-36.8121656,-5.0260548],[-36.8556673,-4.9723196]],[[-38.2749004,-6.0657988],[-38.3652457,-6.0884594],[-38.4015365,-6.053495],[-38.4473166,-6.0852777],[-38.4781193,-6.1593764],[-38.5272039,-6.193378],[-38.528348,-6.2391762],[-38.5795457,-6.2796264],[-38.5820985,-6.3192728],[-38.5625059,-6.3556517],[-38.532623,-6.3417062],[-38.4897546,-6.3634482],[-38.4850614,-6.3994193],[-38.4520637,-6.3924893],[-38.3993194,-6.4097925],[-38.373663,-6.455781],[-38.3438017,-6.4566518]],[[-38.3438017,-6.4566518],[-38.3068367,-6.4260803],[-38.2752583,-6.3783546],[-38.3365803,-6.3742009],[-38.3333596,-6.3115502],[-38.2975736,-6.2780668],[-38.2496958,-6.2625105],[-38.2711522,-6.1977398],[-38.249116,-6.1637941],[-38.2749004,-6.0657988]],[[-38.0585928,-5.7548514],[-38.1188643,-5.8328348],[-38.1225154,-5.8817401],[-38.2526921,-6.011914],[-38.2749004,-6.0657988]],[[-38.3438017,-6.4566518],[-38.2815259,-6.499544],[-38.2392289,-6.4802973],[-38.1355176,-6.5184761],[-38.0979875,-6.5094908],[-38.0701512,-6.4627525],[-38.0370128,-6.4570546],[-37.9552056,-6.4080615],[-37.9260514,-6.4211378],[-37.8598275,-6.3748773],[-37.8431953,-6.3330881]],[[-37.8431953,-6.3330881],[-37.9008228,-6.3183184],[-37.908096,-6.2851899],[-37.9713894,-6.2553566],[-38.0635432,-6.2536133],[-38.0549143,-6.1610256],[-38.0437819,-6.1259893],[-37.9809908,-6.0755549],[-37.9373242,-6.012991],[-37.9211942,-5.9598024],[-37.8960799,-5.9410209]],[[-37.8960799,-5.9410209],[-37.900173,-5.9317968]],[[-37.8431953,-6.3330881],[-37.810421,-6.291658],[-37.7648844,-6.2922364],[-37.7756165,-6.2313435],[-37.7423739,-6.1889754],[-37.7075242,-6.1768554],[-37.6731701,-6.1905803],[-37.5999132,-6.174011],[-37.5696205,-6.1554387],[-37.5218769,-6.1517911]],[[-37.7813788,-5.9253575],[-37.8960799,-5.9410209]],[[-35.9082574,-5.059478],[-35.9790816,-5.0415536],[-36.0395558,-5.0514536],[-36.1254898,-5.091471],[-36.1605417,-5.0965453],[-36.2902358,-5.0876877],[-36.3841283,-5.0876119],[-36.4492302,-5.0664439],[-36.5078674,-5.0623472],[-36.5440385,-5.088894],[-36.6133961,-5.0943336],[-36.7155904,-5.0808986]],[[-36.5156261,-5.4022381],[-36.4398685,-5.3698814],[-36.3812685,-5.3148664],[-36.3681851,-5.2507817],[-36.27584,-5.2894775]],[[-36.27584,-5.2894775],[-36.1505826,-5.2567209],[-36.1035402,-5.2865186],[-36.0508177,-5.2987559],[-36.0019486,-5.2561093],[-35.9521544,-5.2373809]],[[-35.9521544,-5.2373809],[-35.9082574,-5.059478]],[[-36.7026797,-5.7014333],[-36.674714,-5.7060835],[-36.6457084,-5.748863],[-36.6372888,-5.7554093],[-36.5091707,-5.7559424],[-36.3892196,-5.7953772],[-36.3563581,-5.8490415],[-36.2590991,-5.8630683],[-36.2241794,-5.8999534]],[[-36.2241794,-5.8999534],[-36.1968193,-5.8831166],[-36.1679797,-5.8559357],[-36.1533863,-5.8513252],[-36.127216,-5.8594229],[-36.1137781,-5.8436683],[-36.0929916,-5.8331489],[-36.0875683,-5.8388828],[-36.0637987,-5.8587467],[-36.0139253,-5.8352257],[-35.975624,-5.7946593],[-35.9255222,-5.800254]],[[-35.9255222,-5.800254],[-35.9374016,-5.7448881]],[[-35.9374016,-5.7448881],[-35.9415992,-5.7277917],[-35.9340442,-5.7159043]],[[-35.9340442,-5.7159043],[-35.9416652,-5.6687785],[-35.9112795,-5.6296611],[-35.9924082,-5.4637876],[-36.0276707,-5.4452451],[-36.0633023,-5.4053987],[-36.1285469,-5.4568166],[-36.1599433,-5.4341125],[-36.2232316,-5.4338742],[-36.27584,-5.2894775]],[[-36.9573171,-6.1907638],[-36.8944209,-6.2389273]],[[-36.8944209,-6.2389273],[-36.8953228,-6.2394006]],[[-36.8953228,-6.2394006],[-36.8904472,-6.2416928],[-36.8502689,-6.2694111],[-36.8473736,-6.2645784],[-36.8435444,-6.2664878],[-36.8384367,-6.2755647],[-36.8162169,-6.3036706],[-36.7728736,-6.2983874],[-36.7541536,-6.3205431],[-36.7095898,-6.2769569],[-36.6210835,-6.2870829],[-36.6045929,-6.2903684],[-36.5964238,-6.2622568],[-36.5918791,-6.2452947],[-36.6009728,-6.2262489],[-36.6078136,-6.2036425],[-36.6279435,-6.155342],[-36.6103285,-6.1315971],[-36.594319,-6.127756],[-36.5887108,-6.1367395],[-36.5813831,-6.1409878],[-36.4599029,-6.1153012],[-36.4321434,-6.1421374],[-36.4238252,-6.1328058],[-36.4116998,-6.1042003],[-36.3433715,-6.0979498],[-36.2957003,-6.1221662]],[[-36.2957003,-6.1221662],[-36.3022169,-6.1153717]],[[-36.3022169,-6.1153717],[-36.2813571,-6.044042],[-36.2241794,-5.8999534]],[[-37.1266757,-6.1568772],[-37.156923,-6.1524882],[-37.174221,-6.1801036],[-37.1929439,-6.1830798],[-37.2015813,-6.205704],[-37.2342715,-6.2132783],[-37.2705525,-6.2517144],[-37.2731386,-6.2799722],[-37.3214502,-6.2828122],[-37.3665279,-6.3255827],[-37.39752,-6.4180988],[-37.3957857,-6.5100932],[-37.4192922,-6.5331711],[-37.4647245,-6.5326637],[-37.4803841,-6.6052178],[-37.4661909,-6.6599595],[-37.4846995,-6.7100374],[-37.4073341,-6.6971954],[-37.3427129,-6.7012464],[-37.3142989,-6.6889744],[-37.2639208,-6.73217],[-37.2551439,-6.8110615],[-37.1906719,-6.8253657],[-37.1289358,-6.765977],[-37.0594232,-6.749425],[-37.0035912,-6.7096123]],[[-37.0035912,-6.7096123],[-36.9806201,-6.6171364],[-36.9368996,-6.5776849],[-36.9627181,-6.5099686],[-36.9577275,-6.4916717],[-36.8741265,-6.4186713],[-36.8608158,-6.388783],[-36.9237079,-6.2943955],[-36.914632,-6.2605617]],[[-36.914632,-6.2605617],[-36.9109953,-6.2445559],[-36.8944209,-6.2389273]],[[-37.0035912,-6.7096123],[-36.9776218,-6.7218552],[-36.9571355,-6.7904782],[-36.9034284,-6.7536148],[-36.8350296,-6.7310709],[-36.7727287,-6.7870652],[-36.7694651,-6.8387481],[-36.730198,-6.8363961],[-36.7665439,-6.9358676],[-36.7441126,-6.9677737],[-36.7092715,-6.9746886],[-36.6872181,-6.9259627],[-36.6036081,-6.930457],[-36.540991,-6.8407187],[-36.5069378,-6.8130054],[-36.5047532,-6.7539395],[-36.5588804,-6.7091075],[-36.5138108,-6.594393],[-36.4362792,-6.6282245],[-36.4491734,-6.5539142],[-36.5258468,-6.5011613],[-36.5309716,-6.4520716],[-36.4998486,-6.3581649],[-36.430306,-6.362255],[-36.3945614,-6.2939748],[-36.3575767,-6.3099873],[-36.31364,-6.2833561],[-36.2949796,-6.2921068]],[[-36.2949796,-6.2921068],[-36.2586728,-6.2458137],[-36.2671194,-6.2272785],[-36.2568489,-6.1580152]],[[-36.2568489,-6.1580152],[-36.2957003,-6.1221662]],[[-36.8953228,-6.2394006],[-36.914632,-6.2605617]],[[-35.9340442,-5.7159043],[-35.9396394,-5.7330119]],[[-35.9396394,-5.7330119],[-35.7770999,-5.716386],[-35.6318163,-5.7143856]],[[-35.6318163,-5.7143856],[-35.6414712,-5.6293907],[-35.6585446,-5.5864552],[-35.6681812,-5.4963494],[-35.6586963,-5.4779274],[-35.7085452,-5.4611438],[-35.7610349,-5.4549386],[-35.7772166,-5.4428255],[-35.7919788,-5.4529745],[-35.8103924,-5.4657108],[-35.8402248,-5.2345863],[-35.8318646,-5.2100244],[-35.9521544,-5.2373809]],[[-36.2949796,-6.2921068],[-36.2767475,-6.3404305],[-36.2952214,-6.3945605],[-36.2511629,-6.4044235],[-36.2497721,-6.4373599],[-36.1437507,-6.4253246],[-36.110189,-6.4291807],[-36.0777206,-6.4050906],[-36.0053484,-6.4810533],[-35.9441837,-6.4930062],[-35.7633561,-6.482192],[-35.7071666,-6.4695364],[-35.6636037,-6.44683]],[[-35.6636037,-6.44683],[-35.6702926,-6.4317006],[-35.6822989,-6.3525741],[-35.6432257,-6.3257564],[-35.6664121,-6.23902],[-35.6633165,-6.1979017],[-35.7213801,-6.1731356],[-35.7322502,-6.1424914],[-35.8082464,-6.1396583],[-35.8258004,-6.0788654],[-35.7783375,-6.015875],[-35.834772,-5.9470964],[-35.9255222,-5.800254]],[[-36.3022169,-6.1153717],[-36.2568489,-6.1580152]],[[-35.6636037,-6.44683],[-35.6001881,-6.4606106],[-35.5805324,-6.4871114],[-35.5252965,-6.4760978],[-35.4123941,-6.4882475],[-35.3645125,-6.5120405],[-35.3412638,-6.5386169]],[[-35.3412638,-6.5386169],[-35.3032858,-6.4207937],[-35.3465355,-6.3584182],[-35.3232354,-6.2711312],[-35.3189557,-6.1909586]],[[-35.3189557,-6.1909586],[-35.3523816,-6.1819666],[-35.2986584,-6.0720552],[-35.3232591,-6.0482488],[-35.3690878,-6.0535548],[-35.37344,-5.9873764],[-35.546735,-6.0539548],[-35.5374012,-5.9956844],[-35.5722267,-5.9323081],[-35.4875012,-5.8296879],[-35.4715851,-5.8348248],[-35.4468642,-5.7333584],[-35.4806996,-5.7149051],[-35.4953932,-5.716439],[-35.5518999,-5.7033471]],[[-35.5518999,-5.7033471],[-35.5576945,-5.7211301]],[[-35.5576945,-5.7211301],[-35.6318163,-5.7143856]],[[-35.9396394,-5.7330119],[-35.9374016,-5.7448881]],[[-35.5576945,-5.7211301],[-35.5481941,-5.688078]],[[-35.5481941,-5.688078],[-35.5120827,-5.6500593],[-35.5214078,-5.5776696],[-35.4925611,-5.4873413],[-35.4812779,-5.4847158],[-35.4169911,-5.4572116],[-35.3058623,-5.486848],[-35.2974983,-5.4870678],[-35.2959073,-5.4887507],[-35.2870212,-5.4946217],[-35.2793961,-5.4966118],[-35.2535141,-5.5201895]],[[-35.2535141,-5.5201895],[-35.2595843,-5.4817138],[-35.2880024,-5.4605602],[-35.3196058,-5.3777427],[-35.3521686,-5.3605004],[-35.372687,-5.281446],[-35.4167172,-5.2209732],[-35.4589473,-5.1970323],[-35.4889473,-5.1573798],[-35.6061833,-5.120593],[-35.6389768,-5.1195318],[-35.7588296,-5.0887739],[-35.9082574,-5.059478]],[[-35.3189557,-6.1909586],[-35.2980691,-6.1613074],[-35.2135283,-6.1743452],[-35.175489,-6.16494],[-35.1453999,-6.1360459],[-35.0978139,-6.1397538]],[[-35.0978139,-6.1397538],[-35.0963025,-6.0572878],[-35.1062298,-6.0069172],[-35.1297866,-5.9821204]],[[-35.1297866,-5.9821204],[-35.1827162,-5.9377796],[-35.2120436,-5.9347518],[-35.2506406,-5.9620975],[-35.2960851,-5.9582385],[-35.2807069,-5.8365481],[-35.249893,-5.7772917],[-35.2865743,-5.7634999],[-35.2766992,-5.7218667],[-35.2694395,-5.7018475],[-35.3132128,-5.7379698],[-35.3610347,-5.7285115],[-35.2848114,-5.6242916],[-35.2271281,-5.6121493]],[[-35.2271281,-5.6121493],[-35.2286356,-5.5745536],[-35.2535141,-5.5201895]],[[-35.5481941,-5.688078],[-35.5518999,-5.7033471]],[[-35.1297866,-5.9821204],[-35.1522957,-5.9495098],[-35.1530009,-5.8878385],[-35.1788124,-5.8663642],[-35.1792424,-5.7989714],[-35.2035316,-5.7472818],[-35.1922014,-5.7005941],[-35.2161873,-5.6763806],[-35.2271281,-5.6121493]],[[-35.3412638,-6.5386169],[-35.2745652,-6.5438778],[-35.2323484,-6.5317766],[-35.1688535,-6.5582613],[-35.1454435,-6.5527097],[-35.0945474,-6.4981034],[-35.0577321,-6.5277912],[-35.0285409,-6.5055226],[-34.971027,-6.4853969],[-34.9749944,-6.4190675],[-34.9907724,-6.3718731],[-35.0272021,-6.3509906],[-35.0359791,-6.2353981],[-35.0738061,-6.2187789],[-35.0949638,-6.1824475],[-35.0978139,-6.1397538]]],"bbox":[-38.5820985,-6.9746886,-34.971027,-4.8313814]}
