{"type":"Topology","objects":{"geometrias":{"type":"GeometryCollection","geometries":[{"type":"Polygon","arcs":[[0,1,2,3,4,5,6,7]],"properties":{"code_micro":28001,"name_micro":"Sergipana do Sertão do São Francisco","code_state":28,"code_region":2,"abbrev_state":"SE","name_state":"Sergipe","name_region":"Nordeste","year":2020}},{"type":"Polygon","arcs":[[8,9,10,11,12,13,14,15,16,-4,17,-2]],"properties":{"code_micro":28002,"name_micro":"Carira","code_state":28,"code_region":2,"abbrev_state":"SE","name_state":"Sergipe","name_region":"Nordeste","year":2020}},{"type":"Polygon","arcs":[[18,-16,19,-14,20,21,22,23,24,25,26,-6]],"properties":{"code_micro":28003,"name_micro":"Nossa Senhora das Dores","code_state":28,"code_region":2,"abbrev_state":"SE","name_state":"Sergipe","name_region":"Nordeste","year":2020}},{"type":"Polygon","arcs":[[27,28,29,30,31,32,33,34,-22,35,-12,36]],"properties":{"code_micro":28004,"name_micro":"Agreste de Itabaiana","code_state":28,"code_region":2,"abbrev_state":"SE","name_state":"Sergipe","name_region":"Nordeste","year":2020}},{"type":"Polygon","arcs":[[37,38,39,40,-10]],"properties":{"code_micro":28005,"name_micro":"Tobias Barreto","code_state":28,"code_region":2,"abbrev_state":"SE","name_state":"Sergipe","name_region":"Nordeste","year":2020}},{"type":"Polygon","arcs":[[41,42,43,-28,44,-40]],"properties":{"code_micro":28006,"name_micro":"Agreste de Lagarto","code_state":28,"code_region":2,"abbrev_state":"SE","name_state":"Sergipe","name_region":"Nordeste","year":2020}},{"type":"Polygon","arcs":[[-26,45,46,-8,47]],"properties":{"code_micro":28007,"name_micro":"Propriá","code_state":28,"code_region":2,"abbrev_state":"SE","name_state":"Sergipe","name_region":"Nordeste","year":2020}},{"type":"Polygon","arcs":[[48,-34,49,50,51,-24]],"properties":{"code_micro":28008,"name_micro":"Cotinguiba","code_state":28,"code_region":2,"abbrev_state":"SE","name_state":"Sergipe","name_region":"Nordeste","year":2020}},{"type":"Polygon","arcs":[[-52,52,53,54,55,-46,-25]],"properties":{"code_micro":28009,"name_micro":"Japaratuba","code_state":28,"code_region":2,"abbrev_state":"SE","name_state":"Sergipe","name_region":"Nordeste","year":2020}},{"type":"Polygon","arcs":[[56,-32,57,58,59,-53,-51]],"properties":{"code_micro":28010,"name_micro":"Baixo Cotinguiba","code_state":28,"code_region":2,"abbrev_state":"SE","name_state":"Sergipe","name_region":"Nordeste","year":2020}},{"type":"Polygon","arcs":[[60,61,62,-55,63,-59]],"properties":{"code_micro":28011,"name_micro":"Aracaju","code_state":28,"code_region":2,"abbrev_state":"SE","name_state":"Sergipe","name_region":"Nordeste","year":2020}},{"type":"Polygon","arcs":[[-39,64,65,-42]],"properties":{"code_micro":28012,"name_micro":"Boquim","code_state":28,"code_region":2,"abbrev_state":"SE","name_state":"Sergipe","name_region":"Nordeste","year":2020}},{"type":"Polygon","arcs":[[66,-62,67,-30,68,-43,-66]],"properties":{"code_micro":28013,"name_micro":"Estância","code_state":28,"code_region":2,"abbrev_state":"SE","name_state":"Sergipe","name_region":"Nordeste","year":2020}}]}},"arcs":[[[-36.9534541,-10.0228196],[-36.9616864,-9.9963701],[-36.9732919,-9.9843638],[-37.0043614,-9.9781161],[-37.0330877,-9.9875786],[-37.0640142,-9.9816114],[-37.0859392,-9.9516958],[-37.1063049,-9.9394263],[-37.1138859,-9.9256234],[-37.1625382,-9.8938468],[-37.1806734,-9.8994168],[-37.217159,-9.9000516],[-37.2411061,-9.8954489],[-37.2619127,-9.8491387],[-37.2852199,-9.8306289],[-37.3005087,-9.8315612],[-37.3227763,-9.8197357],[-37.3491033,-9.7898084],[-37.3936189,-9.7792353],[-37.4099011,-9.7626496],[-37.4730916,-9.7463641],[-37.515373,-9.7458745],[-37.577684,-9.7368078],[-37.5941126,-9.7231758],[-37.6540515,-9.6863334],[-37.670392,-9.6559792],[-37.7052049,-9.634498],[-37.7469947,-9.6249209],[-37.7855541,-9.6391762],[-37.7915152,-9.6228227],[-37.8182483,-9.5928939],[-37.8375369,-9.5832826],[-37.8861699,-9.5501668],[-37.8924655,-9.5397968],[-37.9224297,-9.5478353],[-37.9562952,-9.5340827],[-37.9893302,-9.5273587],[-38.0032899,-9.5150299],[-38.0226164,-9.5406648],[-38.0209014,-9.560914],[-38.0617097,-9.5909087],[-38.0488721,-9.6323926],[-38.0166551,-9.6388738],[-38.0089614,-9.6490583],[-38.0322192,-9.6606865],[-38.0343001,-9.6867161],[-38.0450383,-9.6974549],[-38.038619,-9.7500946],[-38.0246019,-9.777445],[-38.020426,-9.797863],[-37.9999705,-9.8143261],[-37.9954442,-9.8460787],[-38.007183,-9.8687177],[-37.9921235,-9.8943078],[-38.0000359,-9.9087148],[-37.9754164,-9.9367318],[-37.9554324,-9.9429999],[-37.9134407,-9.9331128],[-37.8957932,-9.9421324],[-37.8960726,-9.9542834],[-37.8625558,-9.9885966],[-37.8520777,-9.9904569],[-37.8270049,-10.0341612],[-37.7909033,-10.0327032],[-37.7826444,-10.0435984],[-37.7883725,-10.0714104],[-37.8004816,-10.091709],[-37.8020145,-10.1124474],[-37.7779303,-10.1341413],[-37.7759919,-10.1570025],[-37.7833124,-10.1794818],[-37.7656072,-10.1962121]],[[-37.7656072,-10.1962121],[-37.7499307,-10.1976634],[-37.7420198,-10.1954509],[-37.732393,-10.19439]],[[-37.732393,-10.19439],[-37.721184,-10.1878265],[-37.7030859,-10.1919809],[-37.7001571,-10.1949893]],[[-37.7001571,-10.1949893],[-37.6961778,-10.2051923],[-37.6933445,-10.2080734],[-37.6742447,-10.2061305],[-37.6539659,-10.2179889],[-37.6232183,-10.2443981],[-37.5933654,-10.2518774],[-37.5774278,-10.2434511],[-37.5632718,-10.2601752],[-37.5528874,-10.2584578],[-37.5411612,-10.2617949],[-37.5368856,-10.2785042],[-37.4972744,-10.2945361],[-37.4894741,-10.2831246],[-37.4684808,-10.2862223],[-37.4359536,-10.3033736],[-37.4290202,-10.3035597],[-37.4096738,-10.3046487],[-37.4080001,-10.289865]],[[-37.4080001,-10.289865],[-37.4027973,-10.2897153]],[[-37.4027973,-10.2897153],[-37.3847886,-10.2983925],[-37.3684356,-10.3303113],[-37.3594452,-10.3349731],[-37.3607266,-10.336717],[-37.3586681,-10.345513],[-37.3502551,-10.3557818],[-37.3522924,-10.3624086],[-37.3540657,-10.3628469],[-37.3486463,-10.384604],[-37.3405907,-10.3768141],[-37.3394411,-10.3780701],[-37.3315858,-10.377176],[-37.2958003,-10.3201236],[-37.2740238,-10.3064939],[-37.243721,-10.2976872],[-37.2425479,-10.2936943],[-37.2581841,-10.2682336],[-37.2929051,-10.255812],[-37.2612124,-10.2383751],[-37.2513612,-10.2552265],[-37.2384073,-10.2724274],[-37.2232395,-10.2983458],[-37.2099237,-10.2958657],[-37.1723926,-10.3155467],[-37.1688162,-10.333333],[-37.1722436,-10.334557],[-37.1716475,-10.3376225],[-37.1684117,-10.3421676],[-37.1660806,-10.3401984],[-37.1525538,-10.3238314],[-37.1512071,-10.3192499],[-37.154105,-10.308139],[-37.1391351,-10.2800449],[-37.1407158,-10.2463281],[-37.150998,-10.2358117],[-37.1506148,-10.2251676],[-37.1435471,-10.211309],[-37.1377575,-10.1934431],[-37.154725,-10.1843631]],[[-37.154725,-10.1843631],[-37.1504675,-10.1631679],[-37.0664591,-10.1364347]],[[-37.0664591,-10.1364347],[-37.0679654,-10.0922995],[-37.062024,-10.0615473],[-37.0297839,-10.0569375],[-37.0069411,-10.0377451],[-36.9534541,-10.0228196]],[[-37.7656072,-10.1962121],[-37.7470908,-10.2380727],[-37.7591633,-10.2535116],[-37.7488597,-10.2643236],[-37.7503827,-10.2894991],[-37.7433128,-10.3383907],[-37.7786833,-10.3431919],[-37.8076254,-10.3675035],[-37.839048,-10.3788204],[-37.8432688,-10.403109],[-37.853109,-10.4062775],[-37.8527055,-10.4387027],[-37.820987,-10.4836401],[-37.8126051,-10.507247],[-37.8192872,-10.5396416],[-37.8411986,-10.5550589],[-37.8306984,-10.5734957],[-37.8045784,-10.5990832]],[[-37.8045784,-10.5990832],[-37.7852879,-10.600947],[-37.7685318,-10.611684],[-37.7315585,-10.6301382],[-37.7245183,-10.6407229],[-37.7066001,-10.6330613],[-37.6979278,-10.6474752],[-37.7150392,-10.6689163],[-37.6926991,-10.6846226],[-37.6867482,-10.6912564],[-37.6759167,-10.7043855],[-37.677443,-10.7154116]],[[-37.677443,-10.7154116],[-37.662941,-10.712018]],[[-37.662941,-10.712018],[-37.66856,-10.6745329],[-37.6402816,-10.6047205],[-37.5585747,-10.6194508],[-37.5304611,-10.6457986],[-37.50946,-10.626232],[-37.4745009,-10.5664591],[-37.4597452,-10.5943099],[-37.4226444,-10.5762908],[-37.3945425,-10.5823203],[-37.3638575,-10.5589838],[-37.3570689,-10.5472377],[-37.3213727,-10.5421828]],[[-37.3213727,-10.5421828],[-37.3468073,-10.5068304]],[[-37.3468073,-10.5068304],[-37.3606921,-10.4773989],[-37.3668476,-10.4651658]],[[-37.3668476,-10.4651658],[-37.3699448,-10.4601693],[-37.3681819,-10.4547248],[-37.3688442,-10.4508484],[-37.4103647,-10.4167983]],[[-37.4103647,-10.4167983],[-37.4098332,-10.3554551],[-37.4129778,-10.3462045],[-37.4062723,-10.309552]],[[-37.4062723,-10.309552],[-37.4080001,-10.289865]],[[-37.7001571,-10.1949893],[-37.7014624,-10.1929996],[-37.707893,-10.1905484],[-37.7179013,-10.1878495],[-37.7258637,-10.1898321],[-37.732393,-10.19439]],[[-37.4027973,-10.2897153],[-37.4062723,-10.309552]],[[-37.4103647,-10.4167983],[-37.3682209,-10.4517055],[-37.3668476,-10.4651658]],[[-37.3468073,-10.5068304],[-37.3179346,-10.5421828]],[[-37.3179346,-10.5421828],[-37.316834,-10.5475299],[-37.3056756,-10.5679598],[-37.2962275,-10.5765596],[-37.263165,-10.5773283],[-37.2507334,-10.5930772],[-37.2480033,-10.594364]],[[-37.2480033,-10.594364],[-37.2449784,-10.5936385]],[[-37.2449784,-10.5936385],[-37.2257851,-10.6077958],[-37.2024293,-10.6157609],[-37.2072713,-10.6075933],[-37.2059652,-10.606773],[-37.2010004,-10.601584],[-37.1761449,-10.5802518],[-37.1808145,-10.5628024],[-37.1396678,-10.5070334],[-37.1371291,-10.4537536],[-37.118728,-10.4414772],[-37.110742,-10.4231159],[-37.1183578,-10.387703],[-37.1293212,-10.3857552],[-37.1283526,-10.3824023],[-37.0899171,-10.3576207],[-37.0663657,-10.3302105],[-37.054333,-10.3370838],[-37.0297341,-10.3254423],[-37.0005224,-10.3279726],[-36.9953335,-10.3584015],[-36.978998,-10.3713898],[-36.9841869,-10.3978469],[-36.9612852,-10.442273],[-36.9490816,-10.4423531],[-36.9466153,-10.4445472],[-36.9350043,-10.4494959]],[[-36.9350043,-10.4494959],[-36.9332907,-10.4419047],[-36.9350203,-10.4330002],[-36.9292548,-10.4237595],[-36.9174837,-10.4193873],[-36.9029969,-10.4025956],[-36.9157572,-10.3934145],[-36.9125589,-10.3695496],[-36.9007488,-10.3501212],[-36.9026627,-10.3242115]],[[-36.9026627,-10.3242115],[-36.9358844,-10.3066811],[-36.9337251,-10.2761459],[-36.9523737,-10.2665204],[-36.9290282,-10.2228287],[-36.9611888,-10.2356638],[-36.9715941,-10.2045478],[-36.9947943,-10.1776004],[-37.0169026,-10.1910129],[-37.0575196,-10.1810599],[-37.1503834,-10.1631198]],[[-37.1503834,-10.1631198],[-37.154725,-10.1843631]],[[-37.6615124,-10.717268],[-37.6509944,-10.7062159],[-37.636902,-10.7132416],[-37.6267117,-10.7475753],[-37.599887,-10.7787792],[-37.6064259,-10.7897435],[-37.6142821,-10.7962813],[-37.6101616,-10.8071179],[-37.5945617,-10.8266034],[-37.5742729,-10.8393889],[-37.5639025,-10.834852],[-37.5304185,-10.8399474],[-37.5108716,-10.8424559],[-37.4964648,-10.831253],[-37.4885362,-10.8368264],[-37.4767583,-10.8598725],[-37.4626389,-10.8592672],[-37.4616589,-10.8680662],[-37.4588441,-10.8795797],[-37.4557697,-10.881748]],[[-37.4557697,-10.881748],[-37.4031663,-10.8257562]],[[-37.4031663,-10.8257562],[-37.4027143,-10.8398249],[-37.3877338,-10.8510634],[-37.3393789,-10.8472685],[-37.3291011,-10.8334353],[-37.3183708,-10.8345427]],[[-37.3183708,-10.8345427],[-37.3183587,-10.8321481],[-37.2445086,-10.7783836]],[[-37.2445086,-10.7783836],[-37.2725273,-10.7528384],[-37.2830605,-10.7317337],[-37.2589259,-10.701732],[-37.2384961,-10.7083608],[-37.2299322,-10.7014095],[-37.2250231,-10.7048202],[-37.2231053,-10.7025397],[-37.2304499,-10.6949608],[-37.2286663,-10.6779448]],[[-37.2286663,-10.6779448],[-37.2341679,-10.6713709]],[[-37.2341679,-10.6713709],[-37.2464671,-10.6477082],[-37.2588999,-10.6492916],[-37.2788819,-10.6264698],[-37.2888478,-10.6147327],[-37.2963995,-10.6010278],[-37.281343,-10.5872924],[-37.253663,-10.5957696]],[[-37.253663,-10.5957696],[-37.2480033,-10.594364]],[[-37.3179346,-10.5421828],[-37.3213727,-10.5421828]],[[-37.662941,-10.712018],[-37.6615124,-10.717268]],[[-37.8045784,-10.5990832],[-37.8113881,-10.6255361],[-37.8029907,-10.6521623],[-37.8151346,-10.6848568],[-37.8374288,-10.6854657],[-37.8475103,-10.6992649],[-37.9096224,-10.7155103],[-37.9454812,-10.7565173],[-37.9528941,-10.7501022],[-37.9768025,-10.7579327],[-38.0250319,-10.7255192],[-38.0318754,-10.7079966],[-38.0485734,-10.7034538],[-38.067792,-10.7156658],[-38.0983533,-10.7124371],[-38.1435605,-10.7190129],[-38.1833944,-10.7053632],[-38.2092245,-10.7119177],[-38.2165189,-10.7268057],[-38.2094108,-10.7605882],[-38.2185886,-10.7832972],[-38.238345,-10.8001848],[-38.2392662,-10.8263759],[-38.2313983,-10.8429341],[-38.2374459,-10.8761491],[-38.227251,-10.9160143],[-38.1990803,-10.9280744],[-38.1806156,-10.9427672],[-38.1865421,-10.9642065],[-38.1700454,-10.9889955],[-38.1441782,-11.0016573],[-38.1019992,-11.0158945],[-38.1024196,-11.0439829],[-38.0809638,-11.0640434],[-38.0804864,-11.0821886],[-38.0884012,-11.1162559],[-38.0656188,-11.1229761],[-38.0712201,-11.143546],[-38.057209,-11.1720512],[-38.0233545,-11.177767],[-38.0029487,-11.193824],[-37.9822963,-11.1911066],[-37.9764057,-11.2155386],[-37.990642,-11.2279944],[-37.9836406,-11.248288],[-37.9958538,-11.259476],[-37.9922089,-11.2788293],[-38.0013459,-11.3033025],[-37.9801414,-11.3465885]],[[-37.9801414,-11.3465885],[-37.966753,-11.323118],[-37.9503708,-11.3065471],[-37.9221231,-11.2414585],[-37.9047926,-11.2219551],[-37.88619,-11.21271],[-37.8724489,-11.2173894],[-37.8674576,-11.2213261],[-37.87638,-11.1865902],[-37.8464968,-11.1607612],[-37.7934412,-11.1329744]],[[-37.7934412,-11.1329744],[-37.8435385,-11.1089518],[-37.9058312,-11.0307488],[-37.9461137,-10.9961484],[-37.9331884,-10.9719136],[-37.9433362,-10.9462809],[-37.9554445,-10.9350077],[-37.9728905,-10.8803692],[-37.9391105,-10.8898482],[-37.9371254,-10.8810227],[-37.8790263,-10.8667856],[-37.8608151,-10.8693198],[-37.8283798,-10.8589943],[-37.8138269,-10.8698319],[-37.8045658,-10.8378814],[-37.766571,-10.8192182],[-37.7371616,-10.799538],[-37.724123,-10.7815358],[-37.7180014,-10.7697322],[-37.7075004,-10.7381666],[-37.678581,-10.7265889],[-37.6792385,-10.7167519]],[[-37.6792385,-10.7167519],[-37.677443,-10.7154116]],[[-37.7934412,-11.1329744],[-37.790084,-11.1340292],[-37.7821215,-11.133019],[-37.7695986,-11.1352027],[-37.7612053,-11.1416648],[-37.7388927,-11.1532519],[-37.7314948,-11.1556436],[-37.7164613,-11.1673495],[-37.7112917,-11.1698303],[-37.709821,-11.1694887],[-37.6725338,-11.1486051],[-37.6467198,-11.1261992],[-37.6495457,-11.1088792],[-37.622419,-11.0674753],[-37.5651514,-11.0400518],[-37.5685133,-11.0254575],[-37.531008,-10.9962223],[-37.5196612,-10.9603419],[-37.4556426,-10.9775498]],[[-37.4556426,-10.9775498],[-37.4942326,-10.9047067],[-37.4640063,-10.8925316]],[[-37.4640063,-10.8925316],[-37.4557697,-10.881748]],[[-37.6615124,-10.717268],[-37.6792385,-10.7167519]],[[-36.9026627,-10.3242115],[-36.886201,-10.3008241],[-36.873236,-10.2961726],[-36.8513584,-10.2739351],[-36.8361751,-10.2913463],[-36.8183673,-10.2982334],[-36.8007694,-10.2947798],[-36.7891864,-10.300703],[-36.7682142,-10.314574],[-36.7491525,-10.3144564],[-36.7391319,-10.321654],[-36.7350285,-10.33139],[-36.7336168,-10.3634443],[-36.7019122,-10.4057143],[-36.6484104,-10.3996909],[-36.6077119,-10.4205842],[-36.6001494,-10.4968425],[-36.4994128,-10.512986],[-36.4861898,-10.5363835]],[[-36.4861898,-10.5363835],[-36.4330304,-10.5159456],[-36.4087988,-10.5126924],[-36.3959408,-10.4968722],[-36.403575,-10.486978],[-36.4276286,-10.4335147],[-36.4630962,-10.4084796],[-36.5019299,-10.4311324],[-36.5294169,-10.4308933],[-36.5535529,-10.4240293],[-36.5626853,-10.4139182],[-36.5569866,-10.3748876],[-36.5718256,-10.3161472],[-36.6004501,-10.2900603],[-36.6226392,-10.2552517],[-36.6385707,-10.251963],[-36.6592757,-10.2684482],[-36.6914611,-10.2715844],[-36.7212114,-10.2645986],[-36.7352144,-10.2419349],[-36.759159,-10.2249199],[-36.7885611,-10.2280941],[-36.8014388,-10.2131064],[-36.8297543,-10.2084407],[-36.8464658,-10.1875073],[-36.8699454,-10.1471254],[-36.8879947,-10.1479524],[-36.9114192,-10.1387824],[-36.9288451,-10.1011833],[-36.9456955,-10.0873628],[-36.9565986,-10.053734],[-36.9534541,-10.0228196]],[[-37.0664591,-10.1364347],[-37.1503834,-10.1631198]],[[-37.2449784,-10.5936385],[-37.253663,-10.5957696]],[[-37.2341679,-10.6713709],[-37.1990237,-10.6772243]],[[-37.1990237,-10.6772243],[-37.2058722,-10.7042177],[-37.1969961,-10.7273516],[-37.1791464,-10.7174614],[-37.1540621,-10.7263193],[-37.1425671,-10.7004704],[-37.1215582,-10.7027312],[-37.1154998,-10.6849315],[-37.0891155,-10.6482602],[-37.0758552,-10.632245],[-37.071822,-10.6150688],[-37.0361927,-10.6255813],[-37.0112606,-10.6413017]],[[-37.0112606,-10.6413017],[-36.9755294,-10.5416351],[-36.9777728,-10.5301938],[-36.9563501,-10.5237373],[-36.9350043,-10.4494959]],[[-37.0112606,-10.6413017],[-36.9919471,-10.631629],[-36.9688893,-10.6309563],[-36.9659776,-10.6409253],[-36.9638156,-10.6465787],[-36.9485211,-10.6504544],[-36.9329543,-10.6541058],[-36.9290466,-10.6706335],[-36.9125495,-10.6781909],[-36.9047638,-10.684037],[-36.8954283,-10.7054531],[-36.8809772,-10.6983407],[-36.8788642,-10.6979634],[-36.8731458,-10.7061264],[-36.8713723,-10.7099944],[-36.8669904,-10.7318761],[-36.8682476,-10.7368557],[-36.8728124,-10.7412349]],[[-36.8728124,-10.7412349],[-36.8692437,-10.7437983]],[[-36.8692437,-10.7437983],[-36.8527467,-10.7442257]],[[-36.8527467,-10.7442257],[-36.8278915,-10.721452],[-36.7844259,-10.6882294],[-36.7346858,-10.6580667],[-36.6729468,-10.6307931],[-36.6127009,-10.5884047],[-36.527295,-10.5512561],[-36.4861898,-10.5363835]],[[-37.1990237,-10.6772243],[-37.2286663,-10.6779448]],[[-37.2445086,-10.7783836],[-37.3176723,-10.8316402]],[[-37.3176723,-10.8316402],[-37.2421227,-10.8338717],[-37.2149475,-10.8481225],[-37.179163,-10.855183],[-37.1737431,-10.8420749],[-37.1429592,-10.8319746],[-37.117922,-10.8320264],[-37.1014778,-10.8181255],[-37.0911442,-10.8234094],[-37.0457813,-10.8258827],[-37.0283527,-10.8473746],[-37.0352839,-10.875191],[-36.9929827,-10.8528458],[-36.9834178,-10.839055],[-36.9878135,-10.8370553],[-36.9840592,-10.8318861],[-36.9684384,-10.832886],[-36.9610242,-10.8114357],[-36.9559682,-10.8089454],[-36.9326502,-10.7862878],[-36.899418,-10.7725715],[-36.8860332,-10.7545227],[-36.8762419,-10.738185]],[[-36.8762419,-10.738185],[-36.8728124,-10.7412349]],[[-37.3176723,-10.8316402],[-37.3303917,-10.9304966]],[[-37.3303917,-10.9304966],[-37.3350999,-10.9439583],[-37.3251545,-10.9766331],[-37.3028845,-10.9868043],[-37.2991171,-11.0095492],[-37.2820236,-11.0264561],[-37.259104,-11.0355299],[-37.2271831,-11.0406083],[-37.2192182,-11.0765138],[-37.1663878,-11.1053588],[-37.1645136,-11.1503377],[-37.154509,-11.1616028]],[[-37.154509,-11.1616028],[-37.1439824,-11.1338714],[-37.1257321,-11.1030674],[-37.0633185,-11.0128537],[-37.0353692,-10.9798473],[-37.0340254,-10.9562448],[-36.9530599,-10.8515135],[-36.9316021,-10.8320046],[-36.9137943,-10.8083553],[-36.8527467,-10.7442257]],[[-36.8692437,-10.7437983],[-36.8762419,-10.738185]],[[-37.9801414,-11.3465885],[-37.9786506,-11.3656903],[-37.9528039,-11.3944876],[-37.9363691,-11.4216614],[-37.9275578,-11.4013024],[-37.9044605,-11.411759],[-37.8991544,-11.4382534],[-37.8823804,-11.4247047],[-37.867592,-11.4424563],[-37.8641796,-11.4668812],[-37.8534577,-11.4674974],[-37.8235926,-11.4925822],[-37.8122886,-11.51702],[-37.7896669,-11.5249333],[-37.7589745,-11.5253783],[-37.749361,-11.5386277],[-37.6984173,-11.5634142],[-37.6819641,-11.5625182],[-37.6613297,-11.5461672],[-37.6642002,-11.5319608],[-37.6436043,-11.5244154],[-37.6364694,-11.5125844]],[[-37.6364694,-11.5125844],[-37.647605,-11.4920702],[-37.6486149,-11.4841136],[-37.6527085,-11.4825757],[-37.6023638,-11.3888636],[-37.6921173,-11.308129],[-37.6634408,-11.289966],[-37.6032654,-11.3430164],[-37.5877975,-11.3241619],[-37.5720227,-11.3229727],[-37.5500598,-11.3081329],[-37.540127,-11.3029291],[-37.5271075,-11.3006141],[-37.5239714,-11.2920713],[-37.5084687,-11.2753023],[-37.52626,-11.2524864],[-37.5372747,-11.2200379],[-37.5343804,-11.1900836],[-37.5537576,-11.1839119],[-37.5461599,-11.1658542],[-37.458977,-11.14633],[-37.4372886,-11.1268314],[-37.4382073,-11.0870033],[-37.3915895,-11.0525918],[-37.4043799,-11.0349492],[-37.41235,-11.0105601],[-37.4264599,-10.9883524],[-37.4556426,-10.9775498]],[[-37.6364694,-11.5125844],[-37.6286042,-11.5293432],[-37.6045037,-11.5402862],[-37.590269,-11.5284951],[-37.5785501,-11.5521789],[-37.5627166,-11.5426752],[-37.5357778,-11.5497206],[-37.5170038,-11.5469251],[-37.5032893,-11.5242985],[-37.4554887,-11.5231383],[-37.4108864,-11.4954325],[-37.3686307,-11.4598165],[-37.3552553,-11.4436993],[-37.3379097,-11.4428246],[-37.3122179,-11.4229911],[-37.3095169,-11.394398],[-37.3015518,-11.3684979],[-37.2820944,-11.326694],[-37.2482812,-11.2734483],[-37.2070498,-11.2229464],[-37.1661092,-11.1824984],[-37.154509,-11.1616028]],[[-37.3303917,-10.9304966],[-37.3183708,-10.8345427]],[[-37.4031663,-10.8257562],[-37.4640063,-10.8925316]]],"bbox":[-38.2392662,-11.5634142,-36.3959408,-9.5150299]}
