{"type":"Topology","objects":{"geometrias":{"type":"GeometryCollection","geometries":[{"type":"Polygon","arcs":[[0,1,2,3,4,5,6]],"properties":{"code_micro":15001,"name_micro":"Óbidos","code_state":15,"code_region":1,"abbrev_state":"PA","name_state":"Pará","name_region":"Norte","year":2020}},{"type":"Polygon","arcs":[[-3,7,8,9,10,11,-5,12]],"properties":{"code_micro":15002,"name_micro":"Santarém","code_state":15,"code_region":1,"abbrev_state":"PA","name_state":"Pará","name_region":"Norte","year":2020}},{"type":"Polygon","arcs":[[13,14,15,16,17,18,19,20,21,22,23,24,-7,25,-11]],"properties":{"code_micro":15003,"name_micro":"Almeirim","code_state":15,"code_region":1,"abbrev_state":"PA","name_state":"Pará","name_region":"Norte","year":2020}},{"type":"Polygon","arcs":[[26,27,28,29,30,31,32,33,34,-24,35,-22]],"properties":{"code_micro":15004,"name_micro":"Portel","code_state":15,"code_region":1,"abbrev_state":"PA","name_state":"Pará","name_region":"Norte","year":2020}},{"type":"Polygon","arcs":[[36,-32,37,-30,38,39,40,41,42,-34]],"properties":{"code_micro":15005,"name_micro":"Furos de Breves","code_state":15,"code_region":1,"abbrev_state":"PA","name_state":"Pará","name_region":"Norte","year":2020}},{"type":"MultiPolygon","arcs":[[[43]],[[44]],[[45,46,47,48,49,50,51,52,53,54,55,-42]],[[56]],[[57]]],"properties":{"code_micro":15006,"name_micro":"Arari","code_state":15,"code_region":1,"abbrev_state":"PA","name_state":"Pará","name_region":"Norte","year":2020}},{"type":"Polygon","arcs":[[58,59,60,-52,61,-50,62,63,64,65,66,67,68]],"properties":{"code_micro":15007,"name_micro":"Belém","code_state":15,"code_region":1,"abbrev_state":"PA","name_state":"Pará","name_region":"Norte","year":2020}},{"type":"Polygon","arcs":[[69,-69,70,71,72,73,74,75,76,-54,77,-60]],"properties":{"code_micro":15008,"name_micro":"Castanhal","code_state":15,"code_region":1,"abbrev_state":"PA","name_state":"Pará","name_region":"Norte","year":2020}},{"type":"Polygon","arcs":[[78,-55,-77,79,80]],"properties":{"code_micro":15009,"name_micro":"Salgado","code_state":15,"code_region":1,"abbrev_state":"PA","name_state":"Pará","name_region":"Norte","year":2020}},{"type":"Polygon","arcs":[[81,-75,82,83,-81]],"properties":{"code_micro":15010,"name_micro":"Bragantina","code_state":15,"code_region":1,"abbrev_state":"PA","name_state":"Pará","name_region":"Norte","year":2020}},{"type":"Polygon","arcs":[[-41,84,-39,-29,85,86,87,88,89,-66,90,-64,91,-48,92,-46]],"properties":{"code_micro":15011,"name_micro":"Cametá","code_state":15,"code_region":1,"abbrev_state":"PA","name_state":"Pará","name_region":"Norte","year":2020}},{"type":"Polygon","arcs":[[93,-67,-90,94,95,96,97,98,-72]],"properties":{"code_micro":15012,"name_micro":"Tomé-Açu","code_state":15,"code_region":1,"abbrev_state":"PA","name_state":"Pará","name_region":"Norte","year":2020}},{"type":"MultiPolygon","arcs":[[[99]],[[-74,100,-98,101,102,103,104,105,106,-83]]],"properties":{"code_micro":15013,"name_micro":"Guamá","code_state":15,"code_region":1,"abbrev_state":"PA","name_state":"Pará","name_region":"Norte","year":2020}},{"type":"Polygon","arcs":[[107,108,-8,-2]],"properties":{"code_micro":15014,"name_micro":"Itaituba","code_state":15,"code_region":1,"abbrev_state":"PA","name_state":"Pará","name_region":"Norte","year":2020}},{"type":"Polygon","arcs":[[109,-18,110,111,-15,112,-9,-109,113,114,115,116,117,-86,-28,118,-20]],"properties":{"code_micro":15015,"name_micro":"Altamira","code_state":15,"code_region":1,"abbrev_state":"PA","name_state":"Pará","name_region":"Norte","year":2020}},{"type":"Polygon","arcs":[[119,120,121,122,123,124,-103,125,-96,126,-88,127,-117]],"properties":{"code_micro":15016,"name_micro":"Tucuruí","code_state":15,"code_region":1,"abbrev_state":"PA","name_state":"Pará","name_region":"Norte","year":2020}},{"type":"Polygon","arcs":[[128,129,130,-106,131,-104,-125]],"properties":{"code_micro":15017,"name_micro":"Paragominas","code_state":15,"code_region":1,"abbrev_state":"PA","name_state":"Pará","name_region":"Norte","year":2020}},{"type":"Polygon","arcs":[[132,133,-121,134,-115,135,136,137,138]],"properties":{"code_micro":15018,"name_micro":"São Félix do Xingu","code_state":15,"code_region":1,"abbrev_state":"PA","name_state":"Pará","name_region":"Norte","year":2020}},{"type":"Polygon","arcs":[[-139,139,140,141,142]],"properties":{"code_micro":15019,"name_micro":"Parauapebas","code_state":15,"code_region":1,"abbrev_state":"PA","name_state":"Pará","name_region":"Norte","year":2020}},{"type":"Polygon","arcs":[[143,-123,144,-133,-143,145,146,147,-130]],"properties":{"code_micro":15020,"name_micro":"Marabá","code_state":15,"code_region":1,"abbrev_state":"PA","name_state":"Pará","name_region":"Norte","year":2020}},{"type":"Polygon","arcs":[[148,-138,149,150,-147,151,-141]],"properties":{"code_micro":15021,"name_micro":"Redenção","code_state":15,"code_region":1,"abbrev_state":"PA","name_state":"Pará","name_region":"Norte","year":2020}},{"type":"Polygon","arcs":[[-137,152,-150]],"properties":{"code_micro":15022,"name_micro":"Conceição do Araguaia","code_state":15,"code_region":1,"abbrev_state":"PA","name_state":"Pará","name_region":"Norte","year":2020}}]}},"arcs":[[[-55.7076969,2.4032133],[-55.7470366,2.4105376],[-55.7667045,2.4553296],[-55.8388951,2.4622686],[-55.8808697,2.4889886],[-55.9016722,2.5173189],[-55.9346782,2.5335401],[-55.9783139,2.5274219],[-55.9911983,2.4670974],[-55.989922,2.4173455],[-56.0366734,2.3743199],[-56.0225928,2.3475333],[-56.0506795,2.3350707],[-56.0739543,2.3709085],[-56.0902012,2.372367],[-56.0938401,2.3212589],[-56.1281494,2.2865429],[-56.1325391,2.2637497],[-56.0429581,2.2278718],[-56.0563434,2.1894345],[-56.035145,2.1688853],[-56.0031495,2.16769],[-55.9698121,2.1131213],[-55.9267602,2.0751896],[-55.9021219,2.0294038],[-55.9138152,1.9906055],[-55.9364257,1.9865514],[-55.9206002,1.9190604],[-55.90393,1.8881128],[-55.9564535,1.8451782],[-55.9990386,1.8313637],[-56.0367277,1.8502898],[-56.0987314,1.846612],[-56.1299783,1.8592948],[-56.1527014,1.8907862],[-56.2345387,1.8986942],[-56.2441215,1.878163],[-56.3350139,1.9371836],[-56.4118972,1.928347],[-56.4370969,1.9517867],[-56.4829321,1.9541525],[-56.4956521,1.9380548],[-56.5798431,1.9059607],[-56.6215364,1.9459583],[-56.6735432,1.9127658],[-56.7164288,1.9260721],[-56.7649869,1.888445],[-56.8015176,1.8741551],[-56.8935683,1.8994047],[-56.9197951,1.930438],[-56.9592603,1.9244683],[-56.9761841,1.9030262],[-57.0007912,1.9073698],[-57.0320421,1.9469966],[-57.0712971,1.9687982],[-57.0867653,2.0265193],[-57.1584013,1.9918631],[-57.1791806,1.9902311],[-57.2292123,1.9535859],[-57.2529579,1.9485161],[-57.27732,1.9830715],[-57.3457093,1.9803448],[-57.3677695,1.9237949],[-57.4335208,1.9060482],[-57.4320157,1.8585502],[-57.4509881,1.8064353],[-57.4970403,1.7734931],[-57.5342705,1.7082552],[-57.6294353,1.6985471],[-57.650515,1.682436],[-57.6981342,1.7138108],[-57.7923535,1.7267103],[-57.7984335,1.6971264],[-57.8195983,1.6839094],[-57.8950805,1.6743776],[-57.9136031,1.6476827],[-57.981128,1.6594102],[-57.9786567,1.5728412],[-58.0056003,1.5168355],[-58.0272692,1.5086841],[-58.061026,1.5254018],[-58.1295247,1.4989538],[-58.1496561,1.5100687],[-58.1607434,1.5601738],[-58.1895491,1.571646],[-58.2332732,1.5474707],[-58.2623564,1.5707902],[-58.3172406,1.5684948],[-58.3324767,1.5907334],[-58.3631891,1.5380737],[-58.3896397,1.5354341],[-58.3856898,1.4700439],[-58.4128764,1.4727402],[-58.4485472,1.4560754],[-58.4650766,1.4662859],[-58.5088297,1.4630001],[-58.4981622,1.4301763],[-58.505217,1.4032192],[-58.4716361,1.3742098],[-58.4710517,1.3194013],[-58.4951613,1.2949691],[-58.4963272,1.2680153],[-58.5382704,1.2677183],[-58.5596676,1.290227],[-58.5885556,1.2699497],[-58.6288346,1.2885549],[-58.6613284,1.280485],[-58.6802168,1.2962979],[-58.7104969,1.2899487],[-58.7302207,1.2107166],[-58.7513302,1.2085319],[-58.8213323,1.1710488],[-58.8543928,1.1835071],[-58.8710552,1.2176752],[-58.8954981,1.2287814],[-58.8950359,-0.0109629],[-58.8865816,-0.0591839],[-58.8638839,-0.0780298],[-58.8652551,-0.1689373],[-58.881038,-0.1965794],[-58.8653947,-0.2655488],[-58.8759786,-0.3114127],[-58.8694793,-0.3474836],[-58.8361542,-0.3727456],[-58.7834791,-0.388968],[-58.7252824,-0.4383191],[-58.736521,-0.4717409],[-58.709988,-0.5170359],[-58.7090107,-0.5458643],[-58.7318301,-0.5791878],[-58.7363256,-0.6193516],[-58.7082778,-0.6567789],[-58.7061278,-0.6788638],[-58.6367412,-0.7201017],[-58.6128469,-0.75831],[-58.5602206,-0.7977394],[-58.5559695,-0.8137163],[-58.4605874,-0.862868],[-58.4364854,-0.8859778],[-58.4519752,-0.9240868],[-58.4105876,-0.9822266],[-58.4289115,-1.0286156],[-58.3637272,-1.0711199],[-58.3167203,-1.1476751],[-58.2558849,-1.1308204],[-58.2125916,-1.1665326],[-58.1895279,-1.2033192],[-58.154004,-1.2326797],[-58.1144244,-1.1645785],[-58.0939993,-1.1621358],[-58.0586708,-1.1065398],[-58.0173321,-1.1036085],[-58.0012559,-1.1481148],[-57.9657808,-1.1710272],[-57.9641683,-1.2152881],[-57.9751627,-1.2398121],[-57.9912388,-1.3512663],[-57.95431,-1.3797702],[-57.9597339,-1.3968675],[-57.9114565,-1.4047322],[-57.8771053,-1.4233436],[-57.8228177,-1.438682],[-57.7799886,-1.5100239],[-57.7176873,-1.503283],[-57.6980441,-1.5549136],[-57.7061555,-1.5724492],[-57.6746383,-1.5950156],[-57.6219144,-1.5891542],[-57.6007075,-1.5721561],[-57.5794518,-1.6043938],[-57.5440744,-1.6111343],[-57.4730754,-1.6788804],[-57.4434639,-1.6646183],[-57.3857558,-1.6976848],[-57.3533836,-1.7368071],[-57.292255,-1.7082836],[-57.2308333,-1.7275272],[-57.1996094,-1.7227408],[-57.1616911,-1.7403237],[-57.1580752,-1.7708003],[-57.1268512,-1.766014],[-57.0916449,-1.7779555],[-57.0666755,-1.8571237],[-57.0284152,-1.9180238],[-56.9883509,-1.9071603],[-56.9611252,-1.952972],[-56.9236786,-1.9643087],[-56.8762985,-1.9923486],[-56.8590445,-2.015926],[-56.8167648,-2.0229705],[-56.7669924,-2.0086976],[-56.7266021,-2.0309607],[-56.7213822,-2.0591744],[-56.7327642,-2.0917397],[-56.7694297,-2.1406729],[-56.760959,-2.1740582],[-56.7077679,-2.183902],[-56.6790728,-2.2125642],[-56.6354265,-2.2035988],[-56.6129132,-2.2101713],[-56.5270653,-2.1391952],[-56.4778933,-2.1703764],[-56.4441803,-2.1539257],[-56.4138828,-2.1759496],[-56.367785,-2.1370767],[-56.3511484,-2.1488699],[-56.3167613,-2.140126],[-56.2974569,-2.1008075],[-56.2561526,-2.0883161],[-56.2283772,-2.0562204],[-56.1067261,-2.0270363],[-56.097558,-2.0371332],[-56.1694261,-2.1455081],[-56.2037697,-2.1830802],[-56.2634986,-2.2210564],[-56.3843157,-2.2704754],[-56.4127577,-2.3217155],[-56.42565,-2.3691538],[-56.4655948,-2.4231151],[-56.462267,-2.4339173],[-56.4021072,-2.4565168],[-56.4263006,-2.5015831],[-56.6097644,-2.8963407],[-56.7678915,-3.2428893]],[[-56.7678915,-3.2428893],[-56.7249314,-3.3435729],[-56.7024015,-3.3574926],[-56.5004832,-3.3069569],[-56.3446289,-3.2647951]],[[-56.3446289,-3.2647951],[-55.8190635,-2.3765765],[-55.8133438,-2.3337183],[-55.773957,-2.2975748],[-55.6922554,-2.2623187],[-55.6597172,-2.1971408],[-55.6252595,-2.1937979],[-55.6216409,-2.1583074],[-55.5765916,-2.1703169],[-55.4688963,-2.1317195],[-55.390842,-2.131069],[-55.361254,-2.1671531],[-55.2838693,-2.2158569],[-55.1977292,-2.2268164],[-55.1535064,-2.2595658],[-55.1317804,-2.263508],[-55.0817399,-2.2446876],[-55.0729796,-2.2180699],[-55.0948957,-2.1669461]],[[-55.0948957,-2.1669461],[-55.1802313,-2.1522233]],[[-55.1802313,-2.1522233],[-55.2508875,-2.1309971],[-55.2664686,-2.1064415],[-55.2090086,-2.1039747],[-55.1848104,-2.0469595],[-55.1836603,-1.9955024],[-55.1601958,-1.9662022],[-55.1766798,-1.9221621],[-55.1664683,-1.7312427],[-55.1740248,-1.6792887],[-55.4134237,-1.3998391]],[[-55.4134237,-1.3998391],[-55.4132617,1.5456071],[-55.4226406,1.546607]],[[-55.4226406,1.546607],[-55.4643886,1.5708807],[-55.4661865,1.5960126],[-55.438448,1.6313718],[-55.4276041,1.6686079],[-55.4550371,1.7207264],[-55.4417259,1.7617898],[-55.4380057,1.7765996],[-55.4474862,1.8058001],[-55.4567851,1.8230992],[-55.4618915,1.8280991],[-55.492004,1.8465458],[-55.5513412,1.8666881],[-55.5717205,1.8859418],[-55.5920636,1.926573],[-55.5835825,1.9595901],[-55.5169834,2.0230798],[-55.5123535,2.0569081],[-55.5547404,2.0786786],[-55.556175,2.1023292],[-55.5895227,2.112565],[-55.6149997,2.1355471],[-55.6073089,2.1635856],[-55.6274284,2.222565],[-55.6588473,2.2656804],[-55.6898623,2.3402981],[-55.7076969,2.4032133]],[[-56.3446289,-3.2647951],[-55.3751406,-3.2362529],[-55.3469244,-3.2216962],[-55.2959506,-3.2398475],[-55.164837,-3.2438672],[-55.1369771,-3.2495501],[-55.0673117,-3.2339831],[-55.0473372,-3.2337779],[-55.041864,-3.2486223],[-55.0373984,-3.2547411],[-55.0466453,-3.2695521],[-55.0561189,-3.3105028],[-55.0789738,-3.3441697],[-55.0876403,-3.4002046],[-55.1219509,-3.430783],[-55.1202825,-3.45857],[-55.0940044,-3.5056313],[-55.115531,-3.5424334],[-55.1157845,-3.5735536],[-55.1380872,-3.588999],[-55.1433929,-3.6205492],[-55.1724484,-3.6479004],[-55.1519498,-3.6747007],[-55.1742306,-3.6967535],[-55.1383775,-3.7334024],[-55.1200856,-3.7887633],[-55.1511111,-3.8114076],[-55.1466024,-3.8660804],[-55.0932289,-3.8726719],[-55.0850593,-3.9192941],[-55.0689482,-3.9382863],[-55.0179723,-3.9213416],[-55.0025055,-3.8921974],[-55.015593,-3.8585721],[-54.9807281,-3.8477085],[-54.962892,-3.8158702],[-54.9222562,-3.7846643],[-54.9029187,-3.7570047],[-54.9087853,-3.7287861],[-54.9018932,-3.7242811],[-54.8538107,-3.7300982],[-54.8223084,-3.7740852],[-54.7551933,-3.7824121],[-54.7348645,-3.7707095],[-54.6997516,-3.790598],[-54.7170018,-3.8449146],[-54.7600331,-3.8610742],[-54.7468402,-3.8866835],[-54.7718292,-3.9142993],[-54.775918,-3.9416861],[-54.7506406,-3.9592717],[-54.7611917,-3.9892487],[-54.740805,-4.0375373],[-54.762893,-4.0438022],[-54.785198,-4.0516487],[-54.7876982,-4.0575148],[-54.7784753,-4.0656809],[-54.7876986,-4.131657],[-54.8129214,-4.1372378],[-54.8160901,-4.1444612],[-54.8184486,-4.1781414],[-54.7951191,-4.2017135],[-54.7953953,-4.2261303],[-54.826506,-4.2343986],[-54.8477275,-4.2587544],[-54.8580283,-4.3123026],[-54.8756732,-4.3405067],[-54.8492023,-4.377204],[-54.8364215,-4.3964602],[-54.8418688,-4.4102362]],[[-54.8418688,-4.4102362],[-54.8130846,-4.4283981],[-54.7967525,-4.4637116],[-54.7356164,-4.4245466],[-54.7237826,-4.3841087],[-54.6817233,-4.3200338],[-54.6747209,-4.315979],[-54.6430009,-4.3266868],[-54.6093041,-4.3561595],[-54.6089232,-4.3765059],[-54.5524428,-4.3956309],[-54.5030549,-4.35846],[-54.5342806,-4.3333012],[-54.5088852,-4.2657912],[-54.4897252,-4.2513704],[-54.4195002,-4.2644247],[-54.4132801,-4.2911048],[-54.3846749,-4.2884684],[-54.3666137,-4.264553],[-54.3047552,-4.2805158],[-54.301668,-4.3123496],[-54.2798338,-4.3164988],[-54.2205247,-4.2682696],[-54.2001426,-4.2027827],[-54.1679478,-4.1931385],[-54.0991252,-4.2068426],[-54.0835248,-4.1750205],[-54.0920242,-4.1553415],[-54.0858287,-4.0993238],[-54.0544957,-4.0725034],[-54.1374401,-4.0321109],[-54.1350825,-3.9880779],[-54.1101913,-3.9739569],[-54.1178355,-3.9044719],[-54.11578,-3.8119729],[-54.1476718,-3.8371183],[-54.16925,-3.8242348],[-54.1526401,-3.7774561],[-54.1893568,-3.7547032],[-54.2074183,-3.7280205],[-54.2543623,-3.6928824],[-54.2536063,-3.6616535],[-54.2185478,-3.6364854],[-54.2447804,-3.6114261],[-54.2692772,-3.5678007],[-54.2579931,-3.449034],[-54.2864503,-3.4138076],[-54.2890026,-3.3781935],[-54.2558274,-3.3553214],[-54.2640859,-3.3102907],[-54.2598562,-3.2765666],[-54.2184125,-3.2398315],[-54.2079171,-3.2091017],[-54.1140813,-3.1724084],[-54.1029482,-3.1322549],[-54.0699766,-3.1143679],[-54.050703,-3.0825415],[-54.0460494,-2.9987685],[-54.0887701,-2.9610103],[-54.1030241,-2.8865334],[-53.8554122,-2.8874675],[-53.6083826,-2.8651508],[-53.5942976,-2.8131081],[-53.5648863,-2.7917907],[-53.4871566,-2.7648884],[-53.4543786,-2.7764869],[-53.4085241,-2.7498592],[-53.3580253,-2.7373339],[-53.3097454,-2.7433385],[-53.2557201,-2.7752748],[-53.2469908,-2.7697089],[-53.2078828,-2.7206504],[-53.1701015,-2.6951682],[-53.1464094,-2.6652726],[-53.1069059,-2.6859796],[-53.0105812,-2.6779118]],[[-53.0105812,-2.6779118],[-52.9982678,-2.6682728]],[[-52.9982678,-2.6682728],[-52.9667661,-2.6570335],[-53.3842709,-2.504984],[-53.3254667,-2.4536969],[-53.293831,-2.4496085],[-53.2710223,-2.4049428],[-53.2256999,-2.3652942],[-53.2502671,-2.1717412],[-53.2722406,-2.1447473],[-53.2766898,-2.0878761],[-53.3050433,-2.0815589],[-53.3454077,-2.0531704],[-53.3596302,-2.0254493],[-53.3011834,-1.9875414],[-53.2602097,-1.9759667],[-53.2180825,-1.9949471],[-53.1761566,-1.9795621],[-53.1381878,-1.9505142],[-53.1165516,-1.9182002],[-53.0870161,-1.9018178],[-53.0734651,-1.8960415],[-53.0541305,-1.8632324],[-53.0456823,-1.8338989],[-53.0292418,-1.7833344],[-52.9951895,-1.7674821],[-52.999767,-1.7433762],[-53.0472692,-1.7688191],[-53.1180484,-1.7811449],[-53.2161815,-1.7585635],[-53.3108778,-1.7687853],[-53.3204376,-1.749417],[-53.3535741,-1.7489142],[-53.3611994,-1.6880063],[-53.3830734,-1.6257841],[-53.4769728,-1.4197036],[-53.49521,-1.3417859],[-53.5563019,-1.2518286],[-53.574548,-1.2144724],[-53.6328833,-1.1881346],[-53.6282686,-1.1534241],[-53.6754062,-1.0914807],[-53.6841344,-1.01645],[-53.7059405,-0.9808729],[-53.7455276,-0.9735309],[-53.8092198,-0.9495234],[-53.8815512,-0.9839776],[-53.8991336,-0.9923698],[-53.9320788,-0.9984119],[-53.9594026,-0.994547],[-54.0139177,-0.9273707],[-54.0145834,-0.9230659],[-54.0350226,-0.9017118],[-54.0505554,-0.8948754],[-54.1033778,-0.8713987],[-54.1213581,-0.8491435],[-54.1235495,-0.8276122],[-54.0691598,-0.7801577],[-54.0564387,-0.7294281],[-54.029244,-0.6621938],[-54.0255516,-0.6295723],[-54.066741,-0.6290103],[-54.088086,-0.6085522],[-54.1297525,-0.6179577],[-54.1238055,-0.5855697],[-54.1548574,-0.5821034],[-54.179888,-0.5956075],[-54.1833278,-0.5350935],[-54.2154703,-0.5157291],[-54.2331666,-0.4780608],[-54.2712481,-0.4908661],[-54.31983,-0.4707845],[-54.34367,-0.4453248],[-54.322666,-0.4290636],[-54.3286656,-0.395727],[-54.319113,-0.3576783],[-54.3500245,-0.2986472],[-54.3901954,-0.2525041],[-54.3684731,-0.2233285],[-54.382387,-0.1702399],[-54.4016106,-0.1463728],[-54.4330876,-0.1349404],[-54.423583,-0.1116156],[-54.4346677,-0.0698781],[-54.3978546,-0.0695429],[-54.38791,-0.0079268],[-54.4043609,0.0338704],[-54.4422638,0.0508068],[-54.4469219,0.0856991],[-54.5361133,0.0867958],[-54.6021677,0.1383023],[-54.6407199,0.1336305],[-54.6842389,0.2448654],[-54.7452201,0.3043611],[-54.7969165,0.3295426],[-54.8137527,0.3576734],[-54.8457251,0.3548627],[-54.8643302,0.3796796],[-54.8472926,0.4332504],[-54.8603219,0.4764539],[-54.936529,0.5036528],[-55.0011425,0.4821269],[-55.007636,0.5077654],[-54.976366,0.5742499],[-54.9897254,0.5990228],[-55.0283367,0.6060351],[-55.0566037,0.6277498],[-55.0667426,0.6535766],[-55.0497467,0.680931],[-55.0586084,0.717246],[-55.0349171,0.7296981],[-55.023012,0.7850946],[-55.0328635,0.8087267],[-55.0212806,0.8583762],[-55.0273865,0.8859561],[-55.088929,0.9263926],[-55.0898663,0.9502579],[-55.0647005,1.0003682],[-55.1024455,1.0631235],[-55.1452642,1.0537847],[-55.216516,1.0734195],[-55.2292825,1.0914098],[-55.2069549,1.1433064],[-55.203482,1.1977152],[-55.2608849,1.2317702],[-55.2434226,1.2652268],[-55.2503141,1.3359479],[-55.2847772,1.3711589],[-55.3126418,1.3807636],[-55.3426027,1.4518764],[-55.3307791,1.4766311],[-55.3667906,1.4964307],[-55.3530387,1.5250319],[-55.3775895,1.5502823],[-55.4136337,1.5456719]],[[-55.4136337,1.5456719],[-55.4134237,-1.3998391]],[[-55.1802313,-2.1522233],[-55.1425012,-2.1650391],[-55.0948957,-2.1669461]],[[-52.9982678,-2.6682728],[-53.0015295,-2.6716156]],[[-53.0015295,-2.6716156],[-52.906015,-2.714112],[-52.8584581,-2.7436072]],[[-52.8584581,-2.7436072],[-52.8410962,-2.7567098],[-52.8294632,-2.7620881],[-52.8184626,-2.7636142],[-52.802491,-2.7635267],[-52.7890506,-2.7585303]],[[-52.7890506,-2.7585303],[-52.7629845,-2.7438373],[-52.73827,-2.7358478],[-52.6839911,-2.722911]],[[-52.6839911,-2.722911],[-52.6232012,-2.7164247]],[[-52.6232012,-2.7164247],[-52.568456,-2.7231774],[-52.5544851,-2.7260808],[-52.5374847,-2.7367534]],[[-52.5374847,-2.7367534],[-52.5012942,-2.7736702],[-52.4334884,-2.7688079],[-52.3799077,-2.7737265],[-52.3050392,-2.7968998],[-52.2764871,-2.8302152],[-52.2497062,-2.8110451],[-52.1989598,-2.8138881],[-52.1270877,-2.8040118],[-52.1048782,-2.7944664],[-52.0438539,-2.7925059],[-52.0649835,-2.7378455],[-52.0549304,-2.686244],[-52.0024288,-2.6305905],[-51.9888121,-2.5756593],[-51.9573968,-2.5221027],[-51.9282357,-2.4944736],[-51.9020133,-2.5069388],[-51.8722365,-2.5492782],[-51.854453,-2.5524757]],[[-51.854453,-2.5524757],[-51.848233,-2.5243489]],[[-51.848233,-2.5243489],[-51.848376,-2.5084076],[-51.8753413,-2.4578573],[-51.8817656,-2.4326507],[-51.8616248,-2.3868433],[-51.8664515,-2.3643109],[-51.9205427,-2.3315481],[-51.9217851,-2.2814879],[-51.9396195,-2.2570928],[-51.9396251,-2.1077363],[-51.9163413,-2.0742372],[-51.9058446,-2.0034466],[-51.8746497,-1.9445703],[-51.9661759,-1.8759639],[-51.9667357,-1.8256289],[-51.9857328,-1.7792202],[-51.9860674,-1.700992],[-51.9520366,-1.6465906],[-51.9700261,-1.6102675],[-52.0252013,-1.5966453],[-52.0924516,-1.6068749],[-52.1998224,-1.6042268],[-52.2419295,-1.5430634],[-52.251873,-1.5040647],[-52.2132318,-1.4832611],[-52.1115652,-1.4701496],[-52.0618185,-1.4496942],[-51.9911192,-1.4351],[-51.9558137,-1.4059665],[-51.9365146,-1.3824205]],[[-51.9365146,-1.3824205],[-51.9192583,-1.3647367],[-51.9044322,-1.345537],[-51.8971476,-1.3307697],[-51.8909277,-1.3094783]],[[-51.8909277,-1.3094783],[-51.8891249,-1.2749905],[-51.8757541,-1.2635823],[-51.8680411,-1.2491153],[-51.8163109,-1.217178],[-51.790701,-1.1986097],[-51.7792879,-1.1660776]],[[-51.7792879,-1.1660776],[-51.8090963,-1.1571011],[-51.8872859,-1.1663971],[-51.9229007,-1.1329634],[-51.9469037,-1.1660067],[-51.9619572,-1.1344374],[-51.9939523,-1.1347229],[-51.9911221,-1.171816],[-52.0409005,-1.1701323],[-52.062961,-1.1928913],[-52.0475632,-1.2142842],[-52.070459,-1.2359841],[-52.1098719,-1.2181159],[-52.1067638,-1.1830679],[-52.1202623,-1.146198],[-52.1467312,-1.1487914],[-52.1789319,-1.1295951],[-52.2147327,-1.1349578],[-52.3329879,-1.1158915],[-52.3581556,-1.0625844],[-52.4167912,-1.0256118],[-52.4199283,-0.9659632],[-52.4376793,-0.9288754],[-52.4047158,-0.9127377],[-52.403158,-0.8771483],[-52.4555179,-0.8302661],[-52.5169334,-0.858616],[-52.5418462,-0.8365449],[-52.5169699,-0.8090464],[-52.5182377,-0.7755192],[-52.4971522,-0.7229462],[-52.5103877,-0.679184],[-52.5131837,-0.6196459],[-52.5322928,-0.5763552],[-52.5763261,-0.5764098],[-52.61299,-0.5948934],[-52.640009,-0.5849061],[-52.6954363,-0.4964017],[-52.70068,-0.4529291],[-52.6810757,-0.415085],[-52.6973482,-0.3929354],[-52.6818497,-0.3399645],[-52.6841716,-0.3143137],[-52.7544268,-0.2621886],[-52.7604398,-0.2375744],[-52.8360989,-0.1861492],[-52.8641028,-0.1447643],[-52.9040129,-0.1549377],[-52.9327437,-0.1423073],[-52.9710222,-0.0431101],[-52.9772926,0.0237963],[-53.0149667,0.0596921],[-53.0111292,0.0950459],[-53.029266,0.1047191],[-53.0521271,0.1573389],[-53.0942925,0.195307],[-53.1058506,0.2373476],[-53.0941268,0.2589577],[-53.131376,0.2962017],[-53.136459,0.3260357],[-53.1753105,0.3817172],[-53.1612041,0.398538],[-53.1677453,0.4457283],[-53.1551284,0.4801797],[-53.1697689,0.4937348],[-53.1520646,0.5318937],[-53.1473221,0.6003346],[-53.1227118,0.6300909],[-53.1057436,0.6794615],[-53.1469379,0.6997862],[-53.1574069,0.7290729],[-53.1902726,0.7683835],[-53.2551477,0.8092116],[-53.2874946,0.8457159],[-53.4114942,0.9293442],[-53.4108033,0.9820425],[-53.4268299,0.992426],[-53.4223294,1.0337374],[-53.4558237,1.0773718],[-53.4591576,1.1336804],[-53.4443579,1.1513192],[-53.4044098,1.1511736],[-53.3960801,1.1792925],[-53.438769,1.232134],[-53.4699094,1.2399701],[-53.5252098,1.2117165],[-53.5463212,1.2285074],[-53.5233275,1.2613389],[-53.5527117,1.2802892],[-53.5626334,1.3065819],[-53.5333853,1.3224288],[-53.5456272,1.3474523],[-53.5706899,1.337302],[-53.5952181,1.3581541],[-53.6332463,1.3473586],[-53.6648539,1.3752498],[-53.7014598,1.3779189],[-53.7837222,1.4028539],[-53.820106,1.3891676],[-53.8877512,1.4077873],[-53.876742,1.4354522],[-53.8959981,1.4551258],[-53.9670765,1.4843951],[-54.0202741,1.5157631],[-54.0519674,1.4944892],[-54.06916,1.5009694],[-54.0987782,1.5505238],[-54.1019449,1.5843053],[-54.1436637,1.640612],[-54.1857503,1.6537353],[-54.2008834,1.6455793],[-54.2627439,1.6883824],[-54.3093044,1.7410503],[-54.3516918,1.7540727],[-54.4571677,1.7583028],[-54.4959444,1.7469426],[-54.528107,1.7649425],[-54.6019171,1.7845734],[-54.6436397,1.7686],[-54.7447791,1.7758008],[-54.7544217,1.797808],[-54.7384599,1.8248356],[-54.7701983,1.9256957],[-54.7559997,1.9742069],[-54.8038049,2.0258228],[-54.8062543,2.1389277],[-54.7678915,2.1809114],[-54.7631109,2.2023191],[-54.8114203,2.266378],[-54.7961664,2.3179651],[-54.80756,2.3416749],[-54.8746964,2.4153254],[-54.8722509,2.4337466],[-54.9354217,2.5185854],[-54.9543067,2.5836924],[-55.0038059,2.591027],[-55.1030864,2.5257359],[-55.1234732,2.5677203],[-55.1728658,2.5594387],[-55.2348061,2.5034753],[-55.3202556,2.5154633],[-55.356226,2.475653],[-55.3456432,2.4480823],[-55.3853987,2.4184543],[-55.4294499,2.4389661],[-55.4997845,2.4433308],[-55.5706752,2.4236096],[-55.577917,2.4354889],[-55.642262,2.416061],[-55.6984185,2.4216359],[-55.7076969,2.4032133]],[[-55.4226406,1.546607],[-55.4136337,1.5456719]],[[-51.848233,-2.5243489],[-51.8575374,-2.5691916]],[[-51.8575374,-2.5691916],[-51.8338734,-2.6574427],[-51.8201496,-2.6975679],[-51.7979008,-2.7278109],[-51.7592617,-2.8299412],[-51.719897,-2.7963114],[-51.6445098,-2.7695676],[-51.5720393,-2.7654895],[-51.5330328,-2.7442359],[-51.5039525,-2.7464096],[-51.4493946,-2.7695868],[-51.4217039,-2.8309177],[-51.4153138,-2.8413742],[-51.3972845,-2.8802382],[-51.3980361,-2.8890745],[-51.3628972,-2.9111443],[-51.32476,-2.9450693],[-51.3050652,-2.9320117],[-51.2754246,-2.9592842],[-51.2372297,-2.9747641],[-51.2103165,-2.9994748],[-51.1612326,-3.0186512],[-51.1701146,-3.0656368],[-51.1542221,-3.1112817],[-51.1142822,-3.1364651],[-51.077311,-3.1051098],[-51.0301704,-3.1057105],[-51.0125594,-3.126641],[-50.9727286,-3.1246481],[-50.9658109,-3.1894817],[-50.9362041,-3.2311797],[-50.8468098,-3.2961571],[-50.8343642,-3.3336293],[-50.8409476,-3.3683462],[-50.8121447,-3.42505],[-50.8089506,-3.4950388],[-50.4859221,-3.4583254],[-50.4956141,-3.4289512],[-50.4756658,-3.3987822],[-50.4365858,-3.3954072],[-50.4229672,-3.4130844],[-50.3629166,-3.3844283],[-50.3292248,-3.3511049],[-50.3214412,-3.3218163],[-50.2826455,-3.3015075],[-50.2553021,-3.2742853],[-50.2484452,-3.243372],[-50.2096334,-3.2375485],[-50.192782,-3.2732201],[-50.1566953,-3.300461],[-50.1131651,-3.2696117],[-50.0697464,-3.3007963],[-50.0064121,-3.3315883],[-49.9694145,-3.3196288],[-49.9085802,-3.3256747]],[[-49.9085802,-3.3256747],[-49.9354378,-3.2570895],[-49.9306604,-3.2282293],[-49.9731638,-3.1914085],[-49.9694122,-3.1402324],[-49.931134,-3.0977299],[-49.9100254,-3.0912981],[-49.90905,-3.038144],[-49.8956285,-2.9860261],[-49.8475805,-2.9310268],[-49.8486111,-2.862529],[-49.9104963,-2.812893],[-49.9429423,-2.7503279],[-49.9457497,-2.6697313],[-49.9753303,-2.6214994],[-49.968777,-2.5458982],[-50.0009002,-2.5083364],[-50.0541401,-2.5162584],[-50.0729207,-2.4868926],[-50.0810525,-2.4489479],[-50.1095302,-2.4106197],[-50.1052521,-2.3201843],[-50.0792204,-2.2589485],[-50.0881927,-2.2213364],[-50.1083383,-2.2051219],[-50.1023334,-2.1768806],[-50.1153012,-2.1396231],[-50.0605232,-2.1027329],[-50.0749428,-2.06942],[-50.0787239,-2.0193615],[-50.0673599,-1.9673359],[-50.0717222,-1.9549126],[-50.0699456,-1.9446591],[-50.0551407,-1.9186749],[-50.0566926,-1.9086107],[-50.1081393,-1.86039],[-50.131496,-1.8149992]],[[-50.131496,-1.8149992],[-50.1795289,-1.8311815],[-50.226559,-1.806628],[-50.308362,-1.8052038]],[[-50.308362,-1.8052038],[-50.3296092,-1.8067938],[-50.3508075,-1.8044919],[-50.4216424,-1.7884298]],[[-50.4216424,-1.7884298],[-50.4414212,-1.7805787],[-50.4673664,-1.7805565],[-50.5028912,-1.7488667],[-50.5278936,-1.7496255],[-50.576336,-1.7188401],[-50.6020315,-1.6661167],[-50.6776152,-1.5984835],[-50.7312554,-1.5590325],[-50.7508663,-1.5037988],[-50.797563,-1.4321722],[-50.8581735,-1.4569274],[-50.8833063,-1.4174534],[-50.8926756,-1.3788425],[-50.8568594,-1.3220561],[-50.8416407,-1.2974908],[-50.8046416,-1.2741108],[-50.8008634,-1.2422942]],[[-50.8008634,-1.2422942],[-50.8047021,-1.2255202],[-50.8150864,-1.2032736],[-50.8196997,-1.1998558],[-50.8336993,-1.1992491]],[[-50.8336993,-1.1992491],[-50.8489457,-1.176672],[-50.8845604,-1.1607106],[-50.9368619,-1.1192873],[-50.9856648,-1.1195982],[-51.023364,-1.1236956],[-51.0674253,-1.1510615],[-51.1333624,-1.1708031],[-51.1660331,-1.1508537],[-51.1839753,-1.1248384],[-51.2168669,-1.1079875],[-51.1923926,-1.0395102],[-51.1716499,-0.9418887],[-51.169366,-0.8963246],[-51.1865829,-0.8298786],[-51.1917007,-0.7559823],[-51.1854477,-0.7262859],[-51.1178919,-0.6493094],[-51.1218392,-0.6251766],[-51.0929241,-0.562877],[-51.1044397,-0.5410684],[-51.1446735,-0.5478598],[-51.1809144,-0.5056302],[-51.1484498,-0.4831563],[-51.1435176,-0.4206826],[-51.1550512,-0.4024578],[-51.2295058,-0.4290802],[-51.3038474,-0.4367483],[-51.3719285,-0.4639758],[-51.4324792,-0.4733425]],[[-51.4324792,-0.4733425],[-51.4846183,-0.5434323],[-51.5151162,-0.5660446],[-51.5955362,-0.6504378],[-51.6834486,-0.7940294],[-51.6955135,-0.9212915],[-51.6856469,-1.0128623],[-51.7043365,-1.067741],[-51.7793719,-1.1375926],[-51.7792879,-1.1660776]],[[-51.8909277,-1.3094783],[-51.89248,-1.315363],[-51.8988422,-1.3350206],[-51.9096816,-1.3529686],[-51.9365146,-1.3824205]],[[-50.8336993,-1.1992491],[-50.8170019,-1.2010166],[-50.8070905,-1.2193648],[-50.8008634,-1.2422942]],[[-50.4216424,-1.7884298],[-50.3383766,-1.8063675],[-50.3178908,-1.8065011],[-50.308362,-1.8052038]],[[-50.131496,-1.8149992],[-50.0646702,-1.7918739],[-49.9915772,-1.7830986],[-49.944332,-1.7959596]],[[-49.944332,-1.7959596],[-49.8846137,-1.8247103],[-49.8678818,-1.8303897],[-49.8479945,-1.8331488]],[[-49.8479945,-1.8331488],[-49.7451622,-1.8161401],[-49.7083602,-1.8237851],[-49.6182384,-1.7630533],[-49.5860518,-1.7796896],[-49.539721,-1.7800999],[-49.513743,-1.7593876],[-49.415853,-1.7188689]],[[-49.415853,-1.7188689],[-49.4488515,-1.6539297],[-49.5013596,-1.6106823],[-49.5042457,-1.4949913],[-49.5198247,-1.455748],[-49.4963859,-1.4211856],[-49.5444403,-1.3797304],[-49.6006047,-1.3681664],[-49.5901642,-1.3322774],[-49.5247705,-1.1838213],[-49.507106,-1.1136244],[-49.5062124,-1.0686685],[-49.4668878,-1.0527472],[-49.501495,-1.0119499],[-49.5334984,-1.005115],[-49.529531,-0.9693577],[-49.5233317,-0.9682662],[-49.5184655,-0.9648659],[-49.5202319,-0.9602242],[-49.5231502,-0.9543427],[-49.5440477,-0.8759814],[-49.4874619,-0.7052137],[-49.4802979,-0.6870487],[-49.4787951,-0.6865961],[-49.4792326,-0.6770437],[-49.5004681,-0.6494775],[-49.5478287,-0.6190435],[-49.6131084,-0.5905653],[-49.6522671,-0.5562401],[-49.6787506,-0.5577908],[-49.7308036,-0.5902613],[-49.7753038,-0.6047538],[-49.8205509,-0.6003053],[-49.8519449,-0.5800967],[-49.9022692,-0.5310413],[-49.9652496,-0.4934636],[-50.0141369,-0.47837],[-50.0772726,-0.482602],[-50.1072191,-0.4708616],[-50.1959776,-0.2135243],[-50.298666,-0.1015891],[-50.2988039,-0.0682877],[-50.3318106,-0.0131351],[-50.3778843,0.022814],[-50.3956986,0.0504982],[-50.4129705,0.1124693],[-50.4328801,0.1495618],[-50.4708823,0.1775176],[-50.5305182,0.1919958],[-50.599668,0.2493574]],[[-50.599668,0.2493574],[-50.6681975,0.1850345],[-50.7619561,0.120978],[-50.8035185,0.1063234],[-50.9210933,0.0761336],[-50.9809629,0.0354058],[-51.0656742,-0.0762263],[-51.1132027,-0.0966079],[-51.1748986,-0.1045348],[-51.2163629,-0.1186128],[-51.3024816,-0.2526427],[-51.3477828,-0.2996133],[-51.3683699,-0.3762575],[-51.4236695,-0.4366112],[-51.4324792,-0.4733425]],[[-49.4495276,0.116065],[-49.4769071,0.1482064],[-49.5023673,0.1173847],[-49.4495276,0.116065]],[[-48.8655631,-0.1837345],[-48.8796787,-0.1572364],[-48.9156335,-0.1512864],[-48.945854,-0.1980814],[-48.9245512,-0.2139814],[-48.881319,-0.2033437],[-48.8655631,-0.1837345]],[[-49.415853,-1.7188689],[-49.3725815,-1.7101658]],[[-49.3725815,-1.7101658],[-49.3226014,-1.7037439],[-49.3012417,-1.7029347],[-49.2677399,-1.7060611]],[[-49.2677399,-1.7060611],[-49.2329615,-1.7049026],[-49.1952944,-1.709612],[-49.1716868,-1.7161229],[-49.1180287,-1.6727329],[-49.063798,-1.6114594],[-49.012574,-1.573232],[-48.9067721,-1.537466],[-48.8418518,-1.5238237]],[[-48.8418518,-1.5238237],[-48.8276801,-1.5163681]],[[-48.8276801,-1.5163681],[-48.7759291,-1.4740927],[-48.7606569,-1.4525419]],[[-48.7606569,-1.4525419],[-48.7399386,-1.400042],[-48.710771,-1.338486],[-48.6782367,-1.2824122]],[[-48.6782367,-1.2824122],[-48.6683267,-1.2600857],[-48.6244082,-1.1921668],[-48.5244826,-1.0839254],[-48.4930724,-1.038426]],[[-48.4930724,-1.038426],[-48.4504341,-1.0001295]],[[-48.4504341,-1.0001295],[-48.4392958,-0.9824776]],[[-48.4392958,-0.9824776],[-48.4095658,-0.9057518]],[[-48.4095658,-0.9057518],[-48.4747161,-0.8739021],[-48.5060619,-0.810438],[-48.5121388,-0.759018],[-48.4880288,-0.7339583],[-48.4705945,-0.6140523],[-48.4737255,-0.526714],[-48.4411059,-0.4122095],[-48.3882519,-0.3526907],[-48.3745893,-0.2996546],[-48.3969104,-0.2516341],[-48.4402362,-0.2254047],[-48.5051168,-0.2425761],[-48.6335677,-0.2315883],[-48.7119713,-0.2518484],[-48.7437274,-0.2499224],[-48.8100784,-0.2147657],[-48.8347118,-0.2226507],[-48.949267,-0.2207073],[-48.9972673,-0.1862099],[-49.0126204,-0.1598834],[-49.0394245,-0.1693389],[-49.113368,-0.1606274],[-49.1367384,-0.1682408],[-49.1961676,-0.1313531],[-49.246034,-0.1612027],[-49.3345562,-0.1605218],[-49.3787478,-0.1910237],[-49.4221892,-0.1684469],[-49.4386111,-0.1264927],[-49.4167957,-0.0674722],[-49.3890917,-0.0587664],[-49.3574527,-0.0239332],[-49.3583383,0.0079365],[-49.3749153,0.0443993],[-49.397009,0.0621591],[-49.4789561,0.0810633],[-49.531741,0.0811588],[-49.5769481,0.0907358],[-49.6322276,0.0748934],[-49.6656591,0.096562],[-49.6995784,0.1505051],[-49.6927197,0.1780972],[-49.6444491,0.2166634],[-49.63329,0.2413523],[-49.583738,0.2725382],[-49.5291541,0.2917297],[-49.4950295,0.3186274],[-49.5031751,0.3716787],[-49.5477582,0.3901311],[-49.5819234,0.418674],[-49.618127,0.3920543],[-49.6569138,0.393877],[-49.731086,0.3752833],[-49.7777692,0.3413052],[-49.8077867,0.3320504],[-49.8282806,0.3554297],[-49.8892148,0.3225009],[-49.9384746,0.3652911],[-49.9805094,0.360503],[-49.9929089,0.3384154],[-50.0513843,0.3367464],[-50.0984446,0.3444633],[-50.1316929,0.3306634],[-50.1678189,0.3402908],[-50.1727376,0.397643],[-50.0774344,0.4634433],[-50.036413,0.5341784],[-50.027856,0.5678313],[-50.037307,0.6018789],[-50.0726399,0.635792],[-50.1043542,0.63955],[-50.1334898,0.6196196],[-50.21351,0.6559749],[-50.2260857,0.6962372],[-50.3172954,0.6774518],[-50.35857,0.6600921],[-50.4365469,0.600107],[-50.4672645,0.5309222],[-50.4859901,0.458905],[-50.5039997,0.4350876],[-50.5238924,0.3723908],[-50.556148,0.3067173],[-50.599668,0.2493574]],[[-49.6313953,0.1937688],[-49.6606827,0.1872599],[-49.6774531,0.1557239],[-49.6534572,0.1450355],[-49.6154018,0.1528203],[-49.6066247,0.1813873],[-49.6313953,0.1937688]],[[-49.6180802,0.1992406],[-49.5763181,0.2197068],[-49.6021381,0.2427679],[-49.6180802,0.1992406]],[[-48.2316823,-1.3748646],[-48.2033668,-1.2374296],[-48.1374907,-1.1999257]],[[-48.1374907,-1.1999257],[-48.1686035,-1.153871],[-48.2166024,-1.1445045],[-48.2417068,-1.0890691],[-48.2767347,-1.1089884],[-48.3018165,-1.1063516],[-48.3237638,-1.0596596],[-48.4694837,-1.0194267]],[[-48.4694837,-1.0194267],[-48.4930724,-1.038426]],[[-48.6782367,-1.2824122],[-48.7022969,-1.3223659],[-48.7289515,-1.3755799],[-48.7606569,-1.4525419]],[[-48.8276801,-1.5163681],[-48.8374083,-1.5214442]],[[-48.8374083,-1.5214442],[-48.835488,-1.5468219],[-48.8328242,-1.5598402]],[[-48.8328242,-1.5598402],[-48.8278536,-1.5745198],[-48.818242,-1.5941664],[-48.8103009,-1.6046848],[-48.8044409,-1.6081644],[-48.8017493,-1.6078704],[-48.7985696,-1.604529],[-48.7910534,-1.6011361]],[[-48.7910534,-1.6011361],[-48.770362,-1.6013458],[-48.7622265,-1.6064227],[-48.7373735,-1.6206551],[-48.702124,-1.6806665],[-48.6602943,-1.6923112],[-48.5304107,-1.6993218]],[[-48.5304107,-1.6993218],[-48.5271538,-1.6781651],[-48.5161846,-1.6735261],[-48.4898807,-1.6766578],[-48.4615165,-1.6610026],[-48.4471596,-1.6594969],[-48.4390443,-1.6530995],[-48.4805438,-1.5706738],[-48.507903,-1.5305327],[-48.4723508,-1.5211319],[-48.435373,-1.5101717],[-48.4103749,-1.5094423],[-48.3604583,-1.4736911],[-48.3069611,-1.4711602]],[[-48.3069611,-1.4711602],[-48.283017,-1.4688871]],[[-48.283017,-1.4688871],[-48.2622346,-1.4689489],[-48.243571,-1.4368122],[-48.234739,-1.4295088],[-48.2457121,-1.3995981],[-48.2316823,-1.3748646]],[[-48.1374907,-1.1999257],[-48.2031837,-1.236533],[-48.2316823,-1.3748646]],[[-48.283017,-1.4688871],[-48.2930171,-1.4705396]],[[-48.2930171,-1.4705396],[-48.292544,-1.4770612],[-48.2897126,-1.4832743],[-48.2998464,-1.494756],[-48.2755694,-1.5413348],[-48.2912346,-1.5696518],[-48.2685464,-1.5823701],[-48.2509642,-1.6196285],[-48.2311523,-1.6311803],[-48.2278214,-1.6942036],[-48.2007363,-1.6938158],[-48.1784824,-1.7303344],[-48.1763985,-1.7702942],[-48.1218409,-1.7830502],[-48.1091264,-1.8181392],[-48.0833959,-1.8326083],[-48.0798763,-1.8188588],[-48.0434304,-1.7740124],[-48.0069687,-1.7653218],[-47.9814237,-1.7354904],[-47.9776404,-1.7202186],[-47.9779884,-1.714481],[-47.9729965,-1.7114518],[-47.9613711,-1.7060521],[-47.9615223,-1.7004803],[-47.9434972,-1.6678411],[-47.9109898,-1.6639252],[-47.8862534,-1.6834507],[-47.8870092,-1.7463703],[-47.8928172,-1.7680491],[-47.8894234,-1.7697374]],[[-47.8894234,-1.7697374],[-47.8850884,-1.7608011]],[[-47.8850884,-1.7608011],[-47.8700353,-1.7236681],[-47.8734323,-1.6935091],[-47.8808876,-1.661938],[-47.8577026,-1.6292657],[-47.872038,-1.5958925],[-47.917316,-1.5671325],[-47.9495665,-1.5701316],[-47.7600106,-1.4525895],[-47.7479278,-1.481009],[-47.6971489,-1.4830954],[-47.6670118,-1.4701271],[-47.6530657,-1.4311299]],[[-47.6530657,-1.4311299],[-47.6384356,-1.374769],[-47.7787362,-1.3051801],[-47.8454789,-1.2866393],[-47.8420971,-1.265798],[-47.8080684,-1.2079119],[-47.8352664,-1.1597326],[-47.8383348,-1.1304815],[-47.8152949,-1.0922185],[-47.8119875,-1.0715302],[-47.8125282,-1.0682935]],[[-47.8125282,-1.0682935],[-47.8111702,-1.0634084]],[[-47.8111702,-1.0634084],[-47.812896,-1.0641277],[-47.822492,-1.063894],[-47.8714275,-1.0602596],[-47.8994576,-1.0468275],[-47.9509504,-1.0411462],[-47.9749284,-1.0623209],[-47.9917045,-1.1029109],[-48.021485,-1.1338065],[-48.1115421,-1.0154478],[-48.1278765,-1.0329643],[-48.1767647,-1.0260169],[-48.2197581,-1.0098614],[-48.307179,-1.0190707],[-48.4392958,-0.9824776]],[[-48.4504341,-1.0001295],[-48.4694837,-1.0194267]],[[-47.0640628,-0.7967966],[-47.0819055,-0.7645206],[-47.0909027,-0.7184058],[-47.0742513,-0.7048334],[-47.0920322,-0.6741364],[-47.1211877,-0.6762125],[-47.1372425,-0.7325483],[-47.1730556,-0.7616149],[-47.1676021,-0.694762],[-47.2035718,-0.6981747],[-47.2049024,-0.6497306],[-47.2183704,-0.6325563],[-47.2619621,-0.6242868],[-47.2863682,-0.6029552],[-47.322479,-0.5914541],[-47.3842549,-0.6024933],[-47.395899,-0.6539644],[-47.4308354,-0.6407959],[-47.4111143,-0.6027782],[-47.4217333,-0.5846346],[-47.4720045,-0.5939981],[-47.4849043,-0.6194248],[-47.4699879,-0.6937537],[-47.5010207,-0.6911149],[-47.5317959,-0.6155547],[-47.5631599,-0.5821939],[-47.5887499,-0.5756615],[-47.5868177,-0.6390544],[-47.6291248,-0.7072738],[-47.6371343,-0.6361046],[-47.6327309,-0.6021061],[-47.6699627,-0.5751776],[-47.7038784,-0.534576],[-47.7542545,-0.54317],[-47.7708716,-0.563392],[-47.772848,-0.6054593],[-47.8142727,-0.5764182],[-47.8459009,-0.6251847],[-47.8587456,-0.5703664],[-47.8925108,-0.5581032],[-47.9089971,-0.5783076],[-47.921104,-0.6256315],[-47.964621,-0.6420758],[-47.9652235,-0.6737017],[-47.9912195,-0.694686],[-48.0196956,-0.6865582],[-48.0523861,-0.659928],[-48.1584045,-0.7742128],[-48.1777984,-0.8210127],[-48.2294917,-0.8278161],[-48.2684634,-0.9029275],[-48.2937708,-0.9196765],[-48.3658013,-0.9189255],[-48.4095658,-0.9057518]],[[-47.8111702,-1.0634084],[-47.8111985,-1.0656968]],[[-47.8111985,-1.0656968],[-47.706567,-1.0573444],[-47.6199007,-1.0663538],[-47.610401,-1.0315149],[-47.4189538,-0.9803533],[-47.4019463,-0.9520111],[-47.4250099,-0.8997277],[-47.3840098,-0.8716046],[-47.2941466,-0.8429008],[-47.263614,-0.8860137],[-47.2759563,-0.9164142],[-47.2427815,-0.9188494],[-47.1884802,-0.895317],[-47.1338381,-0.8999192],[-47.1185931,-0.8939207],[-47.1091126,-0.8563509],[-47.0674337,-0.813269],[-47.0640628,-0.7967966]],[[-47.8111985,-1.0656968],[-47.8125282,-1.0682935]],[[-47.6530657,-1.4311299],[-47.4186232,-1.495393],[-47.3625909,-1.463242],[-47.3427072,-1.5045521],[-47.3331233,-1.5028063],[-47.3259802,-1.4879546],[-47.2963671,-1.5130089],[-47.3417079,-1.5361473],[-47.3170101,-1.553698],[-47.2867031,-1.5374593],[-47.2468112,-1.4877309],[-47.1907067,-1.3988493],[-47.1556072,-1.3707748],[-47.151644,-1.3416647],[-47.1188214,-1.3088593],[-47.0809386,-1.2962805],[-47.0206673,-1.3311416],[-46.999616,-1.3121976],[-46.9412862,-1.294238],[-46.9163758,-1.4086813],[-46.9050373,-1.429255],[-46.8708978,-1.4364559],[-46.8488264,-1.4566795],[-46.8572087,-1.5181265],[-46.8752099,-1.5803202],[-46.8241599,-1.5432957],[-46.3850235,-1.2121766],[-46.3884215,-1.2090657],[-46.3711146,-1.1589134],[-46.3457232,-1.1139797],[-46.3465521,-1.07261],[-46.3330025,-1.0474992]],[[-46.3330025,-1.0474992],[-46.3468863,-1.0068565],[-46.3901096,-1.0199488],[-46.4662492,-1.0264336],[-46.4785215,-0.9655577],[-46.4683787,-0.9295292],[-46.4102555,-0.8876399],[-46.4261082,-0.8657539],[-46.4796365,-0.8832979],[-46.4979803,-0.8727207],[-46.5150786,-0.9296538],[-46.5564755,-0.9177489],[-46.5774852,-0.9815032],[-46.601961,-0.9569416],[-46.6420417,-0.9488571],[-46.6364811,-0.9069923],[-46.6158625,-0.8590454],[-46.5961262,-0.8419423],[-46.6189755,-0.8054803],[-46.6688935,-0.7915298],[-46.6921945,-0.833858],[-46.7354436,-0.8622322],[-46.739773,-0.8207577],[-46.8063625,-0.8704949],[-46.8072566,-0.8344781],[-46.8335204,-0.8263796],[-46.8243366,-0.7912143],[-46.8360207,-0.7467125],[-46.8608736,-0.7410597],[-46.8836674,-0.7671805],[-46.883672,-0.8076491],[-46.912821,-0.8211231],[-46.9422472,-0.8074709],[-46.9702914,-0.7674795],[-46.9461513,-0.7309943],[-46.974978,-0.7041002],[-47.0026589,-0.7607985],[-47.0314339,-0.7679175],[-47.0360541,-0.7923371],[-47.0640628,-0.7967966]],[[-49.8479945,-1.8331488],[-49.8643598,-1.8310129],[-49.8801864,-1.8266918],[-49.944332,-1.7959596]],[[-49.9085802,-3.3256747],[-49.9029954,-3.3677414],[-49.8344704,-3.4041088],[-49.8394144,-3.4364132],[-49.8082433,-3.481033],[-49.8178275,-3.509345],[-49.8059131,-3.5330844],[-49.8473046,-3.5756478],[-49.8984956,-3.5906445],[-49.908893,-3.6002004],[-49.9123869,-3.6061046],[-49.9199177,-3.6128335],[-49.9364983,-3.6506622]],[[-49.9364983,-3.6506622],[-49.9599734,-3.6570188],[-49.9655268,-3.6609508]],[[-49.9655268,-3.6609508],[-49.9567798,-3.6664159],[-49.9541363,-3.6735467],[-49.9398319,-3.6663391],[-49.8724703,-3.6650097],[-49.8581375,-3.643755],[-49.7692641,-3.6201014],[-49.7266629,-3.5998013],[-49.674499,-3.5857244],[-49.6623498,-3.5361074],[-49.5976077,-3.5131132],[-49.6129115,-3.4462649],[-49.60091,-3.4159833]],[[-49.60091,-3.4159833],[-49.4725503,-3.4152522]],[[-49.4725503,-3.4152522],[-49.470743,-3.4053251],[-49.4634347,-3.3901795],[-49.4604438,-3.3676817],[-49.4846858,-3.3521698],[-49.4909923,-3.3249162],[-49.5232789,-3.2604257],[-49.5323307,-3.1964829],[-49.5638301,-3.1206628],[-49.6162479,-3.0887263],[-49.6293893,-3.049452],[-49.622913,-3.01801],[-49.6006864,-2.9775851],[-49.5625326,-2.939471],[-49.4907656,-2.924751],[-49.4536604,-2.8914356],[-49.4653665,-2.8576592],[-49.4695147,-2.7878885],[-49.4651821,-2.7397017],[-49.4373304,-2.7146669],[-49.3995268,-2.7150084],[-49.3865123,-2.6639733],[-49.3576649,-2.6570016],[-49.3112725,-2.668419],[-49.3032687,-2.6231378],[-49.2808325,-2.608876],[-49.2618577,-2.5730767],[-49.2521057,-2.527264],[-49.2037492,-2.4855277],[-49.2021641,-2.4630275],[-49.2318854,-2.4133479],[-49.1577115,-2.3666206],[-49.1392167,-2.3199669],[-49.1102739,-2.3048733],[-49.0906843,-2.2409808],[-49.0495218,-2.2164326],[-49.0204886,-2.2122169],[-48.9561346,-2.1518923],[-48.9489914,-2.0983809],[-48.9631843,-2.0619589],[-48.9257371,-2.0216067],[-48.8746014,-1.9952523],[-48.905768,-1.9565822],[-48.5304107,-1.6993218]],[[-48.7910534,-1.6011361],[-48.8034825,-1.6082717],[-48.8073552,-1.6067858],[-48.8128869,-1.6020111],[-48.8227943,-1.5852873],[-48.8328242,-1.5598402]],[[-48.8374083,-1.5214442],[-48.8418518,-1.5238237]],[[-49.2677399,-1.7060611],[-49.310659,-1.7031055],[-49.3725815,-1.7101658]],[[-48.2930171,-1.4705396],[-48.3069611,-1.4711602]],[[-49.4725503,-3.4152522],[-49.0008787,-3.4121192]],[[-49.0008787,-3.4121192],[-48.92561,-3.4129403]],[[-48.92561,-3.4129403],[-48.9253058,-3.4035225]],[[-48.9253058,-3.4035225],[-48.8944796,-3.375582],[-48.8745374,-3.3894124],[-48.8195343,-3.3800681],[-48.7994842,-3.359395],[-48.7570268,-3.3435198],[-48.6900089,-3.2931698],[-48.6675152,-3.2540398],[-48.6328781,-3.2295807],[-48.5906024,-3.2255212],[-48.5517664,-3.1972868],[-48.5305686,-3.1956707],[-48.4809298,-3.2354383],[-48.4483511,-3.237645],[-48.4149547,-3.2007552],[-48.3914589,-3.2164504],[-48.3619828,-3.1985476],[-48.3323677,-3.1975251],[-48.3088321,-3.1644441],[-48.3197126,-3.1443627],[-48.3053364,-3.1007861],[-48.2857771,-3.0936411],[-48.2564104,-3.1208245],[-48.2515105,-3.0877143],[-48.2023963,-2.9698425],[-48.1798225,-2.9488805],[-48.1286783,-2.947287],[-48.091029,-2.899863],[-48.0888218,-2.8428063],[-48.0759594,-2.7812591],[-48.0391049,-2.7113933],[-48.0461142,-2.6436642],[-48.0285948,-2.6245782],[-47.9792615,-2.5977643],[-47.931962,-2.5431181],[-47.9260065,-2.5146259],[-47.9870704,-2.5065793],[-48.0045136,-2.5205381],[-48.0477667,-2.476318],[-48.0326222,-2.4507304],[-48.0317598,-2.4079015],[-48.0553143,-2.3599873],[-48.0534555,-2.3403856],[-48.0241559,-2.3126642],[-47.9971229,-2.2298014],[-47.9644533,-2.2209424],[-47.9894441,-2.1019234],[-47.9811805,-2.0703019],[-47.926011,-2.0067143],[-47.9076168,-1.9942452],[-47.8915369,-1.9683516],[-47.9075636,-1.9665614],[-47.8988734,-1.8775327],[-47.8786822,-1.8423364],[-47.8944995,-1.7803939]],[[-47.8944995,-1.7803939],[-47.8894234,-1.7697374]],[[-46.3128084,-1.0073333],[-46.305622,-0.997831],[-46.3221321,-0.9364081],[-46.3399791,-0.9598486],[-46.3128084,-1.0073333]],[[-47.8850884,-1.7608011],[-47.8944995,-1.7803939]],[[-48.9253058,-3.4035225],[-48.9235603,-3.4241445]],[[-48.9235603,-3.4241445],[-48.9740433,-3.457252],[-49.0248006,-3.5111706],[-49.0290633,-3.5471372]],[[-49.0290633,-3.5471372],[-48.9792227,-3.5430451],[-48.9581473,-3.5546517],[-48.9529144,-3.5632424]],[[-48.9529144,-3.5632424],[-48.8838941,-3.5679545]],[[-48.8838941,-3.5679545],[-48.8612985,-3.5699642],[-48.8404907,-3.5210466],[-48.8368262,-3.4686011],[-48.8179369,-3.4687338],[-48.7609321,-3.3952265],[-48.7193955,-3.3849364],[-48.6965714,-3.3596316],[-48.6532976,-3.3548451],[-48.6330694,-3.3234808],[-48.6256236,-3.3077935],[-48.6088348,-3.3147496],[-48.5587705,-3.3028523],[-48.5028467,-3.2597024],[-48.474229,-3.2758269],[-48.4206533,-3.2609319],[-48.4086799,-3.2798917],[-48.3528203,-3.2303148],[-48.3046762,-3.2505459],[-48.2889609,-3.222338],[-48.2591571,-3.2092986],[-48.2229565,-3.2228092],[-48.1581853,-3.2209556],[-48.1375915,-3.1890606],[-48.1121796,-3.2089037],[-48.0901276,-3.1804496],[-48.0991502,-3.1537732],[-48.0690462,-3.1416655],[-48.0556834,-3.1052912],[-48.001321,-3.1126672],[-47.9865392,-3.0697704],[-47.9534571,-3.0852972],[-47.917773,-3.0706571],[-47.9207139,-3.0371802],[-47.8731026,-2.9984007],[-47.8533073,-3.0097092],[-47.7987525,-2.9789105],[-47.791011,-2.958701],[-47.8162835,-2.9368858],[-47.7860947,-2.9125493],[-47.8002662,-2.8437077],[-47.8413188,-2.858577],[-47.8545647,-2.7722378],[-47.9071596,-2.7376255],[-47.8889244,-2.7091811],[-47.8795975,-2.6625631],[-47.8646802,-2.6458091],[-47.8714025,-2.6117897],[-47.8280936,-2.6221795],[-47.8305858,-2.5902862],[-47.7799547,-2.5824061],[-47.7776348,-2.5564683],[-47.7529965,-2.5205993],[-47.7136255,-2.5664432],[-47.6753614,-2.6725525],[-47.6851461,-2.7336862],[-47.6639514,-2.7448893],[-47.6308711,-2.7972182],[-47.5001721,-2.87164],[-47.3897575,-2.8878127],[-47.05728,-2.6188386],[-47.0461125,-2.5809791],[-47.0510052,-2.554317],[-47.0271677,-2.4971087],[-46.9753943,-2.4752036],[-46.9092526,-2.4222738],[-46.8392295,-2.4236096],[-46.7746164,-2.410546],[-46.7310575,-2.4166206],[-46.6289522,-2.4727792],[-46.5711139,-2.4960533],[-46.5215032,-2.5076193],[-46.4642547,-2.4709153],[-46.4358496,-2.4709154]],[[-46.4358496,-2.4709154],[-46.4412734,-2.4157008],[-46.4127859,-2.3791338],[-46.4318916,-2.3644873],[-46.4324291,-2.2971111],[-46.3911392,-2.2501412],[-46.3509244,-2.2240678],[-46.3355811,-2.1940389],[-46.2832969,-2.1543901],[-46.2730844,-2.1201116],[-46.2745992,-2.0546288],[-46.2604287,-2.0460831],[-46.2514378,-2.0006193],[-46.2227059,-1.9102252],[-46.2435218,-1.8786276],[-46.2152786,-1.8459062],[-46.2303286,-1.8031233],[-46.2536366,-1.7958462],[-46.31413,-1.804271],[-46.3244891,-1.772696],[-46.3118822,-1.7332325],[-46.2658526,-1.7328418],[-46.2475775,-1.7209245],[-46.2112229,-1.7271762],[-46.2035024,-1.705295],[-46.1740864,-1.7005085],[-46.1553227,-1.6754034],[-46.1658773,-1.634375],[-46.1336272,-1.5818183],[-46.1440841,-1.5178302],[-46.1761387,-1.4773849],[-46.1435954,-1.449737],[-46.1534659,-1.4256059],[-46.1145704,-1.351941],[-46.1333341,-1.3097341],[-46.1615773,-1.2818889],[-46.1400773,-1.2476926],[-46.1330409,-1.2103693],[-46.0981694,-1.1960591],[-46.0871388,-1.1344187],[-46.061815,-1.0971945],[-46.0945521,-1.0206273],[-46.1412924,-1.05816],[-46.1605034,-1.0051743],[-46.1867471,-1.0333892],[-46.2154454,-1.0263182],[-46.2127638,-0.9793434],[-46.1757444,-0.9428069],[-46.1819131,-0.9094804],[-46.2040482,-0.8849127],[-46.2648307,-0.9134146],[-46.2670339,-0.9629861],[-46.2877317,-0.9994154],[-46.3330025,-1.0474992]],[[-56.7678915,-3.2428893],[-56.887239,-3.4990467],[-57.0004891,-3.7591296],[-57.2536156,-4.2967522],[-57.5855733,-5.0007431],[-58.033639,-5.9781378],[-58.2625526,-6.4689221],[-58.2931091,-6.493882],[-58.3270562,-6.500374],[-58.3498866,-6.5624011],[-58.4217769,-6.6107148],[-58.4651949,-6.670041],[-58.4784712,-6.6996136],[-58.4817556,-6.7814217],[-58.4345559,-6.9088065],[-58.3802498,-6.970504],[-58.3354221,-6.9863726],[-58.2882552,-7.061674],[-58.2528349,-7.0834243],[-58.209524,-7.1342626],[-58.1809958,-7.1817367],[-58.1678046,-7.239248],[-58.1700099,-7.3132232],[-58.1384405,-7.3490342],[-58.118602,-7.3530631],[-58.0613616,-7.3951912],[-58.0398352,-7.446345],[-58.002168,-7.4881303],[-57.9520562,-7.5801442],[-57.9343873,-7.6567724],[-57.8989504,-7.6718905],[-57.8796423,-7.7819074],[-57.840971,-7.8614777],[-57.8331651,-7.8948624],[-57.828833,-7.9728959],[-57.7765286,-8.0521753],[-57.7284399,-8.0942158],[-57.7198593,-8.146605],[-57.7046383,-8.1680236],[-57.6772464,-8.1713961],[-57.6456109,-8.2062915],[-57.6439678,-8.2310878],[-57.6620791,-8.264982],[-57.6790555,-8.3335028],[-57.6678008,-8.3639381],[-57.6865577,-8.4070078],[-57.6815844,-8.4331259],[-57.6539947,-8.4650723],[-57.6590545,-8.5003866],[-57.633422,-8.5268109],[-57.6505026,-8.5533713],[-57.6447781,-8.5819802],[-57.6222457,-8.5911884],[-57.6205597,-8.6477445],[-57.6053024,-8.6628336],[-57.5936149,-8.7074193],[-57.5929389,-8.756477],[-57.5623651,-8.7612518],[-57.5230025,-8.7497337],[-57.4524982,-8.7866128],[-57.4175043,-8.7926085],[-57.4162157,-8.8589951],[-57.3843829,-8.8795574],[-57.3178883,-8.8857123],[-57.2861971,-8.9154972],[-57.2401898,-8.9064918],[-57.1950043,-8.9275137],[-57.1382742,-8.9946121],[-57.0946052,-9.0171114],[-57.0900292,-9.0382179],[-57.0596053,-9.0642778],[-57.0392416,-9.09829],[-57.0604425,-9.1371304],[-57.0601323,-9.1819673],[-57.0226379,-9.2197009],[-56.9955493,-9.2338426],[-56.9522491,-9.2230836],[-56.8201088,-9.2463404],[-56.7755214,-9.3295274],[-56.7723236,-9.3909593],[-56.7542707,-9.4063641],[-56.7083858,-9.3732067],[-56.6718827,-9.3673969],[-55.6041026,-9.4559371],[-54.6134541,-9.5358262]],[[-54.6134541,-9.5358262],[-54.632448,-9.5029456],[-54.6713377,-9.4854056],[-54.6865344,-9.4293838],[-54.6840106,-9.4049509],[-54.7198657,-9.3699087],[-54.7322901,-9.316493],[-54.7723423,-9.3001011],[-54.6746501,-9.186351],[-54.6812569,-9.1529049],[-54.724309,-9.1529037],[-54.7510598,-9.1094955],[-54.810924,-9.0918004],[-54.8741222,-9.0634474],[-54.9444285,-9.0511027],[-54.9835631,-9.0528629],[-55.1115669,-9.0380676],[-55.1184852,-8.9867265],[-55.1718944,-8.9698536],[-55.1612068,-8.9145261],[-55.1768472,-8.8931405],[-55.178427,-8.8428448],[-55.2219818,-8.846728],[-55.2418975,-8.8268913],[-55.23551,-8.7811793],[-55.2708999,-8.7377871],[-55.2577052,-8.7163794],[-55.2084304,-8.7322955],[-55.1768168,-8.7013241],[-55.1538169,-8.739682],[-55.1188644,-8.7731813],[-55.0894889,-8.7758806],[-55.0686189,-8.7181604],[-55.1197936,-8.6597368],[-55.1711776,-8.6324453],[-55.164758,-8.5563174],[-55.2080053,-8.4749568],[-55.1900961,-8.4210139],[-55.2143718,-8.3816156],[-55.1949064,-8.3471019],[-55.2155645,-8.3069121],[-55.2000966,-8.282902],[-55.2376454,-8.2326852],[-55.2024032,-8.1718241],[-55.2112631,-8.1396498],[-55.1722876,-8.1137631],[-55.1275382,-8.061778],[-55.1443156,-8.0044871],[-55.1140899,-7.9705864],[-55.0817297,-7.9649658],[-55.0639829,-7.9335328],[-55.0876232,-7.8770712],[-55.0410351,-7.8314785],[-55.0069799,-7.8172408],[-55.0153195,-7.7519978],[-55.0820654,-7.7261738],[-55.1121431,-7.6953447],[-55.0795905,-7.6539969],[-55.0641197,-7.5877731],[-55.0706994,-7.5516741],[-55.1084579,-7.48747],[-55.1471523,-7.4906708],[-55.1759005,-7.4577858],[-55.1518715,-7.4387096],[-55.2103715,-7.3982777],[-55.1930396,-7.3526057],[-55.2103157,-7.3306531],[-55.1973423,-7.298827],[-55.1995646,-7.2452635],[-55.2528974,-7.1626778],[-55.2399506,-7.1086938],[-55.2517612,-6.97911],[-55.2261496,-6.9719259],[-55.2358714,-6.9285034],[-55.193875,-6.8910818],[-55.2206444,-6.8476356],[-55.2033986,-6.8397497],[-55.2074486,-6.7733354],[-55.1928439,-6.7744365],[-55.1674786,-6.7331001],[-55.1673469,-6.6853541],[-55.1881757,-6.6586581],[-55.1751747,-6.6268037],[-55.1955377,-6.6032569],[-55.1919819,-6.5485209],[-55.2552632,-6.4418109],[-55.2425614,-6.3554546],[-55.302396,-6.3135032],[-55.3352837,-6.2491946],[-55.3317915,-6.1976795],[-55.2952861,-6.1745162],[-55.2977849,-6.1464767],[-55.3224216,-6.1394074],[-55.3390108,-6.0964503],[-55.3213953,-6.0415068],[-55.2893661,-6.0224179],[-55.2862578,-6.0567989],[-55.2501238,-6.0795852],[-55.1997554,-6.0973839],[-55.1664753,-6.0802414],[-55.1332352,-6.0392299],[-55.070614,-6.0088058],[-55.0439817,-6.011151],[-55.0242871,-5.9362322],[-55.0474491,-5.9244795],[-55.0757585,-5.8863493],[-55.0986775,-5.8214146],[-55.1132582,-5.8250395],[-55.1603996,-5.7667632],[-55.2068455,-5.7595687],[-55.2133945,-5.6969878],[-55.2369295,-5.6844968],[-55.2819272,-5.5804634],[-55.2715892,-5.5489231],[-55.2822868,-5.5091365],[-55.3206215,-5.450793],[-55.3136231,-5.4314037],[-55.3409485,-5.4075582],[-55.345885,-5.3846388],[-55.390395,-5.3885527],[-55.4082575,-5.4311191],[-55.4892345,-5.3648316],[-55.4792032,-5.3463584],[-55.5034539,-5.2976813],[-55.5483457,-5.2849802],[-55.5822891,-5.2966795],[-55.623871,-5.2522971],[-55.6137603,-5.2318473],[-55.5739542,-5.2321202],[-55.5934553,-5.1961624],[-55.536254,-5.2014379],[-55.5004023,-5.1810298],[-55.4502308,-5.1779474],[-55.4242869,-5.123897],[-55.3928396,-5.1114823],[-55.3863177,-5.0734157],[-55.3572834,-5.0535602],[-55.3633957,-5.0140929],[-55.4073395,-4.9465906],[-55.4282553,-4.9331843],[-55.445983,-4.8417613],[-55.4817358,-4.8158619],[-55.529119,-4.7970717],[-55.496785,-4.7389156],[-55.4710325,-4.7175258],[-55.4655128,-4.6908581],[-55.4928644,-4.650053],[-55.497795,-4.620392],[-55.4607312,-4.6090145],[-55.4360052,-4.6330678],[-55.4075902,-4.6245817],[-55.3867275,-4.6526945],[-55.3384231,-4.6302478],[-55.3099281,-4.665165],[-55.2686717,-4.6671132],[-55.222392,-4.6428458],[-55.1552564,-4.6417022],[-55.1283142,-4.6040314],[-55.0577775,-4.5990494],[-55.0047586,-4.5781836],[-54.9809228,-4.5915896],[-54.9201773,-4.5372803],[-54.9295063,-4.4902302],[-54.9012582,-4.4602451],[-54.8559221,-4.4400322],[-54.8418688,-4.4102362]],[[-52.5374847,-2.7367534],[-52.5569874,-2.7249809],[-52.6232012,-2.7164247]],[[-52.6839911,-2.722911],[-52.7557929,-2.7407946],[-52.7799715,-2.7525599],[-52.7890506,-2.7585303]],[[-52.7890506,-2.7585303],[-52.8013788,-2.7632092],[-52.822627,-2.7632477],[-52.8378683,-2.7587004],[-52.8584581,-2.7436072]],[[-53.0015295,-2.6716156],[-53.0105812,-2.6779118]],[[-54.6134541,-9.5358262],[-54.1066155,-9.5719207],[-53.1333861,-9.6451782],[-53.1332474,-9.6351519]],[[-53.1332474,-9.6351519],[-53.1125277,-9.5524305],[-53.0567226,-9.5305053],[-53.0424989,-9.4772994],[-52.995078,-9.4752954],[-52.9730557,-9.4518707],[-52.9500232,-9.4586738],[-52.9272466,-9.4534343],[-52.9396094,-9.4214239],[-52.9216353,-9.3836157],[-52.9745566,-9.240591],[-52.9645209,-9.2245515],[-53.0229914,-9.1566934],[-53.0812742,-9.1434382],[-53.0848002,-9.1161263],[-53.0160844,-9.0644244],[-53.0382459,-9.0421891],[-53.052,-9.0028879],[-53.0416398,-8.9796167],[-53.0486861,-8.9455873],[-53.015937,-8.9199613],[-52.9917742,-8.8355658],[-52.9990572,-8.8042581],[-53.0351867,-8.75178],[-53.0369366,-8.7286293],[-53.0062746,-8.7048285],[-52.9319162,-8.7300397],[-52.9240829,-8.7047858],[-52.9493343,-8.684949],[-52.9288829,-8.629636],[-52.8967174,-8.6276095],[-52.8879391,-8.5728168],[-52.9146882,-8.5316499],[-52.9206018,-8.4958013],[-52.9455493,-8.4866395],[-52.9551886,-8.4412796],[-52.9165819,-8.4135561],[-52.9420494,-8.3907715],[-52.9399898,-8.3532822],[-52.9795503,-8.3378619],[-53.0081093,-8.2953445],[-52.9729121,-8.2721797],[-52.9631068,-8.2364646],[-52.9296567,-8.2228399],[-52.9403053,-8.201333],[-52.9252703,-8.162625],[-52.9654407,-8.1215493],[-52.9561886,-8.0710673],[-52.9842444,-8.0335363],[-52.9699946,-8.0148222],[-53.0097758,-7.997813],[-53.037552,-7.9304763],[-53.0670541,-7.9186276],[-53.0572162,-7.8937324],[-53.01561,-7.8748039],[-53.0298897,-7.8564293],[-52.9921099,-7.8277421],[-52.9959125,-7.7967027],[-53.0346899,-7.7760089],[-53.037298,-7.7214146],[-53.0581044,-7.6878342],[-53.1001098,-7.6820748],[-53.1181584,-7.6453404],[-53.1129093,-7.6245162],[-53.1462209,-7.5981659],[-53.1681104,-7.5539471],[-53.1383587,-7.5465381],[-53.0923534,-7.4775666],[-53.1242697,-7.4457881],[-53.1200747,-7.3955064],[-53.1475513,-7.3988427],[-53.1783548,-7.3804264],[-53.1653833,-7.3571301],[-53.2081378,-7.313771],[-53.2348873,-7.2985254],[-53.2814413,-7.2327312],[-53.3151371,-7.2000325],[-53.2560269,-7.1372252],[-53.3118331,-7.0550993],[-53.3174382,-7.0274561],[-53.2787942,-6.96564],[-53.2826122,-6.9369991],[-53.3116373,-6.9160751],[-53.2888286,-6.8650345],[-53.2480075,-6.8314909],[-53.247252,-6.7868827],[-53.2740811,-6.7674919],[-53.3441941,-6.7494164],[-53.3684969,-6.7232522],[-53.3949152,-6.7176253],[-53.4240552,-6.6749884],[-53.4460799,-6.6865784],[-53.4685203,-6.6347168],[-53.4669097,-6.6102914],[-53.4400573,-6.559071],[-53.4035464,-6.5646358],[-53.3738615,-6.5940232],[-53.366602,-6.5855969],[-53.3142731,-6.4995447],[-53.3106351,-6.4628884],[-53.3032492,-6.4569459],[-53.2783801,-6.4611266],[-53.257411,-6.465055],[-53.2373526,-6.5004446],[-53.2145813,-6.4694582],[-53.1817739,-6.4587101],[-53.213104,-6.4243901],[-53.1911582,-6.4005653],[-53.1943583,-6.3714814],[-53.2341041,-6.3395872],[-53.2291902,-6.293671],[-53.2602124,-6.2892691],[-53.2671575,-6.2543192],[-53.3069351,-6.1656757],[-53.3454414,-6.1807251],[-53.3513794,-6.1718811],[-53.3408845,-6.1319167],[-53.3729126,-6.1150987],[-53.3827449,-6.0816269],[-53.3689698,-6.0579558],[-53.2858565,-6.0288803],[-53.2792432,-5.9817672],[-53.2183049,-5.9428489],[-53.202415,-5.9586142],[-53.1490789,-5.9377556],[-53.1279954,-5.9008651],[-53.0941571,-5.8719483],[-53.0591331,-5.8860532],[-53.0195103,-5.8569493],[-52.9758564,-5.8450813],[-52.952241,-5.798608],[-52.9318591,-5.7912086],[-52.9393767,-5.7440264],[-52.8962142,-5.7056617],[-52.8514095,-5.7100592],[-52.8321588,-5.6899387],[-52.8022709,-5.715671],[-52.7715181,-5.72227],[-52.742658,-5.6840089],[-52.7025232,-5.6676454],[-52.6902417,-5.6537143],[-52.7006606,-5.6122118],[-52.6842719,-5.5871483],[-52.6855179,-5.52505],[-52.6614637,-5.4131144],[-52.6459898,-5.4005382],[-52.6422103,-5.3556523],[-52.6598514,-5.3083335],[-52.6310772,-5.2654904],[-52.6122458,-5.2430721],[-52.4943508,-5.2181559],[-52.4500988,-5.1849956],[-52.42638,-5.1539845],[-52.4079876,-5.1836002],[-52.3747959,-5.2045613],[-52.3433806,-5.1793206],[-52.2953476,-5.1944149],[-52.2737116,-5.2260212],[-52.2840168,-5.2576342],[-52.1482958,-5.3160981],[-52.119514,-5.3141854],[-52.1052645,-5.2713883],[-52.0685178,-5.2430302],[-52.0760165,-5.2156485],[-52.0510747,-5.1514007]],[[-52.0510747,-5.1514007],[-50.9301963,-5.1505729]],[[-50.9301963,-5.1505729],[-50.8600311,-5.0003873],[-50.8472019,-4.9124446],[-50.8584492,-4.8688548],[-50.9122822,-4.8646978],[-50.93406,-4.7910968],[-50.9065664,-4.7287979],[-50.932115,-4.6864294],[-50.9063989,-4.6746675],[-50.920113,-4.6259803],[-50.8946178,-4.5819456],[-50.9067252,-4.4958801],[-50.9031755,-4.4705104],[-50.8797813,-4.447527],[-50.9004541,-4.4123419],[-50.9961469,-4.3466789],[-50.9821447,-4.2902865],[-50.9903371,-4.2636942],[-50.9385076,-4.2703165],[-50.8825368,-4.2889945],[-50.818417,-4.294947],[-50.761638,-4.2501237],[-50.7156967,-4.242091],[-50.6732863,-4.2087306],[-50.7938614,-4.0004259],[-50.881448,-3.8535677],[-50.1085,-4.0779777],[-50.1072726,-4.0315311],[-50.1308045,-4.0273585],[-50.1234722,-3.9878647],[-50.0878081,-3.9580927],[-50.0710036,-3.9605944],[-50.0557798,-3.9219585],[-50.0178082,-3.9049885],[-50.0126929,-3.8594047],[-49.9826647,-3.8480039],[-49.9673621,-3.8244923],[-49.9723037,-3.7721996],[-49.9779683,-3.7563017],[-49.9980018,-3.7137669],[-49.968664,-3.6641232]],[[-49.968664,-3.6641232],[-49.9629465,-3.6586569],[-49.9434158,-3.6516858],[-49.9364983,-3.6506622]],[[-51.8575374,-2.5691916],[-51.854453,-2.5524757]],[[-50.9301963,-5.1505729],[-50.9272346,-5.1514518]],[[-50.9272346,-5.1514518],[-50.846501,-5.1651913],[-50.8131704,-5.1522299],[-50.7532164,-5.1758856]],[[-50.7532164,-5.1758856],[-50.7134508,-5.17359]],[[-50.7134508,-5.17359],[-50.708227,-5.1700157],[-50.6883688,-5.1747516],[-50.6603872,-5.1904216],[-50.6335875,-5.1824808],[-50.5737797,-5.1968743],[-50.5057519,-5.1786469],[-50.5071989,-5.2251695],[-50.4768347,-5.2768765],[-50.4287508,-5.2706358],[-50.4062193,-5.2950491],[-50.3491746,-5.3061587],[-50.3097287,-5.3323503],[-50.293142,-5.3285138],[-50.2639181,-5.3601144],[-50.236362,-5.3704666],[-50.1672279,-5.3739898],[-50.1498608,-5.3765876],[-50.1434745,-5.3920312],[-50.0774773,-5.4109642],[-50.0567007,-5.4293542],[-50.0277793,-5.4132216],[-50.0004171,-5.4274318],[-49.9083833,-5.4158741],[-49.8498041,-5.3920899],[-49.8262152,-5.4027422],[-49.8129172,-5.4392973],[-49.7731633,-5.4528012],[-49.7520849,-5.447326],[-49.7419469,-5.4440784],[-49.7302433,-5.4364927],[-49.6688005,-5.4175866],[-49.63447,-5.4309836],[-49.6024108,-5.4145488],[-49.5517498,-5.4470905],[-49.5374435,-5.4364256],[-49.4871071,-5.4669585],[-49.4768007,-5.4563785],[-49.4212712,-5.4498397],[-49.3837512,-5.4188768],[-49.4042187,-5.3972086],[-49.3846888,-5.3737112],[-49.3864902,-5.3488272],[-49.3535202,-5.3096655],[-49.3613497,-5.2879001],[-49.331272,-5.2641504],[-49.3396935,-5.2125969],[-49.3139138,-5.190332],[-49.2453253,-5.2840812],[-49.1829951,-5.3366715],[-49.1457943,-5.3117683],[-49.1276018,-5.2780507],[-49.1646854,-5.2573226],[-49.1476563,-5.2184517],[-49.1524369,-5.1796572],[-49.1343305,-5.1256586],[-49.1423587,-5.0776524],[-49.1160555,-5.0581793],[-49.10158,-5.0234986],[-49.0542655,-4.9775311],[-49.0580451,-4.9603146],[-49.0330842,-4.9192477],[-49.0003321,-4.9069306]],[[-49.0003321,-4.9069306],[-49.0004402,-4.4093168]],[[-49.0004402,-4.4093168],[-49.0136571,-4.3944139],[-49.0167689,-4.3352851],[-49.0436011,-4.3195491],[-49.101127,-4.3214707],[-49.1100179,-4.3245392],[-49.1323579,-4.3541761],[-49.1648234,-4.3655678],[-49.1956014,-4.4243614],[-49.2290804,-4.4068415],[-49.2672696,-4.4368463],[-49.322602,-4.5007002],[-49.4967754,-4.500327],[-49.4949738,-4.4652738],[-49.5113854,-4.4061556],[-49.5043055,-4.3878519],[-49.5256935,-4.3194651],[-49.5590531,-4.2571376],[-49.5980544,-4.1355668],[-49.6068546,-4.0729269],[-49.2394072,-4.0774378],[-49.2130509,-4.0633401],[-49.184495,-4.0295907],[-49.1492447,-4.0209833],[-49.1141328,-4.0733086],[-49.0798,-4.1019504],[-49.0515235,-4.0837295],[-49.0725204,-4.0579879],[-49.073073,-3.9961894],[-49.1074623,-3.975112],[-49.1303007,-3.9409211],[-49.1490722,-3.8787433],[-49.1336573,-3.8425103],[-49.1797156,-3.8318847],[-49.1877437,-3.7968548],[-49.269213,-3.7815108],[-49.2744067,-3.7062809],[-49.2571297,-3.6351672],[-49.2269379,-3.606473],[-49.2008784,-3.5997294],[-49.1728861,-3.5622355],[-49.1718035,-3.5366005],[-49.1230232,-3.5431756],[-49.1012132,-3.5777264],[-49.0681546,-3.5925951],[-49.038131,-3.5903162],[-49.0290633,-3.5471372]],[[-48.9235603,-3.4241445],[-48.92561,-3.4129403]],[[-49.0008787,-3.4121192],[-49.60091,-3.4159833]],[[-49.9655268,-3.6609508],[-49.968664,-3.6641232]],[[-49.0004402,-4.4093168],[-49.0004656,-4.8329918],[-48.9533296,-4.9201821]],[[-48.9533296,-4.9201821],[-48.9189347,-4.9612535],[-48.9632742,-4.9774639],[-48.9972666,-4.9729121],[-49.0142124,-4.9868971],[-49.0274373,-5.0419488],[-49.0063848,-5.0674108],[-49.0023548,-5.1231404],[-49.0221057,-5.1765144],[-48.9950787,-5.2417378],[-48.9906304,-5.2767486],[-48.9925977,-5.2832887],[-48.9620188,-5.2850142],[-48.9060765,-5.3147099],[-48.8750465,-5.3379279],[-48.7980738,-5.3458496],[-48.7551507,-5.3491654]],[[-48.7551507,-5.3491654],[-48.3155936,-5.0069924],[-48.0014333,-4.75886],[-47.816153,-4.6147285],[-47.7925691,-4.5864108],[-47.7540405,-4.5908236],[-47.7248128,-4.6064181],[-47.6821203,-4.6063812],[-47.6119419,-4.5573579],[-47.5814777,-4.5199355],[-47.5637242,-4.4745575],[-47.5376001,-4.4525953],[-47.4763146,-4.3564394],[-47.4795412,-4.3284996],[-47.4420493,-4.2874251],[-47.3717681,-4.2455858],[-47.3790018,-4.2205369],[-47.3658287,-4.18064],[-47.3402351,-4.1770458],[-47.3502036,-4.1178207],[-47.3194243,-4.0477745],[-47.2931109,-4.0522709],[-47.2389286,-3.9986308],[-47.1902562,-3.9837047],[-47.1731461,-3.9238234],[-47.1484961,-3.9144898],[-47.128751,-3.8766426],[-47.1066248,-3.8809428],[-47.0852051,-3.85664],[-47.0835715,-3.8244046],[-47.0557157,-3.7735356],[-47.0453679,-3.6238822],[-47.0040617,-3.5426413],[-46.9688798,-3.5144028],[-46.9824151,-3.496162],[-46.9484548,-3.476799],[-46.9563218,-3.4258777],[-46.92974,-3.3738319],[-46.8848342,-3.3351737],[-46.8586432,-3.3429786],[-46.8460364,-3.319271],[-46.8148613,-3.3114659],[-46.802059,-3.2659998],[-46.7791907,-3.2421684],[-46.7715436,-3.2040662],[-46.7226309,-3.159132],[-46.7496037,-3.1244909],[-46.6886218,-3.0929714],[-46.6731808,-3.0673062],[-46.6684899,-2.9927955],[-46.6474296,-2.9698118],[-46.6539285,-2.9310654],[-46.6805554,-2.8827178],[-46.639416,-2.8835578],[-46.6400023,-2.8509089],[-46.6109773,-2.8552524],[-46.5989568,-2.79698],[-46.6252943,-2.8065459],[-46.6313534,-2.7708688],[-46.6696138,-2.7346049],[-46.6631149,-2.6935566],[-46.6380966,-2.6872113],[-46.6060909,-2.6394741],[-46.5068486,-2.616874],[-46.5094384,-2.5906125],[-46.4735724,-2.5465816],[-46.4193336,-2.5324251],[-46.4358496,-2.4709154]],[[-48.8838941,-3.5679545],[-48.8955476,-3.5750398],[-48.9529144,-3.5632424]],[[-51.1487768,-6.2166843],[-51.167003,-6.1878451],[-51.2039274,-6.1714278],[-51.245728,-6.172377],[-51.2544298,-6.1620427],[-51.2699525,-6.1190712],[-51.2809487,-6.1027226],[-51.3105325,-6.0873706],[-51.3143693,-6.0820756],[-51.3685923,-6.0460625],[-51.401645,-6.0458248],[-51.3932856,-6.0161549],[-51.3574209,-5.9668553],[-51.3226751,-5.9652152],[-51.2636737,-5.9949607],[-51.2219791,-5.9635338],[-51.1776211,-5.9658095],[-51.1642844,-5.9279582],[-51.1260945,-5.9187671],[-51.1058145,-5.8501451],[-51.1110066,-5.8147134],[-51.0864491,-5.7809712],[-51.0315601,-5.7694421],[-51.0219791,-5.7869949],[-50.9461554,-5.8037497],[-50.9203087,-5.7926836],[-50.9205907,-5.7404262],[-50.8990358,-5.6943132],[-50.8471437,-5.7063716],[-50.8781711,-5.6325304],[-50.9244773,-5.6306822],[-50.9528345,-5.6143417],[-50.9473976,-5.5258282],[-50.8743115,-5.4915334],[-50.8833103,-5.4340287],[-50.8573965,-5.4179702],[-50.7868684,-5.3996548],[-50.7987317,-5.3621198],[-50.7917588,-5.3150038],[-50.7546165,-5.3114512],[-50.7713645,-5.2373261],[-50.7641719,-5.2221289],[-50.7356125,-5.2173678],[-50.7202039,-5.1746578]],[[-50.7202039,-5.1746578],[-50.7532164,-5.1758856]],[[-50.9272346,-5.1514518],[-51.5004566,-5.150155],[-52.0510747,-5.1514007]],[[-53.1332474,-9.6351519],[-53.1333882,-9.6453296],[-52.0003209,-9.7258355],[-51.3042873,-9.77286]],[[-51.3042873,-9.77286],[-51.2613726,-9.614919],[-51.2575158,-9.5756653],[-51.1862299,-9.523977],[-51.1400103,-9.5594735],[-51.11909,-9.4929513],[-51.0905395,-9.4852628],[-51.0696751,-9.4455015],[-51.0658696,-9.4304421],[-51.0592271,-9.3660718],[-51.0776533,-9.3344009],[-51.0711217,-9.2926888],[-51.0836199,-9.261635],[-51.0638471,-9.2491558],[-51.063122,-9.2192505],[-51.0556489,-9.1885851],[-51.1212921,-9.1297687],[-51.0905399,-9.0704009],[-51.1011217,-9.0416047],[-51.0841497,-9.0075661],[-51.0554826,-8.980583],[-51.0835368,-8.9374491],[-51.1116225,-8.9274442],[-51.1031516,-8.8993017],[-51.0682339,-8.8997693],[-51.0362657,-8.8537039],[-51.0398661,-8.830332],[-51.0236779,-8.7701824],[-51.032344,-8.7075336],[-51.0469225,-8.6771134],[-51.0208948,-8.640584],[-50.9785514,-8.6231717],[-50.9404533,-8.577798],[-50.9353934,-8.5721155],[-50.9370327,-8.5569575],[-50.9460671,-8.5312391],[-50.9271746,-8.5004341],[-50.9094786,-8.4462705],[-50.8696209,-8.4126374],[-50.8858951,-8.392836],[-50.8673947,-8.3367004],[-50.8334838,-8.3256326],[-50.8176961,-8.2962899],[-50.7664256,-8.3196296],[-50.7343939,-8.2946685],[-50.7459279,-8.2643282],[-50.7040892,-8.2460109],[-50.661698,-8.2464733],[-50.6284541,-8.2010239],[-50.5996206,-8.1913124]],[[-50.5996206,-8.1913124],[-50.5522585,-8.1444965],[-50.5595611,-8.1032518],[-50.5255621,-8.0981462],[-50.523007,-8.0543003],[-50.5055842,-8.022967],[-50.5334201,-8.0084804],[-50.5110309,-7.9702999],[-50.5383372,-7.9557962],[-50.5511409,-7.8984312],[-50.6125358,-7.8975511],[-50.6081448,-7.8910867],[-50.6000046,-7.8884401],[-50.5724555,-7.8685195],[-50.5409489,-7.7964635],[-50.5093408,-7.7561012],[-50.4880629,-7.7495896],[-50.4387026,-7.6974818],[-50.3942593,-7.6749897],[-50.3932531,-7.6512182],[-50.3459223,-7.6587079],[-50.3413658,-7.6008843],[-50.3683048,-7.5754705],[-50.3665637,-7.5322801],[-50.3464245,-7.5004438],[-50.3588099,-7.4524171],[-50.3909141,-7.430836],[-50.3816436,-7.3622298],[-50.4040555,-7.3187952],[-50.3836668,-7.2832355],[-50.3746131,-7.2659253],[-50.3763927,-7.2527896]],[[-50.3763927,-7.2527896],[-50.4021156,-7.2213873],[-50.4274775,-7.2304489],[-50.492726,-7.1931798],[-50.5091426,-7.1930144],[-50.531141,-7.1421625],[-50.5262533,-7.1264285],[-50.5542828,-7.0810166],[-50.5775026,-7.0758069],[-50.6479219,-7.0564674],[-50.6508141,-7.0419533],[-50.7058069,-7.0166211],[-50.7566242,-6.9790143],[-50.7544224,-6.8732045],[-50.8277164,-6.8277927],[-50.8561677,-6.7762309],[-50.8872538,-6.7474166],[-50.9013399,-6.7101708],[-50.9944427,-6.6665414],[-51.0145655,-6.6279325],[-51.0099477,-6.5897655],[-51.0489611,-6.5551936],[-51.0695617,-6.490666],[-51.1468466,-6.4830252],[-51.1720237,-6.4681194],[-51.1432047,-6.4298484],[-51.1522658,-6.3501992],[-51.1572347,-6.3298221],[-51.1821422,-6.3202402],[-51.1989777,-6.2867834],[-51.16051,-6.2661898],[-51.1487768,-6.2166843]],[[-50.3763927,-7.2527896],[-50.0710952,-7.0001642],[-49.7297769,-6.7147157],[-49.4112773,-6.4452729]],[[-49.4112773,-6.4452729],[-49.2026001,-6.2629547],[-49.1991209,-6.2642252]],[[-49.1991209,-6.2642252],[-48.8522427,-5.9651378]],[[-48.8522427,-5.9651378],[-48.8530537,-5.9607986],[-48.8606909,-5.9544386],[-48.8641848,-5.9477977],[-48.8703766,-5.9492151],[-48.8902193,-5.9296981],[-48.8986592,-5.8988418],[-48.989176,-5.8394881],[-49.0519899,-5.8380763],[-49.2338523,-5.7955796],[-49.2683527,-5.8202827],[-49.2993577,-5.8249951],[-49.3357438,-5.8505355],[-49.3748616,-5.8637028],[-49.41502,-5.8989039],[-49.455002,-5.9020054],[-49.4684392,-5.8921342],[-49.5112739,-5.8828692],[-49.5797359,-5.8960264],[-49.6062236,-5.9123538],[-49.6336336,-5.9061474],[-49.7089372,-5.9506587],[-49.7554138,-5.9306617],[-49.7685533,-5.8882],[-49.7631647,-5.8471234],[-49.7801928,-5.8354368],[-49.7918336,-5.7854847],[-49.8351062,-5.8535154],[-49.867531,-5.8683312],[-49.9053279,-5.8552108],[-49.9326413,-5.8596234],[-49.9810859,-5.920098],[-50.0117525,-5.9067518],[-50.0174716,-5.9454065],[-50.0589714,-5.9415795],[-50.0563375,-5.9056418],[-50.0709161,-5.8922138],[-50.1053609,-5.9244126],[-50.1455844,-5.9063302],[-50.1689761,-5.9099481],[-50.1954228,-5.8827964],[-50.2469191,-5.9172466],[-50.2989188,-5.902595],[-50.3297788,-5.869262],[-50.3438365,-5.8642649],[-50.3784459,-5.8775674],[-50.3939455,-5.8753742],[-50.416223,-5.8555693],[-50.4550038,-5.8561592],[-50.4726137,-5.8746585],[-50.5312526,-5.8812792],[-50.575724,-5.9185652],[-50.6502251,-5.9089263],[-50.6818107,-5.9189729],[-50.7021951,-5.8989717],[-50.7321756,-5.9590896],[-50.7504268,-5.977842],[-50.784116,-5.9868988],[-50.793205,-5.9804214],[-50.8451489,-5.978701],[-50.8520028,-5.9805443],[-50.9162235,-5.9832206],[-50.9250603,-5.9698598],[-50.9367243,-5.970648],[-50.9777013,-5.9889531],[-51.0715624,-6.1216127],[-51.0920044,-6.1254987],[-51.127066,-6.1996509],[-51.1487768,-6.2166843]],[[-48.9533296,-4.9201821],[-49.0004218,-4.8330735],[-49.0003321,-4.9069306]],[[-50.7134508,-5.17359],[-50.7202039,-5.1746578]],[[-48.8522427,-5.9651378],[-48.7312097,-5.8600505]],[[-48.7312097,-5.8600505],[-48.6848557,-5.8905102],[-48.6327727,-5.8756343],[-48.6277729,-5.8995815],[-48.6398123,-5.9431194],[-48.6609615,-5.9801695],[-48.6452849,-5.9970846],[-48.5836124,-5.9922234],[-48.5327364,-6.0444538],[-48.505182,-6.0616059],[-48.4830984,-6.0939254],[-48.4398488,-6.1177147],[-48.4267416,-6.1192366],[-48.3912929,-6.1467035]],[[-48.3912929,-6.1467035],[-48.3245162,-6.1327193],[-48.2831587,-6.0815576],[-48.2984849,-6.0501309],[-48.3351601,-6.0357197],[-48.3347163,-6.0042748],[-48.2919557,-5.9685142],[-48.2519581,-5.9603733],[-48.2301253,-5.9225184],[-48.2919698,-5.8368374],[-48.3000139,-5.7887008],[-48.2902384,-5.7435391],[-48.27571,-5.7265134],[-48.2306488,-5.7292609],[-48.1759831,-5.7122958],[-48.1412274,-5.6543538],[-48.138152,-5.6026901],[-48.1947353,-5.5630933],[-48.2786891,-5.5404233],[-48.328787,-5.4910438],[-48.3515976,-5.4278364],[-48.3935104,-5.3942126],[-48.5139025,-5.4298196],[-48.5575365,-5.416711],[-48.5967334,-5.4225444],[-48.6291243,-5.4100587],[-48.6504881,-5.3849182],[-48.7368801,-5.3739624],[-48.7551507,-5.3491654]],[[-49.4112773,-6.4452729],[-49.7903197,-6.7656928],[-50.3763927,-7.2527896]],[[-50.5996206,-8.1913124],[-50.5985901,-8.209818],[-50.5263957,-8.1783697],[-50.4786221,-8.1805285],[-50.4312583,-8.2172281],[-50.4036999,-8.2004671],[-50.3455647,-8.1861385],[-50.273204,-8.2447734],[-50.2536403,-8.2816345],[-50.2329258,-8.2911037],[-50.2144447,-8.3452772],[-50.1874751,-8.3603296],[-50.1630063,-8.3463815],[-50.0916386,-8.3715325],[-50.0700596,-8.3604113],[-50.0381146,-8.3884483],[-49.9960583,-8.3961359],[-49.948479,-8.3768954],[-49.9040006,-8.3955601],[-49.8813582,-8.3856289],[-49.8671373,-8.3575735],[-49.8267806,-8.3318157],[-49.8460552,-8.3085672],[-49.8730553,-8.2455159],[-49.8748884,-8.2335697],[-49.8656675,-8.1790579],[-49.8735585,-8.1450697],[-49.8997223,-8.1306323],[-49.9140875,-8.096572],[-49.9052526,-8.0557608],[-49.8597204,-8.0026998],[-49.8282812,-7.7123659],[-49.8279702,-7.3715834],[-49.811886,-7.3462332],[-49.7968561,-7.3332326],[-49.7745569,-7.348698],[-49.7417481,-7.3384248],[-49.6886387,-7.3391902],[-49.6645818,-7.3233778],[-49.6156945,-7.3221204],[-49.6015008,-7.3039767],[-49.5474412,-7.2948996],[-49.5195231,-7.3101391],[-49.4886342,-7.3044519],[-49.470971,-7.2839553],[-49.4226398,-7.2749422],[-49.4061056,-7.2327412],[-49.3419985,-7.2051593],[-49.3284426,-7.1760877],[-49.3053879,-7.190382],[-49.2632454,-7.1784043],[-49.2280776,-7.1857311],[-49.2117721,-7.1603545],[-49.193796,-7.1298147]],[[-49.193796,-7.1298147],[-49.1952789,-7.0262647],[-49.2174451,-6.9614693],[-49.2095281,-6.9254206],[-49.1719412,-6.8929351],[-49.1504653,-6.8888509],[-49.0437712,-6.8157714],[-49.0188835,-6.7842105],[-48.9637126,-6.7794597],[-48.913853,-6.7573695],[-48.8511291,-6.7486772],[-48.8258553,-6.7546541],[-48.7690982,-6.7307016],[-48.7444027,-6.6985804],[-48.676189,-6.6733797],[-48.6519604,-6.6399512],[-48.6645491,-6.5676742],[-48.6462681,-6.5088892],[-48.607185,-6.4480111],[-48.5405762,-6.4008421],[-48.5002152,-6.3509276],[-48.447707,-6.3511789],[-48.3826793,-6.3796079],[-48.3848765,-6.324503],[-48.4171226,-6.2985866],[-48.4127108,-6.2813296],[-48.436132,-6.2013716],[-48.4349388,-6.1831683],[-48.3912929,-6.1467035]],[[-48.7312097,-5.8600505],[-49.1991209,-6.2642252]],[[-51.3042873,-9.77286],[-50.8428938,-9.8008231],[-50.2248064,-9.8411535],[-50.1978964,-9.7588349],[-50.1510053,-9.6956082],[-50.1390049,-9.6274599],[-50.1073697,-9.5942802],[-50.0895623,-9.5456929],[-50.1053376,-9.4754105],[-50.0901168,-9.4315957],[-50.0528335,-9.372673],[-50.055468,-9.3346989],[-50.0377849,-9.2894054],[-50.0050057,-9.2687597],[-49.9969316,-9.2376524],[-49.9661483,-9.2308641],[-49.9054199,-9.1697448],[-49.8968794,-9.1436736],[-49.8516138,-9.0654349],[-49.8425897,-9.0273259],[-49.7936636,-8.9794338],[-49.7676841,-8.9336881],[-49.6843583,-8.8564749],[-49.5924113,-8.8394912],[-49.5434457,-8.761395],[-49.4876063,-8.6885047],[-49.4540257,-8.6153915],[-49.4098882,-8.5800019],[-49.3914974,-8.4897785],[-49.3528841,-8.4225293],[-49.2833241,-8.3795572],[-49.2486603,-8.2553764],[-49.215854,-8.1942117],[-49.2073277,-8.1225007],[-49.193163,-8.0764651],[-49.1767186,-8.0615112],[-49.1737507,-8.0144182],[-49.1820284,-7.9769635],[-49.1696421,-7.9547897],[-49.1627769,-7.9005312],[-49.1607401,-7.791369],[-49.2211632,-7.7615992],[-49.2399968,-7.7407245],[-49.3401424,-7.6604679],[-49.3815774,-7.5691029],[-49.3779974,-7.4964458],[-49.231475,-7.3257861],[-49.1852842,-7.2351718],[-49.193796,-7.1298147]]],"bbox":[-58.8954981,-9.8411535,-46.061815,2.591027]}
