{"type":"Topology","objects":{"geometrias":{"type":"GeometryCollection","geometries":[{"type":"Polygon","arcs":[[0,1,2,3]],"properties":{"code_micro":42001,"name_micro":"São Miguel do Oeste","code_state":42,"code_region":4,"abbrev_state":"SC","name_state":"Santa Catarina","name_region":"Sul","year":2020}},{"type":"Polygon","arcs":[[4,-2,5,6,7,8,9,10,11,12,13,14,-4]],"properties":{"code_micro":42002,"name_micro":"Chapecó","code_state":42,"code_region":4,"abbrev_state":"SC","name_state":"Santa Catarina","name_region":"Sul","year":2020}},{"type":"Polygon","arcs":[[15,16,17,18,19,20,21,22,23,24,25,-14]],"properties":{"code_micro":42003,"name_micro":"Xanxerê","code_state":42,"code_region":4,"abbrev_state":"SC","name_state":"Santa Catarina","name_region":"Sul","year":2020}},{"type":"Polygon","arcs":[[26,27,28,29,30,31,32,33,34,35,36,-25,37,38]],"properties":{"code_micro":42004,"name_micro":"Joaçaba","code_state":42,"code_region":4,"abbrev_state":"SC","name_state":"Santa Catarina","name_region":"Sul","year":2020}},{"type":"Polygon","arcs":[[39,-9,40,-7,41,-39,42,-23,43,-21,44,-19,45,-17,46,-12,47]],"properties":{"code_micro":42005,"name_micro":"Concórdia","code_state":42,"code_region":4,"abbrev_state":"SC","name_state":"Santa Catarina","name_region":"Sul","year":2020}},{"type":"Polygon","arcs":[[48,-36,49,50,51,52,53,54,55]],"properties":{"code_micro":42006,"name_micro":"Canoinhas","code_state":42,"code_region":4,"abbrev_state":"SC","name_state":"Santa Catarina","name_region":"Sul","year":2020}},{"type":"Polygon","arcs":[[56,-56,57,58,59,60,61]],"properties":{"code_micro":42007,"name_micro":"São Bento do Sul","code_state":42,"code_region":4,"abbrev_state":"SC","name_state":"Santa Catarina","name_region":"Sul","year":2020}},{"type":"Polygon","arcs":[[62,63,64,65,66,67,68,-62]],"properties":{"code_micro":42008,"name_micro":"Joinville","code_state":42,"code_region":4,"abbrev_state":"SC","name_state":"Santa Catarina","name_region":"Sul","year":2020}},{"type":"Polygon","arcs":[[69,-28,70,71,72,73,74,75,76,77,78,79,80,81,82,-51,83,-34,84,-32,85,-30]],"properties":{"code_micro":42009,"name_micro":"Curitibanos","code_state":42,"code_region":4,"abbrev_state":"SC","name_state":"Santa Catarina","name_region":"Sul","year":2020}},{"type":"Polygon","arcs":[[-76,86,-74,87,-72,88,89,90,91,92,93,94,95,96,97,98,99,100,-80,101,-78,102]],"properties":{"code_micro":42010,"name_micro":"Campos de Lages","code_state":42,"code_region":4,"abbrev_state":"SC","name_state":"Santa Catarina","name_region":"Sul","year":2020}},{"type":"Polygon","arcs":[[103,104,-100,105,106,107,108,109,110,111,-52,-83]],"properties":{"code_micro":42011,"name_micro":"Rio do Sul","code_state":42,"code_region":4,"abbrev_state":"SC","name_state":"Santa Catarina","name_region":"Sul","year":2020}},{"type":"Polygon","arcs":[[112,113,114,115,116,117,118,119,-64,120,121,-59,122,-54,123,-111]],"properties":{"code_micro":42012,"name_micro":"Blumenau","code_state":42,"code_region":4,"abbrev_state":"SC","name_state":"Santa Catarina","name_region":"Sul","year":2020}},{"type":"Polygon","arcs":[[124,125,126,127,128,-68,129,-66,130,-119]],"properties":{"code_micro":42013,"name_micro":"Itajaí","code_state":42,"code_region":4,"abbrev_state":"SC","name_state":"Santa Catarina","name_region":"Sul","year":2020}},{"type":"Polygon","arcs":[[131,-107,132,-98,133,-96,134,135,136,137,138,139,140,-114,141,-109]],"properties":{"code_micro":42014,"name_micro":"Ituporanga","code_state":42,"code_region":4,"abbrev_state":"SC","name_state":"Santa Catarina","name_region":"Sul","year":2020}},{"type":"Polygon","arcs":[[142,-139,143,144,145,146,147,148,149,150,151,152,-128,153,-126,154,-117]],"properties":{"code_micro":42015,"name_micro":"Tijucas","code_state":42,"code_region":4,"abbrev_state":"SC","name_state":"Santa Catarina","name_region":"Sul","year":2020}},{"type":"Polygon","arcs":[[155,156,157,158,159,160,161,162,-152,163]],"properties":{"code_micro":42016,"name_micro":"Florianópolis","code_state":42,"code_region":4,"abbrev_state":"SC","name_state":"Santa Catarina","name_region":"Sul","year":2020}},{"type":"Polygon","arcs":[[164,-147,165,-145,166,167,-136,168,-94,169,170,171,172,-159,173,-157,174,-149]],"properties":{"code_micro":42017,"name_micro":"Tabuleiro","code_state":42,"code_region":4,"abbrev_state":"SC","name_state":"Santa Catarina","name_region":"Sul","year":2020}},{"type":"Polygon","arcs":[[175,-160,-173,176,-171,177,-92,178,179,180,-162]],"properties":{"code_micro":42018,"name_micro":"Tubarão","code_state":42,"code_region":4,"abbrev_state":"SC","name_state":"Santa Catarina","name_region":"Sul","year":2020}},{"type":"Polygon","arcs":[[181,182,183,-180,184,-90]],"properties":{"code_micro":42019,"name_micro":"Criciúma","code_state":42,"code_region":4,"abbrev_state":"SC","name_state":"Santa Catarina","name_region":"Sul","year":2020}},{"type":"Polygon","arcs":[[185,-183]],"properties":{"code_micro":42020,"name_micro":"Araranguá","code_state":42,"code_region":4,"abbrev_state":"SC","name_state":"Santa Catarina","name_region":"Sul","year":2020}}]}},"arcs":[[[-53.162809,-26.3559158],[-53.1844686,-26.3438064],[-53.1915769,-26.3344438],[-53.2260153,-26.3184752],[-53.2400852,-26.3002441],[-53.2645345,-26.2893298],[-53.262114,-26.2773298],[-53.2714909,-26.2624153],[-53.2890034,-26.2480361],[-53.3048557,-26.260529],[-53.3389307,-26.2482313],[-53.3495345,-26.2513491],[-53.3760719,-26.241614],[-53.3998165,-26.254013],[-53.4029752,-26.2638406],[-53.4246944,-26.2800667],[-53.4451959,-26.283981],[-53.4613865,-26.2963735],[-53.4702349,-26.2901297],[-53.4984093,-26.3030406],[-53.5237076,-26.2920211],[-53.5534836,-26.2926096],[-53.5822163,-26.2724168],[-53.5862947,-26.2558663],[-53.6035516,-26.2597131],[-53.6416505,-26.2603977],[-53.6455333,-26.2865577],[-53.6524751,-26.2903695],[-53.6710734,-26.3307319],[-53.6857281,-26.3354044],[-53.7002756,-26.3628918],[-53.6972785,-26.3788046],[-53.7100003,-26.3877357],[-53.696649,-26.4019605],[-53.7033502,-26.4171114],[-53.6877198,-26.4314332],[-53.6874603,-26.4421337],[-53.7157516,-26.470557],[-53.7023692,-26.4734751],[-53.7033781,-26.4905479],[-53.7109633,-26.5045113],[-53.7313362,-26.5103879],[-53.7227745,-26.5276649],[-53.7280001,-26.5498043],[-53.7221142,-26.5589891],[-53.7223263,-26.5810829],[-53.7306876,-26.6009442],[-53.7301018,-26.617993],[-53.7574497,-26.6442912],[-53.7353318,-26.6455806],[-53.7261606,-26.6591855],[-53.7266658,-26.6733399],[-53.7168931,-26.6823938],[-53.7331437,-26.7011322],[-53.7347264,-26.7168645],[-53.7435098,-26.7336158],[-53.7141393,-26.7513418],[-53.7285483,-26.7649803],[-53.7100255,-26.7975164],[-53.7005682,-26.7982544],[-53.6983698,-26.8292995],[-53.678276,-26.8430588],[-53.6721776,-26.8616767],[-53.6855129,-26.8668057],[-53.694322,-26.8891309],[-53.6735881,-26.893165],[-53.6736827,-26.9134639],[-53.696977,-26.9273509],[-53.7096874,-26.9405645],[-53.7014305,-26.953977],[-53.7124189,-26.9654737],[-53.7267291,-26.9591053],[-53.7336567,-26.9787484],[-53.718659,-26.9842058],[-53.7647967,-27.0453718],[-53.7601464,-27.0606152],[-53.7725234,-27.0663196],[-53.7933355,-27.0416191],[-53.8014678,-27.0862847],[-53.7777023,-27.1015206],[-53.7951885,-27.1102992],[-53.8174652,-27.1401867],[-53.8366794,-27.1539851],[-53.8359454,-27.1690815],[-53.8148466,-27.1758898],[-53.778908,-27.1487427],[-53.7629422,-27.1553555],[-53.7510579,-27.1890231],[-53.7228592,-27.1855356],[-53.700899,-27.1700094],[-53.6750504,-27.1606825],[-53.6501258,-27.1788221],[-53.6508192,-27.2155074],[-53.6307258,-27.2133786],[-53.6182319,-27.1873364],[-53.5914418,-27.1874727],[-53.5711119,-27.1756628],[-53.5540029,-27.173178],[-53.518249,-27.2021778],[-53.4947061,-27.2039403],[-53.4887966,-27.1971901],[-53.4917069,-27.1766918],[-53.5043127,-27.1633169],[-53.5075682,-27.1413388],[-53.4911955,-27.1323251],[-53.4750467,-27.1403073],[-53.4641663,-27.1550404],[-53.4525555,-27.1561351],[-53.4179383,-27.1444445],[-53.4001322,-27.1275759],[-53.3931897,-27.1087938],[-53.37639,-27.0914656],[-53.3662767,-27.0931009],[-53.3553806,-27.1112745]],[[-53.3553806,-27.1112745],[-53.3385759,-27.1109647],[-53.3371312,-27.107008],[-53.3249138,-27.0994851],[-53.3108703,-27.0665924],[-53.3062759,-27.0634728],[-53.291916,-27.0559398],[-53.2928117,-27.0060345],[-53.3019524,-26.9888819],[-53.2852046,-26.977886],[-53.2955387,-26.9622631],[-53.2817964,-26.9504392],[-53.2813605,-26.9382945],[-53.2822211,-26.9353272],[-53.3000045,-26.9186511],[-53.3246665,-26.9085279],[-53.3353985,-26.8994871],[-53.3523622,-26.8964664],[-53.3766324,-26.8839283],[-53.3949932,-26.8951691],[-53.407587,-26.8834173],[-53.4157029,-26.8659137],[-53.406004,-26.8484907],[-53.3837062,-26.8509853],[-53.3868025,-26.838774],[-53.379283,-26.823696],[-53.404152,-26.8239042],[-53.410225,-26.8092577],[-53.3851733,-26.7844248],[-53.3895463,-26.7663969],[-53.3580851,-26.7650571],[-53.3607438,-26.7552987],[-53.3448565,-26.737587],[-53.328167,-26.7443603],[-53.32754,-26.7363114],[-53.3370757,-26.7245817],[-53.3405609,-26.7157071],[-53.3274738,-26.7138398],[-53.316818,-26.7100109],[-53.3182248,-26.7175639],[-53.3117614,-26.71125],[-53.2979475,-26.7059968],[-53.2930404,-26.7088031]],[[-53.2930404,-26.7088031],[-53.2872461,-26.6917212],[-53.2767577,-26.685699]],[[-53.2767577,-26.685699],[-53.2765643,-26.6798895],[-53.2724973,-26.6783197],[-53.2667674,-26.6769771],[-53.2613728,-26.6657812],[-53.2456405,-26.6615348],[-53.2508393,-26.65023],[-53.2305115,-26.6501479],[-53.2368324,-26.6476093],[-53.232159,-26.6329337],[-53.2291091,-26.6275841],[-53.2342496,-26.62195],[-53.2352359,-26.6117414],[-53.2322313,-26.6060749],[-53.232973,-26.6035675],[-53.2328877,-26.5992722],[-53.2303213,-26.5765918],[-53.2220262,-26.5662618],[-53.2415722,-26.5498401],[-53.23968,-26.5323338],[-53.2429357,-26.5009745],[-53.2292699,-26.4803904],[-53.2413647,-26.4498417],[-53.2661797,-26.4512143],[-53.2870031,-26.4447025],[-53.2881423,-26.4355963],[-53.2852141,-26.4331234],[-53.2846514,-26.4171684],[-53.2760864,-26.3979556],[-53.2573566,-26.3814338],[-53.2326216,-26.3691273],[-53.2199959,-26.3742428],[-53.191465,-26.3693635],[-53.162809,-26.3559158]],[[-53.2767577,-26.685699],[-53.2930404,-26.7088031]],[[-53.3553806,-27.1112745],[-53.3457512,-27.1209883],[-53.3105657,-27.1203318],[-53.293525,-27.1373336],[-53.2943237,-27.1473483],[-53.3090173,-27.181611],[-53.320727,-27.1982383],[-53.3225818,-27.2115049],[-53.3078492,-27.2165417],[-53.293067,-27.1969193],[-53.2320857,-27.1711117],[-53.1972164,-27.1926527],[-53.1811367,-27.1882679],[-53.1723622,-27.1480209],[-53.1502847,-27.1437823],[-53.1403447,-27.1744194],[-53.1321831,-27.1802287],[-53.1074197,-27.1702861],[-53.0774788,-27.1631158],[-53.069718,-27.1515543],[-53.0790453,-27.1184736],[-53.0767,-27.1078446],[-53.0590423,-27.0882454],[-53.0320951,-27.082302],[-53.0204394,-27.0875227],[-53.0213514,-27.1057905],[-53.0413939,-27.1249055],[-53.0450488,-27.1373317],[-53.0375501,-27.1577479],[-53.0193158,-27.1538174],[-53.0030057,-27.1356146],[-52.9916636,-27.1409667],[-52.9837257,-27.156503],[-52.9851446,-27.1704881],[-53.0005043,-27.1851522],[-53.0025644,-27.1976227],[-52.991719,-27.2176533],[-52.9771189,-27.2208776],[-52.9681942,-27.2111029],[-52.9674427,-27.1883275],[-52.9587502,-27.1647825],[-52.9421824,-27.1664217],[-52.9360669,-27.1780364],[-52.9376012,-27.1983545],[-52.9181973,-27.2031968],[-52.8963561,-27.1947658],[-52.8851406,-27.1826681],[-52.8544663,-27.1696914],[-52.8430785,-27.1785255],[-52.8466916,-27.2023335],[-52.8339914,-27.2112922],[-52.8075153,-27.2023721],[-52.7635597,-27.2112333],[-52.7578757,-27.223847],[-52.7639082,-27.2429623],[-52.7575613,-27.2574918],[-52.7397649,-27.2552421],[-52.7236915,-27.2351438],[-52.7122882,-27.2400034],[-52.7063106,-27.2561194],[-52.7065973,-27.2746763],[-52.6894195,-27.2838581],[-52.6774379,-27.2628263],[-52.6767383,-27.2466088],[-52.6614803,-27.2373738],[-52.6448915,-27.2616679],[-52.6112849,-27.2640694],[-52.5887822,-27.2472612],[-52.5648453,-27.2491699],[-52.544216,-27.2345827]],[[-52.544216,-27.2345827],[-52.5365241,-27.2319362],[-52.5359272,-27.2179764],[-52.5346706,-27.2158939]],[[-52.5346706,-27.2158939],[-52.5352823,-27.2117583],[-52.5335497,-27.2097789],[-52.529113,-27.2079002],[-52.5234338,-27.207606],[-52.5203,-27.202675],[-52.520793,-27.1958143],[-52.5150416,-27.1929442],[-52.5135017,-27.190893],[-52.5143025,-27.1899449],[-52.5179845,-27.1911438],[-52.5198254,-27.190441],[-52.5278979,-27.1790247],[-52.5215767,-27.1791388],[-52.5193054,-27.1778334]],[[-52.5193054,-27.1778334],[-52.5235164,-27.1652634]],[[-52.5235164,-27.1652634],[-52.516325,-27.1653232],[-52.5056979,-27.1583564],[-52.5091189,-27.1537122],[-52.5182708,-27.1478065],[-52.5096355,-27.145966]],[[-52.5096355,-27.145966],[-52.4897321,-27.1426061],[-52.4883324,-27.1414782],[-52.4888357,-27.134451]],[[-52.4888357,-27.134451],[-52.5008172,-27.1281091],[-52.4999999,-27.1121396],[-52.4808204,-27.1116815]],[[-52.4808204,-27.1116815],[-52.5087821,-27.0938451]],[[-52.5087821,-27.0938451],[-52.5124009,-27.0928388],[-52.5154617,-27.0909552],[-52.5220668,-27.0824348],[-52.5311468,-27.0804425],[-52.5518319,-27.0712304],[-52.5721884,-27.0513173],[-52.5718679,-27.0395955],[-52.5855612,-27.0314722],[-52.5903127,-27.024285],[-52.5846563,-26.9737997],[-52.6083364,-26.9404236],[-52.6315103,-26.9213639],[-52.6163624,-26.9071831],[-52.6284572,-26.8965272],[-52.6208011,-26.8648456],[-52.656253,-26.8536413],[-52.716948,-26.8036135],[-52.6935162,-26.8004912],[-52.6849516,-26.8068936],[-52.6676544,-26.7966003],[-52.6649042,-26.7849366],[-52.6963724,-26.7691578],[-52.6770954,-26.7642091],[-52.64334,-26.744787],[-52.6320602,-26.7452203],[-52.6241386,-26.731277],[-52.5984038,-26.7179656],[-52.6081193,-26.6888058],[-52.6084935,-26.663675],[-52.6269405,-26.6468267],[-52.6181153,-26.6415626],[-52.6406361,-26.6252517],[-52.6529843,-26.6336782],[-52.6721294,-26.6214494],[-52.6709999,-26.6030063],[-52.6949733,-26.5877908],[-52.697756,-26.5710684],[-52.7100081,-26.5563657],[-52.7303997,-26.5423622],[-52.7308936,-26.5304633],[-52.745272,-26.5152224],[-52.74782,-26.5110311],[-52.7477268,-26.4903884],[-52.7377615,-26.4872984],[-52.7466198,-26.4784461],[-52.7446123,-26.4721005],[-52.7441274,-26.4641331],[-52.7429827,-26.4580077],[-52.7446888,-26.4491049],[-52.7480612,-26.4465325],[-52.7618506,-26.4579435],[-52.7643618,-26.4537576],[-52.7611273,-26.4427549],[-52.7493359,-26.4439043],[-52.7489046,-26.440956],[-52.7511416,-26.4357067],[-52.7578296,-26.4318803],[-52.7612227,-26.4330278],[-52.7581177,-26.4169466],[-52.7697994,-26.4109293],[-52.7603851,-26.3971993],[-52.7713538,-26.3864163],[-52.7729356,-26.3756898],[-52.7627766,-26.3535631]],[[-52.7627766,-26.3535631],[-52.7753913,-26.3478885],[-52.8469285,-26.3444065],[-52.8665078,-26.3582736],[-52.9504203,-26.3622865],[-52.9933039,-26.3475248],[-53.0464406,-26.3813775],[-53.093228,-26.3920221],[-53.1095398,-26.3763517],[-53.1269968,-26.3724881],[-53.1503451,-26.3443845],[-53.162809,-26.3559158]],[[-52.5087821,-27.0938451],[-52.5023097,-27.0915722]],[[-52.5023097,-27.0915722],[-52.4884448,-27.0907151],[-52.4852008,-27.0760237],[-52.4699747,-27.0793572],[-52.4636082,-27.0731977],[-52.4731967,-27.0502086]],[[-52.4731967,-27.0502086],[-52.4794046,-27.0464388],[-52.4741484,-27.04167],[-52.4692825,-27.0407356],[-52.4488633,-27.0457305]],[[-52.4488633,-27.0457305],[-52.4409213,-27.0316693],[-52.4474565,-27.024323]],[[-52.4474565,-27.024323],[-52.4494136,-27.0298339],[-52.4618034,-27.0268797],[-52.4633895,-27.0248808],[-52.4639119,-27.0188906],[-52.4665991,-27.0145105],[-52.4638648,-27.0037208]],[[-52.4638648,-27.0037208],[-52.455969,-27.0008807],[-52.4460954,-26.9926375],[-52.4336418,-27.006927],[-52.3969137,-26.9984066],[-52.3947416,-26.9877258],[-52.3743662,-26.9828614],[-52.372412,-26.970893],[-52.3553795,-26.9699037],[-52.3507192,-26.9487367],[-52.3459002,-26.9461409],[-52.3290858,-26.9649955],[-52.3122531,-26.9742463],[-52.3095604,-26.9537268],[-52.2853089,-26.9582328],[-52.2812158,-26.9464753],[-52.2642641,-26.9573305],[-52.2614068,-26.9424736],[-52.2133016,-26.9484554],[-52.1921839,-26.9598369],[-52.1712454,-26.9454201],[-52.1562146,-26.9407994],[-52.1510568,-26.9262227],[-52.1262605,-26.9481323],[-52.1079138,-26.949146],[-52.1010829,-26.9493061],[-52.0815361,-26.9488611],[-52.0755156,-26.9440501],[-52.0709755,-26.9427331],[-52.0726428,-26.9464872]],[[-52.0726428,-26.9464872],[-52.0666242,-26.959905],[-52.0626432,-26.9589608],[-52.0592788,-26.959056],[-52.0560678,-26.9605931],[-52.0539274,-26.9602321],[-52.0525858,-26.9581823],[-52.0490492,-26.9508494],[-52.0383102,-26.9523659]],[[-52.0383102,-26.9523659],[-52.0353585,-26.9471415],[-52.029564,-26.9441223],[-52.0238718,-26.9496407],[-52.002984,-26.9411688],[-51.9789812,-26.9367194],[-51.9612901,-26.9453759],[-51.9566429,-26.9445243],[-51.9514711,-26.9392892],[-51.9173076,-26.9324918],[-51.8847732,-26.9456027],[-51.8743193,-26.9291289],[-51.8491165,-26.9446038],[-51.8353335,-26.9304345]],[[-51.8353335,-26.9304345],[-51.8261838,-26.9233883],[-51.8271162,-26.9097155]],[[-51.8271162,-26.9097155],[-51.8213565,-26.9046519],[-51.8190158,-26.8907041],[-51.8146518,-26.8674388],[-51.8197974,-26.8522936],[-51.8199146,-26.8493587],[-51.8066572,-26.8581043],[-51.7710633,-26.841296],[-51.7278768,-26.8527172],[-51.7126902,-26.825016],[-51.6787344,-26.8183655],[-51.7026771,-26.7913427],[-51.7315251,-26.7901191],[-51.7562018,-26.775189],[-51.7655774,-26.7882293],[-51.7846138,-26.7661101],[-51.769784,-26.7281676],[-51.7787042,-26.7084838],[-51.803734,-26.6981216],[-51.8249919,-26.7023304],[-51.843321,-26.7001251],[-51.8505784,-26.6821797],[-51.8700683,-26.6908091],[-51.8840081,-26.6792358],[-51.8548416,-26.6729441],[-51.846038,-26.6603976],[-51.8526465,-26.6504587],[-51.8325847,-26.6250171],[-51.8325251,-26.6027986],[-51.8199285,-26.5855574]],[[-51.8199285,-26.5855574],[-51.8734505,-26.5993625],[-51.8831782,-26.5848166],[-51.9002917,-26.5792836],[-51.9283319,-26.5843685],[-51.9433269,-26.5712026],[-51.9569296,-26.5742335],[-51.9724971,-26.5674093],[-52.0087675,-26.5665606],[-52.0212151,-26.5487221],[-52.0651889,-26.5230182],[-52.0813539,-26.525111],[-52.0981791,-26.5015009],[-52.096879,-26.4874797],[-52.1116325,-26.4749634],[-52.1295515,-26.4772059],[-52.1666946,-26.4649806],[-52.1859468,-26.4452283],[-52.2028476,-26.4587849],[-52.2298118,-26.4670431],[-52.2616222,-26.4542808],[-52.2719421,-26.4609251],[-52.2902188,-26.4553658],[-52.3049939,-26.4402571],[-52.3774195,-26.4409567],[-52.3980605,-26.42882],[-52.4333066,-26.4402033],[-52.4636056,-26.4396036],[-52.4767233,-26.421436],[-52.496272,-26.4200194],[-52.5187326,-26.4015213],[-52.5789527,-26.4081527],[-52.5958322,-26.4160624],[-52.6153782,-26.4091241],[-52.6211027,-26.395509],[-52.636632,-26.3838026],[-52.6597739,-26.3738708],[-52.678622,-26.352676],[-52.700223,-26.3580786],[-52.7188906,-26.357301],[-52.7377632,-26.3421849],[-52.7627766,-26.3535631]],[[-51.7006645,-27.46947],[-51.6728346,-27.4896197],[-51.677578,-27.5029806],[-51.6647179,-27.5172667],[-51.6466567,-27.5145299],[-51.6455803,-27.4954082],[-51.6297756,-27.4795542]],[[-51.6297756,-27.4795542],[-51.6001618,-27.4869137],[-51.5895859,-27.4738228],[-51.5814021,-27.4720815],[-51.5776902,-27.4703169],[-51.5700362,-27.4632606],[-51.5688012,-27.4614602],[-51.5610657,-27.4578372],[-51.5583624,-27.4524734],[-51.5569307,-27.446054],[-51.5577381,-27.443006],[-51.5528303,-27.4297788],[-51.5542908,-27.3833114],[-51.5498929,-27.3831258],[-51.5331916,-27.3702914],[-51.5650505,-27.3285793],[-51.5860404,-27.3317877],[-51.6005021,-27.3267902],[-51.6102559,-27.3218406],[-51.5980989,-27.3091981],[-51.5947949,-27.2960239],[-51.5851176,-27.2921883],[-51.5818503,-27.306297],[-51.5621913,-27.2951936],[-51.566707,-27.2765725],[-51.5568473,-27.2756097],[-51.5395819,-27.2824903],[-51.524035,-27.3002396],[-51.5336059,-27.3118472],[-51.5145308,-27.3165158],[-51.4995239,-27.305987],[-51.4880003,-27.3099893],[-51.4863345,-27.3286142],[-51.4686019,-27.3318026],[-51.4587649,-27.3437004],[-51.4444004,-27.3200159],[-51.4359192,-27.3152533],[-51.4109335,-27.3297761],[-51.3880872,-27.329264],[-51.3669296,-27.3383595],[-51.333346,-27.3300206],[-51.3264834,-27.3457281],[-51.3205336,-27.3410378],[-51.3097707,-27.3403837],[-51.2915382,-27.3273087],[-51.3120143,-27.3197875],[-51.2997901,-27.290432],[-51.3099305,-27.2724756],[-51.3258516,-27.2612011],[-51.3136527,-27.2407911],[-51.2978079,-27.2319501],[-51.2941836,-27.218474],[-51.2807569,-27.2129477],[-51.2666512,-27.2279476],[-51.2209552,-27.2361037],[-51.2111851,-27.2456654],[-51.2100567,-27.2599989],[-51.1817607,-27.2778631],[-51.1647819,-27.2835506],[-51.1521378,-27.2770443],[-51.1205814,-27.2537868],[-51.1129207,-27.2408927],[-51.0940426,-27.2509134],[-51.0659006,-27.2522431],[-51.0611526,-27.2435377],[-51.0514279,-27.2407841]],[[-51.0514279,-27.2407841],[-51.0455741,-27.2370233],[-51.0369984,-27.2360887],[-51.0257295,-27.2207379]],[[-51.0257295,-27.2207379],[-51.0258596,-27.1950399],[-50.9861488,-27.1619012],[-50.960505,-27.1545704],[-50.9469287,-27.1432149],[-50.9366307,-27.1233763],[-50.9134337,-27.1192979],[-50.8804091,-27.1266333],[-50.8712682,-27.1532194],[-50.8590541,-27.1541666],[-50.8411917,-27.1655496],[-50.8284144,-27.1589119],[-50.7842658,-27.1182311],[-50.7550025,-27.1241173],[-50.7356115,-27.1203833],[-50.7290148,-27.1315509]],[[-50.7290148,-27.1315509],[-50.7209232,-27.1376914],[-50.7115536,-27.1387032],[-50.700604,-27.1356872]],[[-50.700604,-27.1356872],[-50.6991629,-27.1368161]],[[-50.6991629,-27.1368161],[-50.6970458,-27.1346519],[-50.6974572,-27.1316542],[-50.7097196,-27.1359149]],[[-50.7097196,-27.1359149],[-50.7067109,-27.1180816],[-50.716738,-27.1045823],[-50.6911009,-27.0838242],[-50.6715371,-27.0748269],[-50.6503722,-27.0415534],[-50.6368972,-27.029161],[-50.6313654,-27.009495],[-50.6185066,-27.0011931],[-50.609318,-26.9754288],[-50.6191444,-26.9536552],[-50.6099627,-26.9399153],[-50.5910556,-26.9284242],[-50.5944291,-26.9053347],[-50.5834601,-26.8869708],[-50.5872325,-26.8613646],[-50.5578618,-26.832657],[-50.541838,-26.8347606],[-50.5199443,-26.8217423],[-50.5063232,-26.8078226],[-50.5184968,-26.7866531],[-50.5251833,-26.7831611]],[[-50.5251833,-26.7831611],[-50.5358628,-26.7768909]],[[-50.5358628,-26.7768909],[-50.5416342,-26.7722499],[-50.5558311,-26.7711921],[-50.5705546,-26.7601421],[-50.5896822,-26.7486217],[-50.6054411,-26.7381692],[-50.6254962,-26.7195124],[-50.6435025,-26.7114773],[-50.658126,-26.6769078],[-50.6730602,-26.6714545],[-50.6873876,-26.6586537],[-50.702478,-26.6606129],[-50.703925,-26.6743721],[-50.7170658,-26.6848148],[-50.7565087,-26.6922653],[-50.7831475,-26.6823719],[-50.8087347,-26.6527964],[-50.8559951,-26.5605959],[-50.9057579,-26.5488276],[-50.9421558,-26.5504203],[-50.9574144,-26.5305634],[-50.9941078,-26.5077261],[-51.0105119,-26.489486],[-50.9951086,-26.4838173],[-51.0004189,-26.4630668],[-50.9965516,-26.447891],[-50.9766134,-26.4418909],[-50.9707589,-26.4261306],[-50.9854088,-26.4048767],[-51.0322634,-26.403435],[-51.0422255,-26.394646],[-51.0633749,-26.4021339],[-51.0892718,-26.3913215],[-51.1279813,-26.3994982],[-51.1379023,-26.4151808],[-51.1533626,-26.4184472],[-51.1568596,-26.4298035],[-51.1901604,-26.452145],[-51.2021081,-26.442774],[-51.2014633,-26.4271176],[-51.2342578,-26.4065016],[-51.2605665,-26.398686],[-51.2669681,-26.3861058]],[[-51.2669681,-26.3861058],[-51.2914865,-26.4024564],[-51.3004929,-26.4178719],[-51.2922039,-26.4353559],[-51.2756799,-26.4429935],[-51.2793484,-26.4538078],[-51.2530573,-26.4622957],[-51.2511304,-26.4720702],[-51.2652988,-26.483595],[-51.2731744,-26.4983042],[-51.2606532,-26.5152319],[-51.2502094,-26.5194763],[-51.2471252,-26.5377186],[-51.231517,-26.5485977],[-51.2249954,-26.5911805],[-51.2367949,-26.6078918],[-51.2357544,-26.6232834],[-51.2835172,-26.6423633],[-51.2948899,-26.6558927],[-51.3253187,-26.6485981],[-51.3470325,-26.6485931],[-51.3582216,-26.6556986],[-51.3911297,-26.6632474],[-51.4053025,-26.6761477],[-51.3927778,-26.6848787],[-51.3928723,-26.6988861],[-51.4073176,-26.70062],[-51.435346,-26.6881781],[-51.4394948,-26.6672339],[-51.4567615,-26.6531763],[-51.454883,-26.6406582],[-51.4688427,-26.621244],[-51.486701,-26.6244243],[-51.4800285,-26.6059568],[-51.4973868,-26.5852636],[-51.5109055,-26.5810612],[-51.5356074,-26.5917979],[-51.5742381,-26.5897764],[-51.5969898,-26.58406],[-51.61245,-26.5894396],[-51.6309939,-26.5878183],[-51.6584509,-26.5654124],[-51.671999,-26.5651968],[-51.6926869,-26.5805072],[-51.7376358,-26.5729933],[-51.787205,-26.5886407],[-51.8199285,-26.5855574]],[[-51.8271162,-26.9097155],[-51.823026,-26.9259849]],[[-51.823026,-26.9259849],[-51.8221891,-26.9404992],[-51.8356156,-26.9559067],[-51.8626223,-26.9768127],[-51.8233133,-27.0166581],[-51.8223004,-27.0177385],[-51.808729,-27.0345924],[-51.8075689,-27.0476605],[-51.8218744,-27.0590786],[-51.8261842,-27.065313],[-51.8325461,-27.0915013],[-51.847132,-27.0913244],[-51.8599269,-27.1014918],[-51.876218,-27.084582],[-51.8886416,-27.1004614],[-51.8835104,-27.1172145],[-51.8599839,-27.1404333],[-51.8221554,-27.1459801],[-51.8242689,-27.157755],[-51.8244761,-27.1656661],[-51.8227017,-27.1713161],[-51.8199417,-27.1802133],[-51.8091767,-27.183295],[-51.7979124,-27.1905927],[-51.7914722,-27.1979678],[-51.7797683,-27.2029622],[-51.7747894,-27.2035556],[-51.7469183,-27.2055872],[-51.7247272,-27.2067906],[-51.7197782,-27.2174511],[-51.7389706,-27.2464228],[-51.7649567,-27.2597611],[-51.7509738,-27.2856581],[-51.760586,-27.3070384],[-51.7420253,-27.3197993],[-51.7310123,-27.3377163],[-51.7308983,-27.3426753],[-51.7379216,-27.3484601],[-51.7300196,-27.374704],[-51.7328777,-27.3920782],[-51.7180427,-27.4054958],[-51.7057315,-27.4255296],[-51.6855864,-27.4320596],[-51.7006645,-27.46947]],[[-52.5096355,-27.145966],[-52.5056691,-27.1580244],[-52.5105225,-27.1603703],[-52.5165258,-27.1653983],[-52.5235164,-27.1652634]],[[-52.5193054,-27.1778334],[-52.5278816,-27.178889],[-52.5197354,-27.1905145],[-52.5134974,-27.1903857],[-52.5148636,-27.1928193],[-52.5208407,-27.1958994],[-52.5206069,-27.2033825],[-52.523912,-27.2079677],[-52.5293631,-27.2079646],[-52.5348694,-27.2109113],[-52.5346706,-27.2158939]],[[-52.544216,-27.2345827],[-52.5381079,-27.2571993],[-52.5291471,-27.2626863],[-52.4930183,-27.2671533],[-52.4763924,-27.2605782],[-52.4798149,-27.2355428],[-52.4462101,-27.217412],[-52.4301649,-27.223725],[-52.4415165,-27.248028],[-52.4381949,-27.2653758],[-52.4169337,-27.2843388],[-52.4016119,-27.2922335],[-52.3936592,-27.2851463],[-52.4000063,-27.2579633],[-52.3811387,-27.260818],[-52.3832268,-27.2829683],[-52.3775547,-27.3038556],[-52.3674804,-27.3045195],[-52.3502253,-27.2882432],[-52.3130843,-27.3092657],[-52.3048622,-27.3180534],[-52.2910463,-27.3068335],[-52.3047025,-27.2766923],[-52.3046707,-27.2626304],[-52.2939566,-27.2566509],[-52.2782545,-27.2611808],[-52.2545435,-27.256359],[-52.2369786,-27.2630675],[-52.2368566,-27.2737692],[-52.2597603,-27.2789379],[-52.2778953,-27.2949224],[-52.2729787,-27.304385],[-52.2505333,-27.3021431],[-52.2348009,-27.3106581],[-52.2271795,-27.3290007],[-52.2056261,-27.3273864],[-52.1910065,-27.2917198],[-52.1737838,-27.2720469],[-52.1593055,-27.2815636],[-52.1683643,-27.3055814],[-52.1612892,-27.3142878],[-52.1263285,-27.3025235],[-52.1056867,-27.3133503],[-52.1111215,-27.335403],[-52.103287,-27.3466956],[-52.0660571,-27.3395366],[-52.0383697,-27.3442034],[-52.0198518,-27.3319461],[-52.010832,-27.3466054],[-52.0228896,-27.3621543],[-52.0064474,-27.3746257],[-51.9904352,-27.3779244],[-51.9734125,-27.3723383],[-51.9520867,-27.3802471],[-51.952099,-27.3951736],[-51.9786975,-27.3889042],[-52.0065747,-27.3950301],[-51.9995823,-27.409739],[-51.971862,-27.4103676],[-51.9512992,-27.4173062],[-51.9357769,-27.4287491],[-51.9335484,-27.4381325],[-51.9637942,-27.463136],[-51.9582815,-27.4743629],[-51.9449946,-27.4730916],[-51.9183845,-27.4584344],[-51.9004867,-27.4640604],[-51.902342,-27.4955225],[-51.8947903,-27.5170212],[-51.8805896,-27.5209569],[-51.8739134,-27.5114993],[-51.8799856,-27.4956821],[-51.8682972,-27.476584],[-51.843627,-27.4831359],[-51.8553611,-27.5170963],[-51.848639,-27.5258691],[-51.8300223,-27.5142724],[-51.8182557,-27.5140232],[-51.7930329,-27.5312044],[-51.7870009,-27.5162058],[-51.8022669,-27.5017184],[-51.7969058,-27.4899677],[-51.75968,-27.4867563],[-51.7468246,-27.4919133],[-51.7303892,-27.511502],[-51.7166827,-27.5103401],[-51.7006645,-27.46947]],[[-51.823026,-26.9259849],[-51.8353335,-26.9304345]],[[-52.0383102,-26.9523659],[-52.0525744,-26.9583352],[-52.0553478,-26.9606695],[-52.0590961,-26.959064],[-52.0605088,-26.9603473],[-52.0625,-26.9589685],[-52.0670678,-26.959625],[-52.0726428,-26.9464872]],[[-52.4638648,-27.0037208],[-52.466623,-27.0141528],[-52.4637026,-27.0194852],[-52.4626521,-27.0261783],[-52.4500052,-27.0299085],[-52.4486307,-27.0293312],[-52.4486779,-27.0253457],[-52.4474565,-27.024323]],[[-52.4488633,-27.0457305],[-52.4449095,-27.0516104],[-52.4513355,-27.0575939],[-52.4604389,-27.0432618],[-52.4719979,-27.0408715],[-52.4792474,-27.0455065],[-52.4790665,-27.0471947],[-52.4731967,-27.0502086]],[[-52.5023097,-27.0915722],[-52.4808204,-27.1116815]],[[-52.4888357,-27.134451],[-52.4880488,-27.1397955],[-52.4894474,-27.1425259],[-52.5009241,-27.1440319],[-52.5088602,-27.1399345],[-52.5096355,-27.145966]],[[-49.6031221,-26.2267125],[-49.6059748,-26.2117569],[-49.6229226,-26.215574],[-49.6298044,-26.1975263],[-49.6509153,-26.208363],[-49.65369,-26.1869599],[-49.6807649,-26.1865019],[-49.6992924,-26.1613002],[-49.7114555,-26.1543236],[-49.727533,-26.171436],[-49.7372501,-26.1575348],[-49.7287546,-26.141796],[-49.7489641,-26.1401181],[-49.7487992,-26.1241737],[-49.7649976,-26.1140649],[-49.778346,-26.1198942],[-49.8045242,-26.1081627],[-49.808454,-26.095303],[-49.8249998,-26.0934253],[-49.8345321,-26.0692838],[-49.8635593,-26.0550485],[-49.8699694,-26.0332501],[-49.9147902,-26.0254229],[-49.9312753,-26.0303358],[-49.9339677,-26.0177041],[-49.9494797,-26.0126058],[-49.9479528,-26.0303198],[-49.9631377,-26.0275984],[-49.9774544,-26.0136823],[-50.01094,-26.0133282],[-50.0110633,-26.0267338],[-50.03618,-26.0270166],[-50.0556471,-26.0361935],[-50.063827,-26.0327058],[-50.1097613,-26.0519902],[-50.1315541,-26.0422733],[-50.1401632,-26.0265834],[-50.1702508,-26.0251885],[-50.1695731,-26.0411528],[-50.161577,-26.0576771],[-50.1732552,-26.0636225],[-50.1779718,-26.0785023],[-50.2087834,-26.0570194],[-50.2226853,-26.0604246],[-50.234583,-26.047546],[-50.2363389,-26.0354609],[-50.2512218,-26.0304735],[-50.255059,-26.0515892],[-50.2687647,-26.04292],[-50.2873903,-26.0558091],[-50.2980142,-26.0543171],[-50.3320127,-26.0853748],[-50.3251328,-26.0978722],[-50.3325115,-26.1078097],[-50.3209747,-26.1326633],[-50.3326555,-26.134937],[-50.3589874,-26.1177779],[-50.3618472,-26.0932212],[-50.3721225,-26.0787336],[-50.4001443,-26.0625911],[-50.4295381,-26.0629874],[-50.4492927,-26.0449269],[-50.443788,-26.0342981],[-50.4591296,-26.0272142],[-50.5023602,-26.0242432],[-50.5292805,-26.0352429],[-50.5508688,-26.0382627],[-50.5619125,-26.0064933],[-50.5702306,-26.0019528],[-50.5914895,-26.0225393],[-50.5862879,-26.0476008],[-50.5525092,-26.0426318],[-50.5519076,-26.0575582],[-50.5707447,-26.0668576],[-50.5948011,-26.0703959],[-50.6202633,-26.0627228],[-50.6309991,-26.0646211],[-50.6453051,-26.0910799],[-50.6565623,-26.1018131],[-50.6483104,-26.1303502],[-50.6775895,-26.1472181],[-50.6917766,-26.1742628],[-50.7056204,-26.1897056],[-50.7277985,-26.2014514],[-50.728554,-26.2148783],[-50.7154784,-26.2338548],[-50.7156177,-26.2445797],[-50.7308595,-26.249908],[-50.7459296,-26.2467729],[-50.750563,-26.2244501],[-50.7613726,-26.2218372],[-50.7976048,-26.2301802],[-50.8277425,-26.2481634],[-50.8311658,-26.2661363],[-50.846873,-26.2663831],[-50.8621338,-26.243376],[-50.8724416,-26.2445027],[-50.8819619,-26.2792658],[-50.8999147,-26.2892944],[-50.9091388,-26.2846351],[-50.908207,-26.2512143],[-50.9325129,-26.2344918],[-50.9440114,-26.2429562],[-50.9315532,-26.2684955],[-50.9473857,-26.281234],[-50.9644819,-26.2679161],[-50.9748918,-26.2441157],[-50.9989726,-26.2310534],[-51.0568457,-26.2439017],[-51.0811663,-26.2278906],[-51.0886514,-26.2478334],[-51.097858,-26.2556051],[-51.101911,-26.2728112],[-51.1203944,-26.2796727],[-51.148403,-26.2787746],[-51.1619388,-26.2910267],[-51.194074,-26.3014791],[-51.2071978,-26.2963012],[-51.2158204,-26.315948],[-51.2479512,-26.3298664],[-51.2565004,-26.3441089],[-51.2570124,-26.3723302],[-51.2669681,-26.3861058]],[[-50.5358628,-26.7768909],[-50.5204912,-26.7770951]],[[-50.5204912,-26.7770951],[-50.5143107,-26.7720347],[-50.5002215,-26.7710737],[-50.5001843,-26.7557547],[-50.5164454,-26.7154096],[-50.5054907,-26.6954966],[-50.5126776,-26.6815731],[-50.500026,-26.6579589],[-50.4793827,-26.6533159],[-50.4696483,-26.6609451],[-50.4729162,-26.6977208],[-50.4543379,-26.7109581],[-50.4437027,-26.7104203],[-50.4208379,-26.7253911],[-50.3858072,-26.7391439],[-50.3536471,-26.7367392],[-50.3548837,-26.7496979],[-50.3424616,-26.7636618],[-50.3256515,-26.7615656],[-50.3151187,-26.7732753],[-50.3366931,-26.7776623],[-50.3342353,-26.7956737],[-50.3415398,-26.8100683],[-50.3414495,-26.8273129],[-50.2999588,-26.8406198],[-50.2792252,-26.8380132],[-50.2769165,-26.8465028],[-50.2687201,-26.8513252],[-50.2654053,-26.8545281],[-50.2544808,-26.8630776]],[[-50.2544808,-26.8630776],[-50.2536504,-26.855108],[-50.2476206,-26.8511213],[-50.2290288,-26.8303959],[-50.22189,-26.814694],[-50.1994744,-26.8137132],[-50.1740638,-26.7922228],[-50.1621783,-26.7922679],[-50.1555579,-26.7963159],[-50.1439659,-26.7969005],[-50.1319945,-26.8040565],[-50.1237159,-26.8021451],[-50.1058064,-26.8135678],[-50.097411,-26.8172413],[-50.0717857,-26.8067081],[-50.072197,-26.8321028],[-50.0456278,-26.8134049],[-50.0149057,-26.810759],[-49.9798944,-26.7958697],[-49.9500765,-26.8076947],[-49.9459953,-26.8067584],[-49.9372724,-26.7965919],[-49.911321,-26.7858448],[-49.9061544,-26.7798613],[-49.8904111,-26.754723],[-49.8907766,-26.7427047],[-49.8849073,-26.7424343],[-49.8846967,-26.7403849],[-49.8835878,-26.7369676],[-49.8796905,-26.7359758],[-49.8742942,-26.730654],[-49.854653,-26.7143531],[-49.8420973,-26.7103974],[-49.819411,-26.708836],[-49.8103937,-26.7124141],[-49.7925225,-26.7492205],[-49.7822383,-26.7508678],[-49.7712773,-26.7669913],[-49.7503332,-26.7850787],[-49.7318787,-26.7724864],[-49.7283711,-26.7463246],[-49.7194267,-26.726322],[-49.7176761,-26.7225115],[-49.7072015,-26.716969],[-49.704247,-26.7081972],[-49.6889056,-26.7030674],[-49.6810661,-26.7028681]],[[-49.6810661,-26.7028681],[-49.674926,-26.6997698]],[[-49.674926,-26.6997698],[-49.6712054,-26.70045],[-49.6620631,-26.6941357],[-49.6538356,-26.6942623]],[[-49.6538356,-26.6942623],[-49.6520631,-26.6932378]],[[-49.6520631,-26.6932378],[-49.6749591,-26.6937512],[-49.6941655,-26.6871418],[-49.6944037,-26.6797469],[-49.6964461,-26.6775118],[-49.6995811,-26.6754758],[-49.7054182,-26.6624519],[-49.702454,-26.6455091],[-49.6998555,-26.63832],[-49.6957581,-26.6344675],[-49.687672,-26.6305834],[-49.6757378,-26.6236587],[-49.6863711,-26.6058488],[-49.6880113,-26.5874625],[-49.7005891,-26.568284],[-49.7248955,-26.5588676],[-49.7341752,-26.5430981],[-49.734511,-26.5228104],[-49.7576463,-26.4949366],[-49.7615367,-26.4620928],[-49.7504658,-26.4569936],[-49.7473764,-26.4340404],[-49.7296968,-26.4209114],[-49.7066031,-26.4109892],[-49.6980406,-26.396265],[-49.6763252,-26.3932877],[-49.6651487,-26.3840032],[-49.635123,-26.3764586],[-49.6515903,-26.3479907],[-49.6292674,-26.3413284],[-49.6189185,-26.3144611],[-49.6246678,-26.3049325],[-49.6301793,-26.2979678],[-49.6270991,-26.2956371],[-49.6222761,-26.2914967],[-49.6331292,-26.2880548],[-49.6168254,-26.2526306],[-49.6224695,-26.2429066],[-49.6122918,-26.2301347],[-49.6045961,-26.2270904],[-49.6031221,-26.2267125]],[[-48.954975,-25.9945669],[-48.974563,-25.9894636],[-48.9942518,-26.0093054],[-49.0201609,-26.0157474],[-49.028959,-26.0043496],[-49.0434601,-26.0053733],[-49.0543672,-26.0209526],[-49.0717076,-26.0003947],[-49.0981087,-26.0104567],[-49.1188991,-26.0024927],[-49.150377,-26.0096917],[-49.1744743,-26.004206],[-49.2085995,-26.0223179],[-49.239861,-26.0349863],[-49.2557627,-26.0679584],[-49.2769582,-26.0828956],[-49.2941314,-26.0855889],[-49.3000682,-26.1112838],[-49.31468,-26.108929],[-49.333957,-26.1245657],[-49.3608472,-26.1370906],[-49.3685702,-26.1528266],[-49.4033337,-26.1588252],[-49.4334457,-26.168591],[-49.4523629,-26.1619579],[-49.4793639,-26.1840571],[-49.4897493,-26.1991005],[-49.49081,-26.2140398],[-49.5023041,-26.2200626],[-49.5311753,-26.2191075],[-49.5551892,-26.2372883],[-49.5667961,-26.2336719],[-49.5784836,-26.213549],[-49.5874874,-26.2237811],[-49.6031221,-26.2267125]],[[-49.6520631,-26.6932378],[-49.6477806,-26.6925696]],[[-49.6477806,-26.6925696],[-49.6210053,-26.7048658],[-49.6141642,-26.6903618],[-49.6193449,-26.669998],[-49.6187339,-26.6427003],[-49.5857223,-26.6245872],[-49.5801841,-26.5797353],[-49.5645973,-26.566023],[-49.5620839,-26.5485468],[-49.5508937,-26.5317308],[-49.5469381,-26.5261892],[-49.5189121,-26.5250086],[-49.4918906,-26.5083561],[-49.4795991,-26.5107068],[-49.4483914,-26.4954706]],[[-49.4483914,-26.4954706],[-49.4440969,-26.4925495],[-49.44138,-26.4890145]],[[-49.44138,-26.4890145],[-49.4436438,-26.4889453]],[[-49.4436438,-26.4889453],[-49.4511112,-26.4830686],[-49.4663387,-26.47174],[-49.475289,-26.4545097],[-49.4846176,-26.4458059],[-49.4888991,-26.4396966],[-49.4929774,-26.4321914],[-49.4398884,-26.4181507],[-49.4435505,-26.3894295],[-49.4371688,-26.3727576],[-49.4187999,-26.357058],[-49.4049413,-26.3543203],[-49.3908073,-26.3541915],[-49.3744485,-26.3598147],[-49.3578568,-26.3664372],[-49.3567806,-26.3766612],[-49.3303684,-26.3840933],[-49.3236208,-26.3878199],[-49.3262985,-26.3752153],[-49.3015686,-26.367753],[-49.2803565,-26.3760962],[-49.2758812,-26.383602],[-49.2309597,-26.3971143],[-49.217697,-26.3852318],[-49.2016817,-26.3827688],[-49.186084,-26.3719072],[-49.1758066,-26.3651006],[-49.1852162,-26.3504163],[-49.1864811,-26.3311024],[-49.176572,-26.309826],[-49.1689464,-26.3079772],[-49.2525372,-26.2684697],[-49.2254153,-26.2639259],[-49.2252933,-26.2544034],[-49.2293389,-26.2399356],[-49.2199488,-26.2294921],[-49.2103973,-26.2323295],[-49.2047177,-26.2261789],[-49.1996569,-26.2229629],[-49.1983704,-26.2161864],[-49.1909915,-26.200222],[-49.1740055,-26.2068457],[-49.1682767,-26.1880928],[-49.1694415,-26.1762971],[-49.1828737,-26.1520618],[-49.1614235,-26.1289565],[-49.1588311,-26.1138939],[-49.1241319,-26.1030101],[-49.1000433,-26.0885464],[-49.0894613,-26.0892997],[-49.0733494,-26.0748667],[-49.0574922,-26.0765633],[-49.0520348,-26.0280014],[-49.030104,-26.01008],[-49.0035035,-26.0260046],[-48.9909564,-26.0242479],[-48.9715472,-26.0221322],[-48.9581003,-26.0205399],[-48.9567424,-26.0101802],[-48.954975,-25.9945669]],[[-49.4436438,-26.4889453],[-49.4400871,-26.489181],[-49.4344791,-26.4918086]],[[-49.4344791,-26.4918086],[-49.4172115,-26.5101262],[-49.4050239,-26.5013371],[-49.3780335,-26.4927888],[-49.360663,-26.4984106],[-49.3567853,-26.4977481],[-49.3564903,-26.5132888],[-49.3381545,-26.5264795],[-49.3319426,-26.5386908],[-49.2998355,-26.5393516],[-49.2894042,-26.5605248],[-49.298964,-26.5719774],[-49.2877865,-26.5892346],[-49.2873286,-26.6043017],[-49.2624238,-26.6168776],[-49.2366001,-26.6170416],[-49.2212924,-26.6116558],[-49.2003552,-26.6223338],[-49.1752984,-26.6137857],[-49.1654241,-26.6313339],[-49.1635289,-26.6486903],[-49.1300232,-26.6355217],[-49.1143043,-26.6409517],[-49.1067869,-26.6529035],[-49.1042943,-26.6584451],[-49.0592373,-26.6535948],[-49.0472592,-26.6521823],[-49.0319841,-26.6615685],[-49.0236466,-26.685128],[-49.0353782,-26.6994023],[-49.0465377,-26.7049157],[-49.0475962,-26.7121279],[-49.0402737,-26.7351887],[-49.0500672,-26.7426658],[-49.0422831,-26.7657364],[-49.0145843,-26.7634883],[-49.0129161,-26.7455977],[-48.9954101,-26.7473751],[-48.9800652,-26.7365475],[-48.9370151,-26.6936378],[-48.9377952,-26.6843566],[-48.9239048,-26.6677716],[-48.9222486,-26.6547221],[-48.9097251,-26.6519116],[-48.8924387,-26.6574087],[-48.8839412,-26.6513694],[-48.8711103,-26.6422337],[-48.8644939,-26.6375548],[-48.8618233,-26.6368869]],[[-48.8618233,-26.6368869],[-48.8554541,-26.6173485]],[[-48.8554541,-26.6173485],[-48.8553271,-26.5995592],[-48.8520487,-26.5951458],[-48.8585546,-26.5881063],[-48.8568603,-26.5773988],[-48.8564728,-26.5499003],[-48.8313903,-26.5418572],[-48.8290541,-26.52893],[-48.8261506,-26.5202806],[-48.8181008,-26.5167118],[-48.8140208,-26.5135277],[-48.7952335,-26.5177572],[-48.7664411,-26.5316523]],[[-48.7664411,-26.5316523],[-48.7521774,-26.5394126],[-48.7410594,-26.5601017]],[[-48.7410594,-26.5601017],[-48.7304525,-26.5715409],[-48.7265588,-26.5957995],[-48.7185946,-26.5989899],[-48.7067275,-26.5971607],[-48.6890106,-26.5717633],[-48.6648363,-26.5809303]],[[-48.6648363,-26.5809303],[-48.6555297,-26.5568037],[-48.6267938,-26.4987825],[-48.6099288,-26.4717093],[-48.5935453,-26.4530709],[-48.5994767,-26.4323846],[-48.5912343,-26.404831],[-48.5625464,-26.353824],[-48.555088,-26.3292206],[-48.5419417,-26.3017335],[-48.5041197,-26.2372922],[-48.5061098,-26.2264892],[-48.5247558,-26.2098685],[-48.5276456,-26.1638226],[-48.5497775,-26.1708504],[-48.5768579,-26.1658064],[-48.5885762,-26.1549941],[-48.5975559,-26.1304513],[-48.6029082,-26.0956505],[-48.6024955,-26.0719734],[-48.6106081,-26.0607574],[-48.6089153,-26.0364741],[-48.6012115,-25.9964467],[-48.6013834,-25.980806],[-48.6215282,-25.9819868],[-48.6495503,-25.9578473],[-48.6689389,-25.9792397],[-48.6820323,-25.9836713],[-48.9604784,-25.9807998],[-48.954975,-25.9945669]],[[-51.0257295,-27.2207379],[-51.0378481,-27.2366266],[-51.0514279,-27.2407841]],[[-51.6297756,-27.4795542],[-51.6325786,-27.488608],[-51.6194935,-27.5002824],[-51.6306739,-27.5274638],[-51.6311317,-27.5414631],[-51.6083281,-27.5413715],[-51.5866097,-27.5221982],[-51.5783165,-27.5261035],[-51.5856355,-27.5696056],[-51.5717093,-27.5826241],[-51.5598995,-27.5822521],[-51.554876,-27.5639917],[-51.5130743,-27.5565923],[-51.4852323,-27.5618523],[-51.4784181,-27.569726],[-51.4752826,-27.6007409],[-51.4572935,-27.6074675]],[[-51.4572935,-27.6074675],[-51.4456393,-27.5904246],[-51.4160566,-27.57126],[-51.4078439,-27.5942098],[-51.3799247,-27.5966842],[-51.3751946,-27.6113213],[-51.3648814,-27.6147427],[-51.353641,-27.5997677],[-51.3150202,-27.6015599],[-51.3098266,-27.6161363],[-51.2748985,-27.6329918],[-51.2525128,-27.630711],[-51.2481285,-27.611481],[-51.2278919,-27.5997311],[-51.2163175,-27.6175479],[-51.203876,-27.6165992],[-51.1926554,-27.5930999],[-51.178828,-27.5948417],[-51.1829706,-27.619481],[-51.1555402,-27.6247401],[-51.1464641,-27.6150987],[-51.1314219,-27.6233318],[-51.1154765,-27.6219723],[-51.1026011,-27.6337761],[-51.0841139,-27.6296633],[-51.0877565,-27.6481111],[-51.0811519,-27.6552092],[-51.050243,-27.6401589],[-51.0278811,-27.6430626],[-51,-27.6389823],[-50.991675,-27.6587261]],[[-50.991675,-27.6587261],[-50.9762019,-27.6605974],[-50.9633677,-27.6534142]],[[-50.9633677,-27.6534142],[-50.969276,-27.6336077],[-50.9907749,-27.6202963],[-50.9864576,-27.6049896],[-50.9639607,-27.5982318],[-50.9568397,-27.588144],[-50.9707862,-27.5776083],[-50.9512909,-27.5507902],[-50.9290453,-27.5587906],[-50.8607501,-27.5439707],[-50.8664735,-27.5318815],[-50.8468354,-27.5086133],[-50.8351011,-27.5158541],[-50.8253594,-27.5033507],[-50.8010199,-27.4933101],[-50.8058448,-27.4830015],[-50.8336529,-27.4761541],[-50.8256339,-27.4536357],[-50.8147789,-27.4648237],[-50.8011495,-27.4554469],[-50.7864271,-27.459661],[-50.7810926,-27.4483488],[-50.7953209,-27.4345773],[-50.7847039,-27.4289582],[-50.7661369,-27.4399516],[-50.7537103,-27.4220081],[-50.7445316,-27.4224555],[-50.7530038,-27.4308587],[-50.7502885,-27.4480489],[-50.6899326,-27.4262982],[-50.6795095,-27.4367127],[-50.6648,-27.4644511],[-50.6341073,-27.4541547],[-50.6149198,-27.4613743],[-50.5979137,-27.461315],[-50.5833326,-27.4692986],[-50.5637338,-27.4698101],[-50.5759316,-27.4851737],[-50.5778283,-27.5027507],[-50.5622609,-27.5007194],[-50.5422863,-27.4847784],[-50.5221285,-27.4871118],[-50.5331373,-27.4682114],[-50.5140041,-27.4569558],[-50.5079102,-27.465238],[-50.471824,-27.4688019],[-50.4689581,-27.4862911],[-50.458616,-27.494166],[-50.4484129,-27.4780519],[-50.4026227,-27.474966],[-50.3763441,-27.501668],[-50.3790005,-27.5142855],[-50.3931979,-27.5297222],[-50.3878994,-27.5534116],[-50.3756917,-27.5624451],[-50.3682241,-27.5503181]],[[-50.3682241,-27.5503181],[-50.3737559,-27.5458396],[-50.3715402,-27.540951],[-50.3665288,-27.5363478],[-50.3646948,-27.5361277],[-50.3608594,-27.5398498],[-50.3581412,-27.5402128],[-50.3509812,-27.5374518]],[[-50.3509812,-27.5374518],[-50.3397405,-27.5318988],[-50.3169918,-27.529192],[-50.3125,-27.5290908],[-50.2864428,-27.5255491],[-50.2818139,-27.5191061]],[[-50.2818139,-27.5191061],[-50.2911311,-27.5163817],[-50.3005897,-27.5032257],[-50.2997068,-27.4970725]],[[-50.2997068,-27.4970725],[-50.2728871,-27.4902492],[-50.2819216,-27.4805777],[-50.2680486,-27.4612461],[-50.2633285,-27.4455163],[-50.247124,-27.4653053],[-50.2383453,-27.477871],[-50.2257138,-27.47137],[-50.213344,-27.4583367]],[[-50.213344,-27.4583367],[-50.2001246,-27.4590286],[-50.1937922,-27.4596531],[-50.1903888,-27.4581829],[-50.1891375,-27.4561908],[-50.1731664,-27.4491343]],[[-50.1731664,-27.4491343],[-50.1650542,-27.4324118],[-50.1658291,-27.4308271],[-50.1616307,-27.4316183],[-50.1564783,-27.4257874],[-50.1541131,-27.4185929],[-50.1569596,-27.4152553],[-50.1567524,-27.4116368],[-50.1562352,-27.4085882],[-50.1448971,-27.4024129],[-50.1456006,-27.3782438],[-50.1270108,-27.350891],[-50.1104677,-27.3453092],[-50.1134505,-27.3411379],[-50.0903732,-27.3299698],[-50.0902607,-27.3177743]],[[-50.0902607,-27.3177743],[-50.0879499,-27.3137121],[-50.0888733,-27.3090666],[-50.0878239,-27.3078531],[-50.0757938,-27.304837],[-50.0785427,-27.305348]],[[-50.0785427,-27.305348],[-50.08057,-27.3038637],[-50.080396,-27.3007312]],[[-50.080396,-27.3007312],[-50.106507,-27.2926028],[-50.1095466,-27.2923527],[-50.1085011,-27.2904855],[-50.1094469,-27.2887391],[-50.1254216,-27.2768864],[-50.1405916,-27.2720368],[-50.1535802,-27.2749454],[-50.1571789,-27.2725072],[-50.1702973,-27.2729631],[-50.1829763,-27.2545705],[-50.2039073,-27.243497],[-50.2163394,-27.247574],[-50.2360639,-27.242785],[-50.2464684,-27.2327186],[-50.264955,-27.2269493],[-50.2621476,-27.2005677],[-50.2646628,-27.2045705],[-50.2898327,-27.2146954],[-50.2914455,-27.2002931],[-50.2866235,-27.1693381],[-50.3067594,-27.1643505],[-50.3176156,-27.1336322],[-50.3149976,-27.1229942],[-50.3315944,-27.1017818],[-50.336306,-27.1029162],[-50.3409879,-27.1014982],[-50.3493488,-27.0983851],[-50.3466437,-27.0945516],[-50.3433023,-27.0904621],[-50.3260265,-27.0724729],[-50.3167343,-27.0730935],[-50.3158506,-27.0657937],[-50.3225968,-27.0655684],[-50.3316377,-27.0585957],[-50.3278032,-27.057768],[-50.3259117,-27.0582914],[-50.3205798,-27.0541556],[-50.317271,-27.0291312],[-50.3174332,-27.0185093],[-50.3153553,-27.0118774],[-50.3129111,-27.0076146],[-50.3088957,-27.004843],[-50.3021157,-26.9905929],[-50.2915874,-26.9886598],[-50.293763,-26.9762461],[-50.2862435,-26.9591881],[-50.2883357,-26.9557216],[-50.2815467,-26.9456848],[-50.2714843,-26.9303975],[-50.2768774,-26.9188686],[-50.264824,-26.8942757],[-50.2625408,-26.8887899],[-50.276421,-26.8821227],[-50.2744749,-26.8684101],[-50.2544808,-26.8630776]],[[-50.5204912,-26.7770951],[-50.5251833,-26.7831611]],[[-50.7097196,-27.1359149],[-50.6983883,-27.1315591],[-50.6966947,-27.1324986],[-50.6973469,-27.1351727],[-50.6991629,-27.1368161]],[[-50.700604,-27.1356872],[-50.7113275,-27.1386915],[-50.7207389,-27.1377669],[-50.7290148,-27.1315509]],[[-50.3509812,-27.5374518],[-50.3582458,-27.5402359],[-50.3606644,-27.5399618],[-50.3660421,-27.5361006],[-50.371497,-27.5408959],[-50.3737511,-27.5457969],[-50.3682241,-27.5503181]],[[-50.9633677,-27.6534142],[-50.9754604,-27.6604368],[-50.991675,-27.6587261]],[[-51.4572935,-27.6074675],[-51.4366062,-27.6298497],[-51.4378687,-27.6488195],[-51.4238932,-27.6559268],[-51.4126477,-27.6489618],[-51.4052908,-27.631861],[-51.3812886,-27.6254965],[-51.3701089,-27.6366712],[-51.3779345,-27.6600239],[-51.3601128,-27.6787943],[-51.3308702,-27.6709395],[-51.3133938,-27.678758],[-51.3126454,-27.6932697],[-51.3020007,-27.7025595],[-51.3100359,-27.7180894],[-51.2936935,-27.7254877],[-51.276128,-27.7240242],[-51.2704828,-27.7523073],[-51.2455474,-27.7614485],[-51.240126,-27.7790226],[-51.2262537,-27.7711841],[-51.2093766,-27.77747],[-51.1912823,-27.7761507],[-51.1577918,-27.8028892],[-51.1346065,-27.8036571],[-51.1289232,-27.8320476],[-51.0982717,-27.8274176],[-51.0765643,-27.8418454],[-51.079514,-27.8558497],[-51.0721612,-27.8645116],[-51.0529908,-27.869788],[-51.0582788,-27.8968387],[-51.0509794,-27.9076595],[-51.0199084,-27.9224875],[-51.0189557,-27.957048],[-51.002258,-27.964213],[-50.9936288,-27.9460069],[-50.9470437,-27.9672425],[-50.9239682,-27.9716546],[-50.9278712,-27.9905825],[-50.9232384,-28.0119878],[-50.8923361,-28.021156],[-50.8753996,-28.0401999],[-50.8813874,-28.0672564],[-50.8984814,-28.075516],[-50.8993599,-28.0896556],[-50.8759188,-28.0950754],[-50.8691838,-28.1164215],[-50.8719685,-28.13742],[-50.858991,-28.1397055],[-50.8367577,-28.1194],[-50.8259371,-28.1217127],[-50.8137868,-28.1415602],[-50.7940761,-28.1386404],[-50.7846589,-28.1465275],[-50.7927077,-28.1578468],[-50.782816,-28.175983],[-50.7888221,-28.198335],[-50.7614854,-28.193141],[-50.7529758,-28.2320835],[-50.7533452,-28.2456844],[-50.7107406,-28.2665167],[-50.6965973,-28.2678412],[-50.695224,-28.2885195],[-50.6649077,-28.3127962],[-50.6585771,-28.3257798],[-50.6652306,-28.3379246],[-50.6516748,-28.3434574],[-50.6284503,-28.3645961],[-50.6332902,-28.378916],[-50.6249515,-28.3925883],[-50.6115593,-28.3932666],[-50.5922669,-28.3819459],[-50.5765408,-28.3942598],[-50.5592689,-28.4173972],[-50.5370015,-28.4297226],[-50.5285936,-28.4262148],[-50.531594,-28.4078106],[-50.5127266,-28.4049245],[-50.5010841,-28.4125375],[-50.4704404,-28.4149022],[-50.4568573,-28.4106514],[-50.4481437,-28.4228711],[-50.4287806,-28.433541],[-50.395171,-28.4331574],[-50.3768372,-28.4436738],[-50.3703461,-28.4227593],[-50.3599941,-28.4198395],[-50.3476044,-28.4318355],[-50.3521458,-28.456391],[-50.3369451,-28.4574211],[-50.3404469,-28.4409658],[-50.3296183,-28.4342305],[-50.3038899,-28.437901],[-50.2928469,-28.4510336],[-50.2729133,-28.4570719],[-50.2468002,-28.4282705],[-50.2357086,-28.4570291],[-50.2226487,-28.4632721],[-50.1990863,-28.4448338],[-50.1780074,-28.4522534],[-50.1620146,-28.4813851],[-50.162623,-28.4953209],[-50.1392568,-28.4939534],[-50.1455725,-28.4775672],[-50.1472781,-28.4495265],[-50.1269337,-28.4397298],[-50.1113576,-28.4444705],[-50.1268385,-28.4633719],[-50.1261868,-28.4745281],[-50.0909418,-28.4756107],[-50.0728184,-28.4808072],[-50.05138,-28.4760897],[-50.0385967,-28.479713],[-50.0258232,-28.4730834],[-50.0138764,-28.4507755],[-50.0024522,-28.458033],[-49.9886396,-28.4452528],[-49.9707729,-28.4402107],[-49.9693758,-28.4525176],[-49.9525054,-28.4503368],[-49.9513514,-28.4669306],[-49.9423245,-28.4824344],[-49.9284437,-28.4714096],[-49.9385467,-28.4586242],[-49.9285138,-28.4512235],[-49.9016491,-28.4648422],[-49.8888457,-28.4594203],[-49.8635729,-28.462846],[-49.8666498,-28.4886323],[-49.8439264,-28.4851968],[-49.8361531,-28.4942901],[-49.8172655,-28.4698688],[-49.7909263,-28.4964202],[-49.7642734,-28.4621023],[-49.7639017,-28.5013738],[-49.7482615,-28.4939725],[-49.7392665,-28.5003347],[-49.7354803,-28.5236153],[-49.7467201,-28.5353911],[-49.7460562,-28.5497758],[-49.7309012,-28.551183],[-49.7259776,-28.5695039],[-49.7079683,-28.5822272],[-49.7101947,-28.6043446],[-49.6984968,-28.6066676],[-49.6913518,-28.6208914],[-49.704704,-28.63163]],[[-49.704704,-28.63163],[-49.6837786,-28.6193008],[-49.6666634,-28.610971],[-49.6670182,-28.6053522],[-49.6537019,-28.6030824],[-49.6462367,-28.5786985],[-49.6560723,-28.5654756],[-49.6494718,-28.5468966],[-49.610038,-28.5252596],[-49.5903392,-28.5003135],[-49.5724683,-28.5011199],[-49.5627346,-28.49517],[-49.5554262,-28.4905998],[-49.5481289,-28.4838663],[-49.5573796,-28.4757551],[-49.5582508,-28.4664714],[-49.5433346,-28.4427917],[-49.533752,-28.4347182],[-49.5357573,-28.4294462],[-49.5467525,-28.4372639],[-49.550172,-28.4372749],[-49.5637072,-28.4139869],[-49.5434979,-28.3884779],[-49.5588329,-28.3726377],[-49.5512276,-28.3529577],[-49.5387985,-28.3387656],[-49.5339078,-28.3082761]],[[-49.5339078,-28.3082761],[-49.5263768,-28.2922337]],[[-49.5263768,-28.2922337],[-49.5237243,-28.2758795],[-49.5200119,-28.2723845],[-49.5152198,-28.2650761],[-49.5191498,-28.2630179],[-49.537386,-28.2570997],[-49.53625,-28.2504679],[-49.5428925,-28.2415197],[-49.5324774,-28.2255047],[-49.5289772,-28.1886895],[-49.521357,-28.1797868],[-49.5098288,-28.1678512],[-49.5105541,-28.1550572],[-49.4905898,-28.1458995],[-49.4870267,-28.1311511],[-49.481673,-28.1284173],[-49.4536802,-28.1393527],[-49.4323044,-28.1138534],[-49.4120922,-28.1161761],[-49.3969675,-28.1110061],[-49.395088,-28.1069785],[-49.4010842,-28.0983445],[-49.3971774,-28.0742478],[-49.3675895,-28.0621994],[-49.3711034,-28.045663],[-49.3536717,-28.0265866],[-49.3488163,-27.9957589],[-49.3293826,-27.9837953],[-49.3114468,-27.974413],[-49.3092084,-27.966417],[-49.310702,-27.9628099],[-49.3108682,-27.9597275],[-49.3110036,-27.9519831]],[[-49.3110036,-27.9519831],[-49.3073216,-27.9300621]],[[-49.3073216,-27.9300621],[-49.3002768,-27.9027238],[-49.283442,-27.8805616],[-49.3058289,-27.855649],[-49.3078057,-27.8401235],[-49.3222342,-27.8285328],[-49.3339226,-27.8364337],[-49.3475086,-27.8231216],[-49.3746892,-27.8160361],[-49.3990807,-27.7960481],[-49.4204272,-27.7871821],[-49.4356796,-27.7580884],[-49.4601004,-27.7519051],[-49.4670635,-27.7468608],[-49.4729923,-27.729433],[-49.4642644,-27.7199122],[-49.4656626,-27.7010374],[-49.4689311,-27.6865302],[-49.503495,-27.6516984],[-49.5063081,-27.6382068],[-49.5082393,-27.6319249],[-49.5087732,-27.6240268],[-49.5060753,-27.6224151],[-49.5048823,-27.6126983],[-49.5059719,-27.6046923]],[[-49.5059719,-27.6046923],[-49.5066183,-27.6007243]],[[-49.5066183,-27.6007243],[-49.5268732,-27.6048515],[-49.5570953,-27.6179782],[-49.5822252,-27.6393664],[-49.6093618,-27.6509852],[-49.6244515,-27.6607471]],[[-49.6244515,-27.6607471],[-49.6276659,-27.66313],[-49.6365977,-27.6610849],[-49.6374766,-27.6523108],[-49.6400629,-27.6481032],[-49.6376938,-27.6414436]],[[-49.6376938,-27.6414436],[-49.620277,-27.6188617],[-49.6293973,-27.6189516],[-49.6504639,-27.6424336],[-49.6852159,-27.6532047],[-49.7115009,-27.6435578],[-49.7268145,-27.6546162],[-49.7306386,-27.651164],[-49.7421363,-27.6312386],[-49.7321324,-27.6192612],[-49.7465393,-27.6036558],[-49.7545972,-27.598607],[-49.7651657,-27.5835291],[-49.7718241,-27.5836297],[-49.8149433,-27.5579823],[-49.8347088,-27.5391073],[-49.8510502,-27.5052174],[-49.8502488,-27.496526],[-49.8557144,-27.4955373],[-49.8652608,-27.4986438],[-49.8935368,-27.4954449],[-49.8926785,-27.4580486],[-49.9050461,-27.4463721],[-49.9060258,-27.4435661],[-49.9069577,-27.4413508],[-49.9067615,-27.4344093]],[[-49.9067615,-27.4344093],[-49.9151785,-27.4326459]],[[-49.9151785,-27.4326459],[-49.9170732,-27.426644],[-49.9256415,-27.4238264],[-49.9253469,-27.4188539],[-49.9271226,-27.4193082],[-49.9291437,-27.4204122],[-49.9452178,-27.4245365],[-49.9478152,-27.4117655],[-49.9616681,-27.4054043],[-49.9708055,-27.4123885],[-49.9961217,-27.4134734],[-50.0165325,-27.3947548],[-50.0141243,-27.37939],[-50.0326562,-27.3719892],[-50.0266826,-27.3434485],[-50.017127,-27.3265934],[-50.0182109,-27.3218599],[-50.0608312,-27.3223516],[-50.0714775,-27.3036168]],[[-50.0714775,-27.3036168],[-50.0734074,-27.3032739],[-50.0879034,-27.3078873],[-50.088993,-27.3096759],[-50.0882985,-27.3154457],[-50.0902607,-27.3177743]],[[-50.1731664,-27.4491343],[-50.1855191,-27.441297],[-50.1905177,-27.4500104],[-50.189178,-27.4564087],[-50.1932187,-27.4595191],[-50.2014063,-27.4587789],[-50.2076065,-27.4543887],[-50.213344,-27.4583367]],[[-50.2997068,-27.4970725],[-50.3006021,-27.5025291],[-50.2976083,-27.5087455],[-50.2913639,-27.5162155],[-50.2818139,-27.5191061]],[[-50.080396,-27.3007312],[-50.0807658,-27.3034286],[-50.0785427,-27.305348]],[[-50.0785427,-27.305348],[-50.0714775,-27.3036168]],[[-49.9151785,-27.4326459],[-49.8924693,-27.4237122]],[[-49.8924693,-27.4237122],[-49.8885199,-27.419975],[-49.8811275,-27.4098507],[-49.8660856,-27.3840306]],[[-49.8660856,-27.3840306],[-49.8646353,-27.3826444],[-49.8645936,-27.3782849],[-49.8562822,-27.3680042],[-49.8562375,-27.3639481],[-49.8517128,-27.3609226],[-49.8508009,-27.3564427],[-49.8480522,-27.3567001],[-49.8461846,-27.3552414],[-49.8430019,-27.3496274],[-49.8377968,-27.3494064],[-49.8353404,-27.3476277],[-49.8331774,-27.348402],[-49.8313761,-27.3523018]],[[-49.8313761,-27.3523018],[-49.8249178,-27.3576115],[-49.8077905,-27.3548245],[-49.7785699,-27.3712781],[-49.7587326,-27.3817251],[-49.7507447,-27.39575],[-49.7374838,-27.3939995],[-49.7316039,-27.3917576],[-49.7199597,-27.3895106],[-49.7132891,-27.3938576],[-49.7037813,-27.3893096],[-49.6843446,-27.393972],[-49.6490872,-27.3894857],[-49.645552,-27.3964495],[-49.6133509,-27.392366],[-49.582804,-27.3931496],[-49.5651908,-27.3987105],[-49.5457707,-27.3841294],[-49.5284849,-27.362729],[-49.5021944,-27.3408997],[-49.4935872,-27.3152541],[-49.4748858,-27.3253641],[-49.4741206,-27.3354835],[-49.4533595,-27.3502935],[-49.4226893,-27.3498684],[-49.4006924,-27.3430026],[-49.3909151,-27.3254593],[-49.3628446,-27.3232057],[-49.3478288,-27.3137691],[-49.317806,-27.3165011],[-49.3193018,-27.304304],[-49.2996454,-27.2686191],[-49.2729498,-27.2461634],[-49.2571771,-27.2480803],[-49.2527813,-27.2376164],[-49.2309566,-27.2305054]],[[-49.2309566,-27.2305054],[-49.2181271,-27.2301004]],[[-49.2181271,-27.2301004],[-49.2165466,-27.2271264],[-49.1990853,-27.2074603],[-49.196369,-27.182525],[-49.2032156,-27.1630239],[-49.225299,-27.165913],[-49.2428689,-27.1805977],[-49.2466287,-27.1973629],[-49.2631326,-27.2109933],[-49.3090644,-27.2134576],[-49.3223495,-27.2316435],[-49.3428017,-27.2386989],[-49.3749027,-27.2285704],[-49.3905115,-27.2354978],[-49.4030932,-27.2317893],[-49.4214436,-27.2505789],[-49.4396707,-27.256753],[-49.4617214,-27.2310176],[-49.4567057,-27.1992809],[-49.4403007,-27.1869222],[-49.4634305,-27.1710519],[-49.4561399,-27.1531905],[-49.4680174,-27.1226943],[-49.4694068,-27.1013142],[-49.4596861,-27.0888437],[-49.4716215,-27.0636137],[-49.4661781,-27.0580498],[-49.4692009,-27.0033447],[-49.4608575,-26.9834954],[-49.4597135,-26.9645559],[-49.4655319,-26.942791],[-49.4750277,-26.9370931],[-49.486374,-26.937451],[-49.5074766,-26.9207658],[-49.5098653,-26.9098441],[-49.5475198,-26.8912337],[-49.5527466,-26.8682655],[-49.5537228,-26.8422627],[-49.5632278,-26.8247557],[-49.5654327,-26.7858281],[-49.5806906,-26.7764682],[-49.6151515,-26.7833329],[-49.6442839,-26.7797738],[-49.6470584,-26.7640858],[-49.6683762,-26.7393063],[-49.674402,-26.7246704],[-49.6768118,-26.7180055],[-49.6815093,-26.7070354]],[[-49.6815093,-26.7070354],[-49.6810661,-26.7028681]],[[-49.2181271,-27.2301004],[-49.221881,-27.2313797]],[[-49.221881,-27.2313797],[-49.2209221,-27.2355426],[-49.2265265,-27.2410899],[-49.2330246,-27.2593872],[-49.23443,-27.2655906],[-49.2477965,-27.2811212],[-49.2422543,-27.2928935]],[[-49.2422543,-27.2928935],[-49.2361799,-27.2944061],[-49.2278167,-27.3004954],[-49.2216169,-27.3087774]],[[-49.2216169,-27.3087774],[-49.2090035,-27.301111]],[[-49.2090035,-27.301111],[-49.2006615,-27.2932009],[-49.1732171,-27.295307],[-49.1221815,-27.2755999],[-49.1102276,-27.2804641],[-49.0738566,-27.2780497],[-49.0375686,-27.271872],[-49.009351,-27.2489427],[-48.989687,-27.2485405],[-48.9690281,-27.2373992],[-48.9606438,-27.2255673],[-48.9333279,-27.2120146],[-48.9266247,-27.2022296],[-48.8943222,-27.1839734],[-48.8819121,-27.1844916],[-48.8582369,-27.1634855],[-48.8428883,-27.1575241],[-48.8183002,-27.1379823]],[[-48.8183002,-27.1379823],[-48.8066065,-27.1320578]],[[-48.8066065,-27.1320578],[-48.7909541,-27.0972143],[-48.8065958,-27.0899827],[-48.8216252,-27.0744696],[-48.8438878,-27.0677038],[-48.8554906,-27.046176],[-48.8625387,-27.0402154],[-48.8627418,-27.035065],[-48.8530963,-27.0262403],[-48.8646788,-27.0153265],[-48.8638436,-26.9989992],[-48.8558762,-26.9915823],[-48.8431939,-26.9636242],[-48.8539587,-26.9207344],[-48.8745495,-26.8962424],[-48.8952854,-26.8898272],[-48.9044719,-26.8744309],[-48.9249578,-26.859092],[-48.9335258,-26.8445103],[-48.9607719,-26.8398103],[-48.9824326,-26.8290796],[-48.9872235,-26.8087879],[-48.9706141,-26.7898309],[-48.953577,-26.7882664],[-48.8984494,-26.7627094],[-48.8445268,-26.802747],[-48.8251285,-26.8196659],[-48.8161929,-26.8201898],[-48.8092056,-26.8142053],[-48.8063517,-26.8115146],[-48.7969184,-26.8019842],[-48.8028534,-26.7950803],[-48.8045007,-26.7935992],[-48.8065954,-26.7933566],[-48.8114696,-26.7844501],[-48.8096703,-26.7747411],[-48.8195553,-26.7622657],[-48.8227487,-26.7534199],[-48.8242676,-26.7525535],[-48.8150573,-26.7386297],[-48.8007069,-26.7132052],[-48.8067642,-26.6977671],[-48.8044178,-26.6829681],[-48.8149457,-26.6515317],[-48.8187563,-26.6378633],[-48.8314472,-26.639935],[-48.8413435,-26.6284534],[-48.8438607,-26.6277959],[-48.8513016,-26.6319865]],[[-48.8513016,-26.6319865],[-48.8618233,-26.6368869]],[[-49.4344791,-26.4918086],[-49.44138,-26.4890145]],[[-49.44138,-26.4890145],[-49.4483914,-26.4954706]],[[-49.6477806,-26.6925696],[-49.6538356,-26.6942623]],[[-49.674926,-26.6997698],[-49.6815093,-26.7070354]],[[-48.8066065,-27.1320578],[-48.812379,-27.1346497]],[[-48.812379,-27.1346497],[-48.8067464,-27.1413569],[-48.8001695,-27.1461702],[-48.7880595,-27.1509623],[-48.7731901,-27.1462466],[-48.774841,-27.1358297],[-48.756273,-27.1344506],[-48.7494916,-27.1482765],[-48.698745,-27.1375707],[-48.6895197,-27.1424384],[-48.6802719,-27.1656502],[-48.6881078,-27.16802],[-48.6893417,-27.1764643],[-48.6881933,-27.1812592],[-48.6835482,-27.1958463],[-48.6737321,-27.1997665]],[[-48.6737321,-27.1997665],[-48.6701402,-27.2080334],[-48.6672591,-27.2126839],[-48.6616408,-27.2162358],[-48.6234822,-27.2109581]],[[-48.6234822,-27.2109581],[-48.6043824,-27.212292],[-48.6038761,-27.2141702],[-48.6039019,-27.2156229]],[[-48.6039019,-27.2156229],[-48.5544793,-27.1961616],[-48.5422741,-27.1826259],[-48.499332,-27.18757],[-48.4964612,-27.1656685],[-48.4836357,-27.1481177],[-48.4998784,-27.1461376],[-48.5139612,-27.1315168],[-48.5254935,-27.1289876],[-48.5474637,-27.1561695],[-48.5647744,-27.1555297],[-48.585558,-27.1449171],[-48.603446,-27.1243844],[-48.6131744,-27.103876],[-48.591817,-27.0803429],[-48.5940877,-27.0627959],[-48.5810635,-27.0274636],[-48.5828168,-27.0000756],[-48.6160277,-27.0040872],[-48.6283221,-26.9931647],[-48.6350704,-26.9757926],[-48.6270824,-26.9714893],[-48.6265385,-26.9332671],[-48.6417182,-26.9187798],[-48.6435342,-26.9034366],[-48.635995,-26.8604864],[-48.6275153,-26.833296],[-48.6046484,-26.8256706],[-48.5967051,-26.803554],[-48.5841362,-26.7955474],[-48.5987243,-26.7766509],[-48.6053124,-26.7890655],[-48.6178455,-26.7901266],[-48.6733202,-26.7599593],[-48.681839,-26.7231684],[-48.6812077,-26.7022525],[-48.6885469,-26.6768401],[-48.6794808,-26.6229647],[-48.6648363,-26.5809303]],[[-48.7410594,-26.5601017],[-48.751546,-26.5399772],[-48.7664411,-26.5316523]],[[-48.8554541,-26.6173485],[-48.8513016,-26.6319865]],[[-49.8313761,-27.3523018],[-49.8334913,-27.3481642],[-49.8419741,-27.3491412],[-49.8477649,-27.3566007],[-49.8510803,-27.3567222],[-49.8513745,-27.3604132],[-49.8561092,-27.3637576],[-49.8563911,-27.3682258],[-49.8648803,-27.3787998],[-49.8660856,-27.3840306]],[[-49.8924693,-27.4237122],[-49.9067615,-27.4344093]],[[-49.6376938,-27.6414436],[-49.640066,-27.6485061],[-49.6368508,-27.654814],[-49.6374953,-27.6599674],[-49.6352359,-27.6620952],[-49.6281753,-27.6632549],[-49.6244515,-27.6607471]],[[-49.5066183,-27.6007243],[-49.5017678,-27.5972322]],[[-49.5017678,-27.5972322],[-49.4973496,-27.5849602],[-49.4877167,-27.5834013],[-49.4803042,-27.573583],[-49.4754724,-27.5697365],[-49.4640332,-27.5708408],[-49.4526546,-27.5741688],[-49.4363205,-27.5845227],[-49.4218392,-27.5777945],[-49.4132626,-27.5623522],[-49.3881916,-27.5601453],[-49.3729303,-27.5640613],[-49.3544956,-27.562657],[-49.322722,-27.5888456]],[[-49.322722,-27.5888456],[-49.3139475,-27.5888737],[-49.3050311,-27.583171]],[[-49.3050311,-27.583171],[-49.3007149,-27.5837193]],[[-49.3007149,-27.5837193],[-49.3045372,-27.5804153],[-49.3076795,-27.5832766],[-49.3130892,-27.5836662],[-49.325175,-27.5618547],[-49.32209,-27.5527662],[-49.3247355,-27.5294441],[-49.3220832,-27.5180453],[-49.3026918,-27.4943028],[-49.2940814,-27.4751986],[-49.2930512,-27.4683336],[-49.3017866,-27.4514843],[-49.2959231,-27.4292957],[-49.3080709,-27.4105174],[-49.30882,-27.4062932],[-49.3095336,-27.3986001],[-49.3054275,-27.3867966],[-49.293446,-27.3701135],[-49.2970522,-27.3591609],[-49.2805601,-27.3478269],[-49.2787094,-27.3340461],[-49.2455583,-27.3258109],[-49.233948,-27.3278473]],[[-49.233948,-27.3278473],[-49.2240821,-27.3212306],[-49.2216169,-27.3087774]],[[-49.2216169,-27.3087774],[-49.2230678,-27.305616],[-49.2361011,-27.2944508],[-49.2422543,-27.2928935]],[[-49.221881,-27.2313797],[-49.2309566,-27.2305054]],[[-49.2090035,-27.301111],[-49.2192384,-27.3046839],[-49.2261881,-27.3151293],[-49.224056,-27.3210924],[-49.233948,-27.3278473]],[[-49.3007149,-27.5837193],[-49.3011777,-27.5940743]],[[-49.3011777,-27.5940743],[-49.3029294,-27.6040187]],[[-49.3029294,-27.6040187],[-49.3019354,-27.6144403],[-49.2902448,-27.6218509],[-49.2866978,-27.6261273],[-49.2835049,-27.6430544]],[[-49.2835049,-27.6430544],[-49.2552111,-27.6548267],[-49.2287255,-27.6542039],[-49.2243387,-27.6537113]],[[-49.2243387,-27.6537113],[-49.210343,-27.6542926],[-49.2062672,-27.6417008]],[[-49.2062672,-27.6417008],[-49.2100187,-27.631296],[-49.2057536,-27.6041872],[-49.1829898,-27.5908625],[-49.1622627,-27.5898634],[-49.1351911,-27.5947893],[-49.1287994,-27.6004009],[-49.0891923,-27.5852991],[-49.0805726,-27.6233952],[-49.0646972,-27.6489225],[-49.0102762,-27.6222658],[-48.9883997,-27.6329738],[-48.978921,-27.6266052],[-48.9583327,-27.6313661]],[[-48.9583327,-27.6313661],[-48.950141,-27.6266068]],[[-48.950141,-27.6266068],[-48.9478259,-27.6241339],[-48.9487903,-27.6217227],[-48.9516837,-27.6198455]],[[-48.9516837,-27.6198455],[-48.9559205,-27.6150576],[-48.9560411,-27.6059468],[-48.9435202,-27.5978521],[-48.9270726,-27.583299],[-48.9153154,-27.5316522],[-48.899602,-27.4928763],[-48.9042833,-27.4750631],[-48.906056,-27.4674904],[-48.9132846,-27.4688501],[-48.9207541,-27.4673527],[-48.9160135,-27.4581195],[-48.8890522,-27.4409507],[-48.8790873,-27.4310165],[-48.8721285,-27.4380197],[-48.8548873,-27.4219312],[-48.8338334,-27.3941335],[-48.7953056,-27.3532218],[-48.7578835,-27.3434015],[-48.7270228,-27.3419339],[-48.7056626,-27.3549],[-48.6884567,-27.3419404],[-48.6632634,-27.3472721],[-48.6538467,-27.3206441],[-48.6366038,-27.3274303]],[[-48.6366038,-27.3274303],[-48.5948135,-27.316139],[-48.6154798,-27.2715351],[-48.6130984,-27.2350041],[-48.6039019,-27.2156229]],[[-48.6234822,-27.2109581],[-48.6613376,-27.2162461],[-48.6672382,-27.2127029],[-48.6701484,-27.2080122],[-48.6737321,-27.1997665]],[[-48.812379,-27.1346497],[-48.8183002,-27.1379823]],[[-48.950141,-27.6266068],[-48.844564,-27.6253114],[-48.8447783,-27.6286847]],[[-48.8447783,-27.6286847],[-48.849292,-27.6404472],[-48.8527156,-27.6457868],[-48.8543535,-27.6481382],[-48.8630935,-27.659947],[-48.8405712,-27.687557],[-48.8160111,-27.69328],[-48.8086342,-27.7089279],[-48.8326013,-27.7197574],[-48.8455945,-27.7093103],[-48.8667621,-27.718761],[-48.8658061,-27.7398015],[-48.8594364,-27.7554031],[-48.8826694,-27.7828301],[-48.8768914,-27.8129808],[-48.9006614,-27.8196879],[-48.9143027,-27.8398473],[-48.9007824,-27.8436337],[-48.8949905,-27.8553904],[-48.8766465,-27.8599721],[-48.8721858,-27.8763278],[-48.8429386,-27.873395],[-48.8369736,-27.8824647],[-48.8240339,-27.8925594],[-48.8233587,-27.9036564],[-48.8277733,-27.9063744],[-48.8455354,-27.907292],[-48.8457046,-27.9228399],[-48.8368448,-27.9317885],[-48.84557,-27.9443917],[-48.8413293,-27.9637788],[-48.8378268,-27.9745724],[-48.8435497,-27.9907358]],[[-48.8435497,-27.9907358],[-48.8411038,-27.9986112],[-48.8428731,-28.005654],[-48.8490192,-28.017082],[-48.8518241,-28.0181611]],[[-48.8518241,-28.0181611],[-48.8552067,-28.0398966],[-48.8856302,-28.0589659],[-48.8895708,-28.0722138],[-48.8936953,-28.0800361]],[[-48.8936953,-28.0800361],[-48.8886627,-28.082371],[-48.8740155,-28.0723864],[-48.8643039,-28.0778699],[-48.8322628,-28.0716341],[-48.8100894,-28.0783709],[-48.8073877,-28.0934999],[-48.7962326,-28.0950264],[-48.7695566,-28.0874394],[-48.7617236,-28.0904162]],[[-48.7617236,-28.0904162],[-48.7070124,-28.0826493],[-48.7044471,-28.0774897]],[[-48.7044471,-28.0774897],[-48.7107089,-28.0606297],[-48.7213201,-28.0608939],[-48.7191305,-28.0535669],[-48.7091445,-28.0300294],[-48.6849833,-28.0174658],[-48.6566048,-27.9881899],[-48.6495754,-27.9658379],[-48.6365208,-27.9562288]],[[-48.6365208,-27.9562288],[-48.6211327,-27.9452057],[-48.5731286,-27.8856976],[-48.5987365,-27.8792906],[-48.5985039,-27.853827],[-48.576882,-27.8489523],[-48.5708388,-27.8360425],[-48.5447019,-27.8302884],[-48.529472,-27.7889503],[-48.5153921,-27.7812079],[-48.493616,-27.7941354],[-48.4782557,-27.7618218],[-48.4959373,-27.7574519],[-48.5063336,-27.747483],[-48.5055348,-27.7240717],[-48.4958736,-27.7042404],[-48.4817645,-27.6917208],[-48.4761649,-27.6680042],[-48.467304,-27.6511865],[-48.444341,-27.6235976],[-48.4274369,-27.5939839],[-48.4176619,-27.5888688],[-48.4282701,-27.5684739],[-48.4256872,-27.5420345],[-48.4135619,-27.5181554],[-48.3866295,-27.4851399],[-48.3779198,-27.4819978],[-48.3706022,-27.4498407],[-48.3913887,-27.4353116],[-48.4117346,-27.4049943],[-48.4166373,-27.3805606],[-48.4834723,-27.3782829],[-48.5262704,-27.408262],[-48.5343564,-27.3834982],[-48.5369689,-27.357959],[-48.5259546,-27.3440545],[-48.5372147,-27.3273439],[-48.5380321,-27.3070483],[-48.5637671,-27.3155027],[-48.5782693,-27.3125804],[-48.6366038,-27.3274303]],[[-48.9516837,-27.6198455],[-48.9486353,-27.6219122],[-48.947912,-27.6244095],[-48.950141,-27.6266068]],[[-49.2062672,-27.6417008],[-49.2243387,-27.6537113]],[[-49.2835049,-27.6430544],[-49.2857389,-27.6377229],[-49.2877922,-27.6243431],[-49.3020866,-27.6141222],[-49.3029294,-27.6040187]],[[-49.3011777,-27.5940743],[-49.3050311,-27.583171]],[[-49.3050311,-27.583171],[-49.322722,-27.5888456]],[[-49.5017678,-27.5972322],[-49.5059719,-27.6046923]],[[-49.3073216,-27.9300621],[-49.3078444,-27.9409807]],[[-49.3078444,-27.9409807],[-49.3062943,-27.9403151],[-49.3021392,-27.9389401],[-49.2942351,-27.9389604],[-49.2886782,-27.9372206],[-49.2819874,-27.9411589],[-49.2729249,-27.9450626],[-49.2569898,-27.952619],[-49.2395054,-27.9540212],[-49.2037316,-27.9660352],[-49.1971014,-27.9683982],[-49.1789043,-27.9787746],[-49.1540138,-27.9686037],[-49.1448324,-27.9968061],[-49.1280541,-28.0048415],[-49.1039622,-28.0073967]],[[-49.1039622,-28.0073967],[-49.05097,-27.9901931],[-49.0494732,-27.9933222]],[[-49.0494732,-27.9933222],[-49.0348393,-28.0140791],[-49.0346948,-28.0352598],[-49.0120249,-28.0548469],[-48.9734088,-28.081459],[-48.9676677,-28.0847411],[-48.9695474,-28.0837843],[-48.9694962,-28.090045],[-48.9708883,-28.0933552],[-48.9703903,-28.09794],[-48.9696392,-28.1017684],[-48.9729073,-28.1015182],[-48.950024,-28.1077324],[-48.942339,-28.0830866],[-48.9318829,-28.0721927],[-48.9016991,-28.060854],[-48.8936953,-28.0800361]],[[-48.8518241,-28.0181611],[-48.8483374,-28.015906],[-48.8439529,-28.008218],[-48.8413119,-27.9998255],[-48.8435497,-27.9907358]],[[-48.8447783,-27.6286847],[-48.8445282,-27.6251711],[-48.9534719,-27.6259488],[-48.9583327,-27.6313661]],[[-48.7044471,-28.0774897],[-48.707779,-28.0827581],[-48.7617236,-28.0904162]],[[-49.0494732,-27.9933222],[-49.0509493,-27.9902035],[-49.1039622,-28.0073967]],[[-49.3078444,-27.9409807],[-49.3110036,-27.9519831]],[[-49.5263768,-28.2922337],[-49.5135487,-28.3037744]],[[-49.5135487,-28.3037744],[-49.5039974,-28.3079954],[-49.4829347,-28.3042545],[-49.4578986,-28.3213228],[-49.4328165,-28.316013],[-49.4165115,-28.3268192],[-49.3807905,-28.3399423],[-49.3577716,-28.344023],[-49.358505,-28.3630706],[-49.3403902,-28.3653615],[-49.3391051,-28.4012939],[-49.3427298,-28.4097127],[-49.2962145,-28.4004605],[-49.2864206,-28.413969],[-49.2596385,-28.4212964],[-49.2240184,-28.4181469],[-49.2212607,-28.4328223],[-49.2366112,-28.4578234],[-49.2553707,-28.4626001],[-49.2566105,-28.4741167],[-49.2789909,-28.4844963],[-49.2902596,-28.5039841],[-49.2855936,-28.5149396],[-49.2664084,-28.5327301],[-49.2514828,-28.5364626],[-49.2566531,-28.5532112],[-49.2498542,-28.567304],[-49.2605271,-28.5780876],[-49.2505967,-28.5909984],[-49.2327431,-28.5972482],[-49.2031389,-28.6150067],[-49.1958268,-28.6349731],[-49.1748439,-28.6450223],[-49.1764945,-28.6735948],[-49.1726192,-28.6946397],[-49.1762266,-28.7230386],[-49.1975644,-28.7390481],[-49.2073877,-28.7863938],[-49.1903458,-28.7955133]],[[-49.1903458,-28.7955133],[-49.1847155,-28.8014471],[-49.1475363,-28.7755045],[-49.0787653,-28.7321151],[-48.9684569,-28.6681514],[-48.9055856,-28.6362069],[-48.8626553,-28.6168815],[-48.816194,-28.6022127],[-48.8130493,-28.5850326],[-48.7907102,-28.5666976],[-48.7841212,-28.5507379],[-48.7614945,-28.5354858],[-48.7613902,-28.5177743],[-48.7512084,-28.5062455],[-48.7656083,-28.4848607],[-48.7661383,-28.4653335],[-48.7460181,-28.4269391],[-48.745906,-28.404789],[-48.7329929,-28.3737515],[-48.7081799,-28.3422689],[-48.7091541,-28.3234254],[-48.70144,-28.3006272],[-48.6871756,-28.2732663],[-48.6706382,-28.2512678],[-48.645433,-28.2345993],[-48.6609978,-28.2268579],[-48.6660766,-28.2058158],[-48.6568393,-28.1956375],[-48.6624692,-28.1799737],[-48.6528704,-28.1563344],[-48.6387092,-28.1424768],[-48.6420037,-28.129975],[-48.6360544,-28.1154205],[-48.6318565,-28.0850364],[-48.6062357,-28.0522903],[-48.6047964,-28.0192674],[-48.6213666,-28.0212118],[-48.6309085,-28.0065198],[-48.6285847,-27.9756893],[-48.6201571,-27.9627415],[-48.6365208,-27.9562288]],[[-49.704704,-28.63163],[-49.7076216,-28.6484743]],[[-49.7076216,-28.6484743],[-49.7117353,-28.6578484],[-49.7054069,-28.6721129],[-49.6989716,-28.6822543],[-49.6768902,-28.6957111],[-49.6748714,-28.7043952],[-49.6733858,-28.7287318],[-49.6821049,-28.7374436],[-49.6696399,-28.7520558],[-49.6481462,-28.7473781],[-49.6047678,-28.7523616],[-49.5955704,-28.7667614],[-49.59543,-28.802037],[-49.5728693,-28.8033521],[-49.5333122,-28.8311077],[-49.5249187,-28.8536167],[-49.5225387,-28.8539258],[-49.5196421,-28.8558483],[-49.5019344,-28.8493453],[-49.463202,-28.8461056],[-49.445842,-28.8411681],[-49.4300724,-28.8179066],[-49.4270471,-28.8200174],[-49.2901095,-28.8831668]],[[-49.2901095,-28.8831668],[-49.2442803,-28.8451053],[-49.1896693,-28.8049103],[-49.1903458,-28.7955133]],[[-49.5135487,-28.3037744],[-49.5339078,-28.3082761]],[[-49.7076216,-28.6484743],[-49.7101792,-28.640359],[-49.7041391,-28.6300271],[-49.7159468,-28.6237925],[-49.74499,-28.62432],[-49.7573636,-28.6154139],[-49.7789039,-28.6294802],[-49.7981923,-28.6240162],[-49.8140127,-28.6355045],[-49.8132853,-28.6475568],[-49.8413263,-28.6768597],[-49.8348665,-28.6939265],[-49.8427336,-28.7099406],[-49.8609407,-28.7039355],[-49.8701871,-28.7087247],[-49.8739726,-28.7267655],[-49.8932628,-28.7228835],[-49.9108345,-28.7127498],[-49.9346778,-28.7256765],[-49.9217437,-28.7455426],[-49.9613329,-28.7721804],[-49.9569943,-28.7836107],[-49.9661441,-28.8213279],[-49.9603652,-28.8381361],[-49.9567607,-28.8703633],[-49.9435899,-28.8796583],[-49.9631796,-28.9189189],[-49.9585234,-28.9450486],[-49.9487069,-28.9620881],[-49.9336567,-28.9658216],[-49.9591547,-29.0104812],[-49.9469385,-29.0318308],[-49.9609987,-29.0508076],[-49.9569425,-29.0629374],[-49.9697599,-29.1005732],[-49.9682774,-29.1147769],[-49.9864764,-29.1263751],[-50.0131881,-29.1307595],[-50.0049122,-29.1406371],[-50.0386135,-29.1774386],[-50.0628447,-29.1859154],[-50.0876318,-29.1837495],[-50.0889976,-29.2235466],[-50.1111462,-29.2077904],[-50.1330356,-29.1973491],[-50.1347366,-29.2150717],[-50.148226,-29.2199227],[-50.1406832,-29.2377834],[-50.1552287,-29.2476875],[-50.1425247,-29.2713911],[-50.143734,-29.2842521],[-50.134067,-29.3021625],[-50.117111,-29.2918043],[-50.112494,-29.3057522],[-50.0906541,-29.3108993],[-50.0595088,-29.3412031],[-50.051215,-29.3241113],[-50.0995917,-29.2884012],[-50.1154827,-29.2622804],[-50.0365467,-29.2378462],[-50.0099322,-29.2254095],[-49.9965852,-29.2282623],[-49.9696791,-29.2121376],[-49.9627342,-29.1988546],[-49.935434,-29.2082815],[-49.912866,-29.2079428],[-49.9030072,-29.2148773],[-49.8692354,-29.2244388],[-49.8571037,-29.2330584],[-49.8522,-29.2536409],[-49.8417283,-29.2605306],[-49.8435082,-29.277842],[-49.8291634,-29.2759812],[-49.8173798,-29.2856538],[-49.7905422,-29.2858847],[-49.7759297,-29.2974099],[-49.7420974,-29.2988203],[-49.7435636,-29.3197173],[-49.7295941,-29.3291254],[-49.7129375,-29.3255835],[-49.7048471,-29.3097299],[-49.6263555,-29.2153597],[-49.5886011,-29.1727733],[-49.4343545,-29.0091056],[-49.3625057,-28.9430673],[-49.2901095,-28.8831668]]],"bbox":[-53.8366794,-29.3412031,-48.3706022,-25.9578473]}
