{"type":"Topology","objects":{"geometrias":{"type":"GeometryCollection","geometries":[{"type":"Polygon","arcs":[[0,1,2,3]],"properties":{"code_micro":25001,"name_micro":"Catolé do Rocha","code_state":25,"code_region":2,"abbrev_state":"PB","name_state":"Paraíba","name_region":"Nordeste","year":2020}},{"type":"Polygon","arcs":[[4,5,6,7,8]],"properties":{"code_micro":25002,"name_micro":"Cajazeiras","code_state":25,"code_region":2,"abbrev_state":"PB","name_state":"Paraíba","name_region":"Nordeste","year":2020}},{"type":"Polygon","arcs":[[9,-9,10,11,12,13,14,15,-4,16,-2]],"properties":{"code_micro":25003,"name_micro":"Sousa","code_state":25,"code_region":2,"abbrev_state":"PB","name_state":"Paraíba","name_region":"Nordeste","year":2020}},{"type":"Polygon","arcs":[[-15,17,18,19,20,21,22,23,24]],"properties":{"code_micro":25004,"name_micro":"Patos","code_state":25,"code_region":2,"abbrev_state":"PB","name_state":"Paraíba","name_region":"Nordeste","year":2020}},{"type":"Polygon","arcs":[[-12,25,-7,26,27,28,29,30,31,-18,-14,32]],"properties":{"code_micro":25005,"name_micro":"Piancó","code_state":25,"code_region":2,"abbrev_state":"PB","name_state":"Paraíba","name_region":"Nordeste","year":2020}},{"type":"Polygon","arcs":[[33,34,35,-27,-6]],"properties":{"code_micro":25006,"name_micro":"Itaporanga","code_state":25,"code_region":2,"abbrev_state":"PB","name_state":"Paraíba","name_region":"Nordeste","year":2020}},{"type":"Polygon","arcs":[[36,37,-20,38,-31,39,-29,40,-35,41]],"properties":{"code_micro":25007,"name_micro":"Serra do Teixeira","code_state":25,"code_region":2,"abbrev_state":"PB","name_state":"Paraíba","name_region":"Nordeste","year":2020}},{"type":"Polygon","arcs":[[42,-24,43,44,45,46]],"properties":{"code_micro":25008,"name_micro":"Seridó Ocidental Paraibano","code_state":25,"code_region":2,"abbrev_state":"PB","name_state":"Paraíba","name_region":"Nordeste","year":2020}},{"type":"Polygon","arcs":[[47,-47,48,49,50,51,52]],"properties":{"code_micro":25009,"name_micro":"Seridó Oriental Paraibano","code_state":25,"code_region":2,"abbrev_state":"PB","name_state":"Paraíba","name_region":"Nordeste","year":2020}},{"type":"Polygon","arcs":[[53,-22,54,-37,55,56,57,-50,58,-45]],"properties":{"code_micro":25010,"name_micro":"Cariri Ocidental","code_state":25,"code_region":2,"abbrev_state":"PB","name_state":"Paraíba","name_region":"Nordeste","year":2020}},{"type":"Polygon","arcs":[[59,-52,60,-57,61,62,63,64]],"properties":{"code_micro":25011,"name_micro":"Cariri Oriental","code_state":25,"code_region":2,"abbrev_state":"PB","name_state":"Paraíba","name_region":"Nordeste","year":2020}},{"type":"Polygon","arcs":[[-53,-60,65,66,67,68,69,70,71]],"properties":{"code_micro":25012,"name_micro":"Curimataú Ocidental","code_state":25,"code_region":2,"abbrev_state":"PB","name_state":"Paraíba","name_region":"Nordeste","year":2020}},{"type":"Polygon","arcs":[[-71,72,73,74]],"properties":{"code_micro":25013,"name_micro":"Curimataú Oriental","code_state":25,"code_region":2,"abbrev_state":"PB","name_state":"Paraíba","name_region":"Nordeste","year":2020}},{"type":"Polygon","arcs":[[-68,75,76,77,78,79]],"properties":{"code_micro":25014,"name_micro":"Esperança","code_state":25,"code_region":2,"abbrev_state":"PB","name_state":"Paraíba","name_region":"Nordeste","year":2020}},{"type":"Polygon","arcs":[[80,-79,81,82,83,84,85,86,-73,-70]],"properties":{"code_micro":25015,"name_micro":"Brejo Paraibano","code_state":25,"code_region":2,"abbrev_state":"PB","name_state":"Paraíba","name_region":"Nordeste","year":2020}},{"type":"Polygon","arcs":[[87,88,89,90,91,92,-74,-87]],"properties":{"code_micro":25016,"name_micro":"Guarabira","code_state":25,"code_region":2,"abbrev_state":"PB","name_state":"Paraíba","name_region":"Nordeste","year":2020}},{"type":"Polygon","arcs":[[-66,-65,93,94,95,96,97,-83,98,-77,99]],"properties":{"code_micro":25017,"name_micro":"Campina Grande","code_state":25,"code_region":2,"abbrev_state":"PB","name_state":"Paraíba","name_region":"Nordeste","year":2020}},{"type":"Polygon","arcs":[[-89,100,-85,101,-97,102,103,104,105]],"properties":{"code_micro":25018,"name_micro":"Itabaiana","code_state":25,"code_region":2,"abbrev_state":"PB","name_state":"Paraíba","name_region":"Nordeste","year":2020}},{"type":"Polygon","arcs":[[106,-63,107,-104,108,-95]],"properties":{"code_micro":25019,"name_micro":"Umbuzeiro","code_state":25,"code_region":2,"abbrev_state":"PB","name_state":"Paraíba","name_region":"Nordeste","year":2020}},{"type":"Polygon","arcs":[[109,-92,110,111,112,113]],"properties":{"code_micro":25020,"name_micro":"Litoral Norte","code_state":25,"code_region":2,"abbrev_state":"PB","name_state":"Paraíba","name_region":"Nordeste","year":2020}},{"type":"Polygon","arcs":[[-106,114,115,116,117,118,-112,119,-90]],"properties":{"code_micro":25021,"name_micro":"Sapé","code_state":25,"code_region":2,"abbrev_state":"PB","name_state":"Paraíba","name_region":"Nordeste","year":2020}},{"type":"Polygon","arcs":[[120,121,-114,122,-118,123]],"properties":{"code_micro":25022,"name_micro":"João Pessoa","code_state":25,"code_region":2,"abbrev_state":"PB","name_state":"Paraíba","name_region":"Nordeste","year":2020}},{"type":"Polygon","arcs":[[124,-121,125,-116]],"properties":{"code_micro":25023,"name_micro":"Litoral Sul","code_state":25,"code_region":2,"abbrev_state":"PB","name_state":"Paraíba","name_region":"Nordeste","year":2020}}]}},"arcs":[[[-37.4784316,-6.5335344],[-37.4211872,-6.533298],[-37.396215,-6.5125142],[-37.3909523,-6.4528424],[-37.3812436,-6.4371094],[-37.39752,-6.4180988],[-37.378118,-6.3470064],[-37.3665279,-6.3255827],[-37.3304244,-6.3063276],[-37.3214502,-6.2828122],[-37.2731386,-6.2799722],[-37.2705525,-6.2517144],[-37.2342715,-6.2132783],[-37.2015813,-6.205704],[-37.1929439,-6.1830798],[-37.174221,-6.1801036],[-37.1613391,-6.157528],[-37.1750961,-6.1421831],[-37.1667862,-6.1086455],[-37.1755727,-6.0549393],[-37.2318602,-6.0275949],[-37.2537948,-6.0265689],[-37.2724774,-6.0557025],[-37.2955717,-6.0500947],[-37.3357795,-6.0674595],[-37.3544342,-6.0864859],[-37.3823388,-6.0855538],[-37.3936319,-6.1093877],[-37.4456931,-6.1122014],[-37.4589474,-6.1450022],[-37.4829911,-6.151681],[-37.5696205,-6.1554387],[-37.5999132,-6.174011],[-37.6731701,-6.1905803],[-37.7075242,-6.1768554],[-37.7457896,-6.1910314],[-37.7518679,-6.2115674],[-37.7756165,-6.2313435],[-37.7605164,-6.2540906],[-37.7648844,-6.2922364],[-37.8121239,-6.2927268],[-37.8429325,-6.3357964],[-37.8598275,-6.3748773],[-37.8882247,-6.3643695],[-37.8902563,-6.4001351],[-37.9260514,-6.4211378],[-37.9552056,-6.4080615],[-37.9790842,-6.4266932],[-37.9972783,-6.4264889],[-38.0199689,-6.4460049],[-38.0267585,-6.4747569]],[[-38.0267585,-6.4747569],[-38.0166181,-6.4910104],[-38.0249049,-6.5148629],[-38.0239413,-6.5241268],[-37.9806928,-6.529603],[-37.9633577,-6.5697573],[-37.9733071,-6.5829982],[-37.9380874,-6.6259275],[-37.9008634,-6.6180723],[-37.8613608,-6.6384571],[-37.7830696,-6.6417106],[-37.7854822,-6.6035155],[-37.7545077,-6.5961],[-37.7429237,-6.5777363],[-37.7107316,-6.564751],[-37.6969858,-6.5501592],[-37.6640882,-6.5482305],[-37.6049576,-6.5145881],[-37.5990018,-6.5138436],[-37.6042007,-6.5345647]],[[-37.6042007,-6.5345647],[-37.5739028,-6.5514039],[-37.5538357,-6.5498607]],[[-37.5538357,-6.5498607],[-37.4963537,-6.5226574],[-37.4784316,-6.5335344]],[[-38.2887198,-6.5056173],[-38.3140874,-6.4873324],[-38.3284375,-6.460656],[-38.373663,-6.455781],[-38.3845344,-6.4222195],[-38.3993194,-6.4097925],[-38.4260412,-6.4141238],[-38.4520637,-6.3924893],[-38.4850614,-6.3994193],[-38.4897546,-6.3634482],[-38.532623,-6.3417062],[-38.5760753,-6.3626919],[-38.5924663,-6.3782461],[-38.5719684,-6.4041066],[-38.5515225,-6.3981672],[-38.5245176,-6.407083],[-38.5542654,-6.4327631],[-38.5704101,-6.4701951],[-38.6122882,-6.5131913],[-38.6121695,-6.5383173],[-38.6428534,-6.5811777],[-38.6291604,-6.6045824],[-38.6466593,-6.6159807],[-38.6570803,-6.6422895],[-38.6519647,-6.6731834],[-38.6731505,-6.6972212],[-38.6575338,-6.7407602],[-38.6169213,-6.7932989],[-38.6518704,-6.8117122],[-38.6948153,-6.8745632],[-38.7302886,-6.8968135],[-38.7562792,-6.9035917],[-38.7552434,-6.9391261],[-38.7422504,-6.9742785],[-38.7518883,-6.9885827],[-38.7305837,-7.0120279],[-38.6909873,-7.0299554],[-38.669849,-7.0477046],[-38.677242,-7.0671025],[-38.6564059,-7.0924258],[-38.6774153,-7.1309352],[-38.675293,-7.1557219],[-38.68783,-7.1901612],[-38.6593223,-7.1832477],[-38.626982,-7.1911475],[-38.615368,-7.2301858],[-38.5830835,-7.2483827],[-38.5588783,-7.2394171],[-38.5345869,-7.293793],[-38.5493825,-7.3349976]],[[-38.5493825,-7.3349976],[-38.5190928,-7.3664677],[-38.4796586,-7.3824525],[-38.424924,-7.3444263],[-38.413793,-7.3408057],[-38.4157855,-7.3351992],[-38.4229863,-7.3117423],[-38.4197759,-7.2662116],[-38.4045319,-7.250472],[-38.4081367,-7.20245],[-38.310758,-7.1608556],[-38.301984,-7.1547326],[-38.295356,-7.1543956]],[[-38.295356,-7.1543956],[-38.2846415,-7.1304867],[-38.2937504,-7.1250913],[-38.330698,-7.1442416],[-38.3269664,-7.1064386],[-38.315662,-7.0811434],[-38.3298029,-7.0672336],[-38.3303574,-7.0612107],[-38.3024301,-7.0471623],[-38.2923867,-7.024842]],[[-38.2923867,-7.024842],[-38.2904035,-7.0211242]],[[-38.2904035,-7.0211242],[-38.2938777,-7.0195293],[-38.308077,-7.024872],[-38.3266706,-7.0138049],[-38.3367227,-6.9927876],[-38.3853603,-6.9889139],[-38.4236014,-6.9666975],[-38.4178002,-6.9310262],[-38.3839096,-6.9282773],[-38.3520149,-6.8863047],[-38.378563,-6.8470032],[-38.3518924,-6.7878506],[-38.356067,-6.7457923],[-38.34458,-6.7362416],[-38.3565659,-6.684641],[-38.3436626,-6.6567363],[-38.3504221,-6.5942509],[-38.2979729,-6.5626656],[-38.312447,-6.5267454],[-38.2887198,-6.5056173]],[[-38.0267585,-6.4747569],[-38.0539548,-6.4536839],[-38.0701512,-6.4627525],[-38.0979875,-6.5094908],[-38.1355176,-6.5184761],[-38.1478822,-6.4914876],[-38.1690391,-6.5000201],[-38.2392289,-6.4802973],[-38.2887198,-6.5056173]],[[-38.2904035,-7.0211242],[-38.2894291,-7.018018]],[[-38.2894291,-7.018018],[-38.2641247,-6.9925154],[-38.2014388,-7.00985],[-38.076948,-7.0086043],[-38.0783924,-6.9840408],[-38.0592692,-6.9692209],[-38.0390892,-6.975379],[-38.0061211,-6.9437621],[-37.9301569,-6.9953598],[-37.8780383,-7.0186791],[-37.8125013,-7.0187603]],[[-37.8125013,-7.0187603],[-37.7965342,-7.0186832],[-37.7381826,-7.0231174],[-37.7116873,-7.0220378],[-37.6886825,-7.0201473],[-37.6830561,-7.0187807]],[[-37.6830561,-7.0187807],[-37.6308516,-6.9939092],[-37.5985675,-7.0005039],[-37.5919429,-6.9952569],[-37.5200595,-7.0016368]],[[-37.5200595,-7.0016368],[-37.5222556,-6.981822],[-37.5072392,-6.9594064],[-37.4913649,-6.958902],[-37.4686063,-6.9325619],[-37.4972741,-6.9001332],[-37.4983283,-6.8663825],[-37.5276243,-6.8308236],[-37.5053593,-6.8141704],[-37.5051396,-6.7814441],[-37.5443684,-6.7650518],[-37.5478485,-6.7408163],[-37.5366165,-6.7186879],[-37.4846995,-6.7100374]],[[-37.4846995,-6.7100374],[-37.4661909,-6.6599595],[-37.4772159,-6.6419108],[-37.4803841,-6.6052178],[-37.474815,-6.5644509],[-37.4784316,-6.5335344]],[[-37.5538357,-6.5498607],[-37.5741349,-6.5513734],[-37.6042007,-6.5345647]],[[-37.5200595,-7.0016368],[-37.5123622,-7.1106242],[-37.543216,-7.1096555],[-37.4931557,-7.2291857],[-37.5210906,-7.2612456],[-37.5242596,-7.2862871],[-37.5538342,-7.3050708]],[[-37.5538342,-7.3050708],[-37.5635047,-7.3156807]],[[-37.5635047,-7.3156807],[-37.4932801,-7.3175327],[-37.4560587,-7.3120607],[-37.4334646,-7.324162],[-37.404171,-7.304341],[-37.3848663,-7.3014633],[-37.4012613,-7.2587788],[-37.3669795,-7.2400854],[-37.308617,-7.1967299],[-37.2312823,-7.1983793],[-37.1755015,-7.2284334],[-37.1692427,-7.1967247],[-37.1441432,-7.1916311],[-37.100726,-7.1664768],[-37.0544304,-7.1564277]],[[-37.0544304,-7.1564277],[-37.0133965,-7.1914679]],[[-37.0133965,-7.1914679],[-36.995595,-7.1811515],[-36.9340368,-7.1727793]],[[-36.9340368,-7.1727793],[-36.9267183,-7.1161645]],[[-36.9267183,-7.1161645],[-36.9257806,-7.1138924],[-36.9318637,-7.110394],[-36.9153733,-7.0805506],[-36.9225568,-7.0525413],[-36.9425344,-7.0407111],[-36.9788134,-7.0581912],[-37.0594945,-7.0398711],[-37.0711729,-7.0178901],[-37.1029677,-7.0226449],[-37.1510965,-6.9926865],[-37.1726479,-6.9801958],[-37.1811644,-6.963237],[-37.1784788,-6.926478],[-37.1843066,-6.9189542],[-37.212491,-6.9052],[-37.2223303,-6.8423834]],[[-37.2223303,-6.8423834],[-37.2551439,-6.8110615],[-37.2573268,-6.7803959],[-37.269363,-6.7619855],[-37.2639208,-6.73217],[-37.2901673,-6.7130439],[-37.283716,-6.6939148],[-37.3142989,-6.6889744],[-37.3427129,-6.7012464],[-37.4073341,-6.6971954],[-37.4846995,-6.7100374]],[[-38.2894291,-7.018018],[-38.2923867,-7.024842]],[[-38.295356,-7.1543956],[-38.2889557,-7.1663085],[-38.2852221,-7.1758624],[-38.2583188,-7.1727781],[-38.2417504,-7.1682021],[-38.1723621,-7.1612285],[-38.1576825,-7.1900703],[-38.1557078,-7.2219484],[-38.0914107,-7.235001],[-38.0858928,-7.2945088],[-38.0524993,-7.3177003],[-38.0599847,-7.3516314],[-38.0768135,-7.3707372],[-38.0790479,-7.3767804],[-38.0784867,-7.3922235],[-38.0777886,-7.4010997],[-38.0512235,-7.430261],[-38.0453396,-7.5111214]],[[-38.0453396,-7.5111214],[-38.0462644,-7.5138538]],[[-38.0462644,-7.5138538],[-38.0106965,-7.531983]],[[-38.0106965,-7.531983],[-37.9828724,-7.5276575],[-37.9560952,-7.4985993]],[[-37.9560952,-7.4985993],[-37.852108,-7.4331669],[-37.8269264,-7.409794],[-37.8013862,-7.4030047],[-37.7877792,-7.3899515],[-37.7805106,-7.3878925],[-37.77604,-7.4017975],[-37.7246969,-7.3870803],[-37.6918289,-7.3283776],[-37.6479296,-7.3224719],[-37.633078,-7.327706],[-37.6317643,-7.3301241],[-37.6209162,-7.3279794],[-37.5766911,-7.327438],[-37.5751888,-7.3206018]],[[-37.5751888,-7.3206018],[-37.5538342,-7.3050708]],[[-37.6830561,-7.0187807],[-37.6883086,-7.0201135],[-37.749915,-7.0230017],[-37.8125013,-7.0187603]],[[-38.5493825,-7.3349976],[-38.5786649,-7.3797483],[-38.5853008,-7.4348151],[-38.603328,-7.457592],[-38.6417139,-7.4581761],[-38.6305654,-7.4839522],[-38.6459957,-7.501926],[-38.6611819,-7.5682918],[-38.7036588,-7.5809573],[-38.7156068,-7.612086],[-38.6867416,-7.6350403],[-38.6264385,-7.6947249],[-38.5936274,-7.7543494],[-38.5249571,-7.7546448],[-38.4639757,-7.7308921],[-38.4570834,-7.718107],[-38.4095078,-7.7304933],[-38.3549779,-7.6784252],[-38.3266856,-7.6937045],[-38.3108769,-7.7390777]],[[-38.3108769,-7.7390777],[-38.2736521,-7.695166],[-38.2532412,-7.6866988],[-38.2464376,-7.6800347],[-38.2481781,-7.6610609],[-38.2344917,-7.6517305],[-38.1792134,-7.6397933],[-38.1835855,-7.613672],[-38.1483148,-7.6003726],[-38.0947945,-7.5646833],[-38.0750819,-7.5561692],[-38.069974,-7.5571444],[-38.0541207,-7.5521559],[-38.0407833,-7.536778],[-38.0472167,-7.5159407]],[[-38.0472167,-7.5159407],[-38.0453396,-7.5111214]],[[-37.0531847,-7.3794983],[-37.0273534,-7.2869844],[-37.0120445,-7.2834747],[-37.0146826,-7.2489112],[-37.035227,-7.1887685],[-37.0202675,-7.1909816]],[[-37.0202675,-7.1909816],[-37.0544304,-7.1564277]],[[-37.5635047,-7.3156807],[-37.5751888,-7.3206018]],[[-37.9560952,-7.4985993],[-37.980839,-7.5263457],[-37.9838697,-7.5281271],[-38.0106965,-7.531983]],[[-38.0462644,-7.5138538],[-38.0472167,-7.5159407]],[[-38.3108769,-7.7390777],[-38.2946014,-7.7779702],[-38.3025243,-7.7915012],[-38.2933511,-7.8230459],[-38.2385707,-7.8307261],[-38.164219,-7.7799088],[-38.1391963,-7.7862381],[-38.1161782,-7.8225602],[-38.0770694,-7.8305796],[-38.0713985,-7.7742344],[-38.0395816,-7.7481191],[-38.003971,-7.7789864],[-37.9705998,-7.7775769],[-37.9268505,-7.7299322],[-37.9239349,-7.7151119],[-37.8805967,-7.6836501],[-37.8571589,-7.6519689],[-37.8100395,-7.6438918],[-37.7858276,-7.6257982],[-37.7609745,-7.6668105],[-37.740368,-7.6360853],[-37.7558477,-7.6195218],[-37.7287319,-7.5797304],[-37.706572,-7.5694668],[-37.6558188,-7.5234166],[-37.6303781,-7.532511],[-37.6097708,-7.5080308],[-37.5279586,-7.4653107],[-37.5274041,-7.4483824],[-37.4876262,-7.3894195],[-37.496038,-7.3648223],[-37.4255124,-7.3529162],[-37.3857137,-7.3566938],[-37.3493763,-7.3351182],[-37.3572843,-7.3231138],[-37.3305857,-7.2882835],[-37.2883328,-7.2882889],[-37.2752678,-7.2742884],[-37.2341788,-7.2738869],[-37.196674,-7.2946701],[-37.1353148,-7.3466643],[-37.0856227,-7.3582564],[-37.0674131,-7.38338],[-37.0531847,-7.3794983]],[[-36.6548792,-6.9282388],[-36.6892615,-6.9269575],[-36.7092715,-6.9746886],[-36.7441126,-6.9677737],[-36.766499,-6.9343454],[-36.7305176,-6.83544],[-36.7694651,-6.8387481],[-36.7727287,-6.7870652],[-36.8350296,-6.7310709],[-36.9034284,-6.7536148],[-36.9571355,-6.7904782],[-36.9692314,-6.7704963],[-36.9776218,-6.7218552],[-36.9998335,-6.7077129],[-37.0594232,-6.749425],[-37.1289358,-6.765977],[-37.1537077,-6.7997892],[-37.2223303,-6.8423834]],[[-36.9267183,-7.1161645],[-36.9305316,-7.1498385]],[[-36.9305316,-7.1498385],[-36.8973051,-7.1631111],[-36.818384,-7.1399287],[-36.8028663,-7.143964],[-36.7552778,-7.0838889],[-36.7554016,-7.0450801],[-36.7405757,-7.0240167],[-36.7320627,-7.0195618],[-36.7256865,-7.0066105]],[[-36.7256865,-7.0066105],[-36.7010539,-7.0077133]],[[-36.7010539,-7.0077133],[-36.6872622,-6.9898363],[-36.6607304,-6.9541527],[-36.6548792,-6.9282388]],[[-36.2265349,-6.4340281],[-36.2497721,-6.4373599],[-36.2511629,-6.4044235],[-36.2916106,-6.3959957],[-36.2988575,-6.3846068],[-36.2767475,-6.3404305],[-36.2798727,-6.3088615],[-36.31364,-6.2833561],[-36.3575767,-6.3099873],[-36.3945614,-6.2939748],[-36.430306,-6.362255],[-36.4998486,-6.3581649],[-36.5074919,-6.4001167],[-36.5309716,-6.4520716],[-36.5258468,-6.5011613],[-36.4809566,-6.5230828],[-36.4715443,-6.5483516],[-36.4491734,-6.5539142],[-36.4412275,-6.5737578],[-36.4362792,-6.6282245],[-36.460518,-6.6343936],[-36.4734806,-6.6144067],[-36.50796,-6.5954508],[-36.5210146,-6.6131597],[-36.5588804,-6.7091075],[-36.5442045,-6.7312035],[-36.5047532,-6.7539395],[-36.5069378,-6.8130054],[-36.540991,-6.8407187],[-36.5601562,-6.8407734],[-36.5679397,-6.8747966],[-36.6036081,-6.930457],[-36.6548792,-6.9282388]],[[-36.7010539,-7.0077133],[-36.6900753,-7.0086675]],[[-36.6900753,-7.0086675],[-36.6700314,-7.0228307],[-36.662433,-7.0561497],[-36.671353,-7.1004561],[-36.6644434,-7.1150248],[-36.6616893,-7.1169746]],[[-36.6616893,-7.1169746],[-36.660517,-7.1294258]],[[-36.660517,-7.1294258],[-36.6126377,-7.1297238],[-36.5920579,-7.1731046],[-36.5634667,-7.1821442],[-36.4850727,-7.1886969]],[[-36.4850727,-7.1886969],[-36.4884403,-7.1664166],[-36.4743453,-7.1293929],[-36.4899383,-7.0344595],[-36.476708,-6.9942084],[-36.3756323,-6.9742629],[-36.3292035,-6.9351359],[-36.3046998,-6.940757],[-36.2608745,-6.836796],[-36.2501703,-6.6853717],[-36.225064,-6.5593667],[-36.2265349,-6.4340281]],[[-36.9305316,-7.1498385],[-36.9340368,-7.1727793]],[[-37.0133965,-7.1914679],[-37.0202675,-7.1909816]],[[-37.0531847,-7.3794983],[-37.0256234,-7.3860442],[-37.0129712,-7.4042887],[-37.0236157,-7.4338675],[-36.9842256,-7.4822617],[-37.0032533,-7.4963885],[-37.0538222,-7.5045686],[-37.121524,-7.5361189],[-37.1635694,-7.5747149],[-37.1979462,-7.6352979],[-37.1951312,-7.6520627],[-37.1545429,-7.7064038],[-37.1406638,-7.750065],[-37.1584813,-7.7923324],[-37.1915385,-7.7911694],[-37.217416,-7.8066859],[-37.2228137,-7.8362093],[-37.2471503,-7.8468039],[-37.244648,-7.8749],[-37.2873944,-7.9038765],[-37.3132594,-7.9113856],[-37.3089764,-7.9341762],[-37.3434534,-7.9470209],[-37.3397846,-7.9798045],[-37.2917793,-7.9653109],[-37.2373419,-7.9733068],[-37.2079199,-7.9518661],[-37.1933946,-7.9828667],[-37.1517946,-8.0094148],[-37.1568452,-8.0645345],[-37.1437071,-8.0879656],[-37.1425578,-8.1179448],[-37.1586138,-8.1388694],[-37.1602253,-8.1704004],[-37.1264516,-8.173684],[-37.1229148,-8.2090664],[-37.0822268,-8.2618874],[-37.0402836,-8.2661796],[-37.023037,-8.2885896],[-36.9911563,-8.3029551],[-36.9602017,-8.3004673],[-36.9449468,-8.2752533],[-36.9229988,-8.2698298],[-36.8999978,-8.2436608],[-36.8617023,-8.2224268],[-36.8125112,-8.2052941],[-36.7932,-8.1894514],[-36.7615697,-8.1962939],[-36.7501424,-8.175704],[-36.7188747,-8.1616222],[-36.6678453,-8.1242659],[-36.6403209,-8.1199106],[-36.6537909,-8.0703841],[-36.6278519,-8.0557493],[-36.6278515,-7.9864066],[-36.6108981,-7.9474292],[-36.586861,-7.9586561],[-36.5725882,-7.935975],[-36.5748119,-7.9075006],[-36.5364643,-7.9016093]],[[-36.5364643,-7.9016093],[-36.5677557,-7.860154],[-36.5544375,-7.8080545],[-36.6210382,-7.7521702],[-36.61897,-7.7062351],[-36.5771614,-7.7113638],[-36.5417092,-7.6795712],[-36.5459968,-7.6757546],[-36.5880906,-7.6369613],[-36.5989119,-7.5837782],[-36.5300947,-7.5281499],[-36.629947,-7.3928565],[-36.6010549,-7.3778894],[-36.6010519,-7.3521898],[-36.5750666,-7.3237155],[-36.5873665,-7.2928263],[-36.6117091,-7.2839255],[-36.6507841,-7.2855774],[-36.6633479,-7.2700337],[-36.6916478,-7.2660995],[-36.6589025,-7.1926794],[-36.6598986,-7.1749775],[-36.6623935,-7.1378311]],[[-36.6623935,-7.1378311],[-36.6616893,-7.1169746]],[[-36.6900753,-7.0086675],[-36.7256865,-7.0066105]],[[-36.3260914,-7.1887277],[-36.3968554,-7.2195671],[-36.4054082,-7.2195749],[-36.4185686,-7.2000695],[-36.4850727,-7.1886969]],[[-36.660517,-7.1294258],[-36.6623935,-7.1378311]],[[-36.5364643,-7.9016093],[-36.4801364,-7.9247633],[-36.4441096,-7.9152833],[-36.4296952,-7.8865592],[-36.4299642,-7.8271115],[-36.3945385,-7.8076088],[-36.3091315,-7.8066872],[-36.2613329,-7.8320766],[-36.2400121,-7.817681],[-36.254196,-7.7963868],[-36.2166343,-7.7641042],[-36.1978732,-7.7903806],[-36.1433702,-7.7815622],[-36.068992,-7.7809736],[-36.0215873,-7.8102391]],[[-36.0215873,-7.8102391],[-36.0098912,-7.7577907],[-35.9896407,-7.7408143],[-35.9755152,-7.7065784],[-35.9711505,-7.668622],[-35.9551299,-7.6520552],[-35.9304868,-7.6827162],[-35.8685598,-7.6627639],[-35.8683871,-7.6497384],[-35.8691315,-7.6462755],[-35.8706957,-7.6308162],[-35.8691746,-7.6286262],[-35.8725189,-7.6254869],[-35.874752,-7.6192622],[-35.8768988,-7.6184315],[-35.8733927,-7.6077729],[-35.8710949,-7.6050544],[-35.8526743,-7.5817684],[-35.84933,-7.5794274],[-35.8477981,-7.5767196],[-35.8293398,-7.5748856],[-35.8221139,-7.5663086],[-35.8502887,-7.5527705],[-35.884761,-7.5425438],[-35.8793902,-7.5147911]],[[-35.8793902,-7.5147911],[-35.8751654,-7.5117275]],[[-35.8751654,-7.5117275],[-35.9186286,-7.5122599],[-35.9333341,-7.5063342],[-35.9542884,-7.4966459],[-35.9653909,-7.4819699],[-36.0076804,-7.4500309],[-36.0096911,-7.4006595],[-36.0016122,-7.3950222],[-35.9989192,-7.3900671],[-36.004134,-7.3860642],[-36.0384528,-7.3663383],[-36.1417155,-7.3573691],[-36.1758642,-7.347261],[-36.1959046,-7.361765],[-36.2356843,-7.3696704],[-36.2727246,-7.3583731],[-36.2819273,-7.369204],[-36.3457412,-7.367309],[-36.3304406,-7.3054486],[-36.3260914,-7.1887277]],[[-36.3260914,-7.1887277],[-36.1686952,-7.20165],[-36.1421294,-7.1671376],[-36.1082665,-7.1520773],[-36.0626992,-7.166504],[-36.0259747,-7.1650303],[-35.9794597,-7.1004211]],[[-35.9794597,-7.1004211],[-35.9851233,-7.0974798]],[[-35.9851233,-7.0974798],[-35.9593716,-7.0597196],[-35.9509851,-7.0292705],[-35.9769337,-6.9862331],[-35.9470375,-6.9574435],[-35.9377457,-6.9342683],[-35.9076508,-6.9351373],[-35.8857085,-6.9607691],[-35.8684624,-6.9580912],[-35.8136582,-6.9824179],[-35.7998889,-7.0183787],[-35.7768823,-7.0212109]],[[-35.7768823,-7.0212109],[-35.7747953,-6.9616437]],[[-35.7747953,-6.9616437],[-35.7872334,-6.9455458],[-35.7834499,-6.9196477],[-35.7866536,-6.9202959],[-35.8073638,-6.8736887],[-35.6784779,-6.8909734],[-35.6504014,-6.9106468],[-35.6458482,-6.8831415],[-35.6569837,-6.8683017],[-35.6909472,-6.8617968],[-35.7084736,-6.8362116],[-35.7047153,-6.8308833],[-35.7000129,-6.8270405],[-35.6910211,-6.8182552]],[[-35.6910211,-6.8182552],[-35.7069107,-6.8169235],[-35.7401918,-6.815062],[-35.7433383,-6.8140806],[-35.7664981,-6.8300525],[-35.7697045,-6.8331582],[-35.7738742,-6.8314472],[-35.7808189,-6.8242724],[-35.8104941,-6.8526977],[-35.8059976,-6.8577436],[-35.80955,-6.8601545],[-35.815161,-6.8618113],[-35.8280536,-6.8582901],[-35.9000703,-6.7765487],[-35.9065348,-6.7408148],[-35.9091963,-6.716162],[-35.8887972,-6.6908062],[-35.8659901,-6.6792838],[-35.8769867,-6.5778017],[-35.8672296,-6.5447171],[-35.8703606,-6.488637]],[[-35.8703606,-6.488637],[-35.9441837,-6.4930062],[-36.0053484,-6.4810533],[-36.0168211,-6.4520258],[-36.0367109,-6.4442652],[-36.0768167,-6.4056178],[-36.110189,-6.4291807],[-36.1437507,-6.4253246],[-36.2265349,-6.4340281]],[[-35.6910211,-6.8182552],[-35.6417158,-6.8006758],[-35.6473018,-6.7584335],[-35.676056,-6.727718],[-35.6717772,-6.7080092],[-35.6826914,-6.673607],[-35.6772483,-6.6677108],[-35.669665,-6.6381131],[-35.6632738,-6.6349902],[-35.6268153,-6.656415],[-35.6121448,-6.6543814],[-35.5768483,-6.6055764],[-35.5382836,-6.5956992],[-35.5245572,-6.6079005],[-35.5264229,-6.6452007]],[[-35.5264229,-6.6452007],[-35.5063288,-6.6477578],[-35.4891367,-6.6209806],[-35.4482578,-6.6032079],[-35.4290956,-6.5210906],[-35.4285717,-6.5058792],[-35.4393679,-6.5016011]],[[-35.4393679,-6.5016011],[-35.460046,-6.4767784],[-35.4771393,-6.4868523],[-35.5252965,-6.4760978],[-35.5521001,-6.4908238],[-35.5805324,-6.4871114],[-35.6001881,-6.4606106],[-35.6168742,-6.462633],[-35.6601643,-6.4452787],[-35.681973,-6.4479283],[-35.7071666,-6.4695364],[-35.7633561,-6.482192],[-35.8703606,-6.488637]],[[-35.9851233,-7.0974798],[-35.9777837,-7.1010206],[-35.9661225,-7.1127237]],[[-35.9661225,-7.1127237],[-35.9416505,-7.1068371],[-35.9294015,-7.1069865],[-35.9209228,-7.1032771],[-35.9079472,-7.0979675],[-35.8303322,-7.1220909]],[[-35.8303322,-7.1220909],[-35.8212425,-7.1127144]],[[-35.8212425,-7.1127144],[-35.8144177,-7.0937192],[-35.8180752,-7.0778749],[-35.8389967,-7.0744503],[-35.8509391,-7.0457692],[-35.833839,-7.0250402],[-35.7807205,-7.0243104]],[[-35.7807205,-7.0243104],[-35.7768823,-7.0212109]],[[-35.7747953,-6.9616437],[-35.7767986,-7.0215625],[-35.7807205,-7.0243104]],[[-35.8212425,-7.1127144],[-35.8295093,-7.1260564]],[[-35.8295093,-7.1260564],[-35.8260121,-7.1294037],[-35.7965554,-7.1312185],[-35.7938744,-7.1338277],[-35.7860662,-7.1512197],[-35.7064332,-7.1037634],[-35.6775507,-7.1462194],[-35.63149,-7.132042]],[[-35.63149,-7.132042],[-35.6276697,-7.1324679]],[[-35.6276697,-7.1324679],[-35.530431,-7.1202834],[-35.4941276,-7.0933052]],[[-35.4941276,-7.0933052],[-35.4931962,-7.0445608]],[[-35.4931962,-7.0445608],[-35.5231119,-7.027698],[-35.5592072,-6.9791921],[-35.5869627,-6.9591034],[-35.5840183,-6.9216579],[-35.5648951,-6.908985],[-35.565069,-6.8865264],[-35.5877729,-6.8393371],[-35.5754062,-6.8071664],[-35.5276806,-6.7655484],[-35.5227582,-6.7636316],[-35.5228349,-6.7609328],[-35.5221681,-6.7513323],[-35.5496351,-6.7108426],[-35.5307609,-6.6748602],[-35.5264229,-6.6452007]],[[-35.4931962,-7.0445608],[-35.4915749,-7.0720662]],[[-35.4915749,-7.0720662],[-35.4522453,-7.0739236],[-35.4113761,-7.0419606],[-35.3771415,-7.0326621]],[[-35.3771415,-7.0326621],[-35.3589756,-6.9981538],[-35.3566785,-6.9894102],[-35.3284865,-6.9918643],[-35.2779471,-6.9693163]],[[-35.2779471,-6.9693163],[-35.2635611,-6.9561491]],[[-35.2635611,-6.9561491],[-35.2887875,-6.940909],[-35.2900126,-6.9210421],[-35.317394,-6.8609017],[-35.3040144,-6.8344249],[-35.325025,-6.8206707],[-35.3198391,-6.7904171],[-35.357802,-6.7580268],[-35.3367768,-6.709373],[-35.3392121,-6.7080591],[-35.3201111,-6.708644],[-35.3196076,-6.6710561],[-35.3404451,-6.6487962],[-35.3280444,-6.6082996],[-35.3282675,-6.6000671],[-35.3365342,-6.5888599],[-35.3789491,-6.606353],[-35.3892518,-6.6038211],[-35.395554,-6.562989],[-35.3645125,-6.5120405]],[[-35.3645125,-6.5120405],[-35.4123941,-6.4882475],[-35.4393679,-6.5016011]],[[-35.8751654,-7.5117275],[-35.8727792,-7.5128714]],[[-35.8727792,-7.5128714],[-35.8617119,-7.509737],[-35.8503143,-7.5014614],[-35.8347729,-7.4650706],[-35.8214289,-7.464671],[-35.7921685,-7.4646095],[-35.785394,-7.4679096],[-35.7732593,-7.4812639],[-35.7670075,-7.4791321],[-35.7562872,-7.4762624]],[[-35.7562872,-7.4762624],[-35.7032111,-7.3374356]],[[-35.7032111,-7.3374356],[-35.7430901,-7.3412672],[-35.7043225,-7.2600921],[-35.6985669,-7.2189131],[-35.6712994,-7.2088309],[-35.6584726,-7.190055],[-35.6051495,-7.1694163],[-35.6189889,-7.1537647]],[[-35.6189889,-7.1537647],[-35.63149,-7.132042]],[[-35.8295093,-7.1260564],[-35.8303322,-7.1220909]],[[-35.9661225,-7.1127237],[-35.9794597,-7.1004211]],[[-35.4915749,-7.0720662],[-35.4941276,-7.0933052]],[[-35.6276697,-7.1324679],[-35.6189889,-7.1537647]],[[-35.7032111,-7.3374356],[-35.755701,-7.4723053],[-35.7496934,-7.4721607],[-35.7464175,-7.4749325]],[[-35.7464175,-7.4749325],[-35.7358111,-7.4743598],[-35.7231888,-7.4655403],[-35.6872233,-7.4774066],[-35.6453933,-7.4541779],[-35.593919,-7.4542466],[-35.546026,-7.4338546],[-35.5411118,-7.4425336],[-35.5396409,-7.4443554],[-35.5384287,-7.4527714],[-35.5491552,-7.4653302],[-35.5452982,-7.4705771],[-35.5376808,-7.474766],[-35.4949265,-7.4839115]],[[-35.4949265,-7.4839115],[-35.4503698,-7.4534114],[-35.4326034,-7.4723446],[-35.3511034,-7.4402615],[-35.3523559,-7.4223977],[-35.3090486,-7.4090439],[-35.2861212,-7.3785614]],[[-35.2861212,-7.3785614],[-35.2710987,-7.3639538],[-35.2912865,-7.3211029],[-35.3785578,-7.2515682],[-35.4243276,-7.269628],[-35.4261201,-7.2469714],[-35.3743697,-7.2389468],[-35.3829588,-7.2102328],[-35.33673,-7.1873947],[-35.325573,-7.1552732],[-35.3060269,-7.1434276],[-35.3052795,-7.1188724],[-35.3293466,-7.096333],[-35.3771415,-7.0326621]],[[-35.8727792,-7.5128714],[-35.8793902,-7.5147911]],[[-36.0215873,-7.8102391],[-35.9328815,-7.7844259],[-35.9093578,-7.7925091],[-35.8838261,-7.7747796],[-35.8721183,-7.7495389],[-35.828499,-7.751649],[-35.7805775,-7.7383514],[-35.7365494,-7.709599],[-35.6841139,-7.7077989],[-35.6315236,-7.6812374],[-35.6146193,-7.6563094],[-35.5865984,-7.650271],[-35.5595634,-7.66133],[-35.5196319,-7.6400175],[-35.5316871,-7.6216661],[-35.5151939,-7.585021],[-35.527211,-7.5699614],[-35.4949265,-7.4839115]],[[-35.7464175,-7.4749325],[-35.7562872,-7.4762624]],[[-34.8987059,-6.8658957],[-34.9112215,-6.8261596],[-34.9338983,-6.6968913],[-34.9550045,-6.6675271],[-34.9659405,-6.5977662],[-34.9684579,-6.4871999],[-34.9920675,-6.5014946],[-35.0285409,-6.5055226],[-35.0577321,-6.5277912],[-35.0955418,-6.4976777],[-35.1122327,-6.5078501],[-35.1454435,-6.5527097],[-35.1702989,-6.5583926],[-35.2323484,-6.5317766],[-35.2745652,-6.5438778],[-35.3307729,-6.5443414],[-35.3645125,-6.5120405]],[[-35.2635611,-6.9561491],[-35.2603719,-6.9555244]],[[-35.2603719,-6.9555244],[-35.254424,-6.9514758],[-35.2460618,-6.9552787],[-35.2235373,-6.948135],[-35.204495,-6.9408906],[-35.1830038,-6.9561578],[-35.1488395,-6.9439471]],[[-35.1488395,-6.9439471],[-35.1088934,-6.9376595]],[[-35.1088934,-6.9376595],[-35.0891621,-6.9398851],[-34.9499274,-6.894045],[-34.9232371,-6.8760282],[-34.91413,-6.8681321],[-34.9119763,-6.8657945],[-34.9098476,-6.8671945],[-34.8987059,-6.8658957]],[[-35.2861212,-7.3785614],[-35.2485947,-7.3747796],[-35.2167415,-7.3809382],[-35.1907413,-7.3978912],[-35.1556475,-7.3781143]],[[-35.1556475,-7.3781143],[-35.1813269,-7.3518233],[-35.1976153,-7.3188125],[-35.1811859,-7.2961435],[-35.1723761,-7.2674158],[-35.1480435,-7.2054861],[-35.1100918,-7.2301341],[-35.0672632,-7.2285016]],[[-35.0672632,-7.2285016],[-35.0402904,-7.1427321]],[[-35.0402904,-7.1427321],[-35.0592134,-7.081111],[-35.1578667,-7.0274713],[-35.1299033,-7.0084175],[-35.1454992,-6.9743144],[-35.1356023,-6.9448849]],[[-35.1356023,-6.9448849],[-35.1488395,-6.9439471]],[[-35.2603719,-6.9555244],[-35.2779471,-6.9693163]],[[-35.0591443,-7.256407],[-35.0435798,-7.2791597],[-34.9955857,-7.267272],[-34.9611371,-7.2826311],[-34.9238846,-7.2724511],[-34.9186613,-7.3034857],[-34.8569358,-7.3427944],[-34.8166505,-7.3525222],[-34.8157558,-7.3545089],[-34.8027274,-7.3879288]],[[-34.8027274,-7.3879288],[-34.7945268,-7.3329527],[-34.8025632,-7.3135207],[-34.8035074,-7.2137666],[-34.7931613,-7.1545605],[-34.8104519,-7.1450005],[-34.8329648,-7.0962199],[-34.8422771,-7.0574216],[-34.8296007,-7.0306713],[-34.8382057,-7.0117218],[-34.8641135,-7.0297305],[-34.8739579,-6.9860793],[-34.8549176,-6.969338],[-34.8644623,-6.9428717],[-34.853938,-6.9006149],[-34.8875589,-6.8831989],[-34.8987059,-6.8658957]],[[-35.1088934,-6.9376595],[-35.1356023,-6.9448849]],[[-35.0402904,-7.1427321],[-35.0674331,-7.2307578],[-35.0591443,-7.256407]],[[-35.1556475,-7.3781143],[-35.1537351,-7.3927294],[-35.107964,-7.405526],[-35.0705208,-7.398761],[-35.0295563,-7.4258206],[-34.9843501,-7.4635337],[-34.9842275,-7.5078883],[-34.9607869,-7.538766],[-34.9326776,-7.5285201],[-34.9173158,-7.5417697],[-34.8580231,-7.5379505],[-34.8278745,-7.551296],[-34.8093029,-7.5123384],[-34.8141774,-7.4900032],[-34.8027274,-7.3879288]],[[-35.0591443,-7.256407],[-35.0672632,-7.2285016]]],"bbox":[-38.7562792,-8.3029551,-34.7931613,-6.0265689]}
