{"type":"Topology","objects":{"geometrias":{"type":"GeometryCollection","geometries":[{"type":"Polygon","arcs":[[0,1,2]],"properties":{"code_micro":26001,"name_micro":"Araripina","code_state":26,"code_region":2,"abbrev_state":"PE","name_state":"Pernambuco","name_region":"Nordeste","year":2020}},{"type":"Polygon","arcs":[[3,4,5,6,7,8,-3]],"properties":{"code_micro":26002,"name_micro":"Salgueiro","code_state":26,"code_region":2,"abbrev_state":"PE","name_state":"Pernambuco","name_region":"Nordeste","year":2020}},{"type":"Polygon","arcs":[[9,-8,10,11,12,13]],"properties":{"code_micro":26003,"name_micro":"Pajeú","code_state":26,"code_region":2,"abbrev_state":"PE","name_state":"Pernambuco","name_region":"Nordeste","year":2020}},{"type":"Polygon","arcs":[[14,-14,15,16,17,18,19,20,21,22]],"properties":{"code_micro":26004,"name_micro":"Sertão do Moxotó","code_state":26,"code_region":2,"abbrev_state":"PE","name_state":"Pernambuco","name_region":"Nordeste","year":2020}},{"type":"Polygon","arcs":[[23,24,25,-4,-2]],"properties":{"code_micro":26005,"name_micro":"Petrolina","code_state":26,"code_region":2,"abbrev_state":"PE","name_state":"Pernambuco","name_region":"Nordeste","year":2020}},{"type":"Polygon","arcs":[[26,-17,27,-12,28,-6,29,-25]],"properties":{"code_micro":26006,"name_micro":"Itaparica","code_state":26,"code_region":2,"abbrev_state":"PE","name_state":"Pernambuco","name_region":"Nordeste","year":2020}},{"type":"Polygon","arcs":[[30,-19,31,32,33,34,-21]],"properties":{"code_micro":26007,"name_micro":"Vale do Ipanema","code_state":26,"code_region":2,"abbrev_state":"PE","name_state":"Pernambuco","name_region":"Nordeste","year":2020}},{"type":"Polygon","arcs":[[35,-23,36,-34,37,38,39,40,41,42,43,44,45,46,47]],"properties":{"code_micro":26008,"name_micro":"Vale do Ipojuca","code_state":26,"code_region":2,"abbrev_state":"PE","name_state":"Pernambuco","name_region":"Nordeste","year":2020}},{"type":"Polygon","arcs":[[48,-48,49,50]],"properties":{"code_micro":26009,"name_micro":"Alto Capibaribe","code_state":26,"code_region":2,"abbrev_state":"PE","name_state":"Pernambuco","name_region":"Nordeste","year":2020}},{"type":"Polygon","arcs":[[51,-51,52,-46,53,54,55,56]],"properties":{"code_micro":26010,"name_micro":"Médio Capibaribe","code_state":26,"code_region":2,"abbrev_state":"PE","name_state":"Pernambuco","name_region":"Nordeste","year":2020}},{"type":"Polygon","arcs":[[-33,57,58,59,60,-38]],"properties":{"code_micro":26011,"name_micro":"Garanhuns","code_state":26,"code_region":2,"abbrev_state":"PE","name_state":"Pernambuco","name_region":"Nordeste","year":2020}},{"type":"Polygon","arcs":[[61,-60,62,63,-40]],"properties":{"code_micro":26012,"name_micro":"Brejo Pernambucano","code_state":26,"code_region":2,"abbrev_state":"PE","name_state":"Pernambuco","name_region":"Nordeste","year":2020}},{"type":"Polygon","arcs":[[64,-57,65,66,67,68,69]],"properties":{"code_micro":26013,"name_micro":"Mata Setentrional Pernambucana","code_state":26,"code_region":2,"abbrev_state":"PE","name_state":"Pernambuco","name_region":"Nordeste","year":2020}},{"type":"Polygon","arcs":[[70,-55,71,-44,72,73,74,75,76,77,-67]],"properties":{"code_micro":26014,"name_micro":"Vitória de Santo Antão","code_state":26,"code_region":2,"abbrev_state":"PE","name_state":"Pernambuco","name_region":"Nordeste","year":2020}},{"type":"Polygon","arcs":[[-59,78,79,80,-74,81,-42,82,-63]],"properties":{"code_micro":26015,"name_micro":"Mata Meridional Pernambucana","code_state":26,"code_region":2,"abbrev_state":"PE","name_state":"Pernambuco","name_region":"Nordeste","year":2020}},{"type":"Polygon","arcs":[[83,84,-70]],"properties":{"code_micro":26016,"name_micro":"Itamaracá","code_state":26,"code_region":2,"abbrev_state":"PE","name_state":"Pernambuco","name_region":"Nordeste","year":2020}},{"type":"Polygon","arcs":[[-69,85,-77,86,87,-84]],"properties":{"code_micro":26017,"name_micro":"Recife","code_state":26,"code_region":2,"abbrev_state":"PE","name_state":"Pernambuco","name_region":"Nordeste","year":2020}},{"type":"Polygon","arcs":[[88,-87,-76,89,-80]],"properties":{"code_micro":26018,"name_micro":"Suape","code_state":26,"code_region":2,"abbrev_state":"PE","name_state":"Pernambuco","name_region":"Nordeste","year":2020}},{"type":"Polygon","arcs":[[90]],"properties":{"code_micro":26019,"name_micro":"Fernando de Noronha","code_state":26,"code_region":2,"abbrev_state":"PE","name_state":"Pernambuco","name_region":"Nordeste","year":2020}}]}},"arcs":[[[-39.3918692,-7.6081924],[-39.4196561,-7.6044123],[-39.4349335,-7.5737228],[-39.4730708,-7.5740235],[-39.4851642,-7.534449],[-39.4556775,-7.5018609],[-39.4607476,-7.471219],[-39.5023605,-7.4641484],[-39.5528279,-7.4806568],[-39.5715905,-7.4298313],[-39.6266246,-7.4270352],[-39.6457183,-7.3808781],[-39.7061889,-7.3377612],[-39.7413221,-7.3268166],[-39.8286958,-7.3323702],[-39.8576968,-7.3254287],[-39.8862817,-7.33931],[-39.926345,-7.3409989],[-40.000707,-7.3744783],[-40.0451637,-7.380745],[-40.1277543,-7.381915],[-40.1956847,-7.3581487],[-40.2629956,-7.3010209],[-40.3185632,-7.3033404],[-40.3582236,-7.3524921],[-40.3938781,-7.3681684],[-40.4335917,-7.3671782],[-40.5237232,-7.3184505],[-40.5415082,-7.3322691],[-40.5484637,-7.3926915],[-40.6523232,-7.4333422],[-40.6657054,-7.4509456],[-40.7012014,-7.4563563],[-40.715294,-7.487954],[-40.6773208,-7.5629432],[-40.6491182,-7.5907642],[-40.6265611,-7.6316836],[-40.6277497,-7.6849895],[-40.6718643,-7.7356058],[-40.6735695,-7.7616719],[-40.6451665,-7.786799],[-40.5684048,-7.8087586],[-40.538124,-7.8569373],[-40.5442221,-7.9645971],[-40.5987568,-8.0808577],[-40.6038677,-8.1036877],[-40.5896984,-8.1388083],[-40.6435661,-8.1575368],[-40.700588,-8.2026077],[-40.7110611,-8.2250615],[-40.782482,-8.253304],[-40.7800896,-8.2962729]],[[-40.7800896,-8.2962729],[-40.7638411,-8.3030638],[-40.757976,-8.3369324],[-40.7032144,-8.3473088],[-40.6556617,-8.3807038],[-40.6212548,-8.3680393],[-40.5731262,-8.3629574],[-40.543723,-8.3764624],[-40.4624636,-8.3609142],[-40.4442776,-8.3706364],[-40.4210677,-8.4043506],[-40.3801294,-8.4162625],[-40.3606987,-8.4446509],[-40.3574258,-8.4813931],[-40.3563823,-8.4996963],[-40.3436473,-8.5098293],[-40.3295616,-8.5171595],[-40.2966146,-8.501623],[-40.2875247,-8.4994619],[-40.2634183,-8.4987011],[-40.2504655,-8.5072388],[-40.2086479,-8.5027295],[-40.1905985,-8.5040886],[-40.1973512,-8.4614174],[-40.1818806,-8.4268178],[-40.1781544,-8.419497],[-40.1460019,-8.394625],[-40.1339892,-8.3607177],[-40.1087241,-8.3480915]],[[-40.1087241,-8.3480915],[-40.0873357,-8.3372144],[-40.2006818,-8.2559466],[-40.1894798,-8.1515293],[-40.1732888,-8.173009],[-40.1285293,-8.1538083],[-40.0778981,-8.1526523],[-40.0518497,-8.1720729],[-40.0059545,-8.170218],[-40.0023334,-8.1936093],[-39.9732004,-8.2187423],[-39.9151433,-8.2209362],[-39.9430437,-8.1425888],[-39.7626495,-7.9125509],[-39.5736374,-7.8708026],[-39.5695888,-7.7918589],[-39.576596,-7.7831756],[-39.5865664,-7.7651168],[-39.5828351,-7.7589198],[-39.5709186,-7.7433896],[-39.5125899,-7.7396397],[-39.5018241,-7.6797346],[-39.4079381,-7.6311413],[-39.3918692,-7.6081924]],[[-40.1087241,-8.3480915],[-40.082408,-8.3714433],[-40.0434766,-8.3642974],[-40.0222956,-8.3736822],[-40.00377,-8.3544902],[-39.9605766,-8.3786087],[-39.9400328,-8.3643659],[-39.8980486,-8.3736988],[-39.8510909,-8.3356187],[-39.809733,-8.3296119],[-39.7507295,-8.3439865],[-39.7450783,-8.3580837],[-39.6797706,-8.4392315],[-39.6702552,-8.3858606],[-39.6837256,-8.3505213],[-39.5666253,-8.2474536],[-39.5389817,-8.2375764],[-39.4956093,-8.2477698],[-39.4653887,-8.2229123],[-39.5243835,-8.2167814],[-39.538393,-8.2058235],[-39.5436115,-8.2001092],[-39.547748,-8.1890591],[-39.5387129,-8.1807535],[-39.4787237,-8.1553366],[-39.46392,-8.1398129],[-39.4298078,-8.1426364],[-39.4282412,-8.1317048],[-39.4280946,-8.129307],[-39.4167052,-8.1210854],[-39.395413,-8.0730147],[-39.3816578,-8.0667462],[-39.3718317,-8.0599061],[-39.3638977,-8.0535258],[-39.3000946,-8.0473773],[-39.3154663,-8.0924057],[-39.2947787,-8.1017049],[-39.2972201,-8.1531098],[-39.3173577,-8.1825961],[-39.3017992,-8.2273303],[-39.2494942,-8.2137982],[-39.2087319,-8.2272093],[-39.0465227,-8.3796619]],[[-39.0465227,-8.3796619],[-39.0414599,-8.3805005]],[[-39.0414599,-8.3805005],[-39.0091605,-8.3783003],[-38.9948435,-8.3709742],[-38.9970734,-8.3659087],[-38.9906379,-8.3569944],[-38.9827549,-8.3537994],[-38.927952,-8.3563701],[-38.9151354,-8.3338885],[-38.8509101,-8.2861644],[-38.8125344,-8.2352053],[-38.7393057,-8.2450225],[-38.6496402,-8.2914958],[-38.6285615,-8.3108311],[-38.571104,-8.2993636]],[[-38.571104,-8.2993636],[-38.5494524,-8.288318]],[[-38.5494524,-8.288318],[-38.5536735,-8.2703511],[-38.5496662,-8.2594448],[-38.5358419,-8.2515379],[-38.5365691,-8.2308835],[-38.5893258,-8.1281033],[-38.6205008,-8.0988213],[-38.6078515,-8.037302],[-38.5580428,-7.9400138],[-38.5553262,-7.9053076],[-38.6275567,-7.8220371],[-38.6235076,-7.7867567],[-38.5936274,-7.7543494]],[[-38.5936274,-7.7543494],[-38.6264385,-7.6947249],[-38.6867416,-7.6350403],[-38.7237265,-7.626884],[-38.7418222,-7.6483733],[-38.78371,-7.6673771],[-38.8121916,-7.6687972],[-38.8219622,-7.7147944],[-38.8688517,-7.7111798],[-38.8813975,-7.7474323],[-38.9395781,-7.7587726],[-38.9397983,-7.7915557],[-38.9822446,-7.8461256],[-39.0537557,-7.8193046],[-39.0853502,-7.8517125],[-39.0905551,-7.8096046],[-39.1063539,-7.7602263],[-39.1437127,-7.718547],[-39.1710014,-7.7152403],[-39.2083352,-7.6894803],[-39.250388,-7.698443],[-39.2703214,-7.6598973],[-39.3113886,-7.6552366],[-39.3918692,-7.6081924]],[[-37.3546405,-7.9546277],[-37.317624,-7.94277],[-37.3132594,-7.9113856],[-37.2873944,-7.9038765],[-37.2440935,-7.8738456],[-37.2471503,-7.8468039],[-37.2228137,-7.8362093],[-37.217416,-7.8066859],[-37.1915385,-7.7911694],[-37.1584813,-7.7923324],[-37.1406638,-7.750065],[-37.1545429,-7.7064038],[-37.1951312,-7.6520627],[-37.1979462,-7.6352979],[-37.1635694,-7.5747149],[-37.121524,-7.5361189],[-37.0538222,-7.5045686],[-37.0032533,-7.4963885],[-36.9842256,-7.4822617],[-37.0236157,-7.4338675],[-37.0129712,-7.4042887],[-37.0256234,-7.3860442],[-37.0674131,-7.38338],[-37.0856227,-7.3582564],[-37.1353148,-7.3466643],[-37.196674,-7.2946701],[-37.2341788,-7.2738869],[-37.2777628,-7.2751843],[-37.2883328,-7.2882889],[-37.3305857,-7.2882835],[-37.3857137,-7.3566938],[-37.4255124,-7.3529162],[-37.496038,-7.3648223],[-37.4876262,-7.3894195],[-37.5274041,-7.4483824],[-37.5279586,-7.4653107],[-37.6097708,-7.5080308],[-37.6303781,-7.532511],[-37.6558188,-7.5234166],[-37.706572,-7.5694668],[-37.7287319,-7.5797304],[-37.7558477,-7.6195218],[-37.740368,-7.6360853],[-37.7609745,-7.6668105],[-37.7858276,-7.6257982],[-37.8100395,-7.6438918],[-37.8571589,-7.6519689],[-37.8805967,-7.6836501],[-37.9239349,-7.7151119],[-37.9268505,-7.7299322],[-37.9705998,-7.7775769],[-38.003971,-7.7789864],[-38.0395816,-7.7481191],[-38.0713985,-7.7742344],[-38.0770694,-7.8305796],[-38.1161782,-7.8225602],[-38.1391963,-7.7862381],[-38.164219,-7.7799088],[-38.2385707,-7.8307261],[-38.2857074,-7.8309224],[-38.3025243,-7.7915012],[-38.2946014,-7.7779702],[-38.3266856,-7.6937045],[-38.3549779,-7.6784252],[-38.4095078,-7.7304933],[-38.4570834,-7.718107],[-38.4639757,-7.7308921],[-38.5249571,-7.7546448],[-38.5936274,-7.7543494]],[[-38.5494524,-8.288318],[-38.5465957,-8.289559]],[[-38.5465957,-8.289559],[-38.4995206,-8.3201938],[-38.5173684,-8.3986334],[-38.5150139,-8.4385036],[-38.4715195,-8.4063574],[-38.4419824,-8.3703082],[-38.4066096,-8.3057959],[-38.3676763,-8.2807881],[-38.3143215,-8.2916944],[-38.2907541,-8.285067],[-38.2631748,-8.2533617],[-38.2066939,-8.2854496],[-38.1786691,-8.2766656]],[[-38.1786691,-8.2766656],[-38.1776869,-8.2682097]],[[-38.1776869,-8.2682097],[-38.1631126,-8.2364449],[-38.1523617,-8.223385],[-38.1187744,-8.2210518],[-38.1065953,-8.1866573],[-38.0626591,-8.1481181],[-38.0327216,-8.141265],[-37.9820427,-8.083258],[-37.8813332,-8.0748541],[-37.8494536,-8.0838869],[-37.8005577,-8.0796004],[-37.7844274,-8.031649],[-37.7046111,-8.0037964],[-37.6733768,-7.955496],[-37.640579,-7.9240942],[-37.630487,-7.9002387],[-37.5852457,-7.8908191],[-37.5515745,-7.9237113],[-37.5777484,-7.9608763],[-37.5495286,-7.9897167],[-37.5319043,-7.9715682],[-37.4738751,-7.9654804],[-37.4254407,-7.940434],[-37.4031535,-7.9575279],[-37.3546405,-7.9546277]],[[-36.9082635,-8.2530931],[-36.9449468,-8.2752533],[-36.9602017,-8.3004673],[-36.9911563,-8.3029551],[-37.023037,-8.2885896],[-37.0402836,-8.2661796],[-37.0822268,-8.2618874],[-37.1229148,-8.2090664],[-37.1264516,-8.173684],[-37.1602253,-8.1704004],[-37.1586138,-8.1388694],[-37.1425578,-8.1179448],[-37.1568452,-8.0645345],[-37.1517946,-8.0094148],[-37.1927558,-7.9835727],[-37.2079199,-7.9518661],[-37.2373419,-7.9733068],[-37.2917793,-7.9653109],[-37.3397846,-7.9798045],[-37.3546405,-7.9546277]],[[-38.1776869,-8.2682097],[-38.1779373,-8.2796063]],[[-38.1779373,-8.2796063],[-38.1950266,-8.3138394],[-38.1677606,-8.3978734],[-38.0949535,-8.413531],[-38.0624151,-8.448925],[-38.0277195,-8.4594809],[-37.9666512,-8.4585825],[-37.9338979,-8.4390654],[-37.8941347,-8.3928393],[-37.8718427,-8.4075776],[-37.801372,-8.3728984],[-37.7851143,-8.3834166],[-37.7877056,-8.4135139],[-37.8529226,-8.5949824],[-37.9320373,-8.6176256],[-37.9750948,-8.6575357],[-38.0247335,-8.6523101],[-38.006482,-8.6800517],[-38.0054931,-8.9628362],[-37.9780853,-9.0197123],[-37.9573697,-8.9985778],[-37.9330569,-8.9982395],[-37.891967,-8.9637877],[-37.864856,-8.9595259],[-37.8485152,-8.9406038]],[[-37.8485152,-8.9406038],[-37.8203593,-8.9087038],[-37.8246288,-8.8859573],[-37.7947029,-8.8749931],[-37.7553619,-8.8463637],[-37.7416683,-8.8760777],[-37.7039225,-8.9219266],[-37.6988417,-8.9447222],[-37.6577778,-8.9926667],[-37.6376667,-9.0037778],[-37.5970513,-8.9690718],[-37.5559444,-8.9704722],[-37.5252942,-8.9543814]],[[-37.5252942,-8.9543814],[-37.5217463,-8.94928],[-37.5184615,-8.9383274],[-37.5006583,-8.9288988],[-37.4905931,-8.8863616],[-37.4486483,-8.880242],[-37.4245603,-8.858556],[-37.4116868,-8.8149092],[-37.3905144,-8.5108862],[-37.3630959,-8.405674],[-37.2494277,-8.3906443],[-37.2019069,-8.4186117],[-37.1490412,-8.4034596],[-37.1388649,-8.426555],[-37.0902199,-8.440786]],[[-37.0902199,-8.440786],[-37.0196271,-8.4879796]],[[-37.0196271,-8.4879796],[-37.0071079,-8.4466424],[-36.935521,-8.4480786],[-36.9243951,-8.4642086],[-36.9107534,-8.4485313],[-36.8968713,-8.4418961]],[[-36.8968713,-8.4418961],[-36.9103887,-8.4339871]],[[-36.9103887,-8.4339871],[-36.9484338,-8.3966444],[-36.9449191,-8.373464],[-36.9096372,-8.2956771],[-36.9082635,-8.2530931]],[[-40.7800896,-8.2962729],[-40.7927877,-8.3200313],[-40.8178961,-8.3204902],[-40.8193187,-8.3623573],[-40.8585913,-8.3796108],[-40.872523,-8.3574101],[-40.9076155,-8.3989872],[-40.9015354,-8.421627],[-40.925149,-8.4463261],[-40.9813794,-8.3979296],[-41.0073798,-8.4209291],[-41.0389906,-8.4318292],[-41.0575952,-8.477658],[-41.078927,-8.4725032],[-41.0904899,-8.5126255],[-41.1161848,-8.5372691],[-41.1483768,-8.5330293],[-41.1652615,-8.5778868],[-41.1985662,-8.5924771],[-41.2135429,-8.6441555],[-41.2513183,-8.6616086],[-41.287434,-8.6608391],[-41.3343516,-8.7276615],[-41.2815376,-8.7361004],[-41.2269785,-8.7047021],[-41.1764047,-8.7111943],[-41.1329,-8.7043243],[-41.1289892,-8.7433931],[-41.1033511,-8.780443],[-41.0362345,-8.7858759],[-41.0212409,-8.8435609],[-40.9790937,-8.8234171],[-40.9463832,-8.8449969],[-40.9272768,-8.8358909],[-40.9030382,-8.8586189],[-40.8812337,-8.9156278],[-40.8515959,-8.952499],[-40.8519585,-8.9825849],[-40.8252311,-9.0381866],[-40.820067,-9.0812587],[-40.7772606,-9.1006684],[-40.7098893,-9.140881],[-40.685094,-9.1376102],[-40.6673957,-9.1590592],[-40.6698732,-9.1861325],[-40.6945004,-9.2334556],[-40.6800885,-9.2592117],[-40.7200882,-9.3058967],[-40.7564219,-9.3150323],[-40.7372865,-9.3368708],[-40.7464789,-9.3710522],[-40.7430889,-9.4029455],[-40.7649756,-9.4132164],[-40.7672889,-9.4457041],[-40.7221786,-9.4459485],[-40.6813218,-9.467221],[-40.6231657,-9.4828974],[-40.5557585,-9.4579381],[-40.5408152,-9.4240433],[-40.5107266,-9.4071789],[-40.4741747,-9.4207922],[-40.4538185,-9.4035174],[-40.4358983,-9.3621587],[-40.4181453,-9.3520533],[-40.3912784,-9.3721668],[-40.3563971,-9.3769943],[-40.3077871,-9.2713207],[-40.2861727,-9.1856114],[-40.294012,-9.1520678],[-40.2731922,-9.0824216],[-40.2478641,-9.0577378],[-40.2134367,-9.0609811],[-40.1597208,-9.1078733],[-40.1298949,-9.1103046],[-40.0735397,-9.0753621],[-40.0655631,-9.0630652],[-39.9960306,-9.0609582],[-39.9580347,-9.0485916],[-39.8888191,-8.9658368],[-39.8734564,-8.9340387],[-39.8794186,-8.9019086],[-39.9012593,-8.8641588],[-39.8929577,-8.828794],[-39.8227319,-8.8135158],[-39.7887962,-8.8191096],[-39.7477853,-8.794041],[-39.6951287,-8.7995714],[-39.6746292,-8.7871572],[-39.673824,-8.7454614],[-39.6930366,-8.680512],[-39.6911317,-8.6623129],[-39.6100263,-8.6572107],[-39.5186123,-8.6039111],[-39.4856967,-8.5964458],[-39.4354904,-8.5633018],[-39.4160408,-8.5421279],[-39.3797936,-8.5328206],[-39.3451437,-8.5585006],[-39.2932156,-8.5606292],[-39.2726237,-8.583791]],[[-39.2726237,-8.583791],[-39.2409324,-8.5403796],[-39.2027543,-8.5122611],[-39.1665427,-8.4982125],[-39.1524062,-8.5112257],[-39.1030172,-8.4524757],[-39.081149,-8.4130701],[-39.0518352,-8.3848512]],[[-39.0518352,-8.3848512],[-39.0465227,-8.3796619]],[[-39.2726237,-8.583791],[-39.2478833,-8.6249988],[-39.2454926,-8.6841059],[-39.234268,-8.7053364],[-39.200781,-8.7109876],[-39.1687128,-8.6915045],[-39.1439462,-8.7125191],[-39.0375772,-8.7346909],[-38.9919113,-8.7675519],[-38.977432,-8.7930867],[-38.9519332,-8.8046682],[-38.8681044,-8.7838654],[-38.8040699,-8.7891811],[-38.7396837,-8.8448477],[-38.7065435,-8.8622606],[-38.6936588,-8.9029688],[-38.6892326,-8.9473956],[-38.6725158,-8.9739755],[-38.6407103,-8.9872682],[-38.6083358,-8.9498221],[-38.6075857,-8.893264],[-38.5704286,-8.8303691],[-38.5518427,-8.8226294],[-38.5124067,-8.830586],[-38.4798345,-8.8500889],[-38.4698714,-8.8746889],[-38.4793182,-8.9017437],[-38.5167987,-8.9332354],[-38.5035127,-8.9814111],[-38.4490997,-9.0263588],[-38.4035158,-9.0372331],[-38.3624418,-9.0009412],[-38.32354,-8.9900092],[-38.2896758,-9.0363344],[-38.3210421,-9.0700337],[-38.3186587,-9.1410017],[-38.287601,-9.1738839],[-38.2875128,-9.2171293],[-38.2505456,-9.2904806],[-38.23759,-9.3297945],[-38.2030806,-9.2969016],[-38.179554,-9.2912502],[-38.1573778,-9.2626192],[-38.1439087,-9.2182047],[-38.0922873,-9.172725],[-38.0639045,-9.1737805],[-38.0257874,-9.1555063],[-37.9793513,-9.148363],[-37.9515962,-9.0973095],[-37.9078751,-9.0522184],[-37.8775694,-9.035376],[-37.8795981,-9.0154139],[-37.8390986,-8.9783812],[-37.8485152,-8.9406038]],[[-38.1779373,-8.2796063],[-38.1786691,-8.2766656]],[[-38.5465957,-8.289559],[-38.571104,-8.2993636]],[[-39.0414599,-8.3805005],[-39.0518352,-8.3848512]],[[-37.0196271,-8.4879796],[-37.0229129,-8.4986976],[-37.0902199,-8.440786]],[[-37.5252942,-8.9543814],[-37.4923447,-8.9875552],[-37.4165025,-9.0065641],[-37.3586391,-9.0538891],[-37.2965722,-9.1209173],[-37.2822858,-9.1488418],[-37.2470816,-9.1790184],[-37.2335552,-9.2065858],[-37.2343415,-9.2401754],[-37.1983152,-9.2154825],[-37.1589467,-9.2391017],[-37.1643357,-9.2757055],[-37.1299203,-9.2600634],[-37.1164756,-9.2409307],[-37.0906725,-9.2463621],[-37.0571996,-9.2817884],[-37.0543223,-9.3023161]],[[-37.0543223,-9.3023161],[-37.024373,-9.2623174],[-36.9754604,-9.245804],[-36.9525517,-9.2119961],[-36.9501426,-9.1904828],[-36.9864519,-9.1339996],[-36.939997,-9.0675121],[-36.9251966,-9.0254799],[-36.9015596,-8.9971317],[-36.8678629,-8.8833926],[-36.8400253,-8.8837403],[-36.7780464,-8.9274461],[-36.7479814,-8.8874748],[-36.7769287,-8.8862851],[-36.7547063,-8.8280762],[-36.7802414,-8.7986205],[-36.7731973,-8.7319138],[-36.7022223,-8.723862]],[[-36.7022223,-8.723862],[-36.6900146,-8.670191],[-36.7249341,-8.648346],[-36.7291745,-8.607338],[-36.7834873,-8.5892659],[-36.7873076,-8.544513],[-36.826269,-8.5037459],[-36.8210889,-8.4173726],[-36.8501277,-8.4397208],[-36.8593371,-8.4527433],[-36.8725513,-8.4578002],[-36.882331,-8.4361013],[-36.9009234,-8.4398177]],[[-36.9009234,-8.4398177],[-36.8968713,-8.4418961]],[[-36.4437525,-7.9202593],[-36.4801364,-7.9247633],[-36.5520196,-7.8987141],[-36.5781999,-7.9152476],[-36.586861,-7.9586561],[-36.6108981,-7.9474292],[-36.6278515,-7.9864066],[-36.6278519,-8.0557493],[-36.6537909,-8.0703841],[-36.6403209,-8.1199106],[-36.6678453,-8.1242659],[-36.7188747,-8.1616222],[-36.7501424,-8.175704],[-36.7615697,-8.1962939],[-36.7943461,-8.1895216],[-36.8125112,-8.2052941],[-36.8617023,-8.2224268],[-36.9082635,-8.2530931]],[[-36.9103887,-8.4339871],[-36.9009234,-8.4398177]],[[-36.7022223,-8.723862],[-36.6282808,-8.7560964],[-36.6195217,-8.7713786],[-36.5777851,-8.7703329],[-36.5566158,-8.7577598],[-36.5368854,-8.783863],[-36.5065542,-8.7910646],[-36.5027609,-8.7891808],[-36.4940055,-8.7948809],[-36.4897219,-8.7974657],[-36.4906088,-8.79208],[-36.4911664,-8.7889443],[-36.4950366,-8.7863625],[-36.515952,-8.7702035],[-36.5146952,-8.7324948],[-36.4974282,-8.7081758],[-36.4675957,-8.6906705],[-36.4482229,-8.6577887],[-36.331892,-8.6147402],[-36.2737946,-8.5623537]],[[-36.2737946,-8.5623537],[-36.2733224,-8.5606449]],[[-36.2733224,-8.5606449],[-36.2175702,-8.4879659],[-36.1341213,-8.4283538],[-36.130986,-8.4013714],[-36.0981099,-8.3832004],[-36.0531961,-8.3758493],[-36.0404201,-8.383874],[-36.0223884,-8.3654353],[-35.9942044,-8.3718814],[-35.9923561,-8.3825304],[-35.971802,-8.3591026],[-35.9210159,-8.3659037],[-35.8994528,-8.385678],[-35.8689677,-8.3807359],[-35.8094897,-8.3612511],[-35.7904742,-8.3274188],[-35.7691928,-8.313468],[-35.7190281,-8.248886],[-35.7118289,-8.2246185],[-35.6589635,-8.2038093],[-35.6446312,-8.2874061],[-35.6142225,-8.344055],[-35.6346679,-8.3737695],[-35.5493428,-8.3516455]],[[-35.5493428,-8.3516455],[-35.5479546,-8.3391129]],[[-35.5479546,-8.3391129],[-35.5534178,-8.3422388],[-35.5629472,-8.3426307],[-35.5578724,-8.3295597],[-35.528746,-8.3152865],[-35.5295668,-8.3017261],[-35.5222965,-8.2999656],[-35.5097484,-8.3005309]],[[-35.5097484,-8.3005309],[-35.5130055,-8.2222858]],[[-35.5130055,-8.2222858],[-35.4836706,-8.202829],[-35.4868316,-8.1804837],[-35.4489974,-8.1698635],[-35.4388564,-8.1269627],[-35.4792741,-8.1044645]],[[-35.4792741,-8.1044645],[-35.4625058,-8.0938333]],[[-35.4625058,-8.0938333],[-35.5108002,-8.0576067],[-35.5834688,-8.0786263],[-35.6303286,-8.1040828],[-35.8357555,-8.1144436],[-35.8333773,-8.1066799],[-35.8372993,-8.0980715],[-35.8346422,-8.0827985],[-35.8360062,-8.0666362],[-35.8308866,-8.0642459],[-35.8260517,-8.0587343],[-35.8032485,-8.0444933],[-35.7859025,-8.0150932],[-35.7594936,-8.0118041],[-35.7621449,-8.0010448],[-35.7564334,-7.9803672],[-35.7577564,-7.9749365]],[[-35.7577564,-7.9749365],[-35.7639514,-7.9788141]],[[-35.7639514,-7.9788141],[-35.7866353,-7.9690416],[-35.8069582,-7.9794059],[-35.8784736,-7.9898048],[-35.8831791,-8.0016416],[-35.8869177,-8.0053507],[-35.8953976,-8.0010848],[-35.9066328,-8.0061839],[-35.9156472,-8.0046897],[-35.9285592,-7.9931824],[-35.9416954,-7.9961181],[-36.0054091,-7.9763393],[-36.0112558,-8.0040249],[-36.0428683,-8.0062153],[-36.0821222,-8.0222171],[-36.1118093,-7.9967135],[-36.1141735,-7.9710843],[-36.1497332,-7.9728667],[-36.2919434,-7.9436279],[-36.3271525,-7.9686186],[-36.3800489,-7.9368315],[-36.4007714,-7.938198],[-36.4437525,-7.9202593]],[[-35.6798889,-7.7035813],[-35.6972409,-7.6919398],[-35.7805775,-7.7383514],[-35.828499,-7.751649],[-35.8721183,-7.7495389],[-35.8838261,-7.7747796],[-35.9093578,-7.7925091],[-35.9328815,-7.7844259],[-36.0215873,-7.8102391],[-36.068992,-7.7809736],[-36.1433702,-7.7815622],[-36.1978732,-7.7903806],[-36.2166343,-7.7641042],[-36.254196,-7.7963868],[-36.2400121,-7.817681],[-36.2613329,-7.8320766],[-36.3091315,-7.8066872],[-36.3945385,-7.8076088],[-36.4299642,-7.8271115],[-36.4296952,-7.8865592],[-36.4437525,-7.9202593]],[[-35.7639514,-7.9788141],[-35.7407535,-7.9658103]],[[-35.7407535,-7.9658103],[-35.7140439,-7.959116],[-35.6882493,-7.9591549],[-35.6509599,-7.9346437],[-35.6917926,-7.8966321],[-35.6853722,-7.8698038],[-35.7090421,-7.8287222],[-35.7057502,-7.7755637],[-35.6709911,-7.7757712],[-35.6661517,-7.737051],[-35.6798889,-7.7035813]],[[-35.4958272,-7.5202124],[-35.5091839,-7.5174916],[-35.527211,-7.5699614],[-35.5151939,-7.585021],[-35.5316871,-7.6216661],[-35.5196319,-7.6400175],[-35.5595634,-7.66133],[-35.5865984,-7.650271],[-35.6146193,-7.6563094],[-35.6315236,-7.6812374],[-35.6798889,-7.7035813]],[[-35.7407535,-7.9658103],[-35.7577564,-7.9749365]],[[-35.4625058,-8.0938333],[-35.4430367,-8.0796153]],[[-35.4430367,-8.0796153],[-35.4390567,-8.03975],[-35.4656146,-8.0311391],[-35.4572379,-7.988958],[-35.3876154,-8.0034474]],[[-35.3876154,-8.0034474],[-35.3044594,-7.9416459]],[[-35.3044594,-7.9416459],[-35.323893,-7.9317339],[-35.405635,-7.8250436],[-35.4128388,-7.7404806],[-35.4456726,-7.6927185],[-35.4449392,-7.649736],[-35.4628695,-7.6171011],[-35.4517797,-7.5783019],[-35.4659562,-7.5509123],[-35.4896915,-7.5559444],[-35.4958272,-7.5202124]],[[-37.0543223,-9.3023161],[-37.0285133,-9.314017],[-37.0033646,-9.3526135],[-36.9554646,-9.3812511],[-36.9158205,-9.2990208],[-36.8674694,-9.2685315],[-36.8360412,-9.2886286],[-36.7617725,-9.271457],[-36.6446864,-9.3143715],[-36.605047,-9.3415082],[-36.5658282,-9.3271056],[-36.5718396,-9.2925828],[-36.4904055,-9.2612143],[-36.4871653,-9.2402014],[-36.4243709,-9.2260241],[-36.365704,-9.2226273],[-36.3276442,-9.2007677],[-36.3215198,-9.1853806],[-36.2647196,-9.1658626],[-36.2572548,-9.1401488],[-36.2668438,-9.1023818],[-36.2409616,-9.0993929],[-36.202797,-9.0668449],[-36.1985057,-9.0466767],[-36.1272786,-9.0336695],[-36.1043282,-8.9989293],[-36.1268105,-8.9812763],[-36.1224516,-8.9527343],[-36.0864106,-8.9440674],[-36.063935,-8.9153373],[-36.0332561,-8.9084191]],[[-36.0332561,-8.9084191],[-36.0611161,-8.8950777],[-36.1254878,-8.842348],[-36.0907114,-8.776868],[-36.0754601,-8.7705322]],[[-36.0754601,-8.7705322],[-36.076029,-8.7209083],[-36.1241962,-8.7154038],[-36.1817443,-8.664825],[-36.1948149,-8.7124079],[-36.2483116,-8.6553362],[-36.2683271,-8.6243995],[-36.2927904,-8.6312578]],[[-36.2927904,-8.6312578],[-36.2737946,-8.5623537]],[[-36.2733224,-8.5606449],[-36.2927904,-8.6312578]],[[-36.0754601,-8.7705322],[-36.0557862,-8.7550805],[-36.0273474,-8.7765593],[-35.9859464,-8.7809551],[-35.9669278,-8.7431426],[-35.8610589,-8.7512807],[-35.8451454,-8.7160947],[-35.8210313,-8.7089883],[-35.8072742,-8.6498618],[-35.8549913,-8.6136519],[-35.8387083,-8.5788258],[-35.8556161,-8.5389395],[-35.8257014,-8.5237986],[-35.813507,-8.5518957],[-35.8136355,-8.584883],[-35.7740041,-8.6002508],[-35.7137612,-8.5803368],[-35.6981526,-8.5472082],[-35.6412577,-8.5349291],[-35.6390219,-8.5517802],[-35.6207725,-8.54014],[-35.5963625,-8.5191871],[-35.5861083,-8.5149602],[-35.5490081,-8.4867515],[-35.5438411,-8.4798454],[-35.5536745,-8.4718938],[-35.5472952,-8.4695586],[-35.54655,-8.4527015],[-35.5657989,-8.4148309],[-35.5970307,-8.4127087],[-35.5663026,-8.3787053],[-35.5478557,-8.3568265]],[[-35.5478557,-8.3568265],[-35.5493428,-8.3516455]],[[-34.8630554,-7.712178],[-34.8336415,-7.6830836],[-34.8071664,-7.6184552],[-34.8251399,-7.5919467],[-34.8385936,-7.5443003],[-34.8673922,-7.5479595],[-34.9326776,-7.5285201],[-34.9607869,-7.538766],[-34.9842275,-7.5078883],[-34.9854187,-7.4620067],[-35.0705208,-7.398761],[-35.107964,-7.405526],[-35.1720667,-7.3880404],[-35.1907413,-7.3978912],[-35.2485947,-7.3747796],[-35.3090486,-7.4090439],[-35.3523559,-7.4223977],[-35.3511034,-7.4402615],[-35.4326034,-7.4723446],[-35.4503698,-7.4534114],[-35.4943121,-7.4822056],[-35.4958272,-7.5202124]],[[-35.3044594,-7.9416459],[-35.2999,-7.93693]],[[-35.2999,-7.93693],[-35.2567595,-7.9422469],[-35.177596,-7.9713773],[-35.1708864,-7.972412],[-35.1725675,-7.97501]],[[-35.1725675,-7.97501],[-35.1671599,-7.9731968]],[[-35.1671599,-7.9731968],[-35.098779,-7.9725098],[-35.076241,-7.9499983],[-35.0289287,-7.9338391],[-35.0484963,-7.9093481],[-35.096117,-7.886184],[-35.1220258,-7.8494775],[-35.1399618,-7.7922596]],[[-35.1399618,-7.7922596],[-35.1116678,-7.7409856],[-35.0992594,-7.7225361],[-35.0452041,-7.7444802],[-34.9885238,-7.7321913],[-34.9764675,-7.7335082],[-34.9619728,-7.7083189],[-34.9379942,-7.7051273],[-34.9279826,-7.6997637],[-34.9168758,-7.6869976],[-34.9111104,-7.6870833],[-34.8986798,-7.6824333],[-34.8954191,-7.6908946],[-34.8880263,-7.7099941],[-34.8777178,-7.7096869],[-34.8630554,-7.712178]],[[-35.2999,-7.93693],[-35.304719,-7.9419562],[-35.3876154,-8.0034474]],[[-35.4430367,-8.0796153],[-35.4792741,-8.1044645]],[[-35.5130055,-8.2222858],[-35.5093403,-8.3111706]],[[-35.5093403,-8.3111706],[-35.4706567,-8.2698274],[-35.4606553,-8.2656893],[-35.4546216,-8.2540087],[-35.4424945,-8.2502541],[-35.429011,-8.2533613],[-35.4235785,-8.2659345],[-35.4027536,-8.2568209],[-35.373114,-8.2775465],[-35.3706242,-8.2984169],[-35.3394371,-8.2947551],[-35.3004971,-8.3080864],[-35.2763169,-8.2851781]],[[-35.2763169,-8.2851781],[-35.2649558,-8.243067],[-35.2628339,-8.2404991]],[[-35.2628339,-8.2404991],[-35.2152509,-8.187562]],[[-35.2152509,-8.187562],[-35.2282148,-8.1545281],[-35.2255301,-8.1314926],[-35.1957694,-8.0795422],[-35.2044414,-8.0383715],[-35.2236306,-8.0208461],[-35.1858915,-7.9911962],[-35.1686773,-7.9860174],[-35.1651805,-7.9816925]],[[-35.1651805,-7.9816925],[-35.1725675,-7.97501]],[[-36.0332561,-8.9084191],[-36.0053839,-8.9130004],[-35.924276,-8.8846275],[-35.9114175,-8.8612891],[-35.8619307,-8.858369],[-35.8257482,-8.8703437],[-35.7962097,-8.8473997],[-35.7769157,-8.8692653],[-35.7829807,-8.8975421],[-35.748399,-8.9171517],[-35.6712041,-8.896634],[-35.517771,-8.8167578],[-35.4598277,-8.8377745],[-35.4112256,-8.836231],[-35.3945703,-8.849836],[-35.2527821,-8.887233],[-35.1682513,-8.8924711],[-35.1505733,-8.905436],[-35.1292056,-8.8665628],[-35.1343094,-8.8426906],[-35.1061176,-8.7731627],[-35.0860612,-8.7467111],[-35.0903289,-8.6949783],[-35.0475613,-8.6113008],[-35.065315,-8.5972142]],[[-35.065315,-8.5972142],[-35.0808421,-8.5564287],[-35.0775046,-8.5293193],[-35.1261,-8.51931],[-35.1679517,-8.4785599],[-35.202997,-8.4790237],[-35.2380528,-8.4174516],[-35.1707213,-8.355121],[-35.1540475,-8.3208466],[-35.1517431,-8.2791942],[-35.1957968,-8.2976953],[-35.236948,-8.2846136],[-35.2387127,-8.2719374],[-35.2435943,-8.2760188],[-35.2648857,-8.2556777],[-35.2659685,-8.2502495],[-35.2642631,-8.2476948],[-35.2648301,-8.242849]],[[-35.2648301,-8.242849],[-35.2763169,-8.2851781]],[[-35.5093403,-8.3111706],[-35.5097484,-8.3005309]],[[-35.5479546,-8.3391129],[-35.5478557,-8.3568265]],[[-35.1399618,-7.7922596],[-35.1001491,-7.8085367],[-35.068375,-7.8117165],[-35.0541057,-7.8800376],[-34.9772359,-7.9000251],[-34.923243,-7.8869241],[-34.8635437,-7.8907157],[-34.8550574,-7.8715244]],[[-34.8550574,-7.8715244],[-34.8407204,-7.8612455],[-34.8450402,-7.8130659],[-34.8231754,-7.751698],[-34.8318129,-7.6997774],[-34.8630554,-7.712178]],[[-35.1671599,-7.9731968],[-35.1651805,-7.9816925]],[[-35.2152509,-8.187562],[-35.1646333,-8.217335],[-35.1507904,-8.1863231],[-35.1092094,-8.1917279],[-35.0723368,-8.2219914],[-35.0070498,-8.2060394],[-34.9954195,-8.2242673],[-34.9579354,-8.2352755],[-34.9356405,-8.2388687]],[[-34.9356405,-8.2388687],[-34.9188004,-8.2147332],[-34.9122057,-8.1643792],[-34.8831631,-8.1014769],[-34.8570725,-8.0257188],[-34.8403742,-8.0080928],[-34.8233996,-7.9464312],[-34.8237479,-7.8882217],[-34.8550574,-7.8715244]],[[-35.065315,-8.5972142],[-35.0035784,-8.5492436],[-35.0024139,-8.4988527],[-34.9605527,-8.39567],[-34.9742406,-8.384646],[-34.9549898,-8.3556202],[-34.9518384,-8.2985745],[-34.9356405,-8.2388687]],[[-35.2628339,-8.2404991],[-35.2648301,-8.242849]],[[-32.4015946,-3.8261642],[-32.4487363,-3.8561471],[-32.3972852,-3.8567615],[-32.4015946,-3.8261642]]],"bbox":[-41.3343516,-9.4828974,-32.3972852,-3.8261642]}
