{"type":"Topology","objects":{"geometrias":{"type":"GeometryCollection","geometries":[{"type":"Polygon","arcs":[[0,1,2,3]],"properties":{"code_micro":32001,"name_micro":"Barra de São Francisco","code_state":32,"code_region":3,"abbrev_state":"ES","name_state":"Espírito Santo","name_region":"Sudeste","year":2020}},{"type":"Polygon","arcs":[[4,-2,5,6,7,8,9,10,11]],"properties":{"code_micro":32002,"name_micro":"Nova Venécia","code_state":32,"code_region":3,"abbrev_state":"ES","name_state":"Espírito Santo","name_region":"Sudeste","year":2020}},{"type":"Polygon","arcs":[[12,13,14,15,16,17,18,-6]],"properties":{"code_micro":32003,"name_micro":"Colatina","code_state":32,"code_region":3,"abbrev_state":"ES","name_state":"Espírito Santo","name_region":"Sudeste","year":2020}},{"type":"Polygon","arcs":[[19,-12,20,21,22,-4]],"properties":{"code_micro":32004,"name_micro":"Montanha","code_state":32,"code_region":3,"abbrev_state":"ES","name_state":"Espírito Santo","name_region":"Sudeste","year":2020}},{"type":"Polygon","arcs":[[23,-10,24,25,26,-22]],"properties":{"code_micro":32005,"name_micro":"São Mateus","code_state":32,"code_region":3,"abbrev_state":"ES","name_state":"Espírito Santo","name_region":"Sudeste","year":2020}},{"type":"Polygon","arcs":[[27,28,29,30,31,32,33,-26,34,-8,35,-18,36,37]],"properties":{"code_micro":32006,"name_micro":"Linhares","code_state":32,"code_region":3,"abbrev_state":"ES","name_state":"Espírito Santo","name_region":"Sudeste","year":2020}},{"type":"Polygon","arcs":[[38,39,40,41,42,43,44,45,46,47,48,-14,49,50]],"properties":{"code_micro":32007,"name_micro":"Afonso Cláudio","code_state":32,"code_region":3,"abbrev_state":"ES","name_state":"Espírito Santo","name_region":"Sudeste","year":2020}},{"type":"Polygon","arcs":[[51,52,53,-29,54,-38,55,-16,56,-48]],"properties":{"code_micro":32008,"name_micro":"Santa Teresa","code_state":32,"code_region":3,"abbrev_state":"ES","name_state":"Espírito Santo","name_region":"Sudeste","year":2020}},{"type":"MultiPolygon","arcs":[[[57]],[[-46,58,59,60,-33,61,-31,62,-53,63]]],"properties":{"code_micro":32009,"name_micro":"Vitória","code_state":32,"code_region":3,"abbrev_state":"ES","name_state":"Espírito Santo","name_region":"Sudeste","year":2020}},{"type":"Polygon","arcs":[[64,65,66,67,68,-60,69,-44,70,71]],"properties":{"code_micro":32010,"name_micro":"Guarapari","code_state":32,"code_region":3,"abbrev_state":"ES","name_state":"Espírito Santo","name_region":"Sudeste","year":2020}},{"type":"Polygon","arcs":[[72,73,74,-51]],"properties":{"code_micro":32011,"name_micro":"Alegre","code_state":32,"code_region":3,"abbrev_state":"ES","name_state":"Espírito Santo","name_region":"Sudeste","year":2020}},{"type":"Polygon","arcs":[[75,76,77,78,79,80,-72,81,-42,82,-40,83,-74]],"properties":{"code_micro":32012,"name_micro":"Cachoeiro de Itapemirim","code_state":32,"code_region":3,"abbrev_state":"ES","name_state":"Espírito Santo","name_region":"Sudeste","year":2020}},{"type":"Polygon","arcs":[[84,-78,85,86,-68,87,-66,88,-80]],"properties":{"code_micro":32013,"name_micro":"Itapemirim","code_state":32,"code_region":3,"abbrev_state":"ES","name_state":"Espírito Santo","name_region":"Sudeste","year":2020}}]}},"arcs":[[[-40.6617346,-18.018792],[-40.6633946,-18.0118252],[-40.6905241,-18.0127127],[-40.7053699,-18.0238854],[-40.716166,-18.0046171],[-40.725769,-18.0012172],[-40.7507676,-18.0099088],[-40.7717685,-18.0033881],[-40.7709306,-17.986422],[-40.7918768,-17.9714831],[-40.8081616,-17.9520472],[-40.8249709,-17.963698],[-40.8305529,-17.95418],[-40.8477314,-17.9675094],[-40.8631315,-17.9883169],[-40.8778643,-17.9817258],[-40.902823,-17.9877122],[-40.8869894,-18.000641],[-40.7733033,-18.1075627],[-40.7714961,-18.15594],[-40.7937126,-18.1601538],[-40.8052169,-18.1529703],[-40.8450758,-18.149813],[-40.8775551,-18.1194293],[-40.8890108,-18.1240161],[-40.9092833,-18.1148302],[-40.9322096,-18.1364835],[-40.9500038,-18.1292866],[-40.9545374,-18.1544944],[-40.9741926,-18.142105],[-40.9870344,-18.146774],[-40.9932169,-18.1662347],[-41.0105946,-18.1673998],[-41.0145895,-18.1575794],[-41.0560846,-18.1666211],[-41.0665525,-18.1809131],[-41.0927345,-18.1954013],[-41.1044479,-18.2132768],[-41.0971916,-18.2565812],[-41.1411088,-18.2912915],[-41.1589207,-18.3082435],[-41.1474978,-18.3533812],[-41.1481022,-18.3791507],[-41.1595989,-18.3814586],[-41.160448,-18.4027983],[-41.1807981,-18.4326826],[-41.1730831,-18.4427969],[-41.0230287,-18.4572609],[-41.0158793,-18.4767544],[-41.0419885,-18.6054031],[-41.0328606,-18.6076148],[-41.0508923,-18.634154],[-41.0287477,-18.6467293],[-41.0052269,-18.667277],[-40.9765289,-18.6770808],[-40.9520614,-18.6808294],[-40.9414976,-18.6892947],[-40.9400042,-18.7702862],[-40.9167726,-18.8155434],[-40.9380273,-18.8316986],[-40.9639135,-18.8411701],[-41.0191307,-18.837302],[-41.0837074,-18.8365836],[-41.1105065,-18.8389374],[-41.1341302,-18.7960413],[-41.1474779,-18.7980842],[-41.2325444,-18.7972788],[-41.2454775,-18.8219591],[-41.237822,-18.834765],[-41.2429684,-18.8545365],[-41.2301038,-18.8583706],[-41.2147844,-18.8776398],[-41.1990073,-18.8633344],[-41.1663607,-18.8582317],[-41.1529583,-18.8866091],[-41.1268471,-18.8945065],[-41.1036739,-18.9340607],[-41.0902509,-18.9348061],[-41.0792423,-18.9385384],[-41.0786194,-18.9476905],[-41.0700597,-18.9417258],[-41.0632353,-18.9450103],[-40.9059985,-18.9404624]],[[-40.9059985,-18.9404624],[-40.8979401,-18.9013022],[-40.8810815,-18.8929224],[-40.8607042,-18.8956603],[-40.8627135,-18.8650135],[-40.8471863,-18.8571367],[-40.8340547,-18.8609461],[-40.8274484,-18.8482425],[-40.8027952,-18.843798],[-40.7925456,-18.8578716],[-40.7640225,-18.8511542],[-40.7573265,-18.8330504],[-40.773373,-18.7945952],[-40.7584947,-18.7937205],[-40.7484012,-18.7708119],[-40.7330245,-18.7692075],[-40.7191126,-18.7571703],[-40.7122183,-18.7127556],[-40.6822432,-18.6913272],[-40.6852866,-18.6848204],[-40.7158053,-18.6823917],[-40.7296622,-18.6612823],[-40.7230082,-18.6310316],[-40.721564,-18.604849],[-40.7328388,-18.5873767],[-40.7464397,-18.6011263],[-40.7663111,-18.5952867],[-40.7649844,-18.6126526],[-40.7801571,-18.6204458],[-40.7941883,-18.6137443],[-40.7945278,-18.5995653],[-40.7703936,-18.5949819],[-40.7592526,-18.5770372],[-40.7047366,-18.5631115],[-40.6847577,-18.5355127],[-40.662367,-18.5172724],[-40.6375688,-18.5159506],[-40.6224428,-18.5044689],[-40.5920672,-18.4905563],[-40.5617415,-18.4869253],[-40.5502323,-18.4939899],[-40.5223858,-18.4880258],[-40.5267331,-18.4683518],[-40.567096,-18.4431325],[-40.5945258,-18.4340181],[-40.5969169,-18.4251262],[-40.6054125,-18.4083572]],[[-40.6054125,-18.4083572],[-40.5829475,-18.3683837],[-40.5806513,-18.3564503]],[[-40.5806513,-18.3564503],[-40.5746282,-18.3491741],[-40.5862195,-18.3400939],[-40.6048752,-18.340598],[-40.6111733,-18.2979971],[-40.6188435,-18.2874965],[-40.5585455,-18.230713],[-40.5453462,-18.2004402],[-40.5562664,-18.1766606],[-40.555817,-18.1585403],[-40.5622716,-18.1456879],[-40.5626376,-18.1295264],[-40.5571214,-18.1189307],[-40.5788984,-18.0960626],[-40.5903791,-18.1093574],[-40.6138637,-18.0909875],[-40.6278777,-18.0672302],[-40.6405206,-18.0338448],[-40.6617346,-18.018792]],[[-40.5764879,-18.3633096],[-40.5807902,-18.3702177],[-40.5832487,-18.3685803],[-40.6054125,-18.4083572]],[[-40.9059985,-18.9404624],[-40.8578491,-18.9403677],[-40.858751,-19.021668],[-40.8145642,-19.0173389],[-40.8039565,-19.0238939],[-40.7830694,-19.0209664],[-40.7786946,-19.0017732],[-40.7575388,-18.9984414],[-40.7512703,-19.0122548],[-40.7297202,-19.0344179],[-40.7241695,-19.0543167],[-40.7035754,-19.0609596],[-40.7147147,-19.0775774],[-40.7175063,-19.0974401],[-40.7125913,-19.1085569],[-40.6857094,-19.1104116],[-40.6724359,-19.097465],[-40.654697,-19.0898015],[-40.6165258,-19.0820439],[-40.5980806,-19.06258],[-40.5738424,-19.0651591],[-40.5606114,-19.0467749],[-40.5313679,-19.0513521],[-40.5148192,-19.0600314],[-40.4658008,-19.045745],[-40.4441474,-19.0521195],[-40.4295088,-19.0736611],[-40.4170709,-19.0749474],[-40.3780327,-19.0850705]],[[-40.3780327,-19.0850705],[-40.3734987,-19.0779201]],[[-40.3734987,-19.0779201],[-40.3654074,-19.066281],[-40.3466146,-19.0832074],[-40.3237753,-19.0762533],[-40.3048885,-19.0842991],[-40.2920804,-19.0795125],[-40.263886,-19.0328932],[-40.2063254,-18.9066397]],[[-40.2063254,-18.9066397],[-40.2048084,-18.8994415]],[[-40.2048084,-18.8994415],[-40.2057568,-18.8849013],[-40.2263256,-18.8776043],[-40.262633,-18.8371054],[-40.2936735,-18.8414184],[-40.317929,-18.8505273],[-40.3473585,-18.845184],[-40.3615012,-18.8467131],[-40.3682919,-18.8476304],[-40.3757475,-18.8474896],[-40.3859739,-18.8480223],[-40.4016915,-18.8509207],[-40.4055892,-18.8346045],[-40.4030692,-18.8305484],[-40.3943653,-18.8210765],[-40.3945158,-18.7817654],[-40.3481737,-18.7454333],[-40.3364149,-18.7258328],[-40.2842707,-18.5767975],[-40.2740621,-18.5776968],[-40.2546837,-18.5669628],[-40.2300266,-18.5826419],[-40.1650159,-18.5443423],[-40.1653966,-18.5202884],[-40.1583402,-18.5102561],[-40.1327698,-18.4975084]],[[-40.1327698,-18.4975084],[-40.1290458,-18.4870734]],[[-40.1290458,-18.4870734],[-40.1311405,-18.4880178],[-40.1364893,-18.4864618],[-40.1590268,-18.4747555],[-40.183683,-18.4732321],[-40.2065619,-18.4902048],[-40.2525347,-18.4958257],[-40.2573093,-18.4949073],[-40.2647116,-18.4961342],[-40.272934,-18.4920762],[-40.2823444,-18.4844627],[-40.3082478,-18.4568],[-40.3195016,-18.4389008],[-40.3251415,-18.4106237],[-40.3548935,-18.3777595],[-40.3862542,-18.3793502],[-40.4021361,-18.3854722],[-40.4322644,-18.3616007],[-40.4870027,-18.37736],[-40.4509054,-18.4067168],[-40.4587087,-18.4103811],[-40.4825551,-18.4111588],[-40.491713,-18.41003],[-40.4967716,-18.3902199],[-40.5097958,-18.3903112],[-40.5261727,-18.3691725],[-40.538881,-18.3599803],[-40.5608444,-18.3636869],[-40.5729069,-18.3623453],[-40.5764879,-18.3633096]],[[-40.9059985,-18.9404624],[-41.0647451,-18.9447204],[-41.0589296,-18.9683798],[-41.0322203,-18.9908474],[-41.0617701,-19.0063175],[-41.0717907,-19.0238478],[-41.0655566,-19.0513321],[-41.0538522,-19.0688643],[-41.0126044,-19.0758017],[-41.0087437,-19.0993299],[-40.9922807,-19.1019206],[-40.9695683,-19.1228915],[-40.9561158,-19.129113],[-40.9405567,-19.1633044],[-40.9383542,-19.1833712],[-40.9264989,-19.1885475],[-40.9310227,-19.2224219],[-40.9415507,-19.2301311],[-40.9386484,-19.2493826],[-40.9201958,-19.2518208],[-40.9217079,-19.2701228],[-40.9439683,-19.2786701],[-40.9327768,-19.296053],[-40.9076927,-19.3088127],[-40.9221602,-19.320177],[-40.9384679,-19.3460655],[-40.939637,-19.3586334],[-40.9281839,-19.3679063],[-40.9304484,-19.3841516],[-40.9507131,-19.3929999],[-40.9622149,-19.4084294],[-40.96792,-19.4304373],[-40.9502249,-19.4581991],[-40.9535719,-19.4734409],[-40.9711934,-19.4946019],[-40.9722382,-19.505295],[-40.9882782,-19.5079403],[-41.0190737,-19.5048815],[-41.0466927,-19.4873997],[-41.0496627,-19.5030204],[-41.0409019,-19.5159214],[-41.0449672,-19.5385621],[-41.0368602,-19.570457],[-41.0719177,-19.5844082],[-41.0741098,-19.5986638],[-41.0900254,-19.5957383],[-41.0993102,-19.6042054],[-41.1086014,-19.6394668],[-41.1278053,-19.641611],[-41.1386263,-19.6587247],[-41.1574989,-19.6610825],[-41.1684728,-19.6722227],[-41.1768883,-19.6986979],[-41.1743057,-19.7156371],[-41.188713,-19.7461752],[-41.1745675,-19.763055]],[[-41.1745675,-19.763055],[-41.150091,-19.7640524],[-41.1413064,-19.7687262],[-41.1391957,-19.7712007],[-41.1241034,-19.7780064],[-41.1248479,-19.7886697],[-41.0969435,-19.7876021],[-41.055179,-19.762841],[-41.0346379,-19.7922773],[-41.0233563,-19.7821067],[-41.0151121,-19.7981202],[-41.0049953,-19.8056866],[-41.0003002,-19.8035852],[-40.9937864,-19.8009599]],[[-40.9937864,-19.8009599],[-40.9968961,-19.7877003]],[[-40.9968961,-19.7877003],[-40.9907199,-19.7605592],[-40.9811647,-19.7476798],[-40.9844416,-19.7413225],[-40.9827206,-19.7405314],[-40.97704,-19.7322591],[-40.9729241,-19.72524],[-40.9476113,-19.7207617],[-40.9298471,-19.6961778],[-40.9224351,-19.697151],[-40.9239239,-19.6895224],[-40.937216,-19.643943],[-40.927983,-19.6322029],[-40.9380077,-19.6209012],[-40.9327818,-19.6186112],[-40.9225689,-19.6041199],[-40.8826364,-19.5924948],[-40.8766532,-19.576515],[-40.8609461,-19.5671341],[-40.8407971,-19.5614971],[-40.8526029,-19.5781434],[-40.8557584,-19.6096799],[-40.8431798,-19.6189581],[-40.8249989,-19.6060754],[-40.8231236,-19.5933375],[-40.8047536,-19.5952718],[-40.7874777,-19.583003],[-40.7827082,-19.5821408],[-40.7850087,-19.5962479],[-40.7741025,-19.6156396],[-40.7796779,-19.6335488],[-40.7712506,-19.6478424],[-40.7632333,-19.6502806],[-40.7260712,-19.6419821],[-40.7241533,-19.6264325],[-40.7072125,-19.6264916],[-40.6791066,-19.6268889],[-40.6713446,-19.6240381],[-40.6529213,-19.6432815],[-40.6033068,-19.6731112],[-40.5963544,-19.6653699],[-40.5816935,-19.6844367],[-40.5674537,-19.6847349],[-40.5531788,-19.7099276],[-40.5440721,-19.7101953]],[[-40.5440721,-19.7101953],[-40.5273416,-19.7156003]],[[-40.5273416,-19.7156003],[-40.5167442,-19.6776405],[-40.4979441,-19.653726],[-40.4878366,-19.6516583],[-40.4813975,-19.6416816],[-40.4748712,-19.6422081],[-40.4632383,-19.6306548],[-40.4187455,-19.6413151],[-40.3729619,-19.6196824],[-40.3757646,-19.5983247],[-40.3832239,-19.5809384],[-40.3884679,-19.5621458],[-40.3711229,-19.5522675],[-40.3719615,-19.5466187],[-40.3756585,-19.5312164],[-40.3923689,-19.5101519],[-40.4165788,-19.5087954],[-40.431361,-19.4931124],[-40.4305009,-19.4837152],[-40.4450174,-19.4500321],[-40.4385466,-19.4330005],[-40.4564207,-19.4180842],[-40.4531454,-19.4092072],[-40.46475,-19.3922843],[-40.4776317,-19.383966],[-40.4800659,-19.3645532],[-40.4966261,-19.3589592],[-40.5153323,-19.3431613],[-40.5293232,-19.3454075],[-40.5245403,-19.3310116],[-40.5088982,-19.3194267],[-40.5074557,-19.3072775],[-40.4904505,-19.2981357],[-40.4854829,-19.2868539],[-40.4720719,-19.293789],[-40.461594,-19.2797643],[-40.4432278,-19.2914813],[-40.4349315,-19.2796545],[-40.4204631,-19.2382321],[-40.4181137,-19.2189152],[-40.403147,-19.1984751],[-40.4122767,-19.1889758],[-40.3991798,-19.1481529],[-40.402051,-19.1358468],[-40.3869178,-19.1133876],[-40.3650477,-19.0957048],[-40.3736827,-19.0810099]],[[-40.3736827,-19.0810099],[-40.3780327,-19.0850705]],[[-40.5806513,-18.3564503],[-40.5764879,-18.3633096]],[[-40.1290458,-18.4870734],[-40.1145771,-18.4880484]],[[-40.1145771,-18.4880484],[-40.0906238,-18.488246],[-40.0792169,-18.4821785],[-40.0726398,-18.4744626],[-40.0684263,-18.4705098],[-40.0442815,-18.4471139],[-40.0332874,-18.445208],[-40.0256921,-18.44384],[-40.0174412,-18.4379813],[-40.0078879,-18.4361203],[-39.9742101,-18.4376148],[-39.9516839,-18.4288467],[-39.9368318,-18.4119191],[-39.9389692,-18.3994104],[-39.9590961,-18.3450854],[-39.9572941,-18.3109095],[-39.9654113,-18.2975151],[-39.9903947,-18.2869493],[-40.0452689,-18.2911864],[-40.0675497,-18.2784039],[-40.1012333,-18.2807475],[-40.1141606,-18.2780215],[-40.1299146,-18.2741818],[-40.0908947,-18.1801929],[-40.0950505,-18.1605987],[-40.0989941,-18.1588358],[-40.1060294,-18.1486546],[-40.1085014,-18.1403909],[-40.1050403,-18.1335095],[-40.0956502,-18.1091164],[-40.0990473,-18.1053278],[-40.1103622,-18.0910778],[-40.1281018,-18.0883044],[-40.143444,-18.0738713],[-40.147619,-18.0722939],[-40.1675649,-18.0607056],[-40.1711262,-18.0547027],[-40.1850758,-18.0325255],[-40.2079348,-18.0241843],[-40.2186369,-17.9988298],[-40.2203815,-17.981638]],[[-40.2203815,-17.981638],[-40.2553548,-17.9717994],[-40.2909945,-17.9518495],[-40.3234355,-17.9389442],[-40.3339556,-17.9273598],[-40.3530169,-17.9296906],[-40.3678286,-17.9226325],[-40.3864517,-17.9284381],[-40.4032391,-17.923528],[-40.4174187,-17.9270343],[-40.4484073,-17.9186199],[-40.462738,-17.9282124],[-40.4841295,-17.9086447],[-40.5033329,-17.9106792],[-40.5168219,-17.8944233],[-40.5270378,-17.8919446],[-40.5403603,-17.9028243],[-40.5679302,-17.9160293],[-40.5847119,-17.9181666],[-40.5871613,-17.9390208],[-40.6095329,-17.9376588],[-40.621884,-17.960566],[-40.6261519,-17.9910539],[-40.6460308,-17.9935612],[-40.6617346,-18.018792]],[[-40.1145771,-18.4880484],[-40.1327698,-18.4975084]],[[-40.2048084,-18.8994415],[-40.2046257,-18.9074118]],[[-40.2046257,-18.9074118],[-40.2042046,-18.9109017],[-40.194549,-18.9176366],[-40.1860482,-18.9386866],[-40.1649523,-18.9534866],[-40.1306199,-18.9657753],[-40.1047751,-18.9702277],[-40.0715101,-18.9840081],[-40.0416684,-18.984195],[-39.9999274,-18.9958699],[-39.9789771,-19.0079167],[-39.9475958,-19.0478175],[-39.9318866,-19.0528756],[-39.9172988,-19.059494],[-39.8936322,-19.0530647],[-39.8764788,-19.0509806],[-39.8814343,-19.063218],[-39.8700723,-19.0760401],[-39.883771,-19.0917369],[-39.8819512,-19.0981156],[-39.8788402,-19.0964767],[-39.8766107,-19.1047905],[-39.8555962,-19.1173253],[-39.8402985,-19.1243966],[-39.839838,-19.1288087],[-39.8373137,-19.1376034],[-39.7642083,-19.1605489],[-39.7514862,-19.158614],[-39.7316008,-19.1400764],[-39.7226543,-19.1395149],[-39.7192891,-19.0969664]],[[-39.7192891,-19.0969664],[-39.7356351,-18.9775905],[-39.7427941,-18.9360835],[-39.7446131,-18.8933533],[-39.7497524,-18.8380728],[-39.745105,-18.6860697],[-39.7406804,-18.6504792],[-39.7283871,-18.6110842],[-39.7306724,-18.5818102],[-39.7282224,-18.518274],[-39.7147528,-18.4619453],[-39.6884731,-18.3891368],[-39.6719833,-18.3534215],[-39.6660146,-18.3332183],[-39.6889474,-18.3208315],[-40.2203815,-17.981638]],[[-40.521211,-19.8156568],[-40.5020653,-19.8580038],[-40.5045204,-19.8693219]],[[-40.5045204,-19.8693219],[-40.5028913,-19.8772713],[-40.4775056,-19.9046355],[-40.4744538,-19.9370448],[-40.452759,-19.9372055],[-40.4472649,-19.9948783],[-40.4180715,-20.0121881]],[[-40.4180715,-20.0121881],[-40.4126083,-20.0184178]],[[-40.4126083,-20.0184178],[-40.3858297,-20.015824],[-40.3736857,-20.0228409],[-40.356673,-20.04879],[-40.3441182,-20.0366299],[-40.2958217,-20.0228662],[-40.243715,-20.041341],[-40.2338548,-20.0424921],[-40.2284896,-20.0259826],[-40.2205061,-20.0283216],[-40.2133971,-20.0291418],[-40.1993972,-20.0355169]],[[-40.1993972,-20.0355169],[-40.1900261,-20.0453976]],[[-40.1900261,-20.0453976],[-40.1947607,-20.049183]],[[-40.1947607,-20.049183],[-40.1877324,-20.0448898],[-40.1836309,-20.0397075],[-40.1589145,-20.0358822],[-40.1594437,-20.0206665],[-40.1483099,-20.0058987],[-40.1350262,-19.9595744],[-40.1360006,-19.9415156],[-40.1022134,-19.9213309],[-40.0981801,-19.9051688],[-40.0829838,-19.8759643],[-40.0691033,-19.8619978],[-40.0573254,-19.8370981],[-40.0556835,-19.8169358],[-40.0299893,-19.7832651],[-39.9962029,-19.7502498],[-39.9394519,-19.7046491],[-39.9043311,-19.6828791],[-39.8496964,-19.6601677],[-39.8108024,-19.6496129],[-39.8090039,-19.63416],[-39.7784822,-19.5763782],[-39.7304632,-19.468371],[-39.7049824,-19.3984336],[-39.6962169,-19.365531],[-39.6891136,-19.306034],[-39.6894308,-19.2891696],[-39.7039499,-19.2091173],[-39.7192891,-19.0969664]],[[-40.2046257,-18.9074118],[-40.2063254,-18.9066397]],[[-40.3734987,-19.0779201],[-40.3736827,-19.0810099]],[[-40.5273416,-19.7156003],[-40.5211204,-19.7284854]],[[-40.5211204,-19.7284854],[-40.5182023,-19.7326186],[-40.5265596,-19.7861182],[-40.5327024,-19.7976687],[-40.521211,-19.8156568]],[[-41.3276678,-20.4975468],[-41.3218714,-20.4962778]],[[-41.3218714,-20.4962778],[-41.3030405,-20.5177023],[-41.2920447,-20.5135174],[-41.2801576,-20.5078849],[-41.2833164,-20.4879598],[-41.262223,-20.4862857],[-41.2424229,-20.5001049],[-41.2330108,-20.4895814],[-41.2100127,-20.4910406],[-41.2077092,-20.4795535],[-41.225413,-20.4612599],[-41.209565,-20.4462411],[-41.1663915,-20.4458958],[-41.1624687,-20.423477],[-41.1424762,-20.4315706],[-41.1195593,-20.4251341],[-41.1144351,-20.4197359],[-41.1100484,-20.4132104],[-41.1112596,-20.4053116],[-41.0975756,-20.4097618],[-41.101318,-20.4336552],[-41.0823563,-20.4405877],[-41.0678362,-20.4602862],[-41.0394667,-20.4837894],[-41.0283702,-20.4844226],[-41.0193883,-20.4780134],[-41.0042001,-20.4682306],[-41.0074427,-20.45049]],[[-41.0074427,-20.45049],[-41.0104994,-20.4341888],[-41.0017855,-20.4262223],[-40.9987254,-20.4263137],[-40.989614,-20.4308782]],[[-40.989614,-20.4308782],[-40.9881139,-20.4368374]],[[-40.9881139,-20.4368374],[-40.9867114,-20.4350216]],[[-40.9867114,-20.4350216],[-40.9798016,-20.4338539],[-40.967426,-20.4345447],[-40.962818,-20.430736],[-40.9541416,-20.4363918],[-40.9485523,-20.4356325],[-40.944234,-20.4384293],[-40.93782,-20.4363377],[-40.9275483,-20.4423504],[-40.9124496,-20.4486761],[-40.9044035,-20.4621364],[-40.8780894,-20.4656102],[-40.8659061,-20.4729431],[-40.8652278,-20.4803243],[-40.8613357,-20.4886328],[-40.848334,-20.4899333],[-40.8119431,-20.484787],[-40.8103781,-20.5014264],[-40.8158183,-20.523136],[-40.7639352,-20.4978921],[-40.7432577,-20.4848368],[-40.736206,-20.4665597],[-40.7236306,-20.4581306],[-40.7148011,-20.441642],[-40.6989006,-20.4344458],[-40.6883824,-20.4344274],[-40.6756884,-20.449267],[-40.6608193,-20.4491679],[-40.6509742,-20.4593327],[-40.6356832,-20.467329],[-40.6262415,-20.4678972]],[[-40.6262415,-20.4678972],[-40.6324384,-20.4622993]],[[-40.6324384,-20.4622993],[-40.6267691,-20.4510559],[-40.6252389,-20.4237439],[-40.6079941,-20.4126353],[-40.5872933,-20.4149726],[-40.5563412,-20.4090912],[-40.5390233,-20.3915405],[-40.5383123,-20.3888784],[-40.5550484,-20.389029],[-40.5651421,-20.3729345],[-40.592155,-20.3674491],[-40.5827325,-20.3255989],[-40.5823387,-20.3116992],[-40.5808919,-20.297601],[-40.5992762,-20.279117],[-40.6051613,-20.2514688]],[[-40.6051613,-20.2514688],[-40.6112025,-20.2485511]],[[-40.6112025,-20.2485511],[-40.6245472,-20.229248],[-40.6404587,-20.2158295],[-40.6643151,-20.2177743],[-40.6816937,-20.1884486],[-40.6953907,-20.1904092],[-40.727786,-20.1832269],[-40.7452751,-20.1888419],[-40.766694,-20.1639682],[-40.7696103,-20.1574368],[-40.7755399,-20.1622763],[-40.788303,-20.1605836],[-40.809047,-20.1747975],[-40.8244869,-20.1672226],[-40.8345163,-20.1774286],[-40.8651335,-20.1927906],[-40.8839571,-20.1932349],[-40.9237941,-20.2026074],[-40.9669967,-20.1903329],[-40.9686365,-20.2119507],[-40.9734153,-20.2204834],[-40.9806641,-20.2274396],[-40.9872057,-20.2208783],[-40.998874,-20.2153732],[-41.0062233,-20.19899],[-41.0167662,-20.1941062],[-41.0159641,-20.1878884],[-41.0167175,-20.1510687],[-41.0363399,-20.1323875],[-41.016293,-20.1148548],[-40.9817182,-20.1107977],[-40.95516,-20.0912643],[-40.9476594,-20.0868874],[-40.9470016,-20.074836],[-40.9680557,-20.0427735],[-40.9705375,-19.9770434],[-40.956022,-19.9647475],[-40.9594088,-19.9563748],[-40.9437647,-19.9328021],[-40.9454175,-19.9083003],[-40.9344645,-19.8942272],[-40.9354839,-19.8724428],[-40.9550353,-19.8634383],[-40.9596681,-19.8530747],[-40.9554578,-19.8467197],[-40.9580608,-19.8302718],[-40.9527586,-19.8253015],[-40.937339,-19.8166298],[-40.9409821,-19.8050086],[-40.9781513,-19.7997826],[-40.9890163,-19.8055781]],[[-40.9890163,-19.8055781],[-40.9937864,-19.8009599]],[[-41.1745675,-19.763055],[-41.1739434,-19.7860514],[-41.1641051,-19.8063868],[-41.1840042,-19.8488244],[-41.1848808,-19.8889621],[-41.2066347,-19.9040544],[-41.2280447,-19.9049851],[-41.2444702,-19.9373418],[-41.2546097,-19.9321447],[-41.2726601,-19.9424386],[-41.3008581,-19.9365254],[-41.3079157,-19.94834],[-41.311799,-19.9724195],[-41.320015,-19.9800269],[-41.3087937,-19.9970668],[-41.3091067,-20.0163706],[-41.3185297,-20.0415132],[-41.3335563,-20.0588396],[-41.338194,-20.0881176],[-41.349135,-20.1095202],[-41.3519334,-20.1311533],[-41.3618916,-20.1420781],[-41.3821145,-20.1888131],[-41.4090918,-20.1976994],[-41.4155813,-20.2073631]],[[-41.4155813,-20.2073631],[-41.4146896,-20.2156493],[-41.4120367,-20.2260825],[-41.4102007,-20.2302695],[-41.4010593,-20.2318105],[-41.3815454,-20.2235359],[-41.3731894,-20.2035161],[-41.34999,-20.1980769],[-41.3383101,-20.2248387],[-41.3506157,-20.2343225],[-41.3343799,-20.2435309],[-41.3126702,-20.2633206],[-41.3128729,-20.2726507],[-41.3172265,-20.2978019],[-41.3504962,-20.3020826],[-41.3618614,-20.3209754],[-41.3612801,-20.3254512],[-41.3575077,-20.348425],[-41.3459982,-20.3743293],[-41.3232443,-20.3954159],[-41.3150572,-20.422957],[-41.3206666,-20.4686602],[-41.3178031,-20.4913344],[-41.3276678,-20.4975468]],[[-40.6112025,-20.2485511],[-40.5965231,-20.2431782],[-40.5962632,-20.2620548]],[[-40.5962632,-20.2620548],[-40.5955275,-20.2685135],[-40.5912698,-20.2695807],[-40.557782,-20.2702602],[-40.5305825,-20.2564065],[-40.5126074,-20.2368586],[-40.4999471,-20.2289679],[-40.4874526,-20.237869],[-40.4638084,-20.2196116],[-40.433571,-20.2297871],[-40.4113845,-20.2288403],[-40.3851054,-20.2230693],[-40.3769622,-20.2157173],[-40.3929878,-20.1720213],[-40.4215606,-20.1622233],[-40.4361832,-20.1364808],[-40.4333895,-20.0949322]],[[-40.4333895,-20.0949322],[-40.4162341,-20.0166425],[-40.4180715,-20.0121881]],[[-40.5045204,-19.8693219],[-40.50512,-19.8536688],[-40.521211,-19.8156568]],[[-40.5211204,-19.7284854],[-40.5254523,-19.7162329],[-40.5328011,-19.7124035],[-40.5365688,-19.7123923],[-40.539758,-19.7098226],[-40.5440721,-19.7101953]],[[-40.9968961,-19.7877003],[-40.9890163,-19.8055781]],[[-29.3331058,-20.4891991],[-29.3441611,-20.5102515],[-29.3304097,-20.5224552],[-29.2991521,-20.5189343],[-29.3331058,-20.4891991]],[[-40.6324384,-20.4622993],[-40.6043607,-20.4875073]],[[-40.6043607,-20.4875073],[-40.5677802,-20.4772803],[-40.5376278,-20.4728528],[-40.4841548,-20.5051771],[-40.3799427,-20.5181066],[-40.3751655,-20.5291082]],[[-40.3751655,-20.5291082],[-40.3618225,-20.5178551],[-40.34656,-20.4762802],[-40.3229425,-20.429427],[-40.3196594,-20.406002],[-40.2966188,-20.3632253],[-40.2832585,-20.3531435],[-40.2713959,-20.3232054],[-40.2900396,-20.3076378],[-40.2891235,-20.2837799],[-40.2716626,-20.2686867],[-40.2584728,-20.2658397],[-40.2374915,-20.294985],[-40.2343925,-20.2763024],[-40.2157149,-20.2349098],[-40.1989444,-20.2168336],[-40.1838238,-20.1672882],[-40.1815522,-20.1345773],[-40.1719635,-20.1072364],[-40.1738309,-20.0749044],[-40.1947607,-20.049183]],[[-40.1900261,-20.0453976],[-40.193849,-20.0368448],[-40.1993972,-20.0355169]],[[-40.4126083,-20.0184178],[-40.4160929,-20.0164318],[-40.4333895,-20.0949322]],[[-40.5962632,-20.2620548],[-40.6051613,-20.2514688]],[[-40.9831335,-20.864654],[-40.9794619,-20.8713021]],[[-40.9794619,-20.8713021],[-40.9685248,-20.8742982],[-40.9643955,-20.8760239],[-40.9518563,-20.8804586]],[[-40.9518563,-20.8804586],[-40.9476195,-20.8853573],[-40.9265121,-20.8912177],[-40.8907549,-20.8897416]],[[-40.8907549,-20.8897416],[-40.8660158,-20.8929837],[-40.8510149,-20.8860526],[-40.8280435,-20.8908312],[-40.7588884,-20.8656525]],[[-40.7588884,-20.8656525],[-40.7464333,-20.850072],[-40.7202129,-20.8465796],[-40.6824018,-20.822861],[-40.6719637,-20.8210951],[-40.6533185,-20.8058727],[-40.6291267,-20.8186801],[-40.6216299,-20.8340453],[-40.6078171,-20.8059923],[-40.5833074,-20.8027222],[-40.5760626,-20.7741894],[-40.5567203,-20.7464715],[-40.5341728,-20.7396697],[-40.5155735,-20.7080803],[-40.5118873,-20.6937142],[-40.4811598,-20.6524133],[-40.4647969,-20.6525742],[-40.4693947,-20.6326868],[-40.4552696,-20.6233914],[-40.4344093,-20.6363482],[-40.4043712,-20.5989153],[-40.4032739,-20.5846668],[-40.3920134,-20.5572554],[-40.3751655,-20.5291082]],[[-40.6043607,-20.4875073],[-40.6262415,-20.4678972]],[[-40.9867114,-20.4350216],[-40.9892214,-20.4379713],[-40.9928581,-20.4384376]],[[-40.9928581,-20.4384376],[-40.9905604,-20.4428419],[-40.9850411,-20.4475143],[-40.9776221,-20.4559694],[-40.968943,-20.4625696],[-40.9723288,-20.4807758],[-40.9594881,-20.4992472],[-40.9617497,-20.537637],[-40.9569681,-20.5518354],[-40.9683025,-20.5762726],[-40.9525071,-20.6017485],[-40.9362987,-20.5995961],[-40.9102431,-20.6184534],[-40.9158242,-20.6439451],[-40.9342204,-20.6627923],[-40.933724,-20.6737616],[-40.9326042,-20.6850184],[-40.9564101,-20.6933036],[-40.9567283,-20.7138545],[-40.9695543,-20.7554145],[-40.9943142,-20.7788333],[-40.9844853,-20.8017924],[-40.9800093,-20.8286051],[-40.9883901,-20.8315208],[-40.9831335,-20.864654]],[[-41.4155813,-20.2073631],[-41.7567537,-20.206866],[-41.763632,-20.217973],[-41.775531,-20.2608343],[-41.7821404,-20.2944758],[-41.8030864,-20.2992043],[-41.8418651,-20.3265497],[-41.8526476,-20.3481586],[-41.8595116,-20.3728426],[-41.8450581,-20.377363],[-41.8365251,-20.4093104],[-41.8036771,-20.4219806],[-41.7994356,-20.4772833],[-41.8257809,-20.4849928],[-41.8042989,-20.5384028],[-41.8283912,-20.5572962],[-41.8412992,-20.600442],[-41.8531439,-20.6075575],[-41.8509385,-20.6212613],[-41.8205019,-20.6277853],[-41.8132318,-20.6532647],[-41.8482132,-20.6869247],[-41.8635136,-20.7419435],[-41.872795,-20.7428701],[-41.8771177,-20.7646229],[-41.852166,-20.7637593],[-41.8481876,-20.7743723],[-41.8324432,-20.7818772],[-41.8288264,-20.7943438],[-41.7991687,-20.8053185],[-41.7940261,-20.798051],[-41.7667418,-20.8019956],[-41.7398545,-20.8175037],[-41.7363089,-20.8359131],[-41.7458898,-20.8524366],[-41.7388851,-20.8657524],[-41.715697,-20.8718246],[-41.7263409,-20.8923895],[-41.7184049,-20.9007977],[-41.7224051,-20.9233064],[-41.7374022,-20.9310317],[-41.7337724,-20.9433416]],[[-41.7337724,-20.9433416],[-41.7237165,-20.9417376],[-41.7055037,-20.9214397],[-41.6832768,-20.9222036],[-41.6706854,-20.8897684],[-41.6520899,-20.8916446],[-41.6445063,-20.8693219],[-41.6312623,-20.8583767],[-41.6111555,-20.8888321],[-41.5991468,-20.8909763],[-41.5739333,-20.9095653],[-41.5628753,-20.8928584],[-41.5385726,-20.8827451],[-41.4989008,-20.8956967],[-41.4746598,-20.8839206],[-41.4710352,-20.8966314],[-41.4536089,-20.8918464],[-41.4636705,-20.8666145],[-41.459365,-20.8370895],[-41.452952,-20.8311083],[-41.4535585,-20.805915],[-41.4181659,-20.7811877],[-41.3833365,-20.689716],[-41.3870783,-20.6800961],[-41.3864706,-20.6638385],[-41.3777956,-20.6546207],[-41.3738092,-20.6412084],[-41.3789982,-20.6332218],[-41.378938,-20.6262194],[-41.3914509,-20.6241997],[-41.3971465,-20.5959394],[-41.411264,-20.567196],[-41.4058199,-20.5469814],[-41.392829,-20.5537271],[-41.3784517,-20.5279243],[-41.3771227,-20.5082533],[-41.3441739,-20.5135139],[-41.323838,-20.5124066],[-41.3236773,-20.5101042],[-41.3224931,-20.5007496],[-41.3263135,-20.5000715]],[[-41.3263135,-20.5000715],[-41.3276678,-20.4975468]],[[-41.7337724,-20.9433416],[-41.7174055,-20.9530449],[-41.7116275,-20.9805924],[-41.7214215,-21.0020133],[-41.7145453,-21.0154083],[-41.7252015,-21.033078],[-41.7161889,-21.047051],[-41.7362384,-21.1020738],[-41.71863,-21.1168408],[-41.6941579,-21.1153722],[-41.6884281,-21.1221734],[-41.6393967,-21.1461934],[-41.6219815,-21.1469585],[-41.6125895,-21.1570009],[-41.5865674,-21.1495465],[-41.5782375,-21.1697453],[-41.5482883,-21.1832995],[-41.5115501,-21.1758363],[-41.4791333,-21.1936396],[-41.4603557,-21.2087711],[-41.435249,-21.2157019],[-41.4164778,-21.2001205],[-41.388013,-21.1989007],[-41.3161839,-21.2135457],[-41.303455,-21.2285988],[-41.2771255,-21.2401574],[-41.2564946,-21.2252523],[-41.2413685,-21.2203603],[-41.2148521,-21.2372997],[-41.1758198,-21.2447289],[-41.1375907,-21.2354865],[-41.1409709,-21.2264848]],[[-41.1409709,-21.2264848],[-41.1578464,-21.2306581],[-41.1738773,-21.231271],[-41.1782188,-21.229995],[-41.1816169,-21.2309414],[-41.1838113,-21.2286711]],[[-41.1838113,-21.2286711],[-41.1919113,-21.1942567],[-41.1945679,-21.1648568],[-41.2110193,-21.1293135],[-41.2229614,-21.1120527],[-41.2235749,-21.0885166],[-41.2337109,-21.0761547],[-41.1943139,-21.0613327],[-41.1606051,-21.061468],[-41.1436901,-21.0380859],[-41.1319037,-21.0300895]],[[-41.1319037,-21.0300895],[-41.1257162,-21.0130887],[-41.1061782,-21.0054358]],[[-41.1061782,-21.0054358],[-41.1083021,-20.989365],[-41.1054086,-20.9848452],[-41.1070681,-20.9571594],[-41.09875,-20.957912],[-41.0908966,-20.9482065],[-41.0650333,-20.9066943],[-41.052927,-20.9030946],[-41.0534112,-20.8872145],[-41.051095,-20.8756223],[-41.0395534,-20.8693548]],[[-41.0395534,-20.8693548],[-40.9831335,-20.864654]],[[-40.9928581,-20.4384376],[-40.9881139,-20.4368374]],[[-40.989614,-20.4308782],[-41.0002622,-20.4259172],[-41.010385,-20.4337553],[-41.0074427,-20.45049]],[[-41.3218714,-20.4962778],[-41.3263135,-20.5000715]],[[-41.1061782,-21.0054358],[-41.1178335,-21.0119379],[-41.1261046,-21.0135692],[-41.1319037,-21.0300895]],[[-41.1838113,-21.2286711],[-41.1813138,-21.231005],[-41.1784471,-21.2299921],[-41.1741481,-21.2312625],[-41.1581815,-21.2306808],[-41.1409709,-21.2264848]],[[-41.1409709,-21.2264848],[-41.1155525,-21.2286353],[-41.1054035,-21.2195815],[-41.0892187,-21.2195207],[-41.0593193,-21.2346468],[-41.0445825,-21.2530586],[-41.0249052,-21.2458027],[-41.0047404,-21.2510999],[-40.9957952,-21.2861898],[-40.9776179,-21.2851351],[-40.9579091,-21.301782],[-40.9621732,-21.266684],[-40.9529703,-21.2352966],[-40.9146039,-21.1727357],[-40.8925624,-21.1565552],[-40.8785426,-21.1402824],[-40.8584235,-21.1276302],[-40.8408439,-21.0840184],[-40.8297976,-21.0475971],[-40.8134908,-21.0353602],[-40.8048991,-21.0024585],[-40.8110689,-20.9862362],[-40.8085605,-20.9581746],[-40.7949905,-20.9251957],[-40.7583802,-20.8794797],[-40.7588884,-20.8656525]],[[-40.8907549,-20.8897416],[-40.9267621,-20.8911756],[-40.9469553,-20.8856447],[-40.9518563,-20.8804586]],[[-40.9794619,-20.8713021],[-41.0395534,-20.8693548]]],"bbox":[-41.8771177,-21.301782,-29.2991521,-17.8919446]}
