{"type":"Topology","objects":{"geometrias":{"type":"GeometryCollection","geometries":[{"type":"Polygon","arcs":[[0,1,2,3]],"properties":{"code_micro":27001,"name_micro":"Serrana do Sertão Alagoano","code_state":27,"code_region":2,"abbrev_state":"AL","name_state":"Alagoas","name_region":"Nordeste","year":2020}},{"type":"Polygon","arcs":[[4,5,6,-2]],"properties":{"code_micro":27002,"name_micro":"Alagoana do Sertão do São Francisco","code_state":27,"code_region":2,"abbrev_state":"AL","name_state":"Alagoas","name_region":"Nordeste","year":2020}},{"type":"Polygon","arcs":[[7,-6,8,9,10,11,12,-4]],"properties":{"code_micro":27003,"name_micro":"Santana do Ipanema","code_state":27,"code_region":2,"abbrev_state":"AL","name_state":"Alagoas","name_region":"Nordeste","year":2020}},{"type":"Polygon","arcs":[[13,14,15,16,17,18,19,20,21,-10]],"properties":{"code_micro":27004,"name_micro":"Batalha","code_state":27,"code_region":2,"abbrev_state":"AL","name_state":"Alagoas","name_region":"Nordeste","year":2020}},{"type":"Polygon","arcs":[[22,-12,23,-21,24,25,26,27,28,29]],"properties":{"code_micro":27005,"name_micro":"Palmeira dos Índios","code_state":27,"code_region":2,"abbrev_state":"AL","name_state":"Alagoas","name_region":"Nordeste","year":2020}},{"type":"Polygon","arcs":[[30,-19,31,-17,32,33,34,35,36,37,38,-26]],"properties":{"code_micro":27006,"name_micro":"Arapiraca","code_state":27,"code_region":2,"abbrev_state":"AL","name_state":"Alagoas","name_region":"Nordeste","year":2020}},{"type":"Polygon","arcs":[[39,40,41,-34,42,-15]],"properties":{"code_micro":27007,"name_micro":"Traipu","code_state":27,"code_region":2,"abbrev_state":"AL","name_state":"Alagoas","name_region":"Nordeste","year":2020}},{"type":"Polygon","arcs":[[43,44,-30]],"properties":{"code_micro":27008,"name_micro":"Serrana dos Quilombos","code_state":27,"code_region":2,"abbrev_state":"AL","name_state":"Alagoas","name_region":"Nordeste","year":2020}},{"type":"Polygon","arcs":[[-44,-29,45,46,47,48,49,50,51,52]],"properties":{"code_micro":27009,"name_micro":"Mata Alagoana","code_state":27,"code_region":2,"abbrev_state":"AL","name_state":"Alagoas","name_region":"Nordeste","year":2020}},{"type":"Polygon","arcs":[[53,54,55,-52]],"properties":{"code_micro":27010,"name_micro":"Litoral Norte Alagoano","code_state":27,"code_region":2,"abbrev_state":"AL","name_state":"Alagoas","name_region":"Nordeste","year":2020}},{"type":"Polygon","arcs":[[56,-48,57,58,59,-55,60,-50]],"properties":{"code_micro":27011,"name_micro":"Maceió","code_state":27,"code_region":2,"abbrev_state":"AL","name_state":"Alagoas","name_region":"Nordeste","year":2020}},{"type":"Polygon","arcs":[[61,-38,62,63,64,-59,65,-46,-28]],"properties":{"code_micro":27012,"name_micro":"São Miguel dos Campos","code_state":27,"code_region":2,"abbrev_state":"AL","name_state":"Alagoas","name_region":"Nordeste","year":2020}},{"type":"Polygon","arcs":[[66,-64,67,-36,68,-41]],"properties":{"code_micro":27013,"name_micro":"Penedo","code_state":27,"code_region":2,"abbrev_state":"AL","name_state":"Alagoas","name_region":"Nordeste","year":2020}}]}},"arcs":[[[-37.3937895,-9.0382883],[-37.4165025,-9.0065641],[-37.4681995,-8.9985786],[-37.4923447,-8.9875552],[-37.5043893,-8.9653873],[-37.5459722,-8.9609444],[-37.5559444,-8.9704722],[-37.5970513,-8.9690718],[-37.6376667,-9.0037778],[-37.6577778,-8.9926667],[-37.6988417,-8.9447222],[-37.7039225,-8.9219266],[-37.7416683,-8.8760777],[-37.7553619,-8.8463637],[-37.7947029,-8.8749931],[-37.8246288,-8.8859573],[-37.8203593,-8.9087038],[-37.8390986,-8.9783812],[-37.8530933,-9.0001398],[-37.9516853,-9.0975424],[-37.9793513,-9.148363],[-38.0257874,-9.1555063],[-38.0639045,-9.1737805],[-38.0922873,-9.172725],[-38.1439087,-9.2182047],[-38.156374,-9.2500702]],[[-38.156374,-9.2500702],[-37.8722833,-9.4066333],[-37.8537138,-9.3952727],[-37.8331268,-9.3527327],[-37.8086717,-9.3295839],[-37.7770405,-9.3243157],[-37.7688245,-9.288778],[-37.654158,-9.4087979]],[[-37.654158,-9.4087979],[-37.6521706,-9.4063178]],[[-37.6521706,-9.4063178],[-37.6467001,-9.4003889],[-37.6208747,-9.3595887],[-37.608774,-9.3342965],[-37.5860966,-9.2919871],[-37.5317107,-9.2599682],[-37.5202002,-9.2444666],[-37.4800751,-9.2238606],[-37.4288477,-9.1713931],[-37.4252468,-9.1553425],[-37.4198894,-9.0893535],[-37.415205,-9.0720536],[-37.3937895,-9.0382883]],[[-38.156374,-9.2500702],[-38.179554,-9.2912502],[-38.2030806,-9.2969016],[-38.23759,-9.3297945],[-38.205573,-9.3636489],[-38.1941767,-9.3943858],[-38.2047642,-9.4186743],[-38.1572696,-9.4403982],[-38.0777597,-9.4411067],[-38.0678462,-9.4585026],[-38.0221548,-9.4699909],[-37.9979494,-9.4992833],[-37.9893302,-9.5273587],[-37.9171436,-9.5489542],[-37.8861699,-9.5501668],[-37.8182483,-9.5928939],[-37.7861268,-9.6389131],[-37.7469947,-9.6249209],[-37.7052049,-9.634498],[-37.6698593,-9.6566438],[-37.659616,-9.6782385]],[[-37.659616,-9.6782385],[-37.6558984,-9.6689059],[-37.6593161,-9.6553173],[-37.6369777,-9.6016772],[-37.6721209,-9.5320669],[-37.6699278,-9.5074816],[-37.6657916,-9.4664975],[-37.66649,-9.4565055],[-37.6620014,-9.4458778]],[[-37.6620014,-9.4458778],[-37.654158,-9.4087979]],[[-37.6521706,-9.4063178],[-37.6620014,-9.4458778]],[[-37.659616,-9.6782385],[-37.577684,-9.7368078],[-37.515373,-9.7458745],[-37.4730916,-9.7463641],[-37.4080223,-9.7641091],[-37.3936189,-9.7792353],[-37.3466157,-9.7911833],[-37.3227763,-9.8197357],[-37.2965215,-9.830582]],[[-37.2965215,-9.830582],[-37.3101313,-9.8040406],[-37.2973817,-9.7827604],[-37.2590923,-9.7573265],[-37.2404621,-9.7360187],[-37.2883987,-9.6865509],[-37.3030574,-9.6360277],[-37.3565719,-9.6376729],[-37.3135801,-9.5531499],[-37.3730977,-9.5247824],[-37.3802929,-9.5028808],[-37.32078,-9.4684153],[-37.2671565,-9.4495106],[-37.2296725,-9.4463232],[-37.2077021,-9.4346062],[-37.117728,-9.4376991],[-37.1045763,-9.4605719]],[[-37.1045763,-9.4605719],[-37.0385892,-9.4168446]],[[-37.0385892,-9.4168446],[-37.0227811,-9.3695959],[-36.9941597,-9.3743042],[-36.9796404,-9.3593283]],[[-36.9796404,-9.3593283],[-37.0033646,-9.3526135],[-37.0285133,-9.314017],[-37.0616712,-9.304162],[-37.0571996,-9.2817884],[-37.0906725,-9.2463621],[-37.1164756,-9.2409307],[-37.1299203,-9.2600634],[-37.1643357,-9.2757055],[-37.1589467,-9.2391017],[-37.1983152,-9.2154825],[-37.2343415,-9.2401754],[-37.2335552,-9.2065858],[-37.2470816,-9.1790184],[-37.2822858,-9.1488418],[-37.2965722,-9.1209173],[-37.3277033,-9.0932257],[-37.3586391,-9.0538891],[-37.3937895,-9.0382883]],[[-37.2965215,-9.830582],[-37.2619127,-9.8491387],[-37.2411061,-9.8954489],[-37.1806734,-9.8994168],[-37.1635638,-9.8935522],[-37.1337799,-9.9137652]],[[-37.1337799,-9.9137652],[-37.1034931,-9.8478203],[-37.0401897,-9.807315],[-37.0318683,-9.7875321],[-36.9972274,-9.756078],[-37.0003168,-9.734433],[-36.9948707,-9.7222205],[-36.9788992,-9.7025005]],[[-36.9788992,-9.7025005],[-36.959402,-9.6732069]],[[-36.959402,-9.6732069],[-36.9530782,-9.6549258]],[[-36.9530782,-9.6549258],[-36.9520354,-9.6429137],[-36.9459685,-9.6326235],[-36.9413627,-9.6277368],[-36.9346825,-9.625758],[-36.9248326,-9.6281219]],[[-36.9248326,-9.6281219],[-36.9079495,-9.6285141],[-36.8999987,-9.6231864],[-36.8733741,-9.5858133],[-36.8366909,-9.5571923]],[[-36.8366909,-9.5571923],[-36.833282,-9.5450299]],[[-36.833282,-9.5450299],[-36.8386134,-9.5411826],[-36.8370863,-9.5318217],[-36.8535205,-9.5441252],[-36.8592043,-9.5465718],[-36.915908,-9.5227681],[-36.9796568,-9.4861268],[-37.0191372,-9.4356121],[-37.0206314,-9.4142787]],[[-37.0206314,-9.4142787],[-37.0397139,-9.4178333],[-37.1045763,-9.4605719]],[[-36.3559327,-9.2183859],[-36.4243709,-9.2260241],[-36.4871653,-9.2402014],[-36.4904055,-9.2612143],[-36.5718396,-9.2925828],[-36.5665761,-9.3314374],[-36.603625,-9.3415125],[-36.6446864,-9.3143715],[-36.6704222,-9.3132355],[-36.6892248,-9.2964447],[-36.7617725,-9.271457],[-36.8360412,-9.2886286],[-36.8674694,-9.2685315],[-36.9158205,-9.2990208],[-36.9365515,-9.3498863],[-36.9304372,-9.3700363],[-36.9554646,-9.3812511],[-36.9796404,-9.3593283]],[[-37.0385892,-9.4168446],[-37.0206314,-9.4142787]],[[-36.833282,-9.5450299],[-36.8247381,-9.5576239]],[[-36.8247381,-9.5576239],[-36.8161397,-9.5602039],[-36.8112811,-9.5613224],[-36.785556,-9.5502193],[-36.6984196,-9.5991415],[-36.6802401,-9.6021142],[-36.6860715,-9.6354476],[-36.644276,-9.6376143],[-36.6367658,-9.6368982],[-36.6245797,-9.6526973],[-36.6167252,-9.6533592],[-36.611648,-9.6522746],[-36.6063982,-9.6534724],[-36.6207672,-9.5871979],[-36.5966898,-9.5677281],[-36.5657179,-9.559526],[-36.5378786,-9.532892],[-36.4952483,-9.6038833],[-36.4533274,-9.6155311],[-36.4326045,-9.6165545],[-36.413721,-9.6138586],[-36.4013073,-9.626717],[-36.4067095,-9.6315446],[-36.4010717,-9.6399174]],[[-36.4010717,-9.6399174],[-36.3808292,-9.6353672]],[[-36.3808292,-9.6353672],[-36.3921049,-9.6029049],[-36.3471301,-9.5932321],[-36.3164841,-9.6128198],[-36.2908221,-9.6025732],[-36.2499278,-9.6233306],[-36.2400444,-9.5934722],[-36.1916556,-9.60015]],[[-36.1916556,-9.60015],[-36.2185222,-9.5631917],[-36.2268444,-9.5144972],[-36.2209528,-9.4842639]],[[-36.2209528,-9.4842639],[-36.2555694,-9.5188083],[-36.3065557,-9.5224034],[-36.3291097,-9.5101573],[-36.3893631,-9.4253786],[-36.3360372,-9.271412],[-36.3405707,-9.2404287],[-36.3559327,-9.2183859]],[[-36.8247381,-9.5576239],[-36.8366909,-9.5571923]],[[-36.9248326,-9.6281219],[-36.9345677,-9.6257477],[-36.9426199,-9.6286261],[-36.946353,-9.6342955],[-36.9424426,-9.6410101],[-36.9517408,-9.6427051],[-36.9530782,-9.6549258]],[[-36.959402,-9.6732069],[-36.9692048,-9.6939875]],[[-36.9692048,-9.6939875],[-36.8855183,-9.7459072],[-36.9042557,-9.8092957],[-36.9306024,-9.8225642],[-36.9495375,-9.8586374],[-36.9251718,-9.88942],[-36.9018736,-9.8977991],[-36.826536,-9.9456852],[-36.8018905,-9.9668225],[-36.8430809,-10.0101999],[-36.8341062,-10.0128356],[-36.7993045,-10.0059958],[-36.7875834,-10.0220285]],[[-36.7875834,-10.0220285],[-36.7131199,-10.0457271],[-36.7051097,-10.0195886]],[[-36.7051097,-10.0195886],[-36.7069405,-10.0005926],[-36.6796109,-9.9669964],[-36.6458869,-9.9852051],[-36.6510336,-10.0345967],[-36.5172162,-10.0405194],[-36.5095824,-10.0686186],[-36.4913613,-10.0710942],[-36.4549519,-10.0322699]],[[-36.4549519,-10.0322699],[-36.4561952,-10.0298334]],[[-36.4561952,-10.0298334],[-36.4709958,-10.0308763],[-36.4734163,-9.9546904],[-36.4728544,-9.9359874],[-36.4998665,-9.8920922],[-36.5036405,-9.8564769],[-36.5155004,-9.8595531],[-36.5531991,-9.8390806],[-36.5260374,-9.8032483],[-36.4738309,-9.8028749],[-36.4653954,-9.7870874],[-36.3595973,-9.7692867],[-36.3428629,-9.7401159],[-36.3431386,-9.7132147],[-36.370715,-9.6979442],[-36.3756321,-9.6662821]],[[-36.3756321,-9.6662821],[-36.4010717,-9.6399174]],[[-37.1337799,-9.9137652],[-37.0859392,-9.9516958],[-37.0624048,-9.9825197],[-37.0330877,-9.9875786],[-36.9963712,-9.9723746],[-36.9616864,-9.9963701],[-36.9565986,-10.053734],[-36.9456955,-10.0873628],[-36.9288451,-10.1011833],[-36.9121838,-10.1382379],[-36.8699454,-10.1471254],[-36.8503855,-10.1784477]],[[-36.8503855,-10.1784477],[-36.8127245,-10.1461133],[-36.7685567,-10.1226112],[-36.7390533,-10.0871514],[-36.713951,-10.0454934]],[[-36.713951,-10.0454934],[-36.7875834,-10.0220285]],[[-36.9692048,-9.6939875],[-36.9788992,-9.7025005]],[[-36.2209528,-9.4842639],[-36.1543778,-9.3053395],[-36.2008278,-9.2187583],[-36.182302,-9.2120119],[-36.1700233,-9.2102512],[-36.1509572,-9.2068193],[-36.1166625,-9.2077676],[-36.0880348,-9.201245],[-36.0590388,-9.2159571],[-35.888572,-9.1383084],[-35.8345667,-8.984289],[-35.8353295,-8.9447076]],[[-35.8353295,-8.9447076],[-35.8265719,-8.8704172],[-35.8305839,-8.8684866],[-35.8370508,-8.8687416],[-35.8491388,-8.8718121],[-35.863866,-8.8579702],[-35.9114175,-8.8612891],[-35.924276,-8.8846275],[-36.0053839,-8.9130004],[-36.026411,-8.9079691],[-36.063935,-8.9153373],[-36.0864106,-8.9440674],[-36.1224516,-8.9527343],[-36.1295886,-8.971327],[-36.1043282,-8.9989293],[-36.1272786,-9.0336695],[-36.1985057,-9.0466767],[-36.202797,-9.0668449],[-36.2409616,-9.0993929],[-36.2668438,-9.1023818],[-36.2572548,-9.1401488],[-36.2647196,-9.1658626],[-36.3215198,-9.1853806],[-36.3559327,-9.2183859]],[[-36.1916556,-9.60015],[-36.180925,-9.61225]],[[-36.180925,-9.61225],[-36.1747018,-9.6115227]],[[-36.1747018,-9.6115227],[-36.1573626,-9.6187089],[-36.128344,-9.5993489],[-36.0723545,-9.5986761],[-36.0006583,-9.5744722]],[[-36.0006583,-9.5744722],[-35.95975,-9.5280389],[-35.9404328,-9.4980018]],[[-35.9404328,-9.4980018],[-35.9372429,-9.4924921],[-35.933695,-9.4627802],[-35.928894,-9.3755663],[-35.8774201,-9.416687],[-35.7695027,-9.3876102],[-35.69055,-9.371],[-35.5614017,-9.3582302],[-35.53605,-9.3469],[-35.517653,-9.353463],[-35.5172235,-9.3519724],[-35.5202373,-9.3237096]],[[-35.5202373,-9.3237096],[-35.5132725,-9.3127479]],[[-35.5132725,-9.3127479],[-35.5777609,-9.2559246],[-35.5991384,-9.2167266],[-35.5800649,-9.1578119],[-35.5549815,-9.191293],[-35.4757805,-9.1905936],[-35.4569209,-9.1851254],[-35.4822807,-9.1456961],[-35.5265457,-9.118309],[-35.4947684,-9.0776895],[-35.4559331,-9.068549],[-35.3719729,-9.0888382],[-35.3565731,-9.1148392],[-35.3259572,-9.1202729],[-35.3279191,-9.1059849],[-35.3377647,-9.0631398],[-35.335464,-9.0482536],[-35.3360726,-9.0318883],[-35.3363181,-9.0087869],[-35.3583509,-8.9811906],[-35.3540154,-8.9636245],[-35.3691262,-8.9374631],[-35.372073,-8.9123704],[-35.3507547,-8.8607129]],[[-35.3507547,-8.8607129],[-35.3945703,-8.849836],[-35.4112256,-8.836231],[-35.4598277,-8.8377745],[-35.4642941,-8.8163642],[-35.4957537,-8.8283023],[-35.5368021,-8.8196212],[-35.6137823,-8.8643945],[-35.6321278,-8.8812783],[-35.6575178,-8.8806584],[-35.6712041,-8.896634],[-35.748399,-8.9171517],[-35.7829807,-8.8975421],[-35.7769157,-8.8692653],[-35.7962097,-8.8473997],[-35.8269523,-8.8700943],[-35.8353295,-8.9447076]],[[-35.5132725,-9.3127479],[-35.5144,-9.3143]],[[-35.5144,-9.3143],[-35.4724912,-9.3580331]],[[-35.4724912,-9.3580331],[-35.4078878,-9.3073678],[-35.3547819,-9.256192],[-35.3197458,-9.199003],[-35.294822,-9.1713332],[-35.2957925,-9.1558061],[-35.2701829,-9.1224937],[-35.221898,-9.0154548],[-35.1816335,-8.9781691],[-35.1667463,-8.934898],[-35.1519493,-8.9155415],[-35.1682513,-8.8924711],[-35.2527821,-8.887233],[-35.3507547,-8.8607129]],[[-35.9404328,-9.4980018],[-36.0006583,-9.5744722]],[[-36.1747018,-9.6115227],[-36.1817539,-9.6127993]],[[-36.1817539,-9.6127993],[-36.1513014,-9.6284919],[-36.1408839,-9.6454444],[-36.1076337,-9.6435202],[-36.055479,-9.6921534],[-36.038995,-9.6924723],[-36.0242232,-9.7009969],[-35.9913746,-9.7022301],[-35.9893001,-9.7386444],[-36.0281635,-9.8089555],[-36.0056601,-9.8111324],[-35.9501307,-9.8452071],[-35.9091268,-9.8478194]],[[-35.9091268,-9.8478194],[-35.8871286,-9.8371459],[-35.8127588,-9.729734],[-35.7603934,-9.682562],[-35.7094416,-9.6657871],[-35.6909071,-9.6198769],[-35.6508767,-9.5686209],[-35.5913367,-9.5288975],[-35.57929,-9.502851],[-35.524976,-9.4423604],[-35.4999464,-9.4215149],[-35.4961514,-9.3945298],[-35.4724912,-9.3580331]],[[-35.5144,-9.3143],[-35.5202373,-9.3237096]],[[-36.3808292,-9.6353672],[-36.3756321,-9.6662821]],[[-36.4561952,-10.0298334],[-36.4536255,-10.0349204],[-36.4527333,-10.041168]],[[-36.4527333,-10.041168],[-36.4486612,-10.0601879],[-36.3997125,-10.1017924],[-36.3620496,-10.1215877],[-36.3601585,-10.1572174],[-36.338152,-10.1859159],[-36.3713222,-10.2302583],[-36.2596309,-10.2640539]],[[-36.2596309,-10.2640539],[-36.2150757,-10.2200662],[-36.1855036,-10.1989225],[-36.1703186,-10.174948],[-36.1338498,-10.1597979],[-36.088346,-10.0939972],[-36.045717,-10.0750793],[-36.0044461,-10.0047702],[-35.9754531,-9.9670269],[-35.9379302,-9.9024339],[-35.9069917,-9.8746766],[-35.9091268,-9.8478194]],[[-36.1817539,-9.6127993],[-36.180925,-9.61225]],[[-36.8503855,-10.1784477],[-36.8263467,-10.2111873],[-36.7885611,-10.2280941],[-36.759159,-10.2249199],[-36.7212114,-10.2645986],[-36.6914611,-10.2715844],[-36.6226392,-10.2552517],[-36.6004501,-10.2900603],[-36.5718256,-10.3161472],[-36.5569866,-10.3748876],[-36.5626853,-10.4139182],[-36.5294169,-10.4308933],[-36.5019299,-10.4311324],[-36.4630962,-10.4084796],[-36.4276286,-10.4335147],[-36.403575,-10.486978],[-36.3864339,-10.4967433],[-36.332901,-10.4015672],[-36.2935058,-10.353459],[-36.3027901,-10.3309813],[-36.2833834,-10.2892293],[-36.2596309,-10.2640539]],[[-36.4527333,-10.041168],[-36.4549519,-10.0322699]],[[-36.7051097,-10.0195886],[-36.713951,-10.0454934]]],"bbox":[-38.23759,-10.4967433,-35.1519493,-8.8163642]}
