{"type":"Topology","objects":{"geometrias":{"type":"GeometryCollection","geometries":[{"type":"Polygon","arcs":[[0,1,2,3,4,5,6]],"properties":{"code_micro":52001,"name_micro":"São Miguel do Araguaia","code_state":52,"code_region":5,"abbrev_state":"GO","name_state":"Goiás","name_region":"Centro-Oeste","year":2020}},{"type":"Polygon","arcs":[[7,8,9,10,11,12,13,14,15,16,17,18,-2]],"properties":{"code_micro":52002,"name_micro":"Rio Vermelho","code_state":52,"code_region":5,"abbrev_state":"GO","name_state":"Goiás","name_region":"Centro-Oeste","year":2020}},{"type":"Polygon","arcs":[[19,20,21,22,23,-9,24,25]],"properties":{"code_micro":52003,"name_micro":"Aragarças","code_state":52,"code_region":5,"abbrev_state":"GO","name_state":"Goiás","name_region":"Centro-Oeste","year":2020}},{"type":"Polygon","arcs":[[26,27,28,29,30,-7]],"properties":{"code_micro":52004,"name_micro":"Porangatu","code_state":52,"code_region":5,"abbrev_state":"GO","name_state":"Goiás","name_region":"Centro-Oeste","year":2020}},{"type":"Polygon","arcs":[[31,32,33,34,35,36,-30]],"properties":{"code_micro":52005,"name_micro":"Chapada dos Veadeiros","code_state":52,"code_region":5,"abbrev_state":"GO","name_state":"Goiás","name_region":"Centro-Oeste","year":2020}},{"type":"Polygon","arcs":[[37,-17,38,39,40,-28,41,-5]],"properties":{"code_micro":52006,"name_micro":"Ceres","code_state":52,"code_region":5,"abbrev_state":"GO","name_state":"Goiás","name_region":"Centro-Oeste","year":2020}},{"type":"Polygon","arcs":[[42,43,44,45,46,47,48,49,50,-39,-16]],"properties":{"code_micro":52007,"name_micro":"Anápolis","code_state":52,"code_region":5,"abbrev_state":"GO","name_state":"Goiás","name_region":"Centro-Oeste","year":2020}},{"type":"Polygon","arcs":[[51,52,53,54,55,56,57,58,59,60,-11,61,-23]],"properties":{"code_micro":52008,"name_micro":"Iporá","code_state":52,"code_region":5,"abbrev_state":"GO","name_state":"Goiás","name_region":"Centro-Oeste","year":2020}},{"type":"Polygon","arcs":[[62,63,64,65,66,-44,67,-14,68,-12,-61,69,-59,70,-57]],"properties":{"code_micro":52009,"name_micro":"Anicuns","code_state":52,"code_region":5,"abbrev_state":"GO","name_state":"Goiás","name_region":"Centro-Oeste","year":2020}},{"type":"Polygon","arcs":[[-46,71,-66,72,73,74,75,76,77,78]],"properties":{"code_micro":52010,"name_micro":"Goiânia","code_state":52,"code_region":5,"abbrev_state":"GO","name_state":"Goiás","name_region":"Centro-Oeste","year":2020}},{"type":"Polygon","arcs":[[-34,79,80,81,-36,82]],"properties":{"code_micro":52011,"name_micro":"Vão do Paranã","code_state":52,"code_region":5,"abbrev_state":"GO","name_state":"Goiás","name_region":"Centro-Oeste","year":2020}},{"type":"Polygon","arcs":[[83,-50,84,85,86,87,88,-81,89,-32,-29,-41]],"properties":{"code_micro":52012,"name_micro":"Entorno de Brasília","code_state":52,"code_region":5,"abbrev_state":"GO","name_state":"Goiás","name_region":"Centro-Oeste","year":2020}},{"type":"Polygon","arcs":[[90,91,92,93,94,95,96,97,98,99,100,101,-53,102,-21,103,-26]],"properties":{"code_micro":52013,"name_micro":"Sudoeste de Goiás","code_state":52,"code_region":5,"abbrev_state":"GO","name_state":"Goiás","name_region":"Centro-Oeste","year":2020}},{"type":"Polygon","arcs":[[104,105,106,107,108,109,-74,110,-64,111,-55,112,-101]],"properties":{"code_micro":52014,"name_micro":"Vale do Rio dos Bois","code_state":52,"code_region":5,"abbrev_state":"GO","name_state":"Goiás","name_region":"Centro-Oeste","year":2020}},{"type":"Polygon","arcs":[[113,-107,114,-98,115,116,117,118,119,120,-76,121,-109]],"properties":{"code_micro":52015,"name_micro":"Meia Ponte","code_state":52,"code_region":5,"abbrev_state":"GO","name_state":"Goiás","name_region":"Centro-Oeste","year":2020}},{"type":"Polygon","arcs":[[122,-120,123,124,125,126,-86,127,-48,128,-78]],"properties":{"code_micro":52016,"name_micro":"Pires do Rio","code_state":52,"code_region":5,"abbrev_state":"GO","name_state":"Goiás","name_region":"Centro-Oeste","year":2020}},{"type":"Polygon","arcs":[[129,-88,130,-126,131,-124,-119]],"properties":{"code_micro":52017,"name_micro":"Catalão","code_state":52,"code_region":5,"abbrev_state":"GO","name_state":"Goiás","name_region":"Centro-Oeste","year":2020}},{"type":"Polygon","arcs":[[132,-96,133,-94,134,-92,135,-117]],"properties":{"code_micro":52018,"name_micro":"Quirinópolis","code_state":52,"code_region":5,"abbrev_state":"GO","name_state":"Goiás","name_region":"Centro-Oeste","year":2020}}]}},"arcs":[[[-49.371834,-13.276707],[-49.3683159,-13.2723014],[-49.9092331,-12.9748676],[-49.9330662,-12.9566911],[-49.9499656,-12.9592881],[-50.0093375,-12.9310255],[-50.0374525,-12.9356091],[-50.0558533,-12.9202356],[-50.0917026,-12.9085261],[-50.1470251,-12.9032391],[-50.1578672,-12.8931307],[-50.185178,-12.8936382],[-50.2244967,-12.87304],[-50.225444,-12.8599517],[-50.2504494,-12.85349],[-50.2960416,-12.8314538],[-50.3075478,-12.8177422],[-50.3107784,-12.7916062],[-50.3024772,-12.7473437],[-50.2882198,-12.7348842],[-50.2954765,-12.6836702],[-50.271462,-12.6832418],[-50.2636153,-12.6665305],[-50.2684329,-12.6517489],[-50.2363815,-12.6236716],[-50.2447603,-12.5974743],[-50.2240634,-12.5852615],[-50.207071,-12.5665508],[-50.2136392,-12.5466268],[-50.2295244,-12.531189],[-50.2184498,-12.514831],[-50.2176095,-12.4873571],[-50.1791191,-12.4383606],[-50.170666,-12.418804],[-50.2117812,-12.4355973],[-50.2283186,-12.4541338],[-50.2530304,-12.4616048],[-50.2616921,-12.477218],[-50.3104161,-12.4953762],[-50.3695501,-12.557338],[-50.386478,-12.5898503],[-50.4181009,-12.6244473],[-50.4171486,-12.6349777],[-50.4363734,-12.6781082],[-50.4389381,-12.6975408],[-50.4608311,-12.6927772],[-50.477353,-12.7164962],[-50.4833995,-12.7393087],[-50.4749808,-12.7707892],[-50.4932856,-12.7836871],[-50.4838415,-12.8105787],[-50.4958557,-12.844634],[-50.5109811,-12.8608983],[-50.4995743,-12.8795099],[-50.510974,-12.8867658],[-50.5134792,-12.9128663],[-50.5263757,-12.9339305],[-50.5241438,-12.9736516],[-50.548804,-12.9928203],[-50.5905238,-13.0004264],[-50.5935939,-13.0072101],[-50.5690214,-13.0424957],[-50.5763134,-13.0541372],[-50.6064732,-13.0540029],[-50.6103187,-13.0647588],[-50.5945502,-13.096701],[-50.5928955,-13.1213082],[-50.5995303,-13.1360913],[-50.5936237,-13.1636575],[-50.6059358,-13.1875102],[-50.5841755,-13.2176963],[-50.592727,-13.2605582],[-50.6055947,-13.2750748],[-50.6085957,-13.3175954],[-50.6464959,-13.3619688],[-50.6653237,-13.3755658],[-50.6696223,-13.3976196],[-50.6639456,-13.4349565],[-50.6835249,-13.445191],[-50.6940354,-13.4695508],[-50.7148156,-13.4914731],[-50.7589998,-13.5203153],[-50.7683782,-13.5608543],[-50.7715851,-13.6045005],[-50.7836065,-13.6203941],[-50.786569,-13.6466268],[-50.8062258,-13.6938146],[-50.8297337,-13.7098143],[-50.8690193,-13.7248042],[-50.8721273,-13.7399011],[-50.8583114,-13.7536609],[-50.8543701,-13.7997614],[-50.8590855,-13.8287048],[-50.8406443,-13.8637887],[-50.8402336,-13.9236819],[-50.8626275,-13.9540243],[-50.8646743,-13.9839543],[-50.8471508,-13.9997948],[-50.8550439,-14.0258773],[-50.832061,-14.0737151],[-50.8415049,-14.1043251]],[[-50.8415049,-14.1043251],[-50.847795,-14.1173525],[-50.8268262,-14.1386469],[-50.8168608,-14.1613536],[-50.8010374,-14.1792638],[-50.800289,-14.2020078],[-50.7751838,-14.2416845],[-50.7660389,-14.3046427],[-50.7596547,-14.3139631],[-50.77749,-14.3535918],[-50.7956494,-14.3501407],[-50.7988145,-14.3906545],[-50.8397678,-14.4226708],[-50.8408515,-14.4701014],[-50.8579006,-14.4898627],[-50.8613408,-14.5197949],[-50.8568201,-14.5413897],[-50.8719622,-14.5611436],[-50.8788496,-14.6013957],[-50.861094,-14.6216109],[-50.8694283,-14.6583362],[-50.8541288,-14.6770402],[-50.8306214,-14.7341005],[-50.8396869,-14.7573204],[-50.8257121,-14.7724918],[-50.8229002,-14.8065647],[-50.8288658,-14.8216772],[-50.8023518,-14.8557603],[-50.8064309,-14.8740421],[-50.8007988,-14.9099851],[-50.7811825,-14.9438648],[-50.7617908,-14.9586099],[-50.729568,-14.9530694],[-50.6966598,-14.9603929],[-50.6772632,-14.9591652],[-50.6462669,-14.9834768],[-50.6278199,-14.9811657],[-50.5939273,-14.9906466],[-50.5768466,-15.0215215],[-50.5512692,-15.0430643],[-50.5231779,-15.0522609],[-50.4993453,-15.0542259],[-50.4637372,-15.0443176],[-50.4510662,-15.0461783],[-50.4032885,-15.0255154],[-50.3120652,-14.9413304],[-50.2808214,-14.946576],[-50.254922,-14.9591989],[-50.2415053,-14.975254],[-50.2365635,-15.0126355],[-50.2028135,-15.0200346],[-50.1847066,-15.0373045],[-50.1855684,-15.0568043],[-50.164371,-15.0650258],[-50.1517298,-15.0814817],[-50.1283189,-15.0798391],[-50.1132304,-15.0987587],[-50.1111186,-15.1215516],[-50.0995612,-15.1257174],[-50.0832895,-15.1306867]],[[-50.0832895,-15.1306867],[-50.0673723,-15.1339544],[-50.0548938,-15.1244199]],[[-50.0548938,-15.1244199],[-50.0580917,-15.118597],[-50.060783,-15.1053291],[-50.0539069,-15.0919724]],[[-50.0539069,-15.0919724],[-50.0483449,-15.0630675],[-49.9877889,-15.0148097],[-49.9693384,-15.0202018],[-49.9659517,-14.9999864],[-49.9300147,-14.9840165],[-49.9242284,-14.9702523],[-49.8809821,-14.9854102],[-49.8515934,-14.9794413],[-49.8438696,-14.9676601],[-49.8440339,-14.9567868],[-49.8500904,-14.9096529],[-49.8506476,-14.9008641],[-49.8383404,-14.8763111],[-49.8299222,-14.8049831],[-49.8178906,-14.7933874],[-49.8159249,-14.7689146],[-49.7810909,-14.7615834],[-49.7750302,-14.7541525],[-49.7759814,-14.7510746],[-49.7733683,-14.7414705],[-49.752978,-14.7053113],[-49.7323987,-14.6943389],[-49.7321209,-14.6871833],[-49.7546439,-14.6589067],[-49.7694497,-14.6499314],[-49.7767805,-14.6405068],[-49.781444,-14.624743],[-49.7887039,-14.6200185],[-49.8091779,-14.617843],[-49.8245314,-14.5948199],[-49.8230283,-14.565729],[-49.8203138,-14.5561245],[-49.817537,-14.5474144],[-49.8099806,-14.5420778],[-49.7889502,-14.5323876],[-49.7787214,-14.5168923],[-49.7554491,-14.5038408],[-49.7569208,-14.4942921],[-49.7720314,-14.4807408],[-49.7638423,-14.4752642],[-49.7226498,-14.4792378],[-49.7140596,-14.4642337],[-49.7131442,-14.4679397],[-49.702817,-14.4691385],[-49.6940049,-14.4660027]],[[-49.6940049,-14.4660027],[-49.6972257,-14.4620675]],[[-49.6972257,-14.4620675],[-49.7020042,-14.4601431],[-49.7126412,-14.4532032],[-49.7381495,-14.4425752],[-49.7323905,-14.4287958],[-49.7322831,-14.4194523],[-49.7495563,-14.4152803],[-49.7515568,-14.412496],[-49.759783,-14.4164402],[-49.7620565,-14.402603],[-49.7545917,-14.3991234],[-49.7665531,-14.393694],[-49.7794808,-14.366774],[-49.7749196,-14.3498393],[-49.8002278,-14.3203062],[-49.7889549,-14.2997178],[-49.8208719,-14.2583188],[-49.8079467,-14.2219467],[-49.8176982,-14.1996882],[-49.8296206,-14.2044899],[-49.8466221,-14.1765572],[-49.8313631,-14.1359639],[-49.8465637,-14.1150727],[-49.8671466,-14.1181034],[-49.8890317,-14.0788868],[-49.8941404,-14.0614611],[-49.87342,-14.0451919],[-49.8842803,-14.0332919],[-49.8734239,-14.0098222],[-49.8818413,-13.9863649],[-49.85362,-13.9811416],[-49.8660347,-13.960827],[-49.8557312,-13.9479645],[-49.8350329,-13.9557798],[-49.8185057,-13.9408343],[-49.8281462,-13.9181795],[-49.837949,-13.8994978],[-49.8459154,-13.8986782],[-49.8489234,-13.9125349],[-49.8654243,-13.9129768],[-49.872927,-13.8973758],[-49.9060608,-13.900883],[-49.9365988,-13.8845269],[-49.9371136,-13.9018406],[-49.9510649,-13.914419],[-49.9740372,-13.8863797],[-49.9609207,-13.8675477],[-49.9588685,-13.8467073],[-49.9415053,-13.8347684],[-49.9390615,-13.825799],[-49.9576167,-13.8173378],[-49.9560068,-13.8120004],[-49.9465651,-13.8144586],[-49.9312254,-13.7906417],[-49.931509,-13.7865611],[-49.9207282,-13.7714363],[-49.9228414,-13.7563044],[-49.9361712,-13.7474949],[-49.9603686,-13.7390361],[-49.9627285,-13.7135574],[-49.9713109,-13.6902585],[-49.9963386,-13.6847733],[-50.0192848,-13.6885236],[-50.0323908,-13.6798864],[-50.043865,-13.6975419],[-50.0595377,-13.7047184],[-50.0685053,-13.6857743],[-50.0841499,-13.6885102],[-50.1014856,-13.6615853],[-50.1132866,-13.6592814],[-50.1214489,-13.6882301],[-50.1406462,-13.6749457],[-50.1429266,-13.6564605],[-50.1772285,-13.6513324],[-50.2284252,-13.651662],[-50.2347367,-13.6460228],[-50.2396249,-13.6540526],[-50.2420938,-13.6266895],[-50.233643,-13.619879],[-50.2467842,-13.5766628],[-50.2597573,-13.5690076],[-50.2746449,-13.5812385],[-50.2689492,-13.5673866],[-50.2513631,-13.5568366],[-50.2328145,-13.5572564],[-50.2273681,-13.5397788],[-50.2033127,-13.5350539],[-50.1664846,-13.5523147],[-50.1632002,-13.5335809],[-50.1427584,-13.5369666],[-50.1369259,-13.5213879],[-50.1190091,-13.5085644],[-50.0569546,-13.5232291],[-50.0258679,-13.5047894],[-50.0092861,-13.5025848],[-50.0004229,-13.4866354],[-49.9578662,-13.496435],[-49.9355867,-13.4931367],[-49.9106441,-13.5072607],[-49.8856754,-13.4932803],[-49.870532,-13.5045956],[-49.8492835,-13.4960351],[-49.8429273,-13.4750484],[-49.8224514,-13.4528309],[-49.8108056,-13.4638993],[-49.7789454,-13.4503746],[-49.7585875,-13.4263195],[-49.7224225,-13.4231764],[-49.672001,-13.3710034],[-49.6505835,-13.3620661],[-49.6500078,-13.356537],[-49.6468802,-13.3548155],[-49.6304507,-13.352972],[-49.6151738,-13.3371784],[-49.5926485,-13.3198925],[-49.5906588,-13.3018337],[-49.5530887,-13.2786469],[-49.5312545,-13.2805734],[-49.4941127,-13.2539231],[-49.4783857,-13.2545245],[-49.4596913,-13.2484284],[-49.435528,-13.2545432],[-49.3831091,-13.2763694],[-49.371834,-13.276707]],[[-50.8415049,-14.1043251],[-50.8518089,-14.1176257],[-50.8711194,-14.11793],[-50.8951037,-14.1308696],[-50.9037008,-14.1102235],[-50.9197824,-14.1266249],[-50.9100275,-14.148419],[-50.9402094,-14.2184689],[-50.9548889,-14.2332145],[-50.9781733,-14.2972436],[-50.9684662,-14.3166155],[-50.9693146,-14.3358323],[-50.9882005,-14.3599682],[-50.9844832,-14.3764446],[-50.9978306,-14.4156747],[-50.9849149,-14.4319171],[-50.9889651,-14.4535716],[-50.9680137,-14.4819971],[-50.973025,-14.4976842],[-50.9642292,-14.5282977],[-50.9962494,-14.5746109],[-50.9928355,-14.6124579],[-51.0100072,-14.6457339],[-51.0266586,-14.6593581],[-51.0317548,-14.6778724],[-51.029233,-14.7074084],[-51.0531885,-14.7388819],[-51.0566607,-14.7612964],[-51.0448213,-14.7928386],[-51.0707095,-14.8099634],[-51.0896375,-14.8401805],[-51.0930003,-14.8935438],[-51.0871098,-14.9213487],[-51.1449181,-14.9434106],[-51.15705,-14.985611],[-51.1983989,-15.0027752],[-51.2190088,-15.0247016],[-51.2403049,-15.0292875],[-51.2676087,-15.044413],[-51.295042,-15.0302486],[-51.3070507,-14.9809707],[-51.3355323,-14.9717535],[-51.3595787,-15.0023992],[-51.3769297,-15.0102626],[-51.4017387,-15.0028534],[-51.4269632,-15.0076659],[-51.4441342,-15.0345996],[-51.4620029,-15.0479797],[-51.5341081,-15.0652022],[-51.5468907,-15.1004651],[-51.5640798,-15.1086091],[-51.5863887,-15.1335699],[-51.601781,-15.1604943],[-51.6474271,-15.1734621],[-51.6507182,-15.2033039],[-51.6681964,-15.2321668],[-51.668793,-15.2546151],[-51.6531034,-15.2539171],[-51.6506993,-15.2730935],[-51.6772481,-15.2875876],[-51.6914677,-15.3249149],[-51.6860461,-15.3488603],[-51.669531,-15.374421],[-51.6855954,-15.3893768],[-51.6976353,-15.4151402],[-51.6912771,-15.4258682],[-51.7092675,-15.461628],[-51.6989667,-15.4849292]],[[-51.6989667,-15.4849292],[-51.6479928,-15.5074375],[-51.6381656,-15.5348057],[-51.6359707,-15.5394248],[-51.6510006,-15.5613238],[-51.633445,-15.5653876],[-51.6180528,-15.5839176],[-51.59588,-15.5765057],[-51.5794945,-15.6006455],[-51.5786079,-15.6482446],[-51.5625521,-15.6517728],[-51.576104,-15.6864705],[-51.5747422,-15.6929218],[-51.5747253,-15.7043619],[-51.5339657,-15.717255],[-51.5278058,-15.7257556],[-51.5429385,-15.7730921],[-51.5221368,-15.8121025],[-51.4989337,-15.8101726],[-51.4691066,-15.8314655],[-51.4629407,-15.8535525],[-51.428605,-15.8474236],[-51.4239686,-15.8757164],[-51.3878851,-15.9105501],[-51.3724377,-15.9356073],[-51.359035,-15.9397256],[-51.3313536,-15.9253986],[-51.3004114,-15.9596106],[-51.2832673,-15.9583128],[-51.264573,-15.9749309]],[[-51.264573,-15.9749309],[-51.25744,-15.9693828]],[[-51.25744,-15.9693828],[-51.2407098,-15.9496888],[-51.2215296,-15.9412635],[-51.2051064,-15.9633525],[-51.1785179,-15.9538423],[-51.1311291,-15.9663166],[-51.1146577,-15.9611156],[-51.0870205,-15.9782291],[-51.0671,-15.969127],[-51.0336616,-15.9885403],[-51.0298297,-15.9987966],[-50.9841337,-16.0294925],[-50.9784958,-16.0195649],[-50.9402974,-16.020911],[-50.9243946,-16.04879],[-50.9142357,-16.0537382],[-50.8855466,-16.0439147],[-50.8720692,-16.0109505],[-50.8435983,-16.0096122],[-50.8142681,-16.0236304],[-50.7953466,-15.9959825],[-50.7839112,-15.9959572],[-50.7802637,-15.9681672],[-50.7939355,-15.9461529],[-50.77352,-15.9394855],[-50.7718491,-15.9264551],[-50.746485,-15.9227429],[-50.7422401,-15.8999014],[-50.7234926,-15.8771101],[-50.7111297,-15.8999164],[-50.6841258,-15.9098846],[-50.6834316,-15.9521168],[-50.6222084,-15.9625278],[-50.6036549,-16.0006775],[-50.592262,-16.0058328],[-50.5848796,-16.0382287],[-50.5062348,-16.008314],[-50.5099029,-16.0368504],[-50.4896212,-16.0407072],[-50.4753266,-16.0681812],[-50.4779614,-16.1199496]],[[-50.4779614,-16.1199496],[-50.4499635,-16.119216],[-50.4404019,-16.113173],[-50.4362327,-16.0996908],[-50.42085,-16.0905207],[-50.3913768,-16.0846485],[-50.367431,-16.075726],[-50.3537227,-16.0797098],[-50.3335658,-16.0914072],[-50.2958446,-16.083336],[-50.2804317,-16.0931964],[-50.2573769,-16.0942471],[-50.2265738,-16.0765866],[-50.1857802,-16.0725257],[-50.1146031,-16.0428957],[-50.093486,-16.0386644]],[[-50.093486,-16.0386644],[-50.0885743,-16.0389638],[-50.0833724,-16.0445869],[-50.054258,-16.0274592]],[[-50.054258,-16.0274592],[-50.0417612,-16.0303706]],[[-50.0417612,-16.0303706],[-50.0362338,-16.0188506]],[[-50.0362338,-16.0188506],[-50.0053368,-16.0127132],[-49.9784824,-15.9929068],[-49.9632091,-15.9732403],[-49.9135957,-15.9692051],[-49.8813658,-15.9858327],[-49.8634261,-15.982162],[-49.8548376,-15.9582111],[-49.8326456,-15.927512],[-49.8403967,-15.9064534],[-49.8163114,-15.9067378],[-49.8154232,-15.8927534],[-49.7960902,-15.8847065],[-49.7953172,-15.8681082],[-49.8123348,-15.8461102],[-49.8150381,-15.8214313],[-49.8250923,-15.8083974],[-49.8404507,-15.7987171],[-49.8445378,-15.7837211],[-49.8554237,-15.78593],[-49.8595362,-15.7751131],[-49.8650127,-15.77253],[-49.8792254,-15.7592527],[-49.8850388,-15.7533488],[-49.8950369,-15.7610329],[-49.9125385,-15.7707474],[-49.9190417,-15.7540878],[-49.9386195,-15.7490955]],[[-49.9386195,-15.7490955],[-49.9576712,-15.7602449],[-49.9801898,-15.7631947],[-50.0207093,-15.7817115],[-50.0416798,-15.773311],[-50.0592302,-15.7803738],[-50.066847,-15.7876254],[-50.0726215,-15.7823922],[-50.0865074,-15.7684893],[-50.0620063,-15.7235852],[-50.0964237,-15.6720692],[-50.1223975,-15.6596214],[-50.1252294,-15.6171605],[-50.1352435,-15.5976236],[-50.1366735,-15.5709014],[-50.1566754,-15.5603991],[-50.1576722,-15.5330067],[-50.1657026,-15.5245888],[-50.1533441,-15.4871501],[-50.1643432,-15.429107],[-50.1557012,-15.4098964],[-50.133529,-15.392592],[-50.1246451,-15.370736],[-50.1318441,-15.3380279],[-50.1022839,-15.3154165],[-50.1047302,-15.2833837],[-50.0852614,-15.2606485],[-50.0806716,-15.2375959],[-50.0590438,-15.2247179],[-50.0390474,-15.1974525],[-50.0555931,-15.1830154],[-50.0402847,-15.1549389]],[[-50.0402847,-15.1549389],[-50.0357013,-15.1457145],[-50.0369234,-15.1435525],[-50.0464291,-15.1372974],[-50.0502003,-15.1275858],[-50.0548938,-15.1244199]],[[-50.0548938,-15.1244199],[-50.0832895,-15.1306867]],[[-52.0748357,-16.4858602],[-52.0601696,-16.4876929],[-52.0543348,-16.4899013],[-52.04917,-16.4964637],[-52.0532746,-16.5055348]],[[-52.0532746,-16.5055348],[-52.0440261,-16.5386011],[-52.0243375,-16.5464314],[-52.003504,-16.5677404],[-51.9787233,-16.6229138],[-51.917998,-16.6508884],[-51.8994974,-16.634156],[-51.8662278,-16.6590035],[-51.8076976,-16.630092],[-51.7745021,-16.6049584],[-51.752773,-16.5989074],[-51.7433897,-16.6215471],[-51.70869,-16.6431028],[-51.6758287,-16.6256682],[-51.6690823,-16.5990725],[-51.6325771,-16.5953087],[-51.595303,-16.6045007],[-51.5747772,-16.6537665],[-51.5512049,-16.6423223],[-51.5397197,-16.6228658],[-51.5395179,-16.605455],[-51.5065284,-16.580096],[-51.5053351,-16.5393649],[-51.4890634,-16.5417206],[-51.4561921,-16.5289559],[-51.4209125,-16.4942426],[-51.41392,-16.4813429],[-51.4045508,-16.4773448],[-51.4041354,-16.4724579],[-51.4000541,-16.4682217],[-51.3937183,-16.4663879]],[[-51.3937183,-16.4663879],[-51.3796121,-16.4658834],[-51.3738513,-16.4463371]],[[-51.3738513,-16.4463371],[-51.3920498,-16.4502476],[-51.4036898,-16.4025015],[-51.4158301,-16.3948484],[-51.4121061,-16.3719348],[-51.4398869,-16.3492568],[-51.4290553,-16.3201507],[-51.4089348,-16.3015559],[-51.4119703,-16.2757609],[-51.4047451,-16.267302],[-51.3902428,-16.2736977],[-51.3829142,-16.2809403],[-51.3677166,-16.2846153],[-51.1124054,-16.3068532],[-51.1228262,-16.296116],[-51.119549,-16.2655686],[-51.1308031,-16.2418909],[-51.1352721,-16.2271523],[-51.1401833,-16.2206667],[-51.1560232,-16.1963054],[-51.1709028,-16.1897405],[-51.1624377,-16.157146],[-51.1773548,-16.1470446],[-51.1784991,-16.1151805],[-51.1959915,-16.0990618],[-51.2108521,-16.0216329],[-51.2066549,-16.0036097],[-51.2356616,-15.9943897],[-51.2465827,-15.9667066],[-51.2539873,-15.9667017]],[[-51.2539873,-15.9667017],[-51.264573,-15.9749309]],[[-51.6989667,-15.4849292],[-51.7057302,-15.4975624],[-51.7285664,-15.5018063],[-51.7371803,-15.5267965],[-51.7255764,-15.544129],[-51.7393436,-15.5592768],[-51.7556134,-15.5574154],[-51.760886,-15.5300637],[-51.7772681,-15.534985],[-51.7798514,-15.5554215],[-51.754235,-15.6124359],[-51.7651493,-15.6495527],[-51.8025989,-15.7043354],[-51.8037938,-15.7237058],[-51.8345195,-15.7438316],[-51.8592473,-15.7874643],[-51.8763102,-15.8020547],[-51.879841,-15.8229438],[-51.8922896,-15.8311214],[-51.9129113,-15.8132336],[-51.9484549,-15.8100984],[-51.9531249,-15.8344788],[-51.9813041,-15.8425042],[-52.0079674,-15.8846314],[-52.0576873,-15.8875426],[-52.0733217,-15.8816546],[-52.1005084,-15.8890451],[-52.1149443,-15.885125],[-52.1313821,-15.8954985],[-52.1751265,-15.8880196],[-52.1926654,-15.880842],[-52.2159323,-15.8915822],[-52.2479693,-15.8901847],[-52.2568953,-15.9308847],[-52.266918,-15.9477238],[-52.2903395,-15.9655472],[-52.28913,-15.9794146],[-52.3108158,-16.0070365],[-52.3240427,-16.0378143],[-52.3299379,-16.0721758],[-52.372894,-16.0981299],[-52.3988793,-16.0933424],[-52.4395408,-16.1100841],[-52.4605729,-16.1277183],[-52.488136,-16.1304309],[-52.5020554,-16.1421354],[-52.5259589,-16.141064],[-52.5264499,-16.1553939],[-52.5473373,-16.1632322],[-52.5505032,-16.1875631],[-52.545272,-16.2226104],[-52.5689264,-16.2338872],[-52.5545962,-16.2524165],[-52.5827195,-16.2546894],[-52.5891948,-16.269497],[-52.6103955,-16.2717467],[-52.6193461,-16.2838801],[-52.6579667,-16.2800754],[-52.6832137,-16.3032469],[-52.68258,-16.3441296],[-52.692787,-16.3671524],[-52.6775937,-16.3809965],[-52.687412,-16.3990004],[-52.6745488,-16.4124041],[-52.6516772,-16.408483],[-52.6386778,-16.4375587],[-52.6192182,-16.4463069],[-52.6060783,-16.4860242],[-52.6294216,-16.5177702]],[[-52.6294216,-16.5177702],[-52.6221702,-16.5147],[-52.6105297,-16.5128161],[-52.6073302,-16.5228317],[-52.5995908,-16.5331953],[-52.5719454,-16.5181011],[-52.5658977,-16.5469006],[-52.5512282,-16.5438353],[-52.5492495,-16.5454675],[-52.5461726,-16.5523552],[-52.5045868,-16.5504722],[-52.4823378,-16.5620923],[-52.4570714,-16.5577423],[-52.4409502,-16.5449285],[-52.4172858,-16.5425643],[-52.4038896,-16.554829],[-52.3642839,-16.5362018],[-52.3331669,-16.5530473],[-52.3099503,-16.5787518],[-52.2770813,-16.586622],[-52.2597305,-16.5986558],[-52.2456168,-16.5802694],[-52.2326979,-16.5388022],[-52.210803,-16.5084259],[-52.1980821,-16.4789046],[-52.194212,-16.4661823],[-52.170783,-16.4779598],[-52.1601659,-16.4705235],[-52.0887815,-16.4735967],[-52.0748357,-16.4858602]],[[-49.6972257,-14.4620675],[-49.6904285,-14.4697537]],[[-49.6904285,-14.4697537],[-49.6841159,-14.4785447],[-49.6796411,-14.478653],[-49.6605315,-14.4809778],[-49.6570345,-14.5109008],[-49.6591719,-14.5183336],[-49.6610338,-14.5188809],[-49.6619761,-14.5319244],[-49.6586972,-14.5387263],[-49.6413937,-14.5589259],[-49.6345056,-14.5664515],[-49.6381097,-14.5931867],[-49.6398961,-14.6174694],[-49.6376466,-14.6331505],[-49.6261984,-14.6387627],[-49.6326912,-14.6478324],[-49.6248713,-14.6765568],[-49.6154491,-14.6815279],[-49.5974148,-14.6638509],[-49.5853102,-14.6522449],[-49.5731137,-14.6497872],[-49.5727863,-14.6290302],[-49.5573337,-14.5988433],[-49.5520599,-14.5633169],[-49.5353401,-14.541923],[-49.542894,-14.5344947],[-49.5487282,-14.4990142],[-49.5416177,-14.4638946],[-49.5228905,-14.475286],[-49.4980218,-14.4639515],[-49.4735935,-14.4624857],[-49.4970621,-14.2551857],[-49.5616434,-14.2328365],[-49.5591185,-14.2108301],[-49.517395,-14.2147666],[-49.4740607,-14.2591222],[-49.4814439,-14.2690693],[-49.4650844,-14.2879054],[-49.4258329,-14.2615774],[-49.4297523,-14.284526],[-49.4169989,-14.30322],[-49.4183662,-14.3353783],[-49.4068328,-14.368936],[-49.4159467,-14.3930344],[-49.402553,-14.4008512],[-49.4093619,-14.4297251],[-49.4040325,-14.4420661],[-49.3567746,-14.5003298],[-49.3590476,-14.5081267],[-49.3884501,-14.5075842],[-49.40117,-14.5334347],[-49.4306935,-14.5486598],[-49.442085,-14.5521627],[-49.4507567,-14.5769318],[-49.4428379,-14.5931725],[-49.4321145,-14.606288],[-49.4327876,-14.6222511],[-49.3913591,-14.6379504],[-49.3560811,-14.6086279],[-49.3231652,-14.6379196],[-49.320421,-14.668246],[-49.2895862,-14.6763632],[-49.2814462,-14.7025676],[-49.2410575,-14.7242453],[-49.2325582,-14.7247829],[-49.2004682,-14.7462781],[-49.1905584,-14.7680871],[-49.1716385,-14.7712976],[-49.1521352,-14.7685839],[-49.1505873,-14.7369983],[-49.0867171,-14.7308269],[-49.0696346,-14.7435806],[-49.0610027,-14.7235243],[-49.0419726,-14.7086762],[-49.0103042,-14.7204507],[-49.0093558,-14.698398],[-49.0217716,-14.684995],[-49.014886,-14.6627143],[-49.0286987,-14.6349298],[-49.0540827,-14.6171083],[-49.0428014,-14.6060569],[-49.0170015,-14.6221398],[-49.0184999,-14.606768],[-49.0344119,-14.6029631],[-49.0394094,-14.5805006],[-49.0100002,-14.5963251],[-48.9973852,-14.5958048],[-48.9963559,-14.5880091],[-48.9940594,-14.5845633],[-48.9840521,-14.5964124],[-48.9790759,-14.6156107],[-48.9912537,-14.6303975],[-48.9822723,-14.6465114],[-48.9598077,-14.6607744],[-48.9502798,-14.6810444],[-48.924666,-14.6798036],[-48.9063552,-14.670973],[-48.8813872,-14.6800523],[-48.8759412,-14.6945355],[-48.8182197,-14.6765144],[-48.8070861,-14.6654331],[-48.7749152,-14.6598063],[-48.7751316,-14.6490196],[-48.7643551,-14.6434681],[-48.7553007,-14.6482356],[-48.7551847,-14.6584706],[-48.7273858,-14.6726963],[-48.7316307,-14.7093072],[-48.71278,-14.726555],[-48.7267978,-14.810934],[-48.7606625,-14.8462841],[-48.7574387,-14.8616829]],[[-48.7574387,-14.8616829],[-48.7440297,-14.885636],[-48.7516921,-14.9050476],[-48.7425799,-14.9253077],[-48.7492773,-14.9347565],[-48.7200204,-14.9513177],[-48.6901095,-14.9546527],[-48.6859937,-14.9578987],[-48.6982147,-14.9807728],[-48.6837546,-14.9797126],[-48.6681876,-14.9825613],[-48.6552403,-14.9613145],[-48.6487768,-14.9673598],[-48.6494962,-14.9776873],[-48.6332154,-14.9898477],[-48.615886,-14.9881514],[-48.5874369,-14.997727],[-48.5562441,-15.0148083],[-48.5471666,-15.0066628],[-48.522081,-15.0177509],[-48.5100815,-15.0123203],[-48.5003547,-14.9846499],[-48.4487484,-14.9572642],[-48.422045,-14.9374255],[-48.3859099,-14.944642],[-48.3517877,-14.9079895],[-48.3251573,-14.8991791],[-48.2920504,-14.8969126],[-48.2566856,-14.8730678],[-48.2368546,-14.8809077],[-48.1857689,-14.8489134],[-48.1339649,-14.8463124],[-48.1013519,-14.8486422],[-48.0826272,-14.8591057],[-48.0908509,-14.8852678],[-48.0767999,-14.8920703],[-48.0594561,-14.858461],[-48.0407719,-14.8575135],[-48.0409096,-14.8381414],[-48.0279959,-14.823864],[-48.0130173,-14.8230532],[-47.9902358,-14.8026207],[-47.9516011,-14.8029085],[-47.897853,-14.7894843],[-47.8829897,-14.7758659],[-47.8565709,-14.7656602],[-47.8447992,-14.7521468],[-47.8339578,-14.7375781],[-47.8144373,-14.6999781],[-47.8037095,-14.6918148],[-47.786327,-14.6902897],[-47.7715984,-14.6482234],[-47.7712942,-14.6410007]],[[-47.7712942,-14.6410007],[-47.775263,-14.6339519],[-47.7761561,-14.6306111],[-47.776622,-14.6282587],[-47.7768441,-14.6253604],[-47.765681,-14.6073232],[-47.7719571,-14.5774123],[-47.7687421,-14.5729412],[-47.7684014,-14.5695847],[-47.7695737,-14.5631691],[-47.770409,-14.5549373],[-47.7693318,-14.5501416],[-47.7745968,-14.5288088],[-47.8058203,-14.5207745],[-47.8147613,-14.5073703],[-47.8247606,-14.5018485],[-47.8348512,-14.4640186],[-47.8355945,-14.4364742],[-47.8574575,-14.3957185],[-47.8551313,-14.3723534],[-47.8346126,-14.3628109],[-47.8280184,-14.3461568],[-47.8503988,-14.3334776],[-47.8775144,-14.343995],[-47.9146836,-14.3309511],[-47.9091316,-14.2818574],[-47.9227921,-14.2761511],[-47.9401525,-14.2862971],[-47.9540719,-14.2826739],[-47.9683726,-14.2620136],[-48.0013768,-14.2535227],[-48.0277136,-14.2323853],[-48.0441281,-14.2344833],[-48.0866236,-14.1904801],[-48.0955471,-14.1905382],[-48.1288257,-14.1678238],[-48.119518,-14.1556562],[-48.1413797,-14.1318712],[-48.1562729,-14.1251613],[-48.1747717,-14.0876024],[-48.1707103,-14.0682934],[-48.1913777,-14.0271226],[-48.194936,-14.0211578],[-48.2051608,-14.0203146],[-48.2143212,-14.0191937],[-48.2206431,-14.0150538],[-48.2132191,-14.0018813],[-48.2339731,-13.994421],[-48.2453001,-13.99332],[-48.2479114,-13.9684561],[-48.2580748,-13.9584607],[-48.3035753,-13.9378377],[-48.3101356,-13.9451013],[-48.3269081,-13.9276771],[-48.3243289,-13.9146883],[-48.3280701,-13.9005184],[-48.3344388,-13.8967122],[-48.3389399,-13.8742295],[-48.3458832,-13.8626443],[-48.3370492,-13.8400479],[-48.3197135,-13.8455979],[-48.3016598,-13.8331932],[-48.2822986,-13.8312914],[-48.2528245,-13.8553929],[-48.2094083,-13.8218739],[-48.1967092,-13.7927918],[-48.1730127,-13.7726907],[-48.1446304,-13.7639228],[-48.1374391,-13.7323772],[-48.1460433,-13.7027232],[-48.1409639,-13.6842568],[-48.1422088,-13.6530292],[-48.1113082,-13.6176592],[-48.1101328,-13.5686782],[-48.0920187,-13.5540918],[-48.0925752,-13.5483026],[-48.1080687,-13.54039],[-48.1248245,-13.5402776],[-48.1315709,-13.5049685],[-48.1575985,-13.495363],[-48.1661527,-13.4769375],[-48.1917936,-13.478559],[-48.189858,-13.4560141],[-48.1484303,-13.4406728],[-48.1436843,-13.4129596],[-48.148568,-13.3794239],[-48.1706358,-13.3673785],[-48.1648523,-13.3329739],[-48.1719912,-13.3110217]],[[-48.1719912,-13.3110217],[-48.1532145,-13.2783113],[-48.1571961,-13.2500059],[-48.1667655,-13.2325899],[-48.1543121,-13.2210279],[-48.1659237,-13.1892998],[-48.1529748,-13.1561787],[-48.1797662,-13.1515657],[-48.193604,-13.1730343],[-48.2307606,-13.1712946],[-48.2447494,-13.1926502],[-48.2625454,-13.1976362],[-48.2920688,-13.2199679],[-48.3621149,-13.2429505],[-48.3854841,-13.2662822],[-48.430047,-13.2711776],[-48.435071,-13.2901429],[-48.4577023,-13.2824783],[-48.458876,-13.2523081],[-48.476282,-13.2300904],[-48.4723679,-13.2010499],[-48.4772668,-13.1788007],[-48.4701744,-13.1458577],[-48.4946538,-13.1368825],[-48.5173926,-13.1463231],[-48.5296886,-13.1914152],[-48.5537521,-13.2035451],[-48.5535925,-13.3026334],[-48.5876603,-13.3100071],[-48.5998625,-13.2879857],[-48.5889337,-13.2635269],[-48.5999452,-13.2386606],[-48.5844342,-13.2270548],[-48.5774783,-13.1952471],[-48.5812523,-13.1682561],[-48.5907997,-13.1514697],[-48.578456,-13.1173228],[-48.6022296,-13.0772677],[-48.6022054,-13.057559],[-48.6270937,-13.0518591],[-48.6386632,-13.0134339],[-48.6561079,-13.0117733],[-48.6749137,-12.9927556],[-48.7157524,-13.0022834],[-48.7325583,-12.9837304],[-48.7369946,-12.945734],[-48.7333252,-12.9356951],[-48.7736691,-12.8884402],[-48.805945,-12.8692098],[-48.8248181,-12.8453398],[-48.8428259,-12.8425068],[-48.8464274,-12.8092887],[-48.8703122,-12.8032618],[-48.9762335,-12.9578931],[-48.9793848,-12.9468414],[-49.0029909,-12.9337856],[-49.0091156,-12.9164814],[-49.0330387,-12.9022575],[-49.0754895,-12.9052517],[-49.0874736,-12.887177],[-49.0732435,-12.869707],[-49.0737183,-12.8458037],[-49.1046307,-12.8354203],[-49.1176838,-12.7900847],[-49.1380501,-12.801185],[-49.1441475,-12.8177577],[-49.1795587,-12.8466265],[-49.2106839,-12.8779345],[-49.2261652,-12.8782885],[-49.2488814,-12.9060402],[-49.2492919,-12.9265398],[-49.2675385,-12.9443663],[-49.2797504,-12.9669855],[-49.2757252,-12.979242],[-49.3069216,-13.0331474],[-49.3372722,-13.0643396],[-49.3520922,-13.0926942],[-49.3543037,-13.1123772],[-49.3410799,-13.1274961],[-49.3535662,-13.1432846],[-49.3473356,-13.1670078],[-49.3492606,-13.2118489],[-49.3404471,-13.2300829],[-49.339619,-13.2536594],[-49.371834,-13.276707]],[[-47.7712942,-14.6410007],[-47.7680195,-14.6428493],[-47.7536245,-14.6487764],[-47.7333503,-14.6498445],[-47.7151294,-14.6586248],[-47.7053466,-14.6717023],[-47.6895711,-14.7359826],[-47.6746562,-14.7287734],[-47.6599012,-14.7064347],[-47.6317958,-14.750896],[-47.6413741,-14.7591425],[-47.6463462,-14.8309627],[-47.6342954,-14.8302539],[-47.6142971,-14.793829],[-47.5669643,-14.7572028],[-47.557738,-14.7322841],[-47.5340119,-14.7381956],[-47.5236177,-14.7762132],[-47.478288,-14.7993349],[-47.4617577,-14.8155799],[-47.4225037,-14.8292104],[-47.392454,-14.8165486],[-47.3753787,-14.816123],[-47.3600737,-14.8030988],[-47.3547582,-14.7811662],[-47.3525721,-14.7745519],[-47.322176,-14.7618478],[-47.3099007,-14.7600844],[-47.3144823,-14.7548525],[-47.3224028,-14.7498961],[-47.3150997,-14.7448996],[-47.316314,-14.7384712],[-47.312,-14.748238],[-47.3090146,-14.7509364],[-47.3040395,-14.7385129],[-47.3047996,-14.7311211],[-47.2825339,-14.6943305],[-47.2503398,-14.7002653],[-47.2314563,-14.6798106],[-47.2340353,-14.6437802],[-47.2157897,-14.6268583],[-47.217451,-14.6057711],[-47.19501,-14.5768699],[-47.1917558,-14.5562146],[-47.1777037,-14.5395776],[-47.1543105,-14.5477115]],[[-47.1543105,-14.5477115],[-47.1453721,-14.5379718]],[[-47.1453721,-14.5379718],[-47.1494756,-14.5314716],[-47.1501474,-14.5268594],[-47.1572324,-14.4662647],[-47.1837895,-14.4387072],[-47.1808182,-14.422669],[-47.1892009,-14.403068],[-47.1911521,-14.3737405],[-47.1822052,-14.3491534],[-47.1877046,-14.3311657],[-47.1844309,-14.3027144],[-47.1716539,-14.2674982],[-47.1389994,-14.2543611],[-47.1369574,-14.2187623],[-47.1292851,-14.2006073],[-47.0854046,-14.1707185],[-47.0842906,-14.1423734],[-47.0681174,-14.129677],[-47.0609219,-14.1116108],[-47.0321125,-14.0895085],[-46.9893963,-14.0944211],[-46.9868946,-14.0896],[-46.9807618,-14.0938232],[-46.9776999,-14.0891807],[-46.9552033,-14.0908562],[-46.9380375,-14.103],[-46.9227808,-14.0769559]],[[-46.9227808,-14.0769559],[-46.9000111,-14.0784364],[-46.8890938,-14.0705675],[-46.8875311,-14.0665728],[-46.8886212,-14.0556878],[-46.8839754,-14.0415921]],[[-46.8839754,-14.0415921],[-46.8755858,-14.0333836],[-46.8363163,-14.0434626],[-46.8266501,-14.027613],[-46.832285,-14.0061448],[-46.8509549,-13.9864407],[-46.8376185,-13.9683577],[-46.8412362,-13.9502681],[-46.8371719,-13.9116762],[-46.8607021,-13.8978624],[-46.8667211,-13.8807806],[-46.8393119,-13.8639744],[-46.825503,-13.847963],[-46.8518105,-13.8288244],[-46.8464216,-13.8165677],[-46.8171696,-13.7959635],[-46.8376212,-13.7651777],[-46.8213386,-13.7501602],[-46.8108147,-13.7252989],[-46.7922837,-13.728264],[-46.7857538,-13.7028808],[-46.8016049,-13.6948181],[-46.8159486,-13.6571477],[-46.8505643,-13.6332782],[-46.8543282,-13.6225361],[-46.8304191,-13.587246],[-46.7970649,-13.5942974],[-46.7825934,-13.56651],[-46.7885899,-13.5558626],[-46.7723905,-13.5401938],[-46.7848674,-13.5118289],[-46.7681697,-13.4907274],[-46.7694777,-13.4701051],[-46.762032,-13.4379224],[-46.7514752,-13.4335539],[-46.7486208,-13.4074865],[-46.7164769,-13.3879528],[-46.699059,-13.3689114],[-46.7005327,-13.3415668],[-46.7087801,-13.330817],[-46.7023645,-13.2967055],[-46.6774838,-13.2836831],[-46.6840054,-13.2544456],[-46.6775597,-13.2398399],[-46.6157557,-13.2238005],[-46.5787244,-13.2031597],[-46.5307544,-13.1540063],[-46.5062805,-13.0971287],[-46.4808394,-13.0868043],[-46.4530828,-13.065891],[-46.4511059,-13.0549914],[-46.2987271,-13.063779]],[[-46.2987271,-13.063779],[-46.2815629,-13.0451358],[-46.2755338,-13.0202133],[-46.1938118,-12.9967524],[-46.1663753,-12.977276],[-46.1246636,-12.9598204],[-46.1068577,-12.9357294],[-46.120116,-12.9256799],[-46.1509947,-12.9377361],[-46.1777318,-12.9393773],[-46.195902,-12.956977],[-46.2810157,-12.968555],[-46.304931,-12.97854],[-46.3706226,-12.987923],[-46.3724272,-12.9445488],[-46.3652006,-12.9346972],[-46.3684008,-12.9025899],[-46.3657643,-12.863354],[-46.3829617,-12.8485596],[-46.4091181,-12.8455928],[-46.4179848,-12.8224367],[-46.4325688,-12.9306408],[-46.4459259,-12.9357678],[-46.4546499,-12.9711526],[-46.750611,-12.969155],[-46.8228182,-13.0067893],[-46.8614231,-13.0667377],[-46.8782265,-13.0516605],[-46.8916768,-13.0523851],[-46.9275007,-13.0897505],[-46.9791473,-13.1218422],[-47.0053109,-13.1265186],[-47.0078393,-13.1386366],[-47.0712409,-13.1589459],[-47.0854035,-13.1717336],[-47.1321165,-13.1778641],[-47.1335041,-13.1993901],[-47.1679426,-13.2111178],[-47.1969246,-13.1936844],[-47.2296138,-13.1947384],[-47.2523793,-13.2126088],[-47.2482667,-13.2278975],[-47.2683979,-13.2374476],[-47.2821518,-13.2651268],[-47.3063623,-13.249093],[-47.3238054,-13.2582586],[-47.3381852,-13.2463509],[-47.3797227,-13.2306025],[-47.394499,-13.2462665],[-47.3914681,-13.2583855],[-47.4171999,-13.2708326],[-47.4364455,-13.2667829],[-47.4544222,-13.2505276],[-47.4321613,-13.2379692],[-47.4421239,-13.2223176],[-47.4651907,-13.227158],[-47.4878931,-13.2112802],[-47.4774514,-13.1871897],[-47.5088443,-13.1900339],[-47.5177151,-13.1833875],[-47.5410293,-13.1917981],[-47.5652595,-13.179662],[-47.5685676,-13.1434514],[-47.5609943,-13.1255621],[-47.5746786,-13.1149265],[-47.5931215,-13.1154824],[-47.6156147,-13.1036851],[-47.6458713,-13.1198323],[-47.6516952,-13.1498235],[-47.6661664,-13.1726605],[-47.6652143,-13.2183676],[-47.639661,-13.2642926],[-47.6614696,-13.3027767],[-47.6536575,-13.3134643],[-47.6500735,-13.3491826],[-47.6287514,-13.365694],[-47.6377011,-13.3898225],[-47.6709903,-13.4412691],[-47.6797484,-13.4681748],[-47.7982282,-13.3289841],[-47.8236019,-13.3117114],[-47.8740603,-13.3204879],[-47.8986464,-13.3125729],[-47.9064982,-13.2991233],[-47.9363044,-13.2898552],[-47.9439503,-13.303586],[-47.9705718,-13.3115825],[-47.9885408,-13.2763636],[-48.0252513,-13.2798336],[-48.0339599,-13.2537738],[-48.0520821,-13.2567948],[-48.0541503,-13.2395873],[-48.0760426,-13.2427307],[-48.0792374,-13.2853782],[-48.1430995,-13.3061551],[-48.1719912,-13.3110217]],[[-50.0539069,-15.0919724],[-50.0601736,-15.1035156],[-50.0610676,-15.1080586],[-50.0571992,-15.1209165],[-50.0495629,-15.1284405],[-50.0482362,-15.1347405],[-50.0441234,-15.1391871],[-50.0360067,-15.144303],[-50.0402847,-15.1549389]],[[-49.9386195,-15.7490955],[-49.9330403,-15.7421104],[-49.9327584,-15.7401943],[-49.9078415,-15.749449],[-49.8825933,-15.7315636],[-49.8678747,-15.711374],[-49.8184487,-15.7116808],[-49.8071437,-15.697245],[-49.7552519,-15.6578909],[-49.7484554,-15.6645294],[-49.7504745,-15.6677592],[-49.7417218,-15.6758867],[-49.7281369,-15.6853684],[-49.7202288,-15.6901817],[-49.7037025,-15.7125518],[-49.7034248,-15.7351305],[-49.6848102,-15.7547702],[-49.6959247,-15.7805286],[-49.690894,-15.798922],[-49.6974216,-15.8256755],[-49.6802863,-15.8060763],[-49.6782579,-15.7767914],[-49.6504551,-15.7587306],[-49.6466176,-15.7104526],[-49.6360876,-15.693228],[-49.6044993,-15.6864501],[-49.6005595,-15.6748239],[-49.5574196,-15.6377628],[-49.5572801,-15.5810135],[-49.5619782,-15.559025],[-49.5535297,-15.5469011],[-49.5734136,-15.5110818],[-49.5690332,-15.4767917],[-49.5546116,-15.4659473],[-49.5259213,-15.4742235],[-49.521922,-15.4906817],[-49.4554242,-15.5327015],[-49.4411446,-15.5270535],[-49.4365585,-15.4982991],[-49.4226426,-15.492676],[-49.3873939,-15.5024999],[-49.378842,-15.495662],[-49.3391122,-15.4979668],[-49.3319229,-15.4840434],[-49.3100253,-15.4843946],[-49.2879397,-15.4410448],[-49.2781947,-15.4383927],[-49.2665832,-15.4474298],[-49.2337243,-15.4655598],[-49.2197243,-15.4886594],[-49.2332276,-15.512765],[-49.2259436,-15.5238098],[-49.2386422,-15.5525649],[-49.2355318,-15.5629868],[-49.2122255,-15.5670863],[-49.1926401,-15.6011084],[-49.1867239,-15.6024677]],[[-49.1867239,-15.6024677],[-49.1848024,-15.5984065]],[[-49.1848024,-15.5984065],[-49.1698066,-15.5913296],[-49.1477241,-15.5868197],[-49.1301402,-15.5739439],[-49.107785,-15.5445116],[-49.0890323,-15.538637],[-49.0815644,-15.4860124],[-49.0920512,-15.469018],[-49.0748357,-15.4551866],[-49.077863,-15.4411164],[-49.0712515,-15.3963674],[-49.0847202,-15.3850865],[-49.0830039,-15.3557518],[-49.0791338,-15.3428745],[-49.0634138,-15.3213109],[-49.0625232,-15.3076076],[-49.0422717,-15.3003229],[-49.0271951,-15.2770298],[-49.0139141,-15.2821988],[-49.0006637,-15.2652592],[-48.9381168,-15.2588156],[-48.9213627,-15.240884],[-48.9200279,-15.2259289],[-48.9205548,-15.2164027],[-48.9082814,-15.16394],[-48.8855302,-15.1424396],[-48.8847177,-15.123526],[-48.8689102,-15.0983284],[-48.8529193,-15.0866004],[-48.8538534,-15.0601594],[-48.8320507,-15.0404106],[-48.8283334,-15.0207697],[-48.803636,-14.9961773],[-48.8062732,-14.9594034],[-48.8023312,-14.9474351],[-48.7977209,-14.9295704],[-48.7867762,-14.91513],[-48.7718066,-14.9067485],[-48.7617186,-14.8879671],[-48.7574387,-14.8616829]],[[-49.6904285,-14.4697537],[-49.6940049,-14.4660027]],[[-50.0362338,-16.0188506],[-50.0375409,-16.0390957]],[[-50.0375409,-16.0390957],[-50.0305067,-16.0568663],[-50.0380137,-16.0916824],[-50.0312029,-16.101325],[-50.0394269,-16.1288164],[-50.0316468,-16.1723549],[-50.0219202,-16.1885796],[-50.0004501,-16.2005062],[-49.9720618,-16.2014231],[-49.9664847,-16.2147088],[-49.9260068,-16.226617],[-49.874283,-16.228381],[-49.8667323,-16.2503352],[-49.8785911,-16.275625],[-49.8455956,-16.2827888],[-49.8214277,-16.275633],[-49.7987861,-16.29953],[-49.7692801,-16.3067685],[-49.7564268,-16.322524],[-49.7437868,-16.3624168],[-49.7748696,-16.3714734],[-49.8005635,-16.3625636],[-49.8202028,-16.3862989],[-49.8089268,-16.4043975],[-49.788452,-16.4085125],[-49.7680319,-16.4426184],[-49.7424816,-16.4546967],[-49.7254219,-16.4722742],[-49.6967324,-16.470769],[-49.6936931,-16.5057697]],[[-49.6936931,-16.5057697],[-49.6866748,-16.5022285]],[[-49.6866748,-16.5022285],[-49.6545889,-16.5063542],[-49.6190159,-16.4880711],[-49.5354386,-16.502398],[-49.5197885,-16.4987961],[-49.4957695,-16.477909],[-49.4838321,-16.458362],[-49.4441,-16.4534697],[-49.4465001,-16.4286027],[-49.4206455,-16.4061424],[-49.3930252,-16.4339061],[-49.386646,-16.4563272],[-49.3544981,-16.4552317],[-49.3234133,-16.4377549],[-49.2967578,-16.4433431],[-49.2907001,-16.4106942],[-49.2711693,-16.3965591],[-49.2579231,-16.4026527],[-49.2522535,-16.3557392],[-49.2569176,-16.333172],[-49.2362838,-16.3294028],[-49.1837842,-16.3470998],[-49.1762976,-16.3656968],[-49.1139785,-16.427473],[-49.0983592,-16.4154692],[-49.0935286,-16.3814568],[-49.05011,-16.3762727],[-49.0419153,-16.3981337],[-49.0234763,-16.4129324],[-49.011529,-16.3988585],[-48.980913,-16.3989988],[-48.996468,-16.4855498]],[[-48.996468,-16.4855498],[-48.8653073,-16.3940039]],[[-48.8653073,-16.3940039],[-48.8492495,-16.4007311],[-48.821115,-16.3987195],[-48.8011122,-16.3828739],[-48.7604972,-16.3854901],[-48.7502443,-16.3754125],[-48.7627437,-16.354379],[-48.7508573,-16.3321647],[-48.7677755,-16.3075682],[-48.7696122,-16.29127]],[[-48.7696122,-16.29127],[-48.7734132,-16.2775575]],[[-48.7734132,-16.2775575],[-48.7927208,-16.266118],[-48.8055501,-16.2693118],[-48.8261351,-16.2559016],[-48.8290536,-16.2334841],[-48.848443,-16.2269387],[-48.8718329,-16.2385094],[-48.8972239,-16.2371653],[-48.9221954,-16.2190343],[-48.9468854,-16.2439065],[-48.9543405,-16.2368994],[-48.9611783,-16.2275447],[-48.9480048,-16.2034274],[-48.9335266,-16.1922839],[-48.9226362,-16.1635714],[-48.9420529,-16.1312462],[-48.9810571,-16.1253538],[-49.0123232,-16.1407272],[-49.0584421,-16.1286509],[-49.1062748,-16.1461267],[-49.1402209,-16.1290177],[-49.1727197,-16.1339723],[-49.1760155,-16.1107041],[-49.1710059,-16.095939],[-49.149863,-16.0833299],[-49.1463183,-16.0437562],[-49.1551349,-16.0266481],[-49.1409587,-16.014677],[-49.1525947,-15.9820274],[-49.1807754,-15.9587804],[-49.1746038,-15.9400884],[-49.1988872,-15.9278421],[-49.1998047,-15.8867163],[-49.2173473,-15.8560155],[-49.1286973,-15.6242838],[-49.1494469,-15.6158406],[-49.1702814,-15.6274701],[-49.1830296,-15.6132699]],[[-49.1830296,-15.6132699],[-49.1867239,-15.6024677]],[[-51.3738513,-16.4463371],[-51.3704926,-16.4656898]],[[-51.3704926,-16.4656898],[-51.3663864,-16.4679992],[-51.3494389,-16.4766929],[-51.3351922,-16.5007654],[-51.332073,-16.5108534],[-51.3025812,-16.5313658],[-51.2930785,-16.5623718],[-51.2878798,-16.5990131],[-51.2719904,-16.6152016],[-51.2566641,-16.6166972],[-51.2514612,-16.6508907],[-51.2221317,-16.6947098],[-51.2239349,-16.7101427],[-51.2284704,-16.71043],[-51.2155782,-16.7356064],[-51.226883,-16.7611458],[-51.2209357,-16.7920662],[-51.2056098,-16.8105271],[-51.1957995,-16.8395258],[-51.1734363,-16.8472553],[-51.1688243,-16.8663828],[-51.1516629,-16.8698555],[-51.145546,-16.8927885],[-51.1039657,-16.8945351],[-51.0789959,-16.9408058],[-51.057356,-16.9521491]],[[-51.057356,-16.9521491],[-51.0541329,-16.9572421]],[[-51.0541329,-16.9572421],[-51.0559903,-16.9360793],[-51.0531006,-16.9270839],[-51.0580494,-16.9232089],[-51.0515728,-16.8701798],[-51.0571129,-16.8604408],[-51.0079613,-16.8478636],[-50.9855974,-16.8282915],[-50.9711836,-16.7935562],[-50.9241542,-16.7834907],[-50.897072,-16.7547193],[-50.849269,-16.726946],[-50.8296062,-16.6886692],[-50.8116889,-16.6953965],[-50.8183742,-16.7218436],[-50.8040722,-16.7342672],[-50.806965,-16.7558911],[-50.790406,-16.7964941],[-50.7996165,-16.8234761],[-50.725378,-16.8100289],[-50.6959608,-16.813451],[-50.65138,-16.8397663]],[[-50.65138,-16.8397663],[-50.6412367,-16.8289067]],[[-50.6412367,-16.8289067],[-50.6297369,-16.8133624],[-50.6487348,-16.8028437],[-50.6129028,-16.7784816],[-50.6148805,-16.7458402],[-50.5843753,-16.6980224],[-50.6077671,-16.6738715],[-50.6071284,-16.6345707],[-50.6565133,-16.6123873],[-50.6598819,-16.6082737],[-50.6528936,-16.5929367],[-50.6171064,-16.5915486],[-50.6105897,-16.5430599],[-50.6017462,-16.506465],[-50.5630668,-16.5138298],[-50.558043,-16.5209433],[-50.540316,-16.5062647],[-50.5365103,-16.495884],[-50.533445,-16.4872887],[-50.5431166,-16.4688048],[-50.5316674,-16.4217637],[-50.5479995,-16.4017104],[-50.5190454,-16.3675577],[-50.5053937,-16.3598403],[-50.5040512,-16.3388977],[-50.4849937,-16.32488],[-50.4868618,-16.3245537],[-50.4874364,-16.2939812],[-50.4632091,-16.2591954],[-50.4921129,-16.2473241],[-50.5044208,-16.2314779],[-50.509581,-16.2306892],[-50.5189626,-16.2276392],[-50.5334604,-16.2311177],[-50.5383631,-16.2289933],[-50.5427085,-16.2145278],[-50.5574301,-16.2015812]],[[-50.5574301,-16.2015812],[-50.549156,-16.1891114],[-50.5399571,-16.1797951],[-50.531901,-16.1766795],[-50.5185203,-16.1753074]],[[-50.5185203,-16.1753074],[-50.5017811,-16.1548287]],[[-50.5017811,-16.1548287],[-50.4904608,-16.1479682],[-50.4877931,-16.1435097],[-50.486735,-16.1367608],[-50.4814062,-16.1239509]],[[-50.4814062,-16.1239509],[-50.4779614,-16.1199496]],[[-51.25744,-15.9693828],[-51.2539873,-15.9667017]],[[-50.6412367,-16.8289067],[-50.6412158,-16.8349807]],[[-50.6412158,-16.8349807],[-50.5761766,-16.8479397],[-50.5751264,-16.8380416],[-50.5463744,-16.8187601],[-50.5068229,-16.8116224],[-50.4817953,-16.7975446],[-50.4491817,-16.7971569],[-50.4209584,-16.745082],[-50.3979868,-16.7162194],[-50.3772707,-16.7178534],[-50.3615476,-16.7026265],[-50.3510189,-16.7257936],[-50.3600818,-16.7413879],[-50.3349252,-16.7556924],[-50.3004346,-16.7628426],[-50.2868626,-16.7757659],[-50.2874186,-16.7972459],[-50.2731813,-16.7982627],[-50.2549285,-16.762148],[-50.2532917,-16.7331624],[-50.1858128,-16.6829073],[-50.1546524,-16.6811047],[-50.0055661,-16.6201203],[-49.9727923,-16.5901991],[-49.9368644,-16.6107946],[-49.9279812,-16.6279592],[-49.9106717,-16.614447],[-49.8865645,-16.6401488],[-49.7768197,-16.6384737],[-49.7454551,-16.65271],[-49.7299232,-16.6406538],[-49.7185664,-16.6463172],[-49.693812,-16.6664952]],[[-49.693812,-16.6664952],[-49.6757056,-16.6694095]],[[-49.6757056,-16.6694095],[-49.6594243,-16.6608659],[-49.654361,-16.630056],[-49.6372294,-16.5959023],[-49.6012307,-16.5644673],[-49.6147799,-16.5509245],[-49.6211186,-16.5536534],[-49.6386756,-16.5425894],[-49.6411178,-16.5427485],[-49.659196,-16.5384306],[-49.6814228,-16.5347691],[-49.6958644,-16.5219311]],[[-49.6958644,-16.5219311],[-49.6936931,-16.5057697]],[[-50.0375409,-16.0390957],[-50.0417612,-16.0303706]],[[-50.054258,-16.0274592],[-50.0617898,-16.0293577],[-50.0735102,-16.0387134],[-50.0843211,-16.0447765],[-50.093486,-16.0386644]],[[-50.4814062,-16.1239509],[-50.4895463,-16.1469589],[-50.5017811,-16.1548287]],[[-50.5185203,-16.1753074],[-50.5366213,-16.1781764],[-50.5449268,-16.184323],[-50.5574301,-16.2015812]],[[-49.6866748,-16.5022285],[-49.6958644,-16.5219311]],[[-49.6757056,-16.6694095],[-49.6885861,-16.6708933]],[[-49.6885861,-16.6708933],[-49.6906464,-16.6910688],[-49.6732001,-16.7127924],[-49.6757008,-16.7245825],[-49.655372,-16.7379492],[-49.6535109,-16.760484],[-49.641007,-16.7706151],[-49.6325634,-16.8042507],[-49.5989519,-16.8022014],[-49.6037503,-16.8211571],[-49.610732,-16.8418279],[-49.6288658,-16.8463071],[-49.6653164,-16.8753005],[-49.6857867,-16.8729475],[-49.7148374,-16.8807862],[-49.7349214,-16.8993886],[-49.7294507,-16.9346346],[-49.7350076,-16.9371304],[-49.7442593,-16.9416474],[-49.7445365,-16.9482217],[-49.7330339,-16.9518398],[-49.6997881,-16.9425061],[-49.6735028,-16.9568444],[-49.5951196,-16.9527124],[-49.6342261,-17.0105222],[-49.6154746,-17.0541297],[-49.6062616,-17.0638823],[-49.5769752,-17.0482747],[-49.5685606,-17.0354532],[-49.5473982,-17.0458646],[-49.5274502,-17.0261822],[-49.5203122,-17.0005099],[-49.4795571,-16.9800429],[-49.4704731,-16.9887362],[-49.484556,-17.0225801],[-49.4814514,-17.0422858],[-49.4882567,-17.0761725],[-49.4749485,-17.0949392],[-49.4849232,-17.1174139],[-49.492398,-17.1246378],[-49.4815369,-17.1369786],[-49.4891469,-17.1595714]],[[-49.4891469,-17.1595714],[-49.4578392,-17.1599532]],[[-49.4578392,-17.1599532],[-49.4470329,-17.1421009],[-49.4244998,-17.1589055],[-49.3901094,-17.1576743],[-49.3679487,-17.142293],[-49.3207845,-17.1311495],[-49.2943983,-17.1097303],[-49.2316978,-17.0825395],[-49.2157767,-17.0921034],[-49.1919192,-17.1372951],[-49.1780069,-17.1230077],[-49.1554174,-17.122696],[-49.1290365,-17.131551],[-49.1082212,-17.1330853],[-49.1193629,-17.1179101],[-49.1084176,-17.0810631],[-49.0900162,-17.0785615],[-49.0831392,-17.0633724],[-49.0545482,-17.0527202],[-49.0351781,-17.0669248],[-49.0139022,-17.0675767],[-48.9823533,-17.0923876],[-48.9406931,-17.0783698],[-48.9238651,-17.0590812],[-48.909405,-17.0645066],[-48.8869207,-17.0479359],[-48.8599356,-17.0489703],[-48.844574,-17.0605584],[-48.8413516,-17.0862259],[-48.827577,-17.1144506],[-48.8007506,-17.1790646]],[[-48.8007506,-17.1790646],[-48.7990333,-17.1778846]],[[-48.7990333,-17.1778846],[-48.7953244,-17.1896839],[-48.7904642,-17.1943225],[-48.7835785,-17.1857166],[-48.760142,-17.1707574],[-48.7305208,-17.1612282],[-48.7105209,-17.159635],[-48.6673582,-17.1690132],[-48.6523082,-17.1787452],[-48.6411141,-17.1778741],[-48.6433027,-17.144075],[-48.6566129,-17.1243855],[-48.6801631,-17.1202786],[-48.6799171,-17.1049274],[-48.7070807,-17.0803778],[-48.7053034,-17.0568865],[-48.7152233,-17.0396123],[-48.7517205,-17.0173664],[-48.7688635,-17.0130959],[-48.7661914,-16.9926501],[-48.7805037,-16.979552],[-48.769417,-16.9370624],[-48.7776895,-16.9204235],[-48.8017772,-16.9161993],[-48.803774,-16.8913959],[-48.7918585,-16.8620238],[-48.7874664,-16.8359993],[-48.7894658,-16.8102716],[-48.801162,-16.795465],[-48.8282791,-16.7952181],[-48.8310257,-16.7667046],[-48.8560598,-16.7514326],[-48.8646753,-16.7576002],[-48.9174298,-16.7243268],[-48.8726632,-16.6571366],[-48.8188549,-16.6508464],[-48.8057201,-16.6330195],[-48.7857178,-16.6315123],[-48.7234716,-16.6865023],[-48.7188276,-16.6765771],[-48.7179715,-16.629248],[-48.7271339,-16.6044772],[-48.755123,-16.6056507],[-48.7857762,-16.5876996],[-48.8044466,-16.562068],[-48.8402752,-16.502607],[-48.8648207,-16.4864574],[-48.8628869,-16.4543286],[-48.8830829,-16.4422025],[-48.9003067,-16.4184324]],[[-48.9003067,-16.4184324],[-48.996468,-16.4855498]],[[-47.1453721,-14.5379718],[-47.1417583,-14.5355163]],[[-47.1417583,-14.5355163],[-47.092589,-14.5474097],[-47.089533,-14.5830726],[-47.0722608,-14.596756],[-47.0854221,-14.6211852],[-47.0865077,-14.6450075],[-47.101759,-14.6488805],[-47.1010415,-14.6956043],[-47.1126216,-14.7071651],[-47.0942571,-14.7464732],[-47.1144292,-14.7708335],[-47.0979798,-14.8037218],[-47.072812,-14.8101201],[-47.0727852,-14.8342046],[-47.0547034,-14.902867],[-46.9843447,-14.910573],[-46.9480057,-15.0048349],[-46.9250601,-15.0575055]],[[-46.9250601,-15.0575055],[-46.8944745,-15.0351274],[-46.8641705,-15.0203851],[-46.856899,-15.010266],[-46.8205547,-15.0107669],[-46.7818569,-15.0193214],[-46.7532595,-15.0327456],[-46.7264771,-15.0384155],[-46.6816692,-15.0586204],[-46.6515351,-15.0846034],[-46.6280595,-15.0894905],[-46.5880057,-15.0811231],[-46.5753084,-15.0836319],[-46.5513197,-15.0638756],[-46.5319982,-15.0563939],[-46.5154789,-15.0617918],[-46.502722,-15.0508979],[-46.5206716,-15.0137398],[-46.5308107,-15.0052785],[-46.5210077,-14.967394],[-46.5408375,-14.9516036],[-46.5465359,-14.9254445],[-46.521556,-14.8511795],[-46.5319268,-14.8302984],[-46.5585055,-14.8221536],[-46.5638389,-14.7833849],[-46.5432281,-14.7686732],[-46.5441922,-14.7530124],[-46.5102818,-14.7382606],[-46.5097242,-14.7160762],[-46.4765621,-14.7050974],[-46.4631397,-14.7311744],[-46.4473617,-14.7316769],[-46.4238049,-14.7559729],[-46.4045319,-14.7603312],[-46.3657836,-14.795406],[-46.3550072,-14.7942008],[-46.3221999,-14.8145803],[-46.325087,-14.8456231],[-46.3004725,-14.8580787],[-46.3181674,-14.8832583],[-46.3193358,-14.900439],[-46.29467,-14.9086131],[-46.2868648,-14.9281457],[-46.2600565,-14.9300408],[-46.2322235,-14.9222961],[-46.2113038,-14.9369656],[-46.1755505,-14.9494252],[-46.1615537,-14.9310482],[-46.1203001,-14.9200586],[-46.1089403,-14.9378484],[-46.0881416,-14.9363926],[-46.0793361,-14.9048431],[-46.0673034,-14.9097754],[-46.0485611,-14.8782827],[-46.0252869,-14.8557565],[-46.0411979,-14.8264946],[-46.0186719,-14.8185497],[-46.0191571,-14.8030889],[-46.0025841,-14.795839],[-45.9989273,-14.7682823],[-46.007302,-14.7509791],[-45.9970579,-14.7413414],[-46.0055037,-14.688998],[-46.0279691,-14.6810075],[-46.0105164,-14.66219],[-45.989515,-14.658845],[-45.9920312,-14.6402112],[-45.9843987,-14.6218787],[-45.9978884,-14.6035777],[-45.9852551,-14.5781326],[-45.9913237,-14.5651792],[-45.9814491,-14.5318979],[-46.0039971,-14.5145895],[-45.996085,-14.488406],[-46.0190031,-14.4720712],[-46.0000734,-14.4466222],[-46.0036893,-14.4254522],[-45.9758064,-14.434248],[-45.9326429,-14.4098593],[-45.9071553,-14.3551898],[-45.9422146,-14.343255],[-45.9570512,-14.3213986],[-45.9644033,-14.2843113],[-45.9954281,-14.2561577],[-46.0295909,-14.2595295],[-46.0604058,-14.2327006],[-46.0525646,-14.2044721],[-46.0610483,-14.1954846],[-46.0982283,-14.1999275],[-46.1129411,-14.1804138],[-46.1181409,-14.1599493],[-46.1321884,-14.1528501],[-46.1581407,-14.1605914],[-46.1841003,-14.1569481],[-46.199313,-14.1269406],[-46.2243922,-14.1050276],[-46.2276801,-14.0442614],[-46.2130884,-14.0305578],[-46.220066,-13.9754228],[-46.2544873,-13.9674639],[-46.2641903,-13.9474351],[-46.2568302,-13.8871755],[-46.2324747,-13.8486074],[-46.2647782,-13.8117487],[-46.2774951,-13.7908815],[-46.229975,-13.7742093],[-46.2229368,-13.7654029],[-46.2510312,-13.7368664],[-46.23577,-13.7010531],[-46.2561978,-13.6841624],[-46.2163979,-13.6359857],[-46.1627454,-13.6036421],[-46.1675389,-13.5897333],[-46.1996428,-13.5725394],[-46.2317192,-13.5832136],[-46.24138,-13.5713861],[-46.2374522,-13.5445555],[-46.2472571,-13.5216887],[-46.2302613,-13.511774],[-46.233156,-13.4817453],[-46.2101648,-13.4618865],[-46.2373491,-13.4348044],[-46.2319648,-13.4185849],[-46.2123325,-13.4190146],[-46.1917297,-13.4099817],[-46.1622858,-13.3826351],[-46.1354731,-13.3755242],[-46.0993391,-13.3344932],[-46.0733396,-13.3113689],[-46.0682755,-13.2954418],[-46.0802173,-13.2738374],[-46.1032194,-13.2575102],[-46.1748511,-13.2769535],[-46.2202554,-13.2956893],[-46.2924869,-13.3169301],[-46.317902,-13.3052278],[-46.2999859,-13.2828818],[-46.3055418,-13.2516639],[-46.3276793,-13.2529237],[-46.3043483,-13.2059795],[-46.3070303,-13.1706718],[-46.2996101,-13.1281286],[-46.3157947,-13.1187347],[-46.316385,-13.0909773],[-46.2987271,-13.063779]],[[-46.8839754,-14.0415921],[-46.8877065,-14.068113],[-46.8922231,-14.0732193],[-46.8976738,-14.0773348],[-46.9023078,-14.0787279],[-46.9227808,-14.0769559]],[[-49.1848024,-15.5984065],[-49.1830296,-15.6132699]],[[-48.7734132,-16.2775575],[-48.7658069,-16.2904162]],[[-48.7658069,-16.2904162],[-48.7189735,-16.2816324],[-48.7021828,-16.2901263],[-48.6792213,-16.2866178],[-48.6502245,-16.2904827],[-48.6312773,-16.282712],[-48.6229375,-16.3042692],[-48.5985551,-16.3171907],[-48.586299,-16.3321463],[-48.5732452,-16.3277405],[-48.5453002,-16.3410949],[-48.4958586,-16.3232018],[-48.4848036,-16.2987346],[-48.4363369,-16.2836521],[-48.3987138,-16.2923053],[-48.3747207,-16.3110566],[-48.398195,-16.3236299],[-48.3962146,-16.3581584],[-48.4014588,-16.3827362],[-48.3674359,-16.4025853],[-48.3586614,-16.4015491],[-48.3416071,-16.4441483],[-48.3277152,-16.453149],[-48.305797,-16.453154],[-48.2994675,-16.471163],[-48.2653232,-16.4974197],[-48.257548,-16.5296099],[-48.2443839,-16.556281],[-48.2291616,-16.6023476],[-48.1952183,-16.6413952],[-48.1897731,-16.6778627],[-48.1947174,-16.7350037],[-48.1686063,-16.7329568],[-48.1462417,-16.7426742],[-48.1247418,-16.7410675],[-48.1052169,-16.7483132],[-48.101885,-16.7657088],[-48.0813228,-16.7851093],[-48.0766041,-16.7992011],[-48.0852198,-16.8601091],[-48.0783747,-16.8796063],[-48.079352,-16.9287464],[-48.0666026,-16.9324886],[-48.0352408,-16.9215961],[-48.0065464,-16.9344882],[-48.0018226,-16.9516014]],[[-48.0018226,-16.9516014],[-47.919491,-17.004276]],[[-47.919491,-17.004276],[-47.9222701,-16.9849042],[-47.90771,-16.963354],[-47.9009356,-16.9532779],[-47.911294,-16.9246946],[-47.902823,-16.9154958],[-47.8729087,-16.9228261],[-47.833572,-16.9252007],[-47.807955,-16.9171207],[-47.7896007,-16.9280955],[-47.7716009,-16.9191885],[-47.7306823,-16.9292834],[-47.6952143,-16.912249],[-47.6845462,-16.9444677],[-47.6968433,-16.9612902],[-47.7001523,-17.0026874],[-47.7173717,-17.0246517],[-47.7132381,-17.0543309],[-47.6897895,-17.0818034],[-47.662737,-17.0874381],[-47.6594341,-17.1085437],[-47.6415968,-17.1323588],[-47.6292133,-17.1530788],[-47.5982919,-17.1669596],[-47.5704029,-17.2110796],[-47.5307644,-17.2425886],[-47.5312349,-17.2490132],[-47.5225435,-17.2792971],[-47.5184895,-17.2883258],[-47.4995431,-17.3020078],[-47.5099869,-17.3242576]],[[-47.5099869,-17.3242576],[-47.4879548,-17.3495063],[-47.4652936,-17.3558535],[-47.4444804,-17.3407593],[-47.4378685,-17.3178782],[-47.4228662,-17.3230893],[-47.4192041,-17.2954475],[-47.4344592,-17.2762185],[-47.4178482,-17.2704629],[-47.4078156,-17.2459561],[-47.3896233,-17.2451251],[-47.3853188,-17.2270492],[-47.3661276,-17.2217757],[-47.3484877,-17.176223],[-47.3265203,-17.1541597],[-47.2971259,-17.1420425],[-47.2827101,-17.1440996],[-47.2819575,-17.1148932],[-47.2669511,-17.1083693],[-47.2395492,-17.0836899],[-47.2055403,-17.0706816],[-47.1820537,-17.0532688],[-47.1780595,-17.0407701],[-47.146632,-17.032326],[-47.1403427,-17.018583],[-47.1441213,-16.9909364],[-47.1294759,-16.9751591],[-47.1590458,-16.9630068],[-47.1672751,-16.9526489],[-47.1818762,-16.9013299],[-47.2031153,-16.8928856],[-47.2096329,-16.8635581],[-47.2064375,-16.8383888],[-47.2211844,-16.8077662],[-47.2197008,-16.7780734],[-47.2364892,-16.7553454],[-47.2289826,-16.7121525],[-47.2461895,-16.700457],[-47.2508621,-16.6648074],[-47.2737876,-16.6619406],[-47.3011068,-16.6249778],[-47.339147,-16.6026508],[-47.3473129,-16.5908332],[-47.3744293,-16.584915],[-47.4060723,-16.5578251],[-47.4442298,-16.5393026],[-47.446005,-16.5173669],[-47.4595246,-16.5041259],[-47.4461699,-16.4501464],[-47.4269215,-16.4340202],[-47.4201416,-16.3831948],[-47.4030493,-16.3759185],[-47.3654888,-16.3298811],[-47.3524215,-16.3066762],[-47.3516084,-16.2754134],[-47.334288,-16.2585865],[-47.3219811,-16.2314256],[-47.3345377,-16.1983935],[-47.3319567,-16.1717392],[-47.3505851,-16.1385341],[-47.336561,-16.1194875],[-47.3329111,-16.0867316],[-47.3131586,-16.0856078],[-47.3085041,-16.0499714],[-48.2778112,-16.0495978],[-48.2662799,-16.0012797],[-48.2513944,-15.955654],[-48.2587351,-15.9296878],[-48.2771091,-15.9074416],[-48.2716483,-15.883715],[-48.2858068,-15.8445339],[-48.280657,-15.8239459],[-48.2566151,-15.8018137],[-48.2429068,-15.7973121],[-48.2096863,-15.754044],[-48.2088841,-15.7153612],[-48.2376815,-15.7085121],[-48.241331,-15.6867065],[-48.2341602,-15.6419091],[-48.2182154,-15.6233359],[-48.1997298,-15.622914],[-48.200009,-15.5022782],[-47.4184069,-15.5018199],[-47.4177866,-15.546259],[-47.4027651,-15.5474564],[-47.3765167,-15.5766676],[-47.3208407,-15.5865891],[-47.3319763,-15.628512],[-47.3266032,-15.652618],[-47.3281031,-15.6889177],[-47.3124896,-15.6972871],[-47.3207455,-15.7230306],[-47.313691,-15.7448666],[-47.3259497,-15.7610215],[-47.3394977,-15.7949824],[-47.368099,-15.8356435],[-47.3719887,-15.8740795],[-47.3788324,-15.8842243],[-47.3620936,-15.9292016],[-47.3785962,-15.962185],[-47.3692725,-16.0030809],[-47.3485985,-16.0062169],[-47.3256782,-16.0296187],[-47.3100062,-16.0362735],[-47.2967716,-16.0153307],[-47.2765091,-16.0093563],[-47.2447732,-16.017722],[-47.2217175,-16.0121546],[-47.2095607,-15.9926771],[-47.1672988,-15.9683774],[-47.1717381,-15.9541297],[-47.1386268,-15.9290202],[-47.1149112,-15.9536681],[-47.0768869,-15.9581333],[-47.0603838,-15.9400587],[-47.0220964,-15.9287803],[-46.9843092,-15.9240313],[-46.824868,-15.8857186],[-46.8068987,-15.879249],[-46.8055018,-15.8593948],[-46.8232217,-15.8246331],[-46.813149,-15.7872043],[-46.8274702,-15.7512492],[-46.8271475,-15.7299712],[-46.8424533,-15.714671],[-46.8557027,-15.6831245],[-46.8525929,-15.6530259],[-46.8590129,-15.6396352],[-46.8548835,-15.6183005],[-46.888818,-15.6056067],[-46.8970606,-15.5931796],[-46.9195268,-15.5888131],[-46.9490967,-15.5545973],[-46.9442146,-15.5181869],[-46.9324305,-15.4831717],[-46.9293133,-15.4399397],[-46.9151246,-15.4148348],[-46.8494784,-15.373164],[-46.8678404,-15.3572925],[-46.847957,-15.3467604],[-46.8359572,-15.3235505],[-46.8753369,-15.2839233],[-46.8893183,-15.2822469],[-46.8914846,-15.2352596],[-46.9063464,-15.2366187],[-46.9276553,-15.2550953],[-46.9408666,-15.2307016],[-46.9373469,-15.2050198],[-46.888319,-15.1125393],[-46.8977634,-15.0942172],[-46.9260374,-15.0735624],[-46.9250601,-15.0575055]],[[-47.1417583,-14.5355163],[-47.1543105,-14.5477115]],[[-52.6294216,-16.5177702],[-52.6257262,-16.5322091],[-52.6631217,-16.5513785],[-52.6729273,-16.5696264],[-52.7032115,-16.5963439],[-52.7275853,-16.5863466],[-52.7399149,-16.591926],[-52.7260216,-16.6144966],[-52.7410747,-16.6520897],[-52.762629,-16.6823471],[-52.7623086,-16.7070228],[-52.7856585,-16.714447],[-52.7925243,-16.7401439],[-52.8081932,-16.7422776],[-52.8372442,-16.7718969],[-52.8594506,-16.7685953],[-52.8844177,-16.7764073],[-52.9082498,-16.8106902],[-52.9282442,-16.8169],[-52.9450246,-16.8551914],[-52.976404,-16.8636838],[-53.0054934,-16.8652765],[-53.0174078,-16.8782915],[-53.0191666,-16.9002232],[-53.0394551,-16.9126931],[-53.0350329,-16.9424731],[-53.053547,-16.9788949],[-53.0608971,-17.0305634],[-53.071421,-17.0496052],[-53.0548061,-17.0641756],[-53.0874917,-17.1008125],[-53.110745,-17.1081403],[-53.1275167,-17.1545758],[-53.1566662,-17.1706845],[-53.1551668,-17.1868367],[-53.1718272,-17.2331751],[-53.2080973,-17.2931612],[-53.2118412,-17.3272933],[-53.2019544,-17.340922],[-53.2009055,-17.3718219],[-53.2109679,-17.4026593],[-53.2331888,-17.4411221],[-53.223504,-17.4584896],[-53.2344451,-17.479059],[-53.2441223,-17.5229237],[-53.2362465,-17.5782373],[-53.2483804,-17.6372489],[-53.2366639,-17.6794998],[-53.2337892,-17.7130374],[-53.2021732,-17.7259884],[-53.172069,-17.7569311],[-53.1553716,-17.7852182],[-53.159894,-17.7960312],[-53.1337961,-17.8324855],[-53.135743,-17.8756462],[-53.1227249,-17.8982747],[-53.1248223,-17.918015],[-53.1047187,-17.9276243],[-53.071315,-17.9659132],[-53.0647494,-17.9845366],[-53.0757114,-18.0507954],[-53.1236517,-18.0588283],[-53.14324,-18.0818367],[-53.1290165,-18.1384845],[-53.1297381,-18.1607025],[-53.1101876,-18.2195633],[-53.107513,-18.2601411],[-53.1020397,-18.2726203],[-53.0996557,-18.3136191],[-53.0699358,-18.3428798],[-53.0278517,-18.351596],[-53.0147372,-18.3268831],[-52.9652657,-18.2989407],[-52.9352301,-18.2965543],[-52.8732067,-18.3148335],[-52.814259,-18.3112978],[-52.7759033,-18.3287534],[-52.7593196,-18.3480709],[-52.7588732,-18.3631404],[-52.7860677,-18.3903091],[-52.8067938,-18.4176957],[-52.8732937,-18.4267916],[-52.8809573,-18.4654927],[-52.8990952,-18.4768327],[-52.9157605,-18.5089029],[-52.942511,-18.5170307],[-52.9623514,-18.5408197],[-52.9518167,-18.5766716],[-52.9176575,-18.6152409],[-52.9167596,-18.6402946],[-52.872214,-18.6461177],[-52.8464687,-18.666953],[-52.8254311,-18.6723998],[-52.8091012,-18.667215],[-52.7852626,-18.6815089],[-52.7651871,-18.6806226],[-52.746015,-18.6924069],[-52.7161033,-18.6914091],[-52.6873098,-18.6783425],[-52.6404504,-18.6905284],[-52.5886921,-18.6879335],[-52.5524044,-18.6570821],[-52.5315493,-18.6574807],[-52.4741711,-18.6861859],[-52.4480256,-18.6919665],[-52.4096939,-18.7548644],[-52.3539008,-18.8002034],[-52.3442559,-18.8181456],[-52.3051407,-18.8404398],[-52.2933538,-18.8292451],[-52.2632303,-18.8282244],[-52.2505018,-18.839869],[-52.1873538,-18.8458754],[-52.1730423,-18.8569967],[-52.1462319,-18.8946598],[-52.105569,-18.9068189],[-52.1057927,-18.9259298],[-52.0881505,-18.9354427],[-52.0799944,-18.9508492],[-52.0344708,-18.9580622],[-51.9956616,-18.9742346],[-51.9661678,-18.9692929],[-51.9509943,-18.9811377],[-51.9400077,-18.968472],[-51.9067679,-18.9945819],[-51.8906643,-19.0177686],[-51.8576816,-19.0505313],[-51.8157053,-19.0550947],[-51.796312,-19.0664318],[-51.7910824,-19.0798312],[-51.751782,-19.0855882],[-51.7418615,-19.10057],[-51.6899203,-19.1145696]],[[-51.6899203,-19.1145696],[-51.6928121,-19.0670218],[-51.7240849,-18.8331575],[-51.7002817,-18.8071137],[-51.6823383,-18.7989432],[-51.6686673,-18.7791302],[-51.6714475,-18.7658806],[-51.6952772,-18.7676599],[-51.7175798,-18.7533314],[-51.7687836,-18.7613993],[-51.8016121,-18.7230904],[-51.8193863,-18.7153135],[-51.8723928,-18.6765705],[-51.893672,-18.6483439],[-51.9001747,-18.5858479],[-51.9244196,-18.5412375],[-51.8462562,-18.572039],[-51.8163077,-18.5587009],[-51.7994219,-18.541503],[-51.8019468,-18.5267327],[-51.7919744,-18.5075993],[-51.7989199,-18.491312],[-51.7636114,-18.4746526],[-51.7498911,-18.4795826],[-51.7271962,-18.4730016],[-51.662637,-18.4961253],[-51.641423,-18.4928821],[-51.5983883,-18.5028323],[-51.5703325,-18.5264005],[-51.5527777,-18.523455],[-51.5277188,-18.5381903],[-51.5212529,-18.5209141],[-51.5064433,-18.5154844],[-51.5031648,-18.4966555],[-51.3839998,-18.3641626],[-51.3783304,-18.3388414],[-51.3850265,-18.3242416],[-51.3641094,-18.2809358],[-51.3351925,-18.2997012],[-51.3001354,-18.3053746],[-51.2549403,-18.3529173],[-51.241003,-18.3558944],[-51.2183848,-18.3300373],[-51.1917207,-18.3161703],[-51.180997,-18.2972467],[-51.1464394,-18.300562],[-51.1266392,-18.3295815],[-51.096558,-18.3478577],[-51.0567443,-18.3258367],[-51.0148522,-18.3334777],[-50.9810823,-18.3253228],[-50.9679962,-18.2911743],[-50.9404945,-18.3141827],[-50.8876493,-18.3207798],[-50.8486887,-18.290409],[-50.8245239,-18.2762658],[-50.8100245,-18.2513366],[-50.8072117,-18.2240687]],[[-50.8072117,-18.2240687],[-50.8184995,-18.2175552],[-50.8225775,-18.2064199],[-50.8233589,-18.1931005],[-50.8223277,-18.1869366]],[[-50.8223277,-18.1869366],[-50.8017434,-18.1762274],[-50.7760733,-18.1758441],[-50.7622093,-18.1864319],[-50.7380434,-18.1891166],[-50.7211842,-18.1821259],[-50.6859047,-18.1935855],[-50.6611862,-18.1878338],[-50.6566316,-18.1874659],[-50.6194106,-18.1720903],[-50.6021029,-18.1637289],[-50.5926611,-18.1406986],[-50.5718803,-18.1508054],[-50.5609311,-18.171251],[-50.5370477,-18.181526],[-50.5206544,-18.1749676],[-50.5201268,-18.2009694],[-50.5020757,-18.2119814],[-50.4789302,-18.2156109],[-50.4474633,-18.2299971],[-50.4095131,-18.2332691],[-50.4001258,-18.2445844]],[[-50.4001258,-18.2445844],[-50.3784877,-18.2432851],[-50.3753451,-18.2405918],[-50.3712704,-18.2309183]],[[-50.3712704,-18.2309183],[-50.3398466,-18.2029526],[-50.3174247,-18.210451],[-50.2898257,-18.1982227],[-50.276489,-18.1779112],[-50.2531763,-18.1681915],[-50.246037,-18.1523745],[-50.228103,-18.1358072],[-50.1848521,-18.141662]],[[-50.1848521,-18.141662],[-50.1878867,-18.133207]],[[-50.1878867,-18.133207],[-50.1821086,-18.1192811],[-50.1613156,-18.1213127],[-50.1620946,-18.0897247],[-50.1703878,-18.0733445],[-50.1949319,-18.0564253],[-50.2173982,-18.0290942]],[[-50.2173982,-18.0290942],[-50.2252608,-18.0147177],[-50.2272628,-18.0129168],[-50.2338084,-18.0153565],[-50.2388406,-18.0192213],[-50.2429634,-18.0258992]],[[-50.2429634,-18.0258992],[-50.2510101,-18.031647],[-50.290882,-18.030129],[-50.2958725,-18.0229055]],[[-50.2958725,-18.0229055],[-50.2832827,-18.0045828],[-50.3252662,-17.9860137],[-50.3487299,-17.9359396],[-50.3626531,-17.9190446],[-50.3818497,-17.9160004],[-50.3732906,-17.8916586],[-50.4235961,-17.8781692],[-50.4158985,-17.8478871],[-50.3975471,-17.8414276],[-50.4413485,-17.7998986],[-50.4349073,-17.7621849],[-50.4517056,-17.7539779],[-50.4599041,-17.7252112],[-50.4562339,-17.703258],[-50.4768521,-17.6690474],[-50.4782429,-17.6513616],[-50.5210992,-17.6464839],[-50.546908,-17.6044401],[-50.5587428,-17.5960294],[-50.545963,-17.5777747],[-50.5599872,-17.5460491],[-50.5493477,-17.533386],[-50.5268457,-17.5348504],[-50.5154907,-17.5212821],[-50.5256546,-17.4930288],[-50.5239911,-17.4323641],[-50.5273817,-17.4292555],[-50.5792403,-17.4037591],[-50.6038219,-17.3973412],[-50.5990198,-17.3844089],[-50.6314934,-17.3676429],[-50.6713163,-17.3575572],[-50.6702618,-17.3500903],[-50.6989883,-17.3107632],[-50.7256607,-17.2862222],[-50.7204376,-17.2483135],[-50.7669658,-17.2113084],[-50.776765,-17.1894649],[-50.798876,-17.1835548],[-50.8197974,-17.1894179],[-50.836859,-17.1725116],[-50.8714623,-17.1717966],[-50.9005724,-17.1443719],[-50.9186798,-17.1087118],[-50.9259609,-17.1066004],[-50.9797441,-17.0381103],[-51.0019894,-17.0228836],[-51.0317145,-16.9700918],[-51.0471312,-16.9576438]],[[-51.0471312,-16.9576438],[-51.0545756,-16.957216],[-51.057356,-16.9521491]],[[-51.3704926,-16.4656898],[-51.3937183,-16.4663879]],[[-52.0532746,-16.5055348],[-52.0491708,-16.4983442],[-52.050058,-16.4939322],[-52.0582733,-16.4881287],[-52.0748357,-16.4858602]],[[-50.2958725,-18.0229055],[-50.2822507,-18.0292203],[-50.2504356,-18.0314797],[-50.2429634,-18.0258992]],[[-50.2429634,-18.0258992],[-50.2391676,-18.0196024],[-50.2343309,-18.0157046],[-50.2276105,-18.0135994],[-50.2270112,-18.0105407],[-50.2073775,-18.0003318]],[[-50.2073775,-18.0003318],[-50.2005436,-17.9852133],[-50.2044276,-17.9806319],[-50.2343248,-17.9859495],[-50.2651516,-17.9728099],[-50.2762685,-17.9880217],[-50.2831197,-17.9665772],[-50.2810692,-17.9517224],[-50.2954027,-17.9359155],[-50.2914618,-17.9106936],[-50.2746263,-17.9147111],[-50.2676773,-17.9096364],[-50.2410745,-17.9039212],[-50.2402642,-17.8885899]],[[-50.2402642,-17.8885899],[-50.2357063,-17.8796064],[-50.2358709,-17.8718449],[-50.2329054,-17.8679194],[-50.2337111,-17.8655151],[-50.2440664,-17.8554675]],[[-50.2440664,-17.8554675],[-50.2422097,-17.8360945],[-50.268542,-17.8181615],[-50.2632904,-17.7817371],[-50.2324021,-17.7904813],[-50.2105715,-17.7710043],[-50.1804606,-17.7791329],[-50.14985,-17.8077566],[-50.1138127,-17.7785107],[-50.0914593,-17.790142],[-50.0730137,-17.7596772],[-50.0576534,-17.7189843],[-50.0290441,-17.713878],[-50.0140433,-17.6833079],[-50.0087574,-17.6560226],[-49.975844,-17.6636043],[-49.9550422,-17.6276147],[-49.9313705,-17.6441733],[-49.9227617,-17.6157531],[-49.9035715,-17.6113796],[-49.9020033,-17.5956135],[-49.8967107,-17.6014277],[-49.8873985,-17.6101805],[-49.8805397,-17.6059426],[-49.8594584,-17.6034616],[-49.8505097,-17.5772768],[-49.838207,-17.5825709],[-49.8293719,-17.5832786],[-49.8255294,-17.585201],[-49.8140446,-17.5773559],[-49.7685413,-17.5859632],[-49.7572932,-17.5824034],[-49.751677,-17.5768948],[-49.7428383,-17.5680581],[-49.7350365,-17.5644568],[-49.7332329,-17.5650671],[-49.7304556,-17.5617268],[-49.7170333,-17.5508002],[-49.6948189,-17.552751],[-49.6626466,-17.5079696],[-49.6691746,-17.4996104],[-49.650755,-17.4950453],[-49.6343391,-17.4871846],[-49.6304736,-17.4790874],[-49.647362,-17.4693739],[-49.6423141,-17.4331202],[-49.6309508,-17.4398306],[-49.6268641,-17.4267882],[-49.6286185,-17.4156314],[-49.638701,-17.41604],[-49.6478749,-17.3881052],[-49.641311,-17.3663566],[-49.6477914,-17.3530899],[-49.6457279,-17.3436795],[-49.647229,-17.3425582],[-49.6486497,-17.3390645],[-49.6508715,-17.3317653],[-49.6476218,-17.3223364],[-49.6528358,-17.3050709],[-49.636125,-17.3049098],[-49.6265097,-17.2784929],[-49.6144553,-17.2763026],[-49.6220886,-17.2506755],[-49.6198939,-17.2280328],[-49.6036438,-17.2283717],[-49.5837586,-17.2067657],[-49.5640586,-17.2020834],[-49.5415089,-17.1765867],[-49.5271386,-17.1630376],[-49.515511,-17.1551736],[-49.5029236,-17.1519826],[-49.4923915,-17.1599149]],[[-49.4923915,-17.1599149],[-49.4891469,-17.1595714]],[[-49.6885861,-16.6708933],[-49.693812,-16.6664952]],[[-50.6412158,-16.8349807],[-50.65138,-16.8397663]],[[-51.0541329,-16.9572421],[-51.0471312,-16.9576438]],[[-50.2440664,-17.8554675],[-50.2331181,-17.8667402],[-50.2361498,-17.8729849],[-50.2363503,-17.8817834],[-50.2402642,-17.8885899]],[[-50.2073775,-18.0003318],[-50.219791,-18.005961],[-50.2277967,-18.011797],[-50.2173982,-18.0290942]],[[-50.1878867,-18.133207],[-50.1752565,-18.1539623]],[[-50.1752565,-18.1539623],[-50.1608132,-18.1575819],[-50.1538036,-18.1787752],[-50.1668323,-18.1943795],[-50.1556134,-18.2040644],[-50.1421086,-18.2032298],[-50.1257963,-18.1831067],[-50.115226,-18.1906224],[-50.1255261,-18.2112357],[-50.1252071,-18.243834],[-50.0968896,-18.2469018],[-50.0964185,-18.2594183],[-50.1062934,-18.2929769],[-50.1159959,-18.316022],[-50.106212,-18.3310261],[-50.084802,-18.347354],[-50.0697916,-18.3600476],[-50.058212,-18.3604521],[-50.046045,-18.3829154],[-50.0530199,-18.4059117],[-50.0639568,-18.4105647],[-50.0670141,-18.429222],[-50.0513481,-18.4452641],[-50.0380118,-18.4846706],[-50.0429817,-18.5212825],[-50.0325115,-18.5456633],[-50.0501574,-18.5771169],[-50.0302608,-18.5916512],[-50.028763,-18.6014664]],[[-50.028763,-18.6014664],[-49.9814547,-18.6046454],[-49.9738163,-18.6143197],[-49.9361014,-18.6235688],[-49.9043716,-18.6213046],[-49.8893049,-18.6099351],[-49.870211,-18.6143407],[-49.8361535,-18.6366896],[-49.8197929,-18.6325772],[-49.7984257,-18.6439218],[-49.7836789,-18.6413387],[-49.7721992,-18.6132646],[-49.7328262,-18.616023],[-49.6937324,-18.590641],[-49.6669645,-18.5906591],[-49.6478626,-18.6018142],[-49.6355382,-18.5900196],[-49.6526051,-18.5735899],[-49.6420083,-18.5552431],[-49.5752534,-18.5423262],[-49.5570987,-18.546576],[-49.5422743,-18.5310208],[-49.5470403,-18.5058336],[-49.5353064,-18.4918071],[-49.5004363,-18.4909927],[-49.4862851,-18.5064576],[-49.4817256,-18.5605478],[-49.455975,-18.5778985],[-49.4057131,-18.645098],[-49.3850575,-18.6460619],[-49.3438841,-18.5978656],[-49.3274973,-18.5622003],[-49.2934845,-18.564679],[-49.2856353,-18.536312],[-49.2540865,-18.5259333],[-49.2293182,-18.4803786],[-49.1925855,-18.4497216],[-49.2025283,-18.4292342],[-49.1867277,-18.4193944],[-49.1614616,-18.4182148],[-49.1548475,-18.4048896],[-49.1263129,-18.3843143],[-49.1142941,-18.3966736],[-49.0790512,-18.4166711],[-49.0487005,-18.3974989],[-49.0420009,-18.3765077],[-49.0296362,-18.36882],[-49.0059642,-18.374359],[-48.9815012,-18.3563742],[-48.9711389,-18.3304868],[-48.9367738,-18.3062076],[-48.9131295,-18.3052094]],[[-48.9131295,-18.3052094],[-48.9019737,-18.3070951],[-48.8963099,-18.2985689],[-48.9024724,-18.2741628],[-48.8852533,-18.2668954],[-48.8633057,-18.2878922],[-48.8323736,-18.266547],[-48.8188639,-18.2641671],[-48.8238345,-18.2385827],[-48.8013301,-18.2306284],[-48.7839366,-18.2404057],[-48.7629679,-18.2233378],[-48.7391339,-18.2177183],[-48.716667,-18.1980219],[-48.7277214,-18.1881035],[-48.7128576,-18.1714544],[-48.721259,-18.1532148],[-48.7001088,-18.1430933],[-48.7157742,-18.1173376],[-48.6898013,-18.0902953],[-48.6582469,-18.085584],[-48.6604402,-18.064677],[-48.6379208,-18.0473524],[-48.641023,-18.0611523],[-48.6175011,-18.0652597],[-48.5634112,-18.0498525],[-48.5436086,-18.0320655],[-48.5495263,-18.0184966],[-48.5427462,-17.9917313],[-48.5192769,-17.9835987],[-48.5244463,-17.9249334],[-48.5073299,-17.901275],[-48.5150289,-17.874503],[-48.5133861,-17.8511955],[-48.5330185,-17.8468455],[-48.5470472,-17.8293668],[-48.5404366,-17.7908894],[-48.5098054,-17.7855074],[-48.5211132,-17.7550989],[-48.4992156,-17.7398729],[-48.4973555,-17.7142601],[-48.4630247,-17.7133255],[-48.4544129,-17.6861319],[-48.4698403,-17.6626688],[-48.4510251,-17.6326258],[-48.45944,-17.629604],[-48.4764174,-17.6311691],[-48.4713297,-17.6208642],[-48.4630486,-17.6227086],[-48.4582234,-17.6136818],[-48.4663905,-17.6014266]],[[-48.4663905,-17.6014266],[-48.4846295,-17.5911873],[-48.5072171,-17.5679763],[-48.4991962,-17.5556378],[-48.5128026,-17.5159294],[-48.5101101,-17.499578],[-48.5225011,-17.4809876],[-48.5470837,-17.4822641],[-48.614834,-17.4762531],[-48.7027449,-17.4964257],[-48.7044931,-17.4939961],[-48.7056598,-17.4833306],[-48.7117162,-17.4826827],[-48.7198581,-17.4932872],[-48.7573632,-17.4809154],[-48.7623675,-17.4624868],[-48.786496,-17.4376799],[-48.8054187,-17.4235007],[-48.806861,-17.4054651],[-48.7911659,-17.345486],[-48.8041917,-17.3157557],[-48.7852171,-17.2872391],[-48.7972214,-17.2454498],[-48.8096953,-17.2239958],[-48.8004726,-17.2121044],[-48.8038612,-17.1887776]],[[-48.8038612,-17.1887776],[-48.8007506,-17.1790646]],[[-49.4578392,-17.1599532],[-49.4923915,-17.1599149]],[[-48.7990333,-17.1778846],[-48.8038612,-17.1887776]],[[-48.4663905,-17.6014266],[-48.4501338,-17.6133133],[-48.4367193,-17.609392],[-48.4037152,-17.5671034],[-48.3852457,-17.5527398],[-48.3747744,-17.5406641],[-48.3885783,-17.535446]],[[-48.3885783,-17.535446],[-48.3868294,-17.5203939],[-48.3841692,-17.5188538],[-48.3814724,-17.5202411],[-48.3721652,-17.5210862],[-48.3661066,-17.5235698]],[[-48.3661066,-17.5235698],[-48.3645268,-17.5134006],[-48.3581856,-17.5143092],[-48.3355499,-17.5281863],[-48.2857698,-17.5283461],[-48.2237112,-17.5953826],[-48.2114291,-17.575831],[-48.1701331,-17.5553618],[-48.1576885,-17.5298287],[-48.1321058,-17.5441135],[-48.1107136,-17.5334409],[-48.1042151,-17.4723379],[-48.1189623,-17.4582632],[-48.0860299,-17.4289551],[-48.0540483,-17.4188387],[-48.0453218,-17.3997232],[-48.0591086,-17.3767166],[-48.0768752,-17.3637092],[-48.081546,-17.3286189],[-48.0922411,-17.2900577],[-48.1191245,-17.2743057],[-48.0850425,-17.247464],[-48.070433,-17.2089126],[-48.0543476,-17.2086351],[-48.0472674,-17.1930223],[-48.0319055,-17.1864285],[-48.0257377,-17.1826316],[-48.021824,-17.1677652],[-48.0022975,-17.1451137],[-47.9926063,-17.0890116],[-47.974413,-17.0661429],[-47.9369858,-17.0347476],[-47.9295807,-17.0185807],[-47.9265956,-17.0113762]],[[-47.9265956,-17.0113762],[-47.9196837,-17.010803],[-47.9190419,-17.0053779],[-48.0018226,-16.9516014]],[[-48.7658069,-16.2904162],[-48.7696122,-16.29127]],[[-48.8653073,-16.3940039],[-48.9003067,-16.4184324]],[[-48.9131295,-18.3052094],[-48.8882794,-18.3170959],[-48.8727515,-18.3328468],[-48.8320838,-18.3461352],[-48.8280249,-18.3752488],[-48.7871685,-18.3532014],[-48.7714138,-18.3582423],[-48.7577234,-18.3447611],[-48.7422953,-18.3524984],[-48.697747,-18.3501663],[-48.6776219,-18.343775],[-48.6471697,-18.3438906],[-48.6338249,-18.3276484],[-48.6023528,-18.3348221],[-48.5614147,-18.3238865],[-48.5545426,-18.3469494],[-48.5262169,-18.3539807],[-48.5156492,-18.3664159],[-48.4927768,-18.352975],[-48.484114,-18.3785746],[-48.4420499,-18.3566186],[-48.4111716,-18.3576201],[-48.4000129,-18.3728089],[-48.3526388,-18.3676968],[-48.310541,-18.3867095],[-48.318073,-18.3670951],[-48.287235,-18.3472136],[-48.2750115,-18.3291113],[-48.2567775,-18.342977],[-48.2279685,-18.344975],[-48.2214763,-18.3619685],[-48.1972066,-18.3631719],[-48.1593809,-18.3755081],[-48.1465333,-18.4095445],[-48.1107876,-18.428594],[-48.0681178,-18.4267065],[-48.0474563,-18.4176461],[-48.0380723,-18.4347123],[-47.9966664,-18.4535262],[-47.9809103,-18.4428612],[-47.9763821,-18.4777827],[-47.9631962,-18.4937609],[-47.9295493,-18.4878432],[-47.914274,-18.4665778],[-47.8879121,-18.4772192],[-47.8579639,-18.4390126],[-47.8387927,-18.4517602],[-47.829735,-18.4113034],[-47.810572,-18.4001154],[-47.7984968,-18.4163092],[-47.7790168,-18.4241351],[-47.7571061,-18.4098729],[-47.7369631,-18.3626023],[-47.7168546,-18.3620882],[-47.6940404,-18.3749681],[-47.682822,-18.3550183],[-47.6707087,-18.3574747],[-47.6624567,-18.3350847],[-47.6461849,-18.3402287],[-47.625637,-18.3305734],[-47.6106129,-18.313336],[-47.63877,-18.2876781],[-47.6073287,-18.263959],[-47.6070005,-18.2462041],[-47.5882303,-18.2264318],[-47.5706447,-18.2208957],[-47.5401466,-18.1935162],[-47.539358,-18.2150381],[-47.4962472,-18.1986482],[-47.4806058,-18.1783207],[-47.4629873,-18.1766911],[-47.4500802,-18.1588968],[-47.4375501,-18.1674296],[-47.4286403,-18.1399176],[-47.4146913,-18.1434197],[-47.3918894,-18.1168725],[-47.3700398,-18.1160146],[-47.3576318,-18.0852333],[-47.3214485,-18.0688667],[-47.3027867,-18.069855],[-47.2834435,-18.0577538],[-47.2830694,-18.0442692],[-47.3118246,-18.0062874],[-47.3230084,-17.9831567],[-47.3129613,-17.9618874],[-47.3293806,-17.9540243],[-47.3412829,-17.9348564],[-47.3428603,-17.898624],[-47.3554317,-17.8954453],[-47.3541149,-17.869802],[-47.365876,-17.834548],[-47.3507473,-17.8139461],[-47.3532807,-17.7880863],[-47.3329179,-17.7683927],[-47.3421123,-17.746645],[-47.3169505,-17.7252432],[-47.3137022,-17.698963],[-47.2713657,-17.6658635],[-47.2807997,-17.6476307],[-47.2688931,-17.6362841],[-47.2648038,-17.6113892],[-47.288674,-17.5707342],[-47.3066249,-17.5584603],[-47.3254145,-17.5238006],[-47.3744483,-17.5235951],[-47.4004487,-17.5118175],[-47.4314768,-17.5237402],[-47.4547257,-17.541786],[-47.4772836,-17.5127848],[-47.4911741,-17.5187779],[-47.5056512,-17.5079852],[-47.502948,-17.4902433],[-47.514639,-17.4609981],[-47.5413643,-17.4546104],[-47.5282939,-17.4388645],[-47.5340531,-17.4005259],[-47.5145067,-17.3749523],[-47.5166009,-17.3461032],[-47.5099869,-17.3242576]],[[-47.919491,-17.004276],[-47.9192076,-17.0098068],[-47.9217146,-17.0116288],[-47.9265956,-17.0113762]],[[-48.3661066,-17.5235698],[-48.3741327,-17.520591],[-48.3854652,-17.5190784],[-48.3871327,-17.5215265],[-48.3869091,-17.5281343],[-48.3885783,-17.535446]],[[-50.1752565,-18.1539623],[-50.1848521,-18.141662]],[[-50.3712704,-18.2309183],[-50.3770687,-18.242754],[-50.4001258,-18.2445844]],[[-50.8223277,-18.1869366],[-50.8230496,-18.2023346],[-50.8195471,-18.2161017],[-50.8072117,-18.2240687]],[[-51.6899203,-19.1145696],[-51.6599195,-19.1343787],[-51.6338214,-19.1313634],[-51.6084347,-19.1409997],[-51.592212,-19.1267874],[-51.5509349,-19.1406521],[-51.5271028,-19.138922],[-51.4976479,-19.1614011],[-51.4740732,-19.1537129],[-51.4585146,-19.1677776],[-51.4272881,-19.1651906],[-51.4053572,-19.175547],[-51.3926331,-19.1962778],[-51.3701184,-19.1995871],[-51.3639605,-19.222506],[-51.3070969,-19.2180815],[-51.2978876,-19.2386039],[-51.2759732,-19.2611264],[-51.2573458,-19.2664855],[-51.1876418,-19.2689996],[-51.1691682,-19.2869631],[-51.1432251,-19.2870724],[-51.1265369,-19.3032868],[-51.086857,-19.3139993],[-51.0455374,-19.3433676],[-51.029906,-19.3669788],[-51.0189384,-19.4010838],[-51.0047644,-19.4129623],[-50.9880034,-19.4084441],[-50.9853022,-19.4313828],[-50.9521315,-19.4426335],[-50.9343326,-19.4680997],[-50.889467,-19.4808963],[-50.8566669,-19.4956744],[-50.8355094,-19.4961042],[-50.8244739,-19.4802131],[-50.8290442,-19.467035],[-50.868584,-19.4339229],[-50.8753571,-19.4228408],[-50.8415857,-19.3508004],[-50.8359989,-19.3272746],[-50.8188904,-19.2917345],[-50.7859507,-19.2626272],[-50.770439,-19.2609848],[-50.7465327,-19.239907],[-50.7341529,-19.187695],[-50.6838926,-19.1760808],[-50.671757,-19.1627133],[-50.6776879,-19.1398107],[-50.6567471,-19.1336973],[-50.6036422,-19.135659],[-50.5877655,-19.1399476],[-50.5730293,-19.1223828],[-50.5351625,-19.0988871],[-50.5049146,-19.0507551],[-50.4950762,-19.0128685],[-50.5040182,-19.0044822],[-50.5006273,-18.9762627],[-50.5118782,-18.9519649],[-50.5056842,-18.9322003],[-50.468216,-18.9191611],[-50.4434358,-18.8941156],[-50.4234927,-18.8326532],[-50.3862367,-18.819731],[-50.3656856,-18.7944115],[-50.3523236,-18.7602978],[-50.31449,-18.7007498],[-50.2960989,-18.6912398],[-50.2502634,-18.6778911],[-50.1988769,-18.6790799],[-50.164288,-18.6643525],[-50.0800431,-18.6722438],[-50.0502051,-18.6435418],[-50.0400977,-18.6138345],[-50.028763,-18.6014664]]],"bbox":[-53.2483804,-19.4961042,-45.9071553,-12.418804]}
