{"type":"Topology","objects":{"geometrias":{"type":"GeometryCollection","geometries":[{"type":"Polygon","arcs":[[0,1,2,3,4,5,6,7,8]],"properties":{"code_micro":23001,"name_micro":"Litoral de Camocim E Acaraú","code_state":23,"code_region":2,"abbrev_state":"CE","name_state":"Ceará","name_region":"Nordeste","year":2020}},{"type":"Polygon","arcs":[[9,10,11,12,13,14,15,-2]],"properties":{"code_micro":23002,"name_micro":"Ibiapaba","code_state":23,"code_region":2,"abbrev_state":"CE","name_state":"Ceará","name_region":"Nordeste","year":2020}},{"type":"Polygon","arcs":[[16,-14,17,18,19,20,21,22,-3,-16]],"properties":{"code_micro":23003,"name_micro":"Coreaú","code_state":23,"code_region":2,"abbrev_state":"CE","name_state":"Ceará","name_region":"Nordeste","year":2020}},{"type":"Polygon","arcs":[[-21,23,24]],"properties":{"code_micro":23004,"name_micro":"Meruoca","code_state":23,"code_region":2,"abbrev_state":"CE","name_state":"Ceará","name_region":"Nordeste","year":2020}},{"type":"Polygon","arcs":[[25,-19,26,-12,27,28,29,30,31,32,33,34,35,36,37,-7,38,-5,39,-22,-25]],"properties":{"code_micro":23005,"name_micro":"Sobral","code_state":23,"code_region":2,"abbrev_state":"CE","name_state":"Ceará","name_region":"Nordeste","year":2020}},{"type":"Polygon","arcs":[[40,41,42,43,44,45,46,47,-28,-11]],"properties":{"code_micro":23006,"name_micro":"Ipu","code_state":23,"code_region":2,"abbrev_state":"CE","name_state":"Ceará","name_region":"Nordeste","year":2020}},{"type":"Polygon","arcs":[[48,-44,49,50,51,52,53,54,55,-30,56,57,-46]],"properties":{"code_micro":23007,"name_micro":"Santa Quitéria","code_state":23,"code_region":2,"abbrev_state":"CE","name_state":"Ceará","name_region":"Nordeste","year":2020}},{"type":"Polygon","arcs":[[58,59,60,61,-9,62,-37]],"properties":{"code_micro":23008,"name_micro":"Itapipoca","code_state":23,"code_region":2,"abbrev_state":"CE","name_state":"Ceará","name_region":"Nordeste","year":2020}},{"type":"Polygon","arcs":[[-61,63,64,65,66]],"properties":{"code_micro":23009,"name_micro":"Baixo Curu","code_state":23,"code_region":2,"abbrev_state":"CE","name_state":"Ceará","name_region":"Nordeste","year":2020}},{"type":"Polygon","arcs":[[67,-35,68,69,70,71,-60]],"properties":{"code_micro":23010,"name_micro":"Uruburetama","code_state":23,"code_region":2,"abbrev_state":"CE","name_state":"Ceará","name_region":"Nordeste","year":2020}},{"type":"Polygon","arcs":[[72,-70,73,-33,74,75,76,-64,-72]],"properties":{"code_micro":23011,"name_micro":"Médio Curu","code_state":23,"code_region":2,"abbrev_state":"CE","name_state":"Ceará","name_region":"Nordeste","year":2020}},{"type":"Polygon","arcs":[[-75,-32,77,-55,78,79,80,81,82,83]],"properties":{"code_micro":23012,"name_micro":"Canindé","code_state":23,"code_region":2,"abbrev_state":"CE","name_state":"Ceará","name_region":"Nordeste","year":2020}},{"type":"Polygon","arcs":[[84,85,-82,86,87,88,89,90,91,92]],"properties":{"code_micro":23013,"name_micro":"Baturité","code_state":23,"code_region":2,"abbrev_state":"CE","name_state":"Ceará","name_region":"Nordeste","year":2020}},{"type":"Polygon","arcs":[[93,94,95,96,97,98,99,100,101,-90]],"properties":{"code_micro":23014,"name_micro":"Chorozinho","code_state":23,"code_region":2,"abbrev_state":"CE","name_state":"Ceará","name_region":"Nordeste","year":2020}},{"type":"Polygon","arcs":[[102,-101,103,-99,104,105,106,107,108,109,110,111]],"properties":{"code_micro":23015,"name_micro":"Cascavel","code_state":23,"code_region":2,"abbrev_state":"CE","name_state":"Ceará","name_region":"Nordeste","year":2020}},{"type":"Polygon","arcs":[[-84,112,113,-93,114,115,116,-112,117,-66,118,-76]],"properties":{"code_micro":23016,"name_micro":"Fortaleza","code_state":23,"code_region":2,"abbrev_state":"CE","name_state":"Ceará","name_region":"Nordeste","year":2020}},{"type":"Polygon","arcs":[[119,-91,-102,120,-116]],"properties":{"code_micro":23017,"name_micro":"Pacajus","code_state":23,"code_region":2,"abbrev_state":"CE","name_state":"Ceará","name_region":"Nordeste","year":2020}},{"type":"Polygon","arcs":[[121,-42,122,123,124,125,126,127,128,129,130,-51]],"properties":{"code_micro":23018,"name_micro":"Sertão de Cratéus","code_state":23,"code_region":2,"abbrev_state":"CE","name_state":"Ceará","name_region":"Nordeste","year":2020}},{"type":"Polygon","arcs":[[131,-80,132,-53,133,-130,134,-128,135,136,137,138,139,140,141,-95,142,-88]],"properties":{"code_micro":23019,"name_micro":"Sertão de Quixeramobim","code_state":23,"code_region":2,"abbrev_state":"CE","name_state":"Ceará","name_region":"Nordeste","year":2020}},{"type":"Polygon","arcs":[[143,-124,144,145,146,147,148,149,150,151]],"properties":{"code_micro":23020,"name_micro":"Sertão de Inhamuns","code_state":23,"code_region":2,"abbrev_state":"CE","name_state":"Ceará","name_region":"Nordeste","year":2020}},{"type":"Polygon","arcs":[[152,153,154,155,156,157,158,159,160,161,-137,162,-126,163,-152]],"properties":{"code_micro":23021,"name_micro":"Sertão de Senador Pompeu","code_state":23,"code_region":2,"abbrev_state":"CE","name_state":"Ceará","name_region":"Nordeste","year":2020}},{"type":"Polygon","arcs":[[164,-110,165,166]],"properties":{"code_micro":23022,"name_micro":"Litoral de Aracati","code_state":23,"code_region":2,"abbrev_state":"CE","name_state":"Ceará","name_region":"Nordeste","year":2020}},{"type":"Polygon","arcs":[[167,-106,168,-97,169,-141,170,-139,171,172,173,-167,174,-108]],"properties":{"code_micro":23023,"name_micro":"Baixo Jaguaribe","code_state":23,"code_region":2,"abbrev_state":"CE","name_state":"Ceará","name_region":"Nordeste","year":2020}},{"type":"Polygon","arcs":[[175,-158,176,177,178,179,-172,-138,-162,180,-160]],"properties":{"code_micro":23024,"name_micro":"Médio Jaguaribe","code_state":23,"code_region":2,"abbrev_state":"CE","name_state":"Ceará","name_region":"Nordeste","year":2020}},{"type":"Polygon","arcs":[[181,-173,-180,182,183]],"properties":{"code_micro":23025,"name_micro":"Serra do Pereiro","code_state":23,"code_region":2,"abbrev_state":"CE","name_state":"Ceará","name_region":"Nordeste","year":2020}},{"type":"Polygon","arcs":[[184,185,186,187,188,189,-184,190,-178,191,-156]],"properties":{"code_micro":23026,"name_micro":"Iguatu","code_state":23,"code_region":2,"abbrev_state":"CE","name_state":"Ceará","name_region":"Nordeste","year":2020}},{"type":"Polygon","arcs":[[192,193,194,195,-186,196,-154,197,-150]],"properties":{"code_micro":23027,"name_micro":"Várzea Alegre","code_state":23,"code_region":2,"abbrev_state":"CE","name_state":"Ceará","name_region":"Nordeste","year":2020}},{"type":"Polygon","arcs":[[198,-187,-196,199,200,201,202,-189]],"properties":{"code_micro":23028,"name_micro":"Lavras da Mangabeira","code_state":23,"code_region":2,"abbrev_state":"CE","name_state":"Ceará","name_region":"Nordeste","year":2020}},{"type":"Polygon","arcs":[[203,-148,204,-146,205,206,207,-194]],"properties":{"code_micro":23029,"name_micro":"Chapada do Araripe","code_state":23,"code_region":2,"abbrev_state":"CE","name_state":"Ceará","name_region":"Nordeste","year":2020}},{"type":"Polygon","arcs":[[208,209,210,211,-200,-195,-208]],"properties":{"code_micro":23030,"name_micro":"Caririaçu","code_state":23,"code_region":2,"abbrev_state":"CE","name_state":"Ceará","name_region":"Nordeste","year":2020}},{"type":"Polygon","arcs":[[212,213,-202,214,-211,215,216]],"properties":{"code_micro":23031,"name_micro":"Barro","code_state":23,"code_region":2,"abbrev_state":"CE","name_state":"Ceará","name_region":"Nordeste","year":2020}},{"type":"Polygon","arcs":[[217,218,219,220,-217,221,-209,-207]],"properties":{"code_micro":23032,"name_micro":"Cariri","code_state":23,"code_region":2,"abbrev_state":"CE","name_state":"Ceará","name_region":"Nordeste","year":2020}},{"type":"Polygon","arcs":[[222,-213,-221,223,-219]],"properties":{"code_micro":23033,"name_micro":"Brejo Santo","code_state":23,"code_region":2,"abbrev_state":"CE","name_state":"Ceará","name_region":"Nordeste","year":2020}}]}},"arcs":[[[-39.7195074,-3.0003411],[-39.7693185,-2.9605728],[-39.8224709,-2.9319775],[-39.8652826,-2.8981287],[-39.9187373,-2.8683649],[-39.9343158,-2.8707967],[-39.9946252,-2.839547],[-40.0388148,-2.8419486],[-40.1262327,-2.8235415],[-40.1437771,-2.840177],[-40.1853339,-2.8116806],[-40.268817,-2.8100756],[-40.3312076,-2.8059828],[-40.3718859,-2.8124064],[-40.4391695,-2.8092546],[-40.4979588,-2.7843235],[-40.5371263,-2.8194883],[-40.6031393,-2.8482853],[-40.6111235,-2.8412372],[-40.6433173,-2.849247],[-40.6702384,-2.8434164],[-40.7743912,-2.852787],[-40.8017627,-2.8726713],[-40.8447845,-2.8858541],[-40.8672704,-2.8623655],[-40.898209,-2.8621292],[-40.9145106,-2.87288],[-40.9554683,-2.8720289],[-41.002405,-2.8897412],[-41.0461567,-2.8941205],[-41.1114043,-2.8947769],[-41.176816,-2.8862143],[-41.1875917,-2.8908519],[-41.2586291,-2.8838208],[-41.3226813,-2.9213196],[-41.321769,-2.951732],[-41.3027121,-2.9672499],[-41.2799387,-2.9678059],[-41.2579529,-3.0027745],[-41.2525524,-3.0356505],[-41.2613493,-3.0500598],[-41.2557657,-3.0875838],[-41.2675025,-3.0928898],[-41.3275371,-3.1599678],[-41.3224851,-3.1797928],[-41.3958586,-3.3040985],[-41.397965,-3.3275467],[-41.4123177,-3.3406973],[-41.3870216,-3.3900079],[-41.3240493,-3.3859241],[-41.3269804,-3.4463006],[-41.319739,-3.4840869],[-41.2991727,-3.4910407]],[[-41.2991727,-3.4910407],[-41.2707386,-3.4783927],[-41.2590019,-3.4708469],[-41.2344881,-3.4558115],[-41.2039745,-3.4097538],[-41.1773329,-3.379144],[-41.1701669,-3.2878929],[-41.1490822,-3.3634064],[-41.1262398,-3.3585061],[-41.0488993,-3.3914765],[-41.0034961,-3.4230461],[-40.8867233,-3.5203942],[-40.8690734,-3.5095719],[-40.8843282,-3.4880161],[-40.8611313,-3.4398358],[-40.8467499,-3.4265653],[-40.8490659,-3.4171692]],[[-40.8490659,-3.4171692],[-40.8290976,-3.3746638],[-40.8551702,-3.3417151],[-40.8489227,-3.3196166],[-40.8168671,-3.2802713],[-40.8381715,-3.2673048],[-40.8304558,-3.2472315],[-40.8343033,-3.2084946],[-40.6690641,-3.2476425],[-40.5394272,-3.2435879]],[[-40.5394272,-3.2435879],[-40.5324933,-3.2403828]],[[-40.5324933,-3.2403828],[-40.5345673,-3.23863],[-40.5350817,-3.2286838],[-40.5475131,-3.1879282],[-40.5754432,-3.1662241],[-40.5713652,-3.1536726]],[[-40.5713652,-3.1536726],[-40.5745206,-3.135792],[-40.5095497,-3.1096413]],[[-40.5095497,-3.1096413],[-40.4826711,-3.1207224],[-40.45569,-3.1466321],[-40.4501902,-3.180584],[-40.4322857,-3.213551],[-40.4065644,-3.2370322],[-40.3876783,-3.2669874],[-40.3407053,-3.2900932],[-40.3412206,-3.3161809],[-40.2011363,-3.3076546],[-40.1699173,-3.3172756],[-40.1593105,-3.3105221],[-40.1329192,-3.3137908],[-40.0947265,-3.3163563],[-40.0921794,-3.3544867],[-40.0700829,-3.3672389],[-40.0021867,-3.3611634]],[[-40.0021867,-3.3611634],[-39.983164,-3.3652291]],[[-39.983164,-3.3652291],[-39.9392047,-3.3347022],[-39.9237314,-3.294699],[-39.9088699,-3.2831902],[-39.8891024,-3.2239909],[-39.9026343,-3.2079233],[-39.8735514,-3.1786474],[-39.8643502,-3.1413677],[-39.868006,-3.1246053],[-39.7080092,-3.0138773],[-39.7067033,-3.0078993],[-39.7195074,-3.0003411]],[[-41.2991727,-3.4910407],[-41.3210691,-3.498281],[-41.3368693,-3.5538936],[-41.3646614,-3.5579986],[-41.3680228,-3.5785359],[-41.3449041,-3.588739],[-41.3313155,-3.6246843],[-41.3417478,-3.6807726],[-41.3076646,-3.6848034],[-41.2793342,-3.7007474],[-41.2393389,-3.7126454],[-41.2585189,-3.7327755],[-41.2648285,-3.7915783],[-41.294374,-3.8185633],[-41.2768563,-3.8256211],[-41.2677571,-3.8618499],[-41.2289134,-3.9117298],[-41.2202395,-3.9415055],[-41.2289347,-3.968103],[-41.24924,-3.9898697],[-41.2388289,-4.015405],[-41.1994726,-4.018356],[-41.1718147,-4.0324776],[-41.1203449,-4.036339],[-41.1141151,-4.0518193],[-41.1408264,-4.123585],[-41.1183295,-4.1652241],[-41.0908856,-4.1703318],[-41.1359048,-4.2335113],[-41.1191241,-4.3065257],[-41.1201713,-4.3305667],[-41.1334226,-4.340145],[-41.1600114,-4.3814973],[-41.1596905,-4.410555],[-41.1771347,-4.4412669],[-41.1775718,-4.4676776]],[[-41.1775718,-4.4676776],[-41.1464351,-4.4690851],[-41.1252622,-4.4827529],[-41.0612564,-4.4737944],[-41.025272,-4.4547719],[-40.8887527,-4.4719645],[-40.8252704,-4.4583572],[-40.7994248,-4.421734],[-40.7791123,-4.4086255],[-40.7787074,-4.3624216],[-40.8037875,-4.3481222],[-40.7882717,-4.3194841],[-40.7924186,-4.2879637],[-40.803127,-4.2664915],[-40.7779035,-4.2352356],[-40.76105,-4.2316049],[-40.736112,-4.2200355],[-40.7266545,-4.2044134],[-40.7101342,-4.1584393],[-40.7147584,-4.1553098],[-40.712856,-4.1282944]],[[-40.712856,-4.1282944],[-40.7455773,-4.1235077],[-40.7634683,-4.1307588],[-40.7984615,-4.1313637],[-40.8206499,-4.1107046],[-40.8400367,-4.103637],[-40.8449761,-4.0965058],[-40.8442578,-4.0657314],[-40.8347912,-4.0515516],[-40.8360601,-3.9584279],[-40.8227332,-3.956325],[-40.8338272,-3.9244188],[-40.8007047,-3.918179],[-40.7774334,-3.883722],[-40.8356487,-3.8944244],[-40.8598049,-3.8883067],[-40.8592042,-3.8771121],[-40.8707766,-3.8768693],[-40.8772213,-3.8745308],[-40.8725697,-3.8687529],[-40.8300471,-3.865528],[-40.8195448,-3.8594035],[-40.7896883,-3.8372174]],[[-40.7896883,-3.8372174],[-40.7938303,-3.8316485]],[[-40.7938303,-3.8316485],[-40.7907534,-3.8263547],[-40.7878275,-3.822004],[-40.7773851,-3.8095153],[-40.7796351,-3.7862498],[-40.8456916,-3.7887248],[-40.8953028,-3.7809788],[-40.8742189,-3.7224726],[-40.8909351,-3.6679472],[-40.9040368,-3.5753322],[-40.8924672,-3.5591284]],[[-40.8924672,-3.5591284],[-40.8568439,-3.5359012],[-40.838526,-3.5117019]],[[-40.838526,-3.5117019],[-40.8216775,-3.4708189],[-40.8490659,-3.4171692]],[[-40.838526,-3.5117019],[-40.8571886,-3.536126],[-40.8924672,-3.5591284]],[[-40.7938303,-3.8316485],[-40.7661721,-3.8631114]],[[-40.7661721,-3.8631114],[-40.7405763,-3.8288968],[-40.7153613,-3.8060479],[-40.6557295,-3.7972558],[-40.6105111,-3.6499619],[-40.5486593,-3.6536704]],[[-40.5486593,-3.6536704],[-40.5734562,-3.6449535]],[[-40.5734562,-3.6449535],[-40.5803211,-3.6369616],[-40.6081803,-3.6137521],[-40.6038207,-3.60578],[-40.6053485,-3.5823432],[-40.5892065,-3.5748835],[-40.586984,-3.5626859],[-40.5700513,-3.5638139],[-40.5561678,-3.5390726],[-40.5474893,-3.5285487],[-40.540786,-3.5223205]],[[-40.540786,-3.5223205],[-40.5327552,-3.5031468],[-40.5574302,-3.4833948],[-40.537283,-3.4483899],[-40.570256,-3.4383458],[-40.5617036,-3.4064524],[-40.5281761,-3.3880682],[-40.5060077,-3.3688092],[-40.4863654,-3.3350833],[-40.4792058,-3.3055231],[-40.4933495,-3.2600169],[-40.5296303,-3.2388012]],[[-40.5296303,-3.2388012],[-40.5394272,-3.2435879]],[[-40.5734562,-3.6449535],[-40.5432416,-3.6553463]],[[-40.5432416,-3.6553463],[-40.5146339,-3.6489082],[-40.4942314,-3.6347009],[-40.4649657,-3.6403658],[-40.4347067,-3.6379836],[-40.4064912,-3.6452961],[-40.3997883,-3.6271317],[-40.3763426,-3.6118615],[-40.3793996,-3.597402],[-40.4154971,-3.5673214],[-40.4126282,-3.5387829],[-40.4338062,-3.5223374],[-40.4581205,-3.5203912],[-40.4683018,-3.5077804],[-40.476576,-3.495209],[-40.4987483,-3.5104064],[-40.540786,-3.5223205]],[[-40.5432416,-3.6553463],[-40.5486593,-3.6536704]],[[-40.7661721,-3.8631114],[-40.7896883,-3.8372174]],[[-40.712856,-4.1282944],[-40.68255,-4.0575647],[-40.6341167,-4.0281984],[-40.5679099,-4.0468602],[-40.5126856,-4.0462845],[-40.472449,-4.0857818]],[[-40.472449,-4.0857818],[-40.4313325,-4.0909171],[-40.3735399,-4.0918512]],[[-40.3735399,-4.0918512],[-40.3601696,-4.0319041],[-40.3374771,-3.9700518],[-40.3049498,-3.9332107],[-40.1887471,-3.9587465],[-40.1515068,-4.0157033],[-40.1318916,-4.0345092],[-40.0820821,-4.0597721],[-40.0098259,-4.0873164],[-39.996961,-4.0821804],[-39.9628643,-4.1219415],[-39.8927964,-4.1428044],[-39.8595933,-4.1386353],[-39.839019,-4.1124334],[-39.807139,-4.1255397],[-39.8086756,-4.1354805],[-39.7809174,-4.1751211]],[[-39.7809174,-4.1751211],[-39.7688957,-4.1588194]],[[-39.7688957,-4.1588194],[-39.7401467,-4.1101855],[-39.7085208,-4.1010133],[-39.6833418,-4.0810429],[-39.6649485,-4.0816739]],[[-39.6649485,-4.0816739],[-39.6711533,-4.0756399],[-39.6879564,-4.0276429],[-39.6981186,-4.0218632],[-39.7004194,-4.019771],[-39.7076902,-4.010077],[-39.710818,-3.9024862],[-39.7187314,-3.8872533],[-39.7038011,-3.850877],[-39.6684523,-3.8343779],[-39.6619194,-3.8285802],[-39.6558563,-3.8229551],[-39.6476045,-3.8213416],[-39.6395267,-3.822134]],[[-39.6395267,-3.822134],[-39.6414086,-3.8207532]],[[-39.6414086,-3.8207532],[-39.6533415,-3.7736883],[-39.6822793,-3.7531249],[-39.6888875,-3.7086858],[-39.7074083,-3.6890883],[-39.6966634,-3.6451533],[-39.7016604,-3.6176848]],[[-39.7016604,-3.6176848],[-39.7071906,-3.6211595]],[[-39.7071906,-3.6211595],[-39.7091296,-3.6332307],[-39.710749,-3.6386052],[-39.7333904,-3.6310192],[-39.7558227,-3.6027134],[-39.7525843,-3.5621893],[-39.7872216,-3.4680086],[-39.8529909,-3.453723],[-39.9510186,-3.433132],[-39.9832157,-3.4408242],[-40.0140414,-3.4294716],[-39.9938284,-3.4030084],[-39.9873683,-3.3739647]],[[-39.9873683,-3.3739647],[-40.0021867,-3.3611634]],[[-40.5095497,-3.1096413],[-40.5743859,-3.135641],[-40.5713652,-3.1536726]],[[-40.5324933,-3.2403828],[-40.5296303,-3.2388012]],[[-41.1775718,-4.4676776],[-41.1893473,-4.4886807],[-41.190776,-4.515529],[-41.2037906,-4.5284214],[-41.2215303,-4.5674913],[-41.2293307,-4.620095],[-41.2028161,-4.6381951],[-41.1817163,-4.6738033],[-41.2238319,-4.7209125],[-41.2477903,-4.7617835],[-41.2127659,-4.772025],[-41.2431815,-4.8283262],[-41.2394453,-4.8545385],[-41.2495738,-4.8696902],[-41.2281032,-4.8909878],[-41.234928,-4.9057444],[-41.2213666,-4.9382298],[-41.1985524,-4.9374549],[-41.1802162,-4.9475449],[-41.150922,-4.9921105],[-41.1225996,-5.0080684],[-41.1216678,-5.0260174]],[[-41.1216678,-5.0260174],[-41.0506227,-5.0262454],[-41.0325819,-4.9607163],[-41.0095815,-4.9415073],[-40.9857922,-4.9101198],[-40.9418697,-4.8825315],[-40.9290454,-4.8861056],[-40.8859427,-4.8657316],[-40.8756781,-4.8545145],[-40.8862724,-4.797487],[-40.8792328,-4.7874363],[-40.8832462,-4.7518804],[-40.8675611,-4.732484],[-40.8693131,-4.7151263],[-40.8259204,-4.7167853],[-40.80776,-4.7053108],[-40.7901769,-4.7116139],[-40.7620343,-4.7061988],[-40.7321727,-4.7151977],[-40.6698089,-4.7051233],[-40.6266635,-4.6212209],[-40.6133501,-4.6216035],[-40.5964496,-4.6117229],[-40.5894864,-4.6005346],[-40.587344,-4.5878214],[-40.5829455,-4.5779628],[-40.5860889,-4.5602545]],[[-40.5860889,-4.5602545],[-40.5884486,-4.5564651],[-40.5883671,-4.5529075],[-40.5909569,-4.5489435],[-40.5936486,-4.5379127]],[[-40.5936486,-4.5379127],[-40.5902185,-4.5163793],[-40.5841726,-4.4718433],[-40.562859,-4.4488029],[-40.5550116,-4.4327356],[-40.5653245,-4.4194145],[-40.5521617,-4.3978074],[-40.5502006,-4.3832156],[-40.5497762,-4.3783684],[-40.5294621,-4.3612323],[-40.5172594,-4.3289543],[-40.5007579,-4.3257091],[-40.4929699,-4.3087694],[-40.4780627,-4.2923098]],[[-40.4780627,-4.2923098],[-40.4665246,-4.2712031],[-40.4395695,-4.2522094]],[[-40.4395695,-4.2522094],[-40.4509833,-4.2090928],[-40.4434742,-4.1944755],[-40.4447053,-4.1626112],[-40.4310668,-4.1577786],[-40.4371643,-4.1085595]],[[-40.4371643,-4.1085595],[-40.4339558,-4.0946884],[-40.4313306,-4.0909171]],[[-40.4313306,-4.0909171],[-40.472449,-4.0857818]],[[-40.4395695,-4.2522094],[-40.4630158,-4.2683993],[-40.468894,-4.2744933],[-40.4780627,-4.2923098]],[[-40.5936486,-4.5379127],[-40.5878834,-4.5575772]],[[-40.5878834,-4.5575772],[-40.509401,-4.5075023],[-40.4608693,-4.5283444],[-40.38119,-4.548867],[-40.3783869,-4.5531181],[-40.364225,-4.5624755],[-40.3489872,-4.5800352],[-40.3098748,-4.5837382],[-40.3002524,-4.5854934],[-40.2950926,-4.6007999],[-40.3037023,-4.6043338],[-40.3106769,-4.6181565],[-40.3164608,-4.6361551],[-40.3334616,-4.65266],[-40.3389566,-4.6590332],[-40.3035277,-4.7207207],[-40.3137175,-4.7286149],[-40.2795245,-4.7520462],[-40.2733841,-4.7696401],[-40.2099711,-4.7925438],[-40.1847776,-4.7861679],[-40.1361009,-4.8129321],[-40.1198853,-4.7480289],[-40.0594998,-4.7168073],[-39.9261583,-4.7348921],[-39.9285834,-4.7745402]],[[-39.9285834,-4.7745402],[-39.9158676,-4.7884803]],[[-39.9158676,-4.7884803],[-39.8805589,-4.7876822],[-39.862049,-4.7383606],[-39.8352293,-4.7366536],[-39.8319606,-4.7346501],[-39.8225074,-4.7318611],[-39.8162913,-4.7330652],[-39.8067785,-4.7078],[-39.7425826,-4.7195628]],[[-39.7425826,-4.7195628],[-39.7275721,-4.6924545],[-39.7218922,-4.6870647]],[[-39.7218922,-4.6870647],[-39.7264867,-4.6639043],[-39.7208492,-4.6537471],[-39.7612912,-4.6470006],[-39.7695035,-4.6358816],[-39.7700402,-4.6307371],[-39.6855691,-4.5734936],[-39.6901095,-4.5651679],[-39.7013247,-4.5454287],[-39.7476496,-4.5409999],[-39.7642666,-4.5306355],[-39.7606702,-4.5185762],[-39.7565352,-4.5027047],[-39.7206744,-4.4815086],[-39.7338564,-4.4641706],[-39.7293595,-4.4483914],[-39.751905,-4.4074994],[-39.7096287,-4.3787277],[-39.7141928,-4.354633],[-39.734527,-4.3331874],[-39.725968,-4.3093502],[-39.7392076,-4.2941142],[-39.7301932,-4.2748733],[-39.7488947,-4.2547718],[-39.7709941,-4.2370214],[-39.7731405,-4.2234448],[-39.7826036,-4.2006168],[-39.7850925,-4.1968238],[-39.7879013,-4.1885683]],[[-39.7879013,-4.1885683],[-39.7809174,-4.1751211]],[[-40.3735399,-4.0918512],[-40.4313306,-4.0909171]],[[-40.4313306,-4.0909171],[-40.4326927,-4.0919628],[-40.4371643,-4.1085595]],[[-39.7071906,-3.6211595],[-39.6954066,-3.6124872]],[[-39.6954066,-3.6124872],[-39.6798067,-3.6477457],[-39.6650337,-3.6445877],[-39.6492525,-3.6472435],[-39.6235832,-3.6249808],[-39.6160459,-3.6270487],[-39.6012647,-3.6264612],[-39.5474654,-3.5803992],[-39.5045409,-3.5744713],[-39.4565004,-3.5856385],[-39.4397022,-3.5794712],[-39.4152126,-3.5520551],[-39.4015904,-3.5501288],[-39.4181894,-3.5067394],[-39.4299168,-3.4947806],[-39.4263153,-3.4713427],[-39.4514208,-3.4440319],[-39.4655526,-3.4089946],[-39.4472876,-3.4093557],[-39.4310196,-3.431414],[-39.3310227,-3.5016154],[-39.3345962,-3.5287423],[-39.3736833,-3.5728596],[-39.3148839,-3.5799427]],[[-39.3148839,-3.5799427],[-39.3031435,-3.5342346],[-39.2868817,-3.5246571],[-39.284198,-3.5032653],[-39.2636576,-3.4924476],[-39.2580299,-3.4715154],[-39.2535597,-3.3965796],[-39.2635427,-3.3835637],[-39.2379593,-3.3595808],[-39.16509,-3.3281525]],[[-39.16509,-3.3281525],[-39.1911234,-3.2849523],[-39.2277272,-3.2408134],[-39.2617886,-3.2178823],[-39.2773477,-3.2196874],[-39.3130443,-3.2060711],[-39.3441722,-3.1781403],[-39.3969699,-3.1767682],[-39.4380994,-3.1475857],[-39.4626879,-3.1437969],[-39.4868939,-3.1191393],[-39.5228171,-3.1019599],[-39.5498833,-3.0791328],[-39.5943265,-3.067981],[-39.6198268,-3.0259834],[-39.6498016,-3.0246493],[-39.6874313,-2.9966186],[-39.7195074,-3.0003411]],[[-39.983164,-3.3652291],[-39.9873683,-3.3739647]],[[-39.3148839,-3.5799427],[-39.262185,-3.5851114],[-39.2156671,-3.6085951],[-39.2252386,-3.6301374],[-39.2261272,-3.6824603],[-39.216623,-3.6928152],[-39.1433258,-3.7039421],[-39.0015375,-3.6849674]],[[-39.0015375,-3.6849674],[-38.9615086,-3.7119819]],[[-38.9615086,-3.7119819],[-38.9402041,-3.6832336],[-38.9183502,-3.6666526],[-38.8816278,-3.6854159],[-38.8318923,-3.5707607],[-38.8066351,-3.5484934]],[[-38.8066351,-3.5484934],[-38.8478133,-3.542842],[-38.8916399,-3.5059233],[-38.911174,-3.5026221],[-38.9398097,-3.4489797],[-38.9733511,-3.4114983],[-39.0068377,-3.3968491],[-39.0487479,-3.4125743],[-39.0882776,-3.3883477],[-39.1127379,-3.3471147],[-39.1393777,-3.3457085],[-39.16509,-3.3281525]],[[-39.6954066,-3.6124872],[-39.7016604,-3.6176848]],[[-39.6414086,-3.8207532],[-39.6375713,-3.8242584],[-39.6351176,-3.8300788]],[[-39.6351176,-3.8300788],[-39.6294369,-3.8262354],[-39.6229687,-3.8302659],[-39.6223393,-3.8258632],[-39.6127009,-3.8208476],[-39.5884105,-3.8254733],[-39.5392661,-3.7619625],[-39.5145138,-3.7453719],[-39.489718,-3.7601785],[-39.4891592,-3.812766],[-39.4787818,-3.8177444],[-39.4765087,-3.8576366],[-39.4303659,-3.855476],[-39.4246348,-3.8238244],[-39.4357564,-3.7915483],[-39.3669656,-3.7674522],[-39.3481931,-3.7339396],[-39.3224874,-3.7317378],[-39.2860302,-3.738942]],[[-39.2860302,-3.738942],[-39.2767243,-3.7370584],[-39.27843,-3.6742212]],[[-39.27843,-3.6742212],[-39.3069217,-3.6640194],[-39.3148839,-3.5799427]],[[-39.27843,-3.6742212],[-39.2770141,-3.737064],[-39.2860302,-3.738942]],[[-39.6351176,-3.8300788],[-39.6395267,-3.822134]],[[-39.6649485,-4.0816739],[-39.628603,-4.0695961],[-39.5976456,-4.0944245],[-39.5469123,-4.0975406],[-39.5475183,-4.1439044],[-39.5231441,-4.1359468],[-39.5222512,-4.1192165],[-39.4921818,-4.1116186],[-39.4839503,-4.1216001],[-39.4498542,-4.1309031],[-39.4463501,-4.1037294],[-39.4069742,-4.0959164],[-39.3782372,-4.109951],[-39.3694475,-4.0890121],[-39.3242308,-4.0902312],[-39.3025572,-4.0832649],[-39.2701302,-4.0862461],[-39.2364922,-4.0778049],[-39.2036807,-4.046781],[-39.0638732,-4.0664676],[-39.0277519,-4.0631345],[-39.0035461,-3.9917706]],[[-39.0035461,-3.9917706],[-38.9434661,-3.9446729],[-38.9774059,-3.8889593],[-38.9996411,-3.8452991],[-38.9833871,-3.8161399],[-38.9784695,-3.7787411],[-38.9557734,-3.7606115],[-38.9552974,-3.7490835],[-38.9545596,-3.73239],[-38.9525155,-3.7253956],[-38.9577196,-3.7217336],[-38.9608792,-3.7203406]],[[-38.9608792,-3.7203406],[-38.959936,-3.712585],[-39.0015375,-3.6849674]],[[-39.7688957,-4.1588194],[-39.7879013,-4.1885683]],[[-39.7218922,-4.6870647],[-39.7294176,-4.6959029]],[[-39.7294176,-4.6959029],[-39.7333152,-4.7151036],[-39.7258151,-4.7210356],[-39.7374456,-4.7359147],[-39.7262384,-4.7495004],[-39.6921533,-4.7449385],[-39.6657421,-4.7318766],[-39.6288737,-4.7314207],[-39.5756512,-4.7487624],[-39.5101129,-4.7247348],[-39.3897982,-4.7248085],[-39.3712705,-4.7173442],[-39.3630694,-4.7386156],[-39.3279932,-4.7155591],[-39.304866,-4.70743],[-39.2926642,-4.6634426],[-39.2701785,-4.6469121],[-39.2386051,-4.6435052],[-39.2304319,-4.6529192],[-39.1714605,-4.6493262],[-39.1459018,-4.6315998],[-39.1383096,-4.6295129],[-39.1353697,-4.630456]],[[-39.1353697,-4.630456],[-39.1297993,-4.6281468]],[[-39.1297993,-4.6281468],[-39.0655891,-4.5611042],[-39.0858666,-4.5370683],[-39.0791882,-4.4856205],[-39.0850401,-4.4716475],[-39.0524071,-4.451769],[-39.0525052,-4.4394389],[-39.0878545,-4.4131158],[-39.0678664,-4.3988749],[-39.0624564,-4.3739577],[-39.0416004,-4.3509021],[-39.0262603,-4.3184507],[-39.0456434,-4.3000521],[-39.0103427,-4.2792657],[-38.9940505,-4.2583862],[-39.0061409,-4.2118777],[-38.9828346,-4.2046116],[-38.9611267,-4.183331],[-38.9600632,-4.1503724],[-38.9479788,-4.1314597],[-38.9436685,-4.119913],[-38.9386068,-4.1087629]],[[-38.9386068,-4.1087629],[-38.943295,-4.1054012],[-38.9428885,-4.1006116]],[[-38.9428885,-4.1006116],[-38.9533353,-4.0984392],[-38.9586737,-4.0962809],[-38.9565973,-4.0728241],[-38.9841596,-4.0443863],[-39.0035461,-3.9917706]],[[-38.9260437,-4.1059977],[-38.9277801,-4.104305],[-38.9435791,-4.1035855]],[[-38.9435791,-4.1035855],[-38.9428255,-4.1061141],[-38.9386068,-4.1087629]],[[-39.1297993,-4.6281468],[-39.1191212,-4.6338647]],[[-39.1191212,-4.6338647],[-39.0784432,-4.6386157],[-39.064549,-4.6540036],[-39.0480102,-4.639902],[-38.9940678,-4.6465863],[-38.9531514,-4.6641065],[-38.949245,-4.68402],[-38.9650881,-4.7049487],[-38.946628,-4.7249544],[-38.9233287,-4.7391012],[-38.9013718,-4.7125296],[-38.8817978,-4.7047568],[-38.8777815,-4.6861636],[-38.8745251,-4.6795193],[-38.85307,-4.6674474],[-38.8149089,-4.6723833],[-38.8022712,-4.6493567],[-38.7837413,-4.6351157],[-38.7761803,-4.6276147],[-38.7161467,-4.6146971],[-38.7077481,-4.6108007],[-38.6986462,-4.6259844],[-38.6865828,-4.6449971],[-38.6762754,-4.658142],[-38.6635806,-4.6607575],[-38.6309838,-4.7005285],[-38.604247,-4.6845878],[-38.5935926,-4.6787354],[-38.5889011,-4.6751782],[-38.5830706,-4.6713989],[-38.5762255,-4.6689594]],[[-38.5762255,-4.6689594],[-38.58361,-4.6665287]],[[-38.58361,-4.6665287],[-38.6067873,-4.6617688],[-38.6125534,-4.6525568],[-38.6494867,-4.5557107],[-38.6222752,-4.5367364],[-38.6226303,-4.5048616],[-38.6356431,-4.4860154],[-38.6367613,-4.4538272],[-38.6255104,-4.4427501],[-38.6230552,-4.4386775],[-38.6035535,-4.4256706],[-38.5951359,-4.42331],[-38.5830427,-4.4160225],[-38.5721525,-4.4149553],[-38.5318517,-4.3785511],[-38.547315,-4.3724802],[-38.5743072,-4.3852478],[-38.6068284,-4.3786936],[-38.6230462,-4.40444],[-38.6533753,-4.4121251],[-38.6727615,-4.403391],[-38.6936101,-4.3799362],[-38.6998501,-4.3301241],[-38.6801751,-4.28642],[-38.6523744,-4.2461991],[-38.6262333,-4.2484166],[-38.6122026,-4.22604],[-38.570474,-4.2354845]],[[-38.570474,-4.2354845],[-38.6144394,-4.1829202]],[[-38.6144394,-4.1829202],[-38.6235057,-4.1656745]],[[-38.6235057,-4.1656745],[-38.6263178,-4.1635336],[-38.6411484,-4.158095],[-38.6724916,-4.1606593],[-38.6974073,-4.1716648],[-38.7567227,-4.1572294],[-38.7756157,-4.1624731],[-38.7905261,-4.1406616],[-38.7550107,-4.1282792],[-38.7485039,-4.0929689],[-38.7846751,-4.0942529],[-38.8344878,-4.0726409],[-38.8407101,-4.1041331],[-38.8620958,-4.1122226],[-38.8658539,-4.1199617],[-38.8803462,-4.1069949],[-38.9074863,-4.1092574],[-38.925077,-4.1133874],[-38.9260437,-4.1059977]],[[-38.58361,-4.6665287],[-38.5751125,-4.6669524],[-38.5690774,-4.6732164]],[[-38.5690774,-4.6732164],[-38.5582776,-4.6734711],[-38.5528721,-4.6731428],[-38.5295371,-4.6796209]],[[-38.5295371,-4.6796209],[-38.5280024,-4.6775039]],[[-38.5280024,-4.6775039],[-38.4987917,-4.6515766],[-38.4578916,-4.6534162],[-38.4340283,-4.6382047],[-38.3884344,-4.5790999],[-38.3688278,-4.5762435],[-38.3644507,-4.5425978],[-38.3814562,-4.5284925]],[[-38.3814562,-4.5284925],[-38.3625108,-4.5075301],[-38.361659,-4.49181]],[[-38.361659,-4.49181],[-38.3587512,-4.4797851]],[[-38.3587512,-4.4797851],[-38.362213,-4.4693149],[-38.4474702,-4.3714825]],[[-38.4474702,-4.3714825],[-38.4294377,-4.3569339],[-38.4005518,-4.3571945],[-38.3853724,-4.3379279],[-38.3897762,-4.2634902],[-38.359625,-4.2667286],[-38.3928506,-4.223148]],[[-38.3928506,-4.223148],[-38.437443,-4.2316678],[-38.454478,-4.2433436],[-38.4951402,-4.2313078],[-38.570474,-4.2354845]],[[-38.3702716,-4.0655868],[-38.3928506,-4.223148]],[[-38.4474702,-4.3714825],[-38.3676145,-4.4643836],[-38.3587512,-4.4797851]],[[-38.361659,-4.49181],[-38.3592753,-4.5048755],[-38.3482447,-4.5126443],[-38.3233392,-4.5191044]],[[-38.3233392,-4.5191044],[-38.3061167,-4.5314871]],[[-38.3061167,-4.5314871],[-38.3033367,-4.5374964],[-38.2347683,-4.5742611],[-38.2113282,-4.592122],[-38.1820574,-4.6227477]],[[-38.1820574,-4.6227477],[-38.1099968,-4.6063619],[-38.0843399,-4.5874884],[-38.0557435,-4.5945759],[-38.0382872,-4.5910293],[-38.037075,-4.5946292],[-38.0202729,-4.5973575],[-37.987974,-4.5853155]],[[-37.987974,-4.5853155],[-37.9843964,-4.5822661]],[[-37.9843964,-4.5822661],[-37.9930139,-4.5653973],[-37.9840547,-4.5603038],[-37.9814121,-4.546922],[-37.9754032,-4.5361821],[-37.9586693,-4.4943569],[-37.9555974,-4.4695671],[-37.9669133,-4.4646327],[-37.9763482,-4.4324283],[-37.9311255,-4.3974298],[-37.90491,-4.4139444],[-37.8681951,-4.403698],[-37.8412465,-4.4073597],[-37.822551,-4.4010028],[-37.8180474,-4.3980316],[-37.8451205,-4.3816564]],[[-37.8451205,-4.3816564],[-37.8541657,-4.3794976],[-37.9065917,-4.339753],[-37.9601217,-4.2917965],[-37.9883175,-4.2608416],[-38.0093224,-4.2510906],[-38.0334424,-4.2249523],[-38.1159673,-4.1480004],[-38.1485043,-4.0980694],[-38.192162,-4.0405547],[-38.2232859,-4.0071535]],[[-38.2232859,-4.0071535],[-38.2316172,-4.0233143],[-38.2532639,-4.0286864],[-38.2916588,-4.0222527],[-38.3131571,-4.010903],[-38.3702716,-4.0655868]],[[-38.9428885,-4.1006116],[-38.9435791,-4.1035855]],[[-38.9435791,-4.1035855],[-38.9281409,-4.1041164],[-38.9260437,-4.1059977]],[[-38.6235057,-4.1656745],[-38.6153509,-4.158972]],[[-38.6153509,-4.158972],[-38.6100148,-4.1511106],[-38.6043825,-4.1467336],[-38.5983759,-4.1451508],[-38.5837594,-4.1345087],[-38.5792736,-4.1349594],[-38.5703908,-4.1282485],[-38.5359939,-4.0792455],[-38.5358511,-4.0413507],[-38.501031,-4.0611573],[-38.4728849,-4.0615033],[-38.4423054,-4.0712367],[-38.3859849,-4.0703295],[-38.3725084,-4.0784555]],[[-38.3725084,-4.0784555],[-38.3702716,-4.0655868]],[[-38.2232859,-4.0071535],[-38.2734442,-3.944154],[-38.3185531,-3.926197],[-38.360323,-3.8848564],[-38.4358215,-3.7705705],[-38.4613007,-3.7194362],[-38.4958517,-3.7250337],[-38.5393636,-3.7163689],[-38.5875832,-3.696406],[-38.6489969,-3.6838781],[-38.6750928,-3.6660794],[-38.7017547,-3.6383599],[-38.7624235,-3.6059174],[-38.8066351,-3.5484934]],[[-38.9615086,-3.7119819],[-38.9608792,-3.7203406]],[[-38.6153509,-4.158972],[-38.6144394,-4.1829202]],[[-38.3928506,-4.223148],[-38.3725084,-4.0784555]],[[-40.5878834,-4.5575772],[-40.5860889,-4.5602545]],[[-41.1216678,-5.0260174],[-41.1320192,-5.0485713],[-41.0970052,-5.0531485],[-41.0819217,-5.0876328],[-41.0264052,-5.1096969],[-40.9886036,-5.1387467],[-40.9646309,-5.1500835],[-40.9252903,-5.1820967],[-40.9319989,-5.2012637],[-40.922028,-5.2264511],[-40.9330656,-5.2452268],[-40.9117131,-5.2666535],[-40.9269076,-5.2969667],[-40.9132054,-5.3080512],[-40.9184529,-5.3382552],[-40.9361032,-5.3659675],[-40.9170161,-5.3894477],[-40.9176992,-5.4162908],[-40.9381916,-5.4163534],[-40.9360725,-5.4400918],[-40.9161036,-5.468335],[-40.9291569,-5.4833344],[-40.9323823,-5.548897],[-40.9156645,-5.5643716],[-40.903254,-5.6325524],[-40.9147302,-5.659939],[-40.9387693,-5.6733406],[-40.9135413,-5.7267463],[-40.9058188,-5.8014544],[-40.9056455,-5.8492766],[-40.893644,-5.8838093],[-40.8975193,-5.9012974],[-40.880216,-5.9176672],[-40.8735913,-5.9730536],[-40.9039474,-6.020877],[-40.9022038,-6.0492042],[-40.8735951,-6.055405],[-40.8576711,-6.105385],[-40.8069475,-6.1049531]],[[-40.8069475,-6.1049531],[-40.79048,-6.0886549],[-40.7479807,-6.0907967],[-40.7332114,-6.0733049],[-40.7378596,-6.0582135],[-40.7145837,-6.0452761],[-40.7336461,-6.029786],[-40.7436026,-5.9794608],[-40.7154374,-5.9674431],[-40.6956448,-5.9120674],[-40.6717458,-5.9146521],[-40.6827248,-5.8795828],[-40.6598591,-5.8461573],[-40.6419495,-5.840237],[-40.6280006,-5.8532857],[-40.5870103,-5.8352761],[-40.5544317,-5.841068],[-40.5318754,-5.8182373],[-40.4867239,-5.8348921],[-40.4522753,-5.8291873],[-40.4114001,-5.8112432],[-40.3726158,-5.7539033],[-40.3546355,-5.7432985],[-40.3189057,-5.7424248],[-40.2896165,-5.7564379],[-40.2275609,-5.710434],[-40.2108469,-5.6917416],[-40.2362418,-5.6313938],[-40.2204161,-5.5867658],[-40.1719655,-5.5596887],[-40.1676665,-5.5434808],[-40.1469213,-5.540238],[-40.1248398,-5.5541665],[-40.110522,-5.5348149],[-40.1123308,-5.4903869],[-40.1061522,-5.4696013],[-40.1001234,-5.4513059],[-40.0998543,-5.4440545],[-40.0897692,-5.4353078],[-40.0833748,-5.4224999],[-40.0730298,-5.4112405],[-40.067438,-5.4015144]],[[-40.067438,-5.4015144],[-40.0616993,-5.3902313]],[[-40.0616993,-5.3902313],[-40.0600107,-5.3612492],[-40.0456677,-5.3563864],[-40.0350568,-5.3497861],[-40.0263708,-5.3438581],[-40.0238808,-5.3315928],[-40.0209252,-5.3279657]],[[-40.0209252,-5.3279657],[-40.0307166,-5.3109738]],[[-40.0307166,-5.3109738],[-40.0277453,-5.2964975],[-40.055861,-5.2918374],[-40.0486449,-5.2790225],[-40.0471452,-5.2394866],[-40.0226983,-5.2063146],[-40.041498,-5.1778786],[-40.1356714,-5.1572812],[-39.9975964,-5.0844914],[-39.982126,-5.0603766],[-39.9713079,-5.0428572],[-39.970487,-5.0284608]],[[-39.970487,-5.0284608],[-39.9641581,-5.0291064],[-39.959689,-5.0281096],[-39.9579902,-5.0258342],[-39.9691807,-4.947238]],[[-39.9691807,-4.947238],[-39.9678232,-4.9451124],[-39.9641716,-4.9421403],[-39.8950319,-4.8877624],[-39.9188842,-4.8680165],[-39.9256293,-4.8633045],[-39.9406719,-4.8408083],[-39.9466004,-4.8328552],[-39.949281,-4.8175296],[-39.9418025,-4.8108109],[-39.9407985,-4.8066023],[-39.9384528,-4.8044206],[-39.9313401,-4.8015433],[-39.9388372,-4.7696859]],[[-39.9388372,-4.7696859],[-39.9285834,-4.7745402]],[[-39.1191212,-4.6338647],[-39.1353697,-4.630456]],[[-39.7294176,-4.6959029],[-39.7425826,-4.7195628]],[[-39.9158676,-4.7884803],[-39.9388372,-4.7696859]],[[-39.9691807,-4.947238],[-39.9578424,-5.0253684],[-39.9606458,-5.0283472],[-39.970487,-5.0284608]],[[-40.0307166,-5.3109738],[-40.0177138,-5.33077]],[[-40.0177138,-5.33077],[-39.993126,-5.3497709],[-39.9573729,-5.348266],[-39.9348795,-5.3640143],[-39.9259606,-5.3816651],[-39.9125313,-5.3863147],[-39.9077283,-5.392008],[-39.882124,-5.3792643],[-39.8637845,-5.3709989],[-39.8264969,-5.3763398],[-39.8000192,-5.3991634],[-39.7817476,-5.3788016],[-39.7503872,-5.3683997],[-39.7263522,-5.3792248],[-39.688254,-5.3581497],[-39.6652373,-5.3624909],[-39.6306126,-5.3994102],[-39.578745,-5.4061085],[-39.4641307,-5.4757591],[-39.3675918,-5.5259646],[-39.3089214,-5.5093139],[-39.2805608,-5.5262681],[-39.2560422,-5.558535],[-39.2457324,-5.5846361],[-39.2207365,-5.566906],[-39.2249824,-5.546119],[-39.2205183,-5.5397925],[-39.193591,-5.5306079],[-39.1162965,-5.5071154],[-39.0464391,-5.5113817],[-39.030992,-5.4920327],[-39.009281,-5.5111992],[-38.9857244,-5.5161611],[-38.9778221,-5.517826],[-38.9734001,-5.5186693],[-38.9516064,-5.5054247],[-38.9440275,-5.4890168],[-38.9288514,-5.4856706],[-38.9244767,-5.4536089],[-38.9110477,-5.4555096]],[[-38.9110477,-5.4555096],[-38.9205436,-5.435235],[-38.9243744,-5.3794782],[-38.9229843,-5.3291801],[-38.9062568,-5.3161167],[-38.8833515,-5.3101423],[-38.8487766,-5.2884775],[-38.8159459,-5.230293],[-38.8007997,-5.2200948],[-38.7833102,-5.2130953],[-38.7638357,-5.1998549],[-38.7520028,-5.199623],[-38.7306466,-5.1999463],[-38.712808,-5.202335],[-38.6917041,-5.2272656]],[[-38.6917041,-5.2272656],[-38.6772592,-5.2272883]],[[-38.6772592,-5.2272883],[-38.6108756,-5.1484609],[-38.609849,-5.143582],[-38.6115928,-5.1418552]],[[-38.6115928,-5.1418552],[-38.6144405,-5.1254089],[-38.6175324,-5.1070913],[-38.6207701,-5.1016809],[-38.6220782,-5.0945863],[-38.6237371,-5.0896057],[-38.6295579,-5.0855176],[-38.6246459,-5.0641638],[-38.6767077,-5.0282588],[-38.6774553,-5.004817],[-38.6473813,-4.9799183],[-38.6486961,-4.9387862],[-38.63858,-4.927511],[-38.6458318,-4.8971273],[-38.6668316,-4.8693941],[-38.6335071,-4.8478078],[-38.5807351,-4.802026],[-38.5721417,-4.764819],[-38.5374808,-4.7560976],[-38.5219229,-4.7376552],[-38.5337524,-4.7033684],[-38.5260294,-4.6848133]],[[-38.5260294,-4.6848133],[-38.5295371,-4.6796209]],[[-38.5690774,-4.6732164],[-38.5762255,-4.6689594]],[[-40.0599955,-5.4040816],[-40.067438,-5.4015144]],[[-40.8069475,-6.1049531],[-40.8576627,-6.1053559],[-40.8490497,-6.1234314],[-40.8457385,-6.134995],[-40.8536235,-6.1632816],[-40.84723,-6.2030136],[-40.8522242,-6.2242205],[-40.8235748,-6.2582643],[-40.8105046,-6.2870634],[-40.7865622,-6.3053647],[-40.7791491,-6.3413465],[-40.8051547,-6.3931316],[-40.7960894,-6.4281847],[-40.7965856,-6.4707013],[-40.7836794,-6.5284046],[-40.7542915,-6.5546712],[-40.7402249,-6.5774961],[-40.7338661,-6.6061395],[-40.7220026,-6.6176828],[-40.7322401,-6.6535854],[-40.7101828,-6.6761295],[-40.6491396,-6.6788294],[-40.6324189,-6.6989038],[-40.6022071,-6.7160118],[-40.5173877,-6.7304949],[-40.4769263,-6.7328317],[-40.4597267,-6.7542375],[-40.4520295,-6.7837755],[-40.4321666,-6.8129776],[-40.3887903,-6.7969987],[-40.3639936,-6.8068296]],[[-40.3639936,-6.8068296],[-40.3564941,-6.8070403],[-40.3512585,-6.8076913],[-40.31842,-6.8006316],[-40.3103681,-6.7861728],[-40.3077586,-6.7861675],[-40.3009428,-6.7995743],[-40.2649552,-6.7966552],[-40.2420845,-6.7767853],[-40.2031268,-6.7742822]],[[-40.2031268,-6.7742822],[-40.1823305,-6.7592403],[-40.1781202,-6.7612357],[-40.1693667,-6.7773791]],[[-40.1693667,-6.7773791],[-40.1499154,-6.7844711],[-40.1330362,-6.8106018]],[[-40.1330362,-6.8106018],[-40.1401971,-6.8178217]],[[-40.1401971,-6.8178217],[-40.1140018,-6.8175347],[-40.1079312,-6.8043322],[-40.0671312,-6.7902742],[-40.0693467,-6.7711439],[-40.0448596,-6.7531057],[-40.0098478,-6.7100093],[-40.0050866,-6.6867869],[-39.9866102,-6.6802318],[-39.9438242,-6.7075669],[-39.9391186,-6.7115605],[-39.9130688,-6.6878279],[-39.8770671,-6.6802858],[-39.8379876,-6.6791942],[-39.8291341,-6.69668],[-39.782189,-6.668221],[-39.7751595,-6.6496873],[-39.7720528,-6.6335549],[-39.7676227,-6.6270085],[-39.7365563,-6.6127249],[-39.7738633,-6.6072802],[-39.7287995,-6.5433889],[-39.7503771,-6.5209367],[-39.7389554,-6.4827835],[-39.7683474,-6.4680834],[-39.765023,-6.4427522],[-39.775974,-6.4108464],[-39.7581623,-6.3995265],[-39.7482736,-6.3868529],[-39.7196835,-6.3595718],[-39.7161119,-6.3540603],[-39.7145238,-6.3473852]],[[-39.7145238,-6.3473852],[-39.7089062,-6.3403965]],[[-39.7089062,-6.3403965],[-39.7201577,-6.2727609],[-39.7344559,-6.2452998],[-39.726555,-6.2367852],[-39.7177134,-6.2217827],[-39.7297584,-6.2078647],[-39.7341051,-6.2123102],[-39.7600614,-6.2401992],[-39.7689796,-6.2052321],[-39.7973072,-6.2075388],[-39.7932978,-6.1573637],[-39.8142679,-6.133755],[-39.8319813,-6.1342295],[-39.851381,-6.1140157],[-39.8757453,-6.1201997],[-39.8934538,-6.1099764],[-39.90876,-6.0802456],[-39.9446255,-6.1039761],[-39.9559368,-6.0973956],[-39.9631307,-6.0926843],[-39.9097227,-6.0586294],[-39.9055675,-6.036851],[-39.8889762,-6.0344283],[-39.8625688,-5.9938104],[-39.8456378,-5.9884616],[-39.8316227,-5.9632452],[-39.8493978,-5.9334581],[-39.8904892,-5.8950269],[-39.9133647,-5.8991245],[-39.9586723,-5.8708256],[-39.9321991,-5.8532313],[-39.9324988,-5.8256839],[-39.9856907,-5.8129849],[-39.9909988,-5.781019],[-40.0085129,-5.7737722],[-40.0073379,-5.747614],[-40.0076931,-5.7353848],[-40.0090753,-5.7339204],[-40.0236976,-5.7123112],[-40.0425529,-5.711882],[-40.0637729,-5.6880663],[-40.073869,-5.6655389],[-40.062045,-5.6541209],[-40.0533892,-5.6198498],[-40.0582437,-5.5943594],[-40.0759546,-5.5893227],[-40.0634996,-5.5762868],[-40.0337836,-5.5634709],[-40.0184523,-5.5290504],[-40.0207435,-5.5135889],[-40.0257465,-5.5085654],[-40.0307425,-5.5077926],[-40.0340698,-5.4875902],[-40.0538448,-5.4877198],[-40.056551,-5.4358306],[-40.0679168,-5.4245478],[-40.0655039,-5.4108069],[-40.0599955,-5.4040816]],[[-39.7089062,-6.3403965],[-39.7000018,-6.3283065]],[[-39.7000018,-6.3283065],[-39.6802745,-6.3372562],[-39.6519975,-6.3373545],[-39.6257662,-6.3191025],[-39.57904,-6.3132621],[-39.5600982,-6.3327429],[-39.5443051,-6.3223613],[-39.5400023,-6.3218809],[-39.5274312,-6.3269596],[-39.5248669,-6.3345375],[-39.5170281,-6.3339433],[-39.4911093,-6.3256794],[-39.4684094,-6.3315241],[-39.4624861,-6.3258033],[-39.4594781,-6.3248263]],[[-39.4594781,-6.3248263],[-39.4638612,-6.2803854]],[[-39.4638612,-6.2803854],[-39.4146335,-6.2591705],[-39.4170626,-6.2457156],[-39.3906233,-6.2219668],[-39.3567744,-6.2257183],[-39.2597083,-6.1283745],[-39.1417054,-6.1544054],[-39.0900042,-6.0936709],[-39.0737735,-6.051559],[-39.0507418,-6.0253532],[-39.0107836,-6.0070921],[-38.9947553,-6.0217165],[-38.9865131,-6.0285265],[-38.9867093,-6.0617084],[-38.9797801,-6.1016876]],[[-38.9797801,-6.1016876],[-38.9761335,-6.1028124]],[[-38.9761335,-6.1028124],[-38.9719161,-6.0857401],[-38.9745909,-6.0829217],[-38.9689796,-6.0744067],[-38.9633307,-6.0208204],[-38.9527132,-6.0164807],[-38.9484546,-5.9698285],[-38.919834,-5.9508188],[-38.8755601,-5.8694646],[-38.8395689,-5.8323549],[-38.8370698,-5.8128246],[-38.8082472,-5.7952996]],[[-38.8082472,-5.7952996],[-38.8048489,-5.7886824],[-38.80487,-5.7867357],[-38.8808267,-5.6556751]],[[-38.8808267,-5.6556751],[-38.9091849,-5.5952725]],[[-38.9091849,-5.5952725],[-38.9036401,-5.4759368],[-38.9038388,-5.4698996],[-38.905963,-5.4689028],[-38.9091434,-5.4622293]],[[-38.9091434,-5.4622293],[-38.9110477,-5.4555096]],[[-40.0177138,-5.33077],[-40.0209252,-5.3279657]],[[-40.0616993,-5.3902313],[-40.0599955,-5.4040816]],[[-37.6403381,-4.9264044],[-37.4464459,-4.8809614],[-37.2526586,-4.8313903],[-37.2804374,-4.7544823],[-37.2950338,-4.7302004],[-37.3259097,-4.700268],[-37.3445691,-4.6903844],[-37.4075504,-4.6751417],[-37.47856,-4.6463392],[-37.4978126,-4.6269612],[-37.5207375,-4.6411801],[-37.5617691,-4.6404087],[-37.6031067,-4.6172992],[-37.6454587,-4.5800992],[-37.6877284,-4.5332992],[-37.7128934,-4.5152771],[-37.7292163,-4.4941275],[-37.7700944,-4.4012707],[-37.809989,-4.3986351],[-37.8451205,-4.3816564]],[[-37.9843964,-4.5822661],[-37.9864329,-4.5836341]],[[-37.9864329,-4.5836341],[-37.9734695,-4.6154823],[-37.9788549,-4.6317717],[-37.9932371,-4.6607374],[-37.9505284,-4.6617678],[-37.9555694,-4.7295448],[-37.9337665,-4.7636224],[-37.8300869,-4.763207],[-37.8251491,-4.742014],[-37.7885724,-4.7295893],[-37.7887298,-4.756712],[-37.6162718,-4.7180139],[-37.6115132,-4.7682183],[-37.58869,-4.8082817],[-37.6403381,-4.9264044]],[[-38.1820574,-4.6227477],[-38.2152886,-4.5897882],[-38.2301274,-4.5811465],[-38.2351171,-4.5740438],[-38.3034738,-4.5374109],[-38.3061167,-4.5314871]],[[-38.3233392,-4.5191044],[-38.3486615,-4.5124733],[-38.3588743,-4.5052486],[-38.3814562,-4.5284925]],[[-38.5280024,-4.6775039],[-38.5260294,-4.6848133]],[[-38.6115928,-5.1418552],[-38.6099021,-5.144692],[-38.612444,-5.1504994],[-38.6772592,-5.2272883]],[[-38.6917041,-5.2272656],[-38.7152501,-5.268343],[-38.5987031,-5.3666704],[-38.5424496,-5.4219855],[-38.5171456,-5.4425901],[-38.4429935,-5.3962619],[-38.4260912,-5.4148526],[-38.4400411,-5.4263488],[-38.4280089,-5.4478635],[-38.4301276,-5.4678941],[-38.4595527,-5.5127098],[-38.4374572,-5.5452556],[-38.4329119,-5.6270177]],[[-38.4329119,-5.6270177],[-38.2675034,-5.6014359],[-38.2649146,-5.6286311],[-38.2483721,-5.6456873],[-38.2357727,-5.6369207],[-38.193463,-5.6328264],[-38.1673282,-5.6454714],[-38.1383405,-5.6753711],[-38.0828404,-5.6724407]],[[-38.0828404,-5.6724407],[-38.0533836,-5.646104],[-38.0342697,-5.6371528],[-38.0139641,-5.5943981],[-37.9983274,-5.5853175],[-37.9900372,-5.5557979],[-37.9480565,-5.5346449],[-37.9346995,-5.5052844],[-37.9022457,-5.5006618],[-37.8895409,-5.4522882],[-37.8604816,-5.4066857],[-37.8642752,-5.3783526],[-37.8474704,-5.3400231],[-37.7831099,-5.2948155],[-37.791859,-5.2687714],[-37.7829643,-5.2322646],[-37.7899659,-5.214499],[-37.7763098,-5.1871207],[-37.7649556,-5.1396162],[-37.7334225,-5.1006412],[-37.7250894,-5.0706243],[-37.6776204,-5.0540857],[-37.6403381,-4.9264044]],[[-37.9864329,-4.5836341],[-37.987974,-4.5853155]],[[-38.8808267,-5.6556751],[-38.8051565,-5.7876604],[-38.8082472,-5.7952996]],[[-38.9761335,-6.1028124],[-38.9724894,-6.1029382]],[[-38.9724894,-6.1029382],[-38.9493524,-6.0800814],[-38.9074747,-6.0859947],[-38.9075324,-6.1085125],[-38.9035095,-6.1373236],[-38.8890471,-6.1459116],[-38.881995,-6.1472602],[-38.8769682,-6.1477473],[-38.8720579,-6.1400442],[-38.8636045,-6.138754],[-38.8400921,-6.132324],[-38.8382876,-6.1293555],[-38.8351064,-6.1316044],[-38.8279495,-6.1245026],[-38.8207044,-6.1365844],[-38.7803221,-6.1185968],[-38.7528548,-6.1134027],[-38.7217014,-6.1280882],[-38.7248718,-6.1476205],[-38.7353323,-6.1752465],[-38.7216139,-6.19952],[-38.6786383,-6.2047804],[-38.6555582,-6.1858741],[-38.6118138,-6.1705693],[-38.6036084,-6.1742372]],[[-38.6036084,-6.1742372],[-38.598894,-6.1757407]],[[-38.598894,-6.1757407],[-38.5798045,-6.1365873],[-38.5569067,-6.1026137],[-38.5403274,-6.0421949],[-38.5250343,-6.0328218],[-38.4933345,-5.9387683],[-38.5042925,-5.9164481],[-38.5103746,-5.8780892],[-38.4819305,-5.845762],[-38.4775234,-5.821264],[-38.4855166,-5.7941658],[-38.4795043,-5.7431333],[-38.4638512,-5.7323622],[-38.4527433,-5.7023135],[-38.459016,-5.6792331],[-38.4415211,-5.6570474],[-38.4329119,-5.6270177]],[[-38.9091434,-5.4622293],[-38.9037046,-5.4712421],[-38.9091849,-5.5952725]],[[-38.5197118,-6.2230376],[-38.5272039,-6.193378],[-38.5007583,-6.1796825],[-38.4754853,-6.1570403],[-38.4620852,-6.112321],[-38.4473166,-6.0852777],[-38.4015365,-6.053495],[-38.3818385,-6.0534703],[-38.3662148,-6.0882981],[-38.3199214,-6.0770389],[-38.3065012,-6.0870334],[-38.2770092,-6.0699517],[-38.2525691,-6.0431031],[-38.2526921,-6.011914],[-38.2060156,-5.9643478],[-38.1647923,-5.946532],[-38.1647024,-5.9289298],[-38.1446253,-5.9137543],[-38.1225154,-5.8817401],[-38.1188643,-5.8328348],[-38.1004934,-5.8045298],[-38.0615092,-5.7620533],[-38.0468842,-5.732942],[-38.0896939,-5.7148464],[-38.0828404,-5.6724407]],[[-38.598894,-6.1757407],[-38.5994724,-6.1812478]],[[-38.5994724,-6.1812478],[-38.5710913,-6.2075118],[-38.5678554,-6.2218817],[-38.5649816,-6.2228516],[-38.5556445,-6.2306404],[-38.5511922,-6.2343055],[-38.5197118,-6.2230376]],[[-39.4638612,-6.2803854],[-39.4583689,-6.32703],[-39.4641955,-6.3425443]],[[-39.4641955,-6.3425443],[-39.4732116,-6.3743594],[-39.4340708,-6.3982059],[-39.4148179,-6.3912376],[-39.4072984,-6.4417868],[-39.3980959,-6.4659042],[-39.3750026,-6.4748336],[-39.3559036,-6.4657063],[-39.3480752,-6.4852674],[-39.3587621,-6.5088175],[-39.3424215,-6.5344192],[-39.2902014,-6.5253146],[-39.2984225,-6.5616827],[-39.2366461,-6.5844665],[-39.2098737,-6.6078133],[-39.1785815,-6.613311],[-39.1694435,-6.6736049],[-39.1427265,-6.6761467],[-39.1292464,-6.7026865],[-39.1246485,-6.7111642],[-39.1231575,-6.7131024],[-39.1098498,-6.7120346],[-39.1079307,-6.7154846]],[[-39.1079307,-6.7154846],[-39.0957779,-6.7133097],[-39.0906561,-6.7127524],[-39.0458631,-6.6957664],[-39.04679,-6.6751874],[-39.0026662,-6.6576906],[-38.9812367,-6.6632631],[-38.9510206,-6.6438774],[-38.9246868,-6.6111779],[-38.9193707,-6.5775952],[-38.9003072,-6.5783509]],[[-38.9003072,-6.5783509],[-38.8813415,-6.5800126],[-38.8625561,-6.5872934],[-38.8546121,-6.5968804]],[[-38.8546121,-6.5968804],[-38.7908691,-6.6006606],[-38.7755412,-6.6123207],[-38.7352045,-6.5703915],[-38.7020513,-6.5555542],[-38.6792829,-6.5630686],[-38.6226263,-6.5308432]],[[-38.6226263,-6.5308432],[-38.5704101,-6.4701951],[-38.5542654,-6.4327631],[-38.5245176,-6.407083],[-38.5515225,-6.3981672],[-38.5719684,-6.4041066],[-38.5924663,-6.3782461],[-38.5770754,-6.3474275],[-38.5812962,-6.3162102],[-38.5702964,-6.2999934],[-38.5795457,-6.2796264],[-38.554421,-6.2633956],[-38.5458512,-6.2454264],[-38.5197118,-6.2230376]],[[-38.5994724,-6.1812478],[-38.6036084,-6.1742372]],[[-38.9724894,-6.1029382],[-38.9797801,-6.1016876]],[[-40.1401971,-6.8178217],[-40.1469975,-6.8305866]],[[-40.1469975,-6.8305866],[-40.0872855,-6.8466568],[-40.0771628,-6.8566974],[-40.0517167,-6.8441073],[-40.0534969,-6.8250491],[-40.00206,-6.8031288],[-39.9869182,-6.8150808],[-39.9094459,-6.7634663],[-39.8787684,-6.7674295],[-39.7907858,-6.8023313],[-39.7413631,-6.8054716],[-39.7085711,-6.7853287],[-39.7010567,-6.801548],[-39.6953865,-6.8156326],[-39.6914505,-6.8245033],[-39.6906868,-6.8311469],[-39.6774447,-6.8248654],[-39.6597927,-6.8229477],[-39.653102,-6.8206993]],[[-39.653102,-6.8206993],[-39.6572624,-6.7966963],[-39.6508943,-6.8016714],[-39.6333136,-6.7898296],[-39.5564693,-6.7765977],[-39.543992,-6.7681395],[-39.5103891,-6.7767447],[-39.5168544,-6.810096],[-39.5026229,-6.8435984],[-39.4842289,-6.8380453],[-39.4731162,-6.8647824],[-39.4857289,-6.8761014],[-39.4832284,-6.8979579],[-39.4186997,-6.8951378],[-39.3949687,-6.9223687],[-39.3746586,-6.9157989],[-39.3656955,-6.9168365],[-39.3416177,-6.9060124],[-39.2662528,-6.8816899],[-39.2069695,-6.8773296],[-39.1858058,-6.8636983]],[[-39.1858058,-6.8636983],[-39.181558,-6.8272817],[-39.1248312,-6.7209624],[-39.1079307,-6.7154846]],[[-39.4641955,-6.3425443],[-39.4594781,-6.3248263]],[[-39.7000018,-6.3283065],[-39.7058979,-6.3369144],[-39.7145238,-6.3473852]],[[-38.8546121,-6.5968804],[-38.8620103,-6.5875422],[-38.8835626,-6.5800323],[-38.9003072,-6.5783509]],[[-39.1858058,-6.8636983],[-39.1665231,-6.9058743],[-39.1665778,-6.9357782],[-39.1159858,-6.9428002],[-39.1070126,-6.9634723]],[[-39.1070126,-6.9634723],[-39.1044626,-6.9627971],[-39.1013006,-6.9597683],[-39.1005461,-6.9534734]],[[-39.1005461,-6.9534734],[-39.0607595,-6.9115265],[-39.0208584,-6.895257],[-39.0145185,-6.8774357],[-38.9732489,-6.8632857],[-38.9507085,-6.8672629],[-38.8910802,-6.8571642],[-38.8673673,-6.8605993],[-38.8196712,-6.8567299],[-38.812886,-6.8648662],[-38.7741879,-6.8684498],[-38.7846808,-6.9049588],[-38.7682168,-6.90755]],[[-38.7682168,-6.90755],[-38.7302886,-6.8968135],[-38.6948153,-6.8745632],[-38.668883,-6.8429579],[-38.6518704,-6.8117122],[-38.6173323,-6.7938159],[-38.6575338,-6.7407602],[-38.6731505,-6.6972212],[-38.6519647,-6.6731834],[-38.6570803,-6.6422895],[-38.6466593,-6.6159807],[-38.6291604,-6.6045824],[-38.6428534,-6.5811777],[-38.6266059,-6.5529542],[-38.6226263,-6.5308432]],[[-40.1469975,-6.8305866],[-40.1441702,-6.8159117],[-40.1330362,-6.8106018]],[[-40.1693667,-6.7773791],[-40.180165,-6.7594011],[-40.1842596,-6.7597023],[-40.2031268,-6.7742822]],[[-40.3639936,-6.8068296],[-40.4285196,-6.8642545],[-40.4327058,-6.9085394],[-40.4286547,-6.9961299],[-40.4533848,-7.0712338],[-40.4897393,-7.1186901],[-40.4843697,-7.1331987],[-40.5135611,-7.2397033],[-40.5116313,-7.2994306],[-40.5237232,-7.3184505],[-40.5004686,-7.3279953],[-40.4335917,-7.3671782],[-40.3938781,-7.3681684],[-40.3609839,-7.3556007],[-40.3507936,-7.3341714],[-40.3185632,-7.3033404],[-40.2629956,-7.3010209],[-40.22076,-7.3412703],[-40.1956847,-7.3581487],[-40.1277543,-7.381915],[-40.0511468,-7.3812201],[-40.000707,-7.3744783],[-39.926345,-7.3409989],[-39.8900904,-7.3398233]],[[-39.8900904,-7.3398233],[-39.8885094,-7.1394607],[-39.8985944,-7.1027014],[-39.8829904,-7.088826],[-39.8637753,-7.0526669],[-39.7951238,-7.0327835],[-39.772531,-7.0609824],[-39.7474521,-7.0224802]],[[-39.7474521,-7.0224802],[-39.8001637,-7.0113093],[-39.7581827,-6.9932165],[-39.7453861,-6.9796108],[-39.7023191,-6.9543346],[-39.6933466,-6.9672351],[-39.6399331,-6.9455832],[-39.6310425,-6.9338681],[-39.6185971,-6.9326174],[-39.606525,-6.90422],[-39.6350726,-6.8932599],[-39.6550472,-6.894945],[-39.6682274,-6.8639213],[-39.6422607,-6.8547502],[-39.6387878,-6.8421582],[-39.6394763,-6.8377323],[-39.653102,-6.8206993]],[[-39.7474521,-7.0224802],[-39.7165684,-7.0022183],[-39.6752909,-7.0232943],[-39.6439447,-7.0195402],[-39.5796875,-7.0437943],[-39.5812307,-7.0233467],[-39.5157071,-7.0016906],[-39.5014539,-7.0123383],[-39.4523343,-7.0092909],[-39.4551188,-7.0669432],[-39.3657818,-7.0580004],[-39.35992,-7.0584337],[-39.359346,-7.0746664],[-39.3369858,-7.0995435],[-39.2927632,-7.1103055],[-39.2663831,-7.0940454],[-39.244739,-7.1175906],[-39.2029957,-7.139968],[-39.1784574,-7.1462651],[-39.1626197,-7.1326228],[-39.1367915,-7.1295913]],[[-39.1367915,-7.1295913],[-39.1358424,-7.1307516]],[[-39.1358424,-7.1307516],[-39.1102478,-7.089434],[-39.1149872,-7.0823369],[-39.1337993,-7.0784304],[-39.1572727,-7.0335753],[-39.161527,-6.9994666],[-39.1490215,-6.9832652],[-39.1157987,-6.9658013],[-39.1104648,-6.9627288]],[[-39.1104648,-6.9627288],[-39.1070126,-6.9634723]],[[-39.0254536,-7.1501061],[-38.9578729,-7.0817465],[-38.9089741,-7.082704],[-38.9252139,-7.1142086],[-38.9476891,-7.1419207],[-38.9145078,-7.2430012],[-38.8796551,-7.2360925],[-38.8687738,-7.2442215],[-38.8400759,-7.2396046],[-38.7976128,-7.2181268],[-38.7830141,-7.2268077],[-38.860262,-7.3544669],[-38.8823563,-7.4570869],[-38.7758625,-7.6042277]],[[-38.7758625,-7.6042277],[-38.7175943,-7.626888],[-38.7151129,-7.6219195],[-38.7156068,-7.612086],[-38.7100741,-7.5974333],[-38.711025,-7.586634],[-38.7036588,-7.5809573],[-38.6611819,-7.5682918],[-38.6459957,-7.501926],[-38.6305654,-7.4839522],[-38.6380788,-7.4579493],[-38.603328,-7.457592],[-38.5853008,-7.4348151],[-38.5771196,-7.3772975],[-38.5485231,-7.3321317],[-38.5503552,-7.3154642],[-38.5345869,-7.293793],[-38.5588783,-7.2394171],[-38.5830835,-7.2483827],[-38.615368,-7.2301858],[-38.6248028,-7.1913206],[-38.6593223,-7.1832477],[-38.68783,-7.1901612],[-38.675293,-7.1557219],[-38.6774153,-7.1309352],[-38.6564059,-7.0924258],[-38.677242,-7.0671025],[-38.669849,-7.0477046],[-38.6909873,-7.0299554],[-38.7305837,-7.0120279],[-38.7518883,-6.9885827],[-38.7422504,-6.9742785],[-38.7592236,-6.9154828],[-38.7682168,-6.90755]],[[-39.1005461,-6.9534734],[-39.1021148,-6.9610336],[-39.10644,-6.9634027],[-39.1104648,-6.9627288]],[[-39.1358424,-7.1307516],[-39.1319212,-7.1394822]],[[-39.1319212,-7.1394822],[-39.1292797,-7.1439968],[-39.1219637,-7.1448718],[-39.0948113,-7.1548553],[-39.0910885,-7.1562256],[-39.05132,-7.1376577],[-39.0254536,-7.1501061]],[[-39.8900904,-7.3398233],[-39.8576968,-7.3254287],[-39.8286958,-7.3323702],[-39.7413221,-7.3268166],[-39.7061889,-7.3377612],[-39.6713484,-7.3585372],[-39.6457183,-7.3808781],[-39.6289072,-7.4256285],[-39.5715905,-7.4298313],[-39.5528279,-7.4806568],[-39.5364439,-7.4825303],[-39.5023605,-7.4641484],[-39.4897325,-7.4724233],[-39.4607476,-7.471219],[-39.4556775,-7.5018609],[-39.484698,-7.5328285],[-39.4716808,-7.5758006],[-39.4349335,-7.5737228],[-39.4196561,-7.6044123],[-39.376095,-7.6117724],[-39.3384437,-7.6446469],[-39.3055665,-7.6659316],[-39.2703214,-7.6598973],[-39.252816,-7.6772868],[-39.250388,-7.698443],[-39.2083352,-7.6894803],[-39.1710014,-7.7152403],[-39.1465529,-7.7182191]],[[-39.1465529,-7.7182191],[-39.1183096,-7.6861333],[-39.1064588,-7.6157845],[-39.0618677,-7.6266709],[-39.045566,-7.6423667],[-39.0271612,-7.634273],[-39.0318518,-7.6097577],[-39.0299117,-7.5329789],[-39.0884097,-7.4855764],[-39.0952764,-7.464141],[-39.0805746,-7.4572417],[-39.0760669,-7.4310635],[-39.1020794,-7.3403923],[-39.0996446,-7.3223258],[-39.0811505,-7.3012044],[-39.0907027,-7.2811441],[-39.0877527,-7.251194],[-39.0892478,-7.2433604],[-39.0832596,-7.2388751]],[[-39.0832596,-7.2388751],[-39.0253431,-7.1943868]],[[-39.0253431,-7.1943868],[-39.0254536,-7.1501061]],[[-39.1319212,-7.1394822],[-39.1367915,-7.1295913]],[[-39.1465529,-7.7182191],[-39.1327563,-7.7266263],[-39.1063539,-7.7602263],[-39.0905551,-7.8096046],[-39.088188,-7.8377261],[-39.0648798,-7.8395042],[-39.0537557,-7.8193046],[-39.0263931,-7.8246351],[-38.9822446,-7.8461256],[-38.9649404,-7.8298285],[-38.9397983,-7.7915557],[-38.9395781,-7.7587726],[-38.8813975,-7.7474323],[-38.8809128,-7.7249646],[-38.8688517,-7.7111798],[-38.8461022,-7.720415],[-38.8219622,-7.7147944],[-38.8121916,-7.6687972],[-38.78371,-7.6673771],[-38.7606124,-7.6560008],[-38.7436595,-7.6606659],[-38.7321897,-7.6338655],[-38.7237265,-7.626884],[-38.7172325,-7.6262375],[-38.7758625,-7.6042277]],[[-39.0253431,-7.1943868],[-39.0858799,-7.2337514],[-39.0832596,-7.2388751]]],"bbox":[-41.4123177,-7.8461256,-37.2526586,-2.7843235]}
