{"type":"Topology","objects":{"geometrias":{"type":"GeometryCollection","geometries":[{"type":"Polygon","arcs":[[0,1,2,3]],"properties":{"code_micro":33001,"name_micro":"Itaperuna","code_state":33,"code_region":3,"abbrev_state":"RJ","name_state":"Rio de Janeiro","name_region":"Sudeste","year":2020}},{"type":"Polygon","arcs":[[4,5,6,7,8,9,10,-2]],"properties":{"code_micro":33002,"name_micro":"Santo Antônio de Pádua","code_state":33,"code_region":3,"abbrev_state":"RJ","name_state":"Rio de Janeiro","name_region":"Sudeste","year":2020}},{"type":"MultiPolygon","arcs":[[[11,-4,12,-10,13,14,15,16]],[[17]]],"properties":{"code_micro":33003,"name_micro":"Campos dos Goytacazes","code_state":33,"code_region":3,"abbrev_state":"RJ","name_state":"Rio de Janeiro","name_region":"Sudeste","year":2020}},{"type":"Polygon","arcs":[[18,19,20,21,22,23,24,25,26,27,28,-17,29,30]],"properties":{"code_micro":33004,"name_micro":"Macaé","code_state":33,"code_region":3,"abbrev_state":"RJ","name_state":"Rio de Janeiro","name_region":"Sudeste","year":2020}},{"type":"Polygon","arcs":[[31,32,33,34,35,36,37,38,39,40,41]],"properties":{"code_micro":33005,"name_micro":"Três Rios","code_state":33,"code_region":3,"abbrev_state":"RJ","name_state":"Rio de Janeiro","name_region":"Sudeste","year":2020}},{"type":"Polygon","arcs":[[42,43,44,45,-6,46,-42,47]],"properties":{"code_micro":33006,"name_micro":"Cantagalo-Cordeiro","code_state":33,"code_region":3,"abbrev_state":"RJ","name_state":"Rio de Janeiro","name_region":"Sudeste","year":2020}},{"type":"Polygon","arcs":[[48,49,50,51,52,53,54,-24,55,56,57,-43,58,-40,59,-38,60,61]],"properties":{"code_micro":33007,"name_micro":"Nova Friburgo","code_state":33,"code_region":3,"abbrev_state":"RJ","name_state":"Rio de Janeiro","name_region":"Sudeste","year":2020}},{"type":"Polygon","arcs":[[62,-57,63,-22,64,-20,65,-31,66,-15,67,-8,68,-45]],"properties":{"code_micro":33008,"name_micro":"Santa Maria Madalena","code_state":33,"code_region":3,"abbrev_state":"RJ","name_state":"Rio de Janeiro","name_region":"Sudeste","year":2020}},{"type":"Polygon","arcs":[[69,70,71,72,73,74,75,-28,76,-26,77,-54,78,-52]],"properties":{"code_micro":33009,"name_micro":"Bacia de São João","code_state":33,"code_region":3,"abbrev_state":"RJ","name_state":"Rio de Janeiro","name_region":"Sudeste","year":2020}},{"type":"MultiPolygon","arcs":[[[79]],[[80,-75,81,-73,82,83,84,85,86,87]]],"properties":{"code_micro":33010,"name_micro":"Lagos","code_state":33,"code_region":3,"abbrev_state":"RJ","name_state":"Rio de Janeiro","name_region":"Sudeste","year":2020}},{"type":"Polygon","arcs":[[88,89,90,91,92,93,94,95]],"properties":{"code_micro":33011,"name_micro":"Vale do Paraíba Fluminense","code_state":33,"code_region":3,"abbrev_state":"RJ","name_state":"Rio de Janeiro","name_region":"Sudeste","year":2020}},{"type":"Polygon","arcs":[[96,-96,97,98,99,100,101]],"properties":{"code_micro":33012,"name_micro":"Barra do Piraí","code_state":33,"code_region":3,"abbrev_state":"RJ","name_state":"Rio de Janeiro","name_region":"Sudeste","year":2020}},{"type":"MultiPolygon","arcs":[[[102]],[[103,104,105,-90]],[[106]]],"properties":{"code_micro":33013,"name_micro":"Baía da Ilha Grande","code_state":33,"code_region":3,"abbrev_state":"RJ","name_state":"Rio de Janeiro","name_region":"Sudeste","year":2020}},{"type":"Polygon","arcs":[[107,-94,108,109,110,111,112,113,114,115,116,-34,117,-101,118,-99]],"properties":{"code_micro":33014,"name_micro":"Vassouras","code_state":33,"code_region":3,"abbrev_state":"RJ","name_state":"Rio de Janeiro","name_region":"Sudeste","year":2020}},{"type":"Polygon","arcs":[[-36,119,-116,120,121,122,123,124,-62,125]],"properties":{"code_micro":33015,"name_micro":"Serrana","code_state":33,"code_region":3,"abbrev_state":"RJ","name_state":"Rio de Janeiro","name_region":"Sudeste","year":2020}},{"type":"Polygon","arcs":[[126,127,128,129,-86,130,-84,131,-71,132,-50,133,-124,134,135,136,137]],"properties":{"code_micro":33016,"name_micro":"Macacu-Caceribu","code_state":33,"code_region":3,"abbrev_state":"RJ","name_state":"Rio de Janeiro","name_region":"Sudeste","year":2020}},{"type":"MultiPolygon","arcs":[[[138,139]],[[140]],[[141]],[[142,-105,143,144,145,146,147,148,149,-112,150,-110,151,-92]],[[152]]],"properties":{"code_micro":33017,"name_micro":"Itaguaí","code_state":33,"code_region":3,"abbrev_state":"RJ","name_state":"Rio de Janeiro","name_region":"Sudeste","year":2020}},{"type":"MultiPolygon","arcs":[[[153,-140]],[[154,-129,155,-127,156,-137,157,158,-122,159,-114,160,-149,161,-147,162,-145,163,-88]],[[164]],[[165]]],"properties":{"code_micro":33018,"name_micro":"Rio de Janeiro","code_state":33,"code_region":3,"abbrev_state":"RJ","name_state":"Rio de Janeiro","name_region":"Sudeste","year":2020}}]}},"arcs":[[[-41.4696296,-21.2027933],[-41.4869456,-21.1797845],[-41.4966116,-21.1849606],[-41.5115501,-21.1758363],[-41.5209754,-21.187019],[-41.5304368,-21.1800253],[-41.5482883,-21.1832995],[-41.5782375,-21.1697453],[-41.5865674,-21.1495465],[-41.6125895,-21.1570009],[-41.6219815,-21.1469585],[-41.6393967,-21.1461934],[-41.6653644,-21.1319839],[-41.6631531,-21.1247016],[-41.6884281,-21.1221734],[-41.6941579,-21.1153722],[-41.7165837,-21.1254355],[-41.71863,-21.1168408],[-41.7359407,-21.1025984],[-41.7218306,-21.0682413],[-41.7327675,-21.0660531],[-41.7161889,-21.047051],[-41.7252015,-21.033078],[-41.7145453,-21.0154083],[-41.7214215,-21.0020133],[-41.7116275,-20.9805924],[-41.716441,-20.9742667],[-41.7174055,-20.9530449],[-41.7312009,-20.9466775],[-41.7374022,-20.9310317],[-41.7223679,-20.9232528],[-41.7184836,-20.8991449],[-41.7263409,-20.8923895],[-41.715697,-20.8718246],[-41.7388851,-20.8657524],[-41.7458898,-20.8524366],[-41.7363089,-20.8359131],[-41.7398545,-20.8175037],[-41.7667418,-20.8019956],[-41.7940261,-20.798051],[-41.7991687,-20.8053185],[-41.8288264,-20.7943438],[-41.8324432,-20.7818772],[-41.8481876,-20.7743723],[-41.8528668,-20.7633863],[-41.8680912,-20.7639288],[-41.8789429,-20.7787436],[-41.8966425,-20.7884567],[-41.9019903,-20.7966257],[-41.9286099,-20.7941448],[-41.9324769,-20.8257122],[-41.926707,-20.8387898],[-41.936028,-20.8552443],[-41.9500502,-20.858234],[-41.9497554,-20.872972],[-41.9604723,-20.8833189],[-41.9673098,-20.8985727],[-41.9666893,-20.9169515],[-41.9933027,-20.9304709],[-42.0039403,-20.9318914],[-42.0376544,-20.9269847],[-42.0477841,-20.9347277],[-42.0870713,-20.9395842],[-42.0937947,-20.935626],[-42.1143156,-20.9502517],[-42.146966,-20.9675021],[-42.1512588,-20.9775941],[-42.1413633,-20.9926409],[-42.1200878,-21.0001213],[-42.1157816,-21.0099232],[-42.0848094,-21.0229899],[-42.1036014,-21.0453992],[-42.1046812,-21.0550927],[-42.1201757,-21.0679503],[-42.1201003,-21.0772168],[-42.1333095,-21.0807075],[-42.1399267,-21.1032209],[-42.1636888,-21.1006831],[-42.1706603,-21.1146119],[-42.1706476,-21.1286444],[-42.181827,-21.1434009],[-42.1923913,-21.1484738],[-42.1939877,-21.1642318],[-42.2083328,-21.1790161],[-42.1944335,-21.2017374],[-42.2029341,-21.2204462],[-42.1880926,-21.2303908],[-42.1950365,-21.2391255],[-42.1897249,-21.250506],[-42.1997699,-21.2563823],[-42.2119997,-21.2720274],[-42.2282099,-21.281093],[-42.2293022,-21.308202],[-42.2377879,-21.3179728],[-42.2232554,-21.3380984]],[[-42.2232554,-21.3380984],[-42.2239006,-21.3355485],[-42.2045771,-21.3264262],[-42.1964741,-21.3150769],[-42.1793166,-21.313504],[-42.1583282,-21.3169681],[-42.147521,-21.3059687],[-42.1251789,-21.3196726],[-42.1199728,-21.3322848],[-42.0984413,-21.338416],[-42.0965988,-21.3481036],[-42.0729149,-21.3558757],[-42.0481357,-21.3534368],[-42.0209957,-21.3286799],[-42.0007457,-21.3289614],[-41.9850298,-21.3129111],[-41.9638031,-21.3106634],[-41.9563967,-21.3142422],[-41.9407509,-21.3092106],[-41.9322729,-21.3126545],[-41.9177362,-21.2951738],[-41.9033325,-21.3029423],[-41.8910595,-21.2971637],[-41.8563423,-21.3027304],[-41.8393532,-21.2883179],[-41.7787043,-21.3901371],[-41.786389,-21.3964343],[-41.7099612,-21.4563054]],[[-41.7099612,-21.4563054],[-41.7427273,-21.464314]],[[-41.7427273,-21.464314],[-41.6794712,-21.5162617],[-41.6269524,-21.5957165],[-41.657021,-21.4791441],[-41.6188723,-21.4720428],[-41.6002766,-21.4815782],[-41.5933254,-21.4687989],[-41.5793497,-21.4591468],[-41.5746651,-21.4468364],[-41.5510548,-21.4290496],[-41.5846422,-21.3162096],[-41.5810253,-21.3076897],[-41.5535397,-21.2963694],[-41.5398825,-21.2814889],[-41.5297412,-21.2783541],[-41.5246136,-21.2676004],[-41.4991118,-21.2560033],[-41.496178,-21.2450194],[-41.4700532,-21.2314135],[-41.4696296,-21.2027933]],[[-42.2232554,-21.3380984],[-42.2366539,-21.3444708],[-42.2300242,-21.3664945],[-42.2519754,-21.3871971],[-42.2372762,-21.3928221],[-42.2415007,-21.4057273],[-42.2600773,-21.409732],[-42.2664029,-21.4001412],[-42.2779648,-21.4091192],[-42.2753711,-21.4277631],[-42.2859125,-21.4415276],[-42.2920837,-21.4599792],[-42.2680784,-21.4688749],[-42.2555846,-21.483612],[-42.259743,-21.4962828],[-42.2738619,-21.5038954],[-42.2856011,-21.5281202],[-42.2971882,-21.5235355],[-42.3100207,-21.5522524],[-42.3307706,-21.5602326],[-42.324772,-21.5694436],[-42.3451456,-21.5819602],[-42.3615684,-21.6023468],[-42.3637154,-21.613313],[-42.3590845,-21.6315724],[-42.3651522,-21.6464585],[-42.3464774,-21.6522262],[-42.3402999,-21.6591398],[-42.3245926,-21.6560116],[-42.3077333,-21.6599774],[-42.3008934,-21.6551438],[-42.2883564,-21.6674546],[-42.2861396,-21.6773835],[-42.2732566,-21.6779045],[-42.2649348,-21.6938637],[-42.2726766,-21.7038278],[-42.2599387,-21.7129288]],[[-42.2599387,-21.7129288],[-42.2370801,-21.6972095],[-42.2069011,-21.783775]],[[-42.2069011,-21.783775],[-42.1672494,-21.8586929],[-42.1651789,-21.8588136],[-42.1653163,-21.8598489],[-42.1628492,-21.8589001],[-42.1616497,-21.8605297]],[[-42.1616497,-21.8605297],[-42.154466,-21.8605669],[-42.1505069,-21.8610098],[-42.1490683,-21.8592018],[-42.1402891,-21.8564682],[-42.1387494,-21.8554871],[-42.1393677,-21.8540422],[-42.1402052,-21.8522337],[-42.1458621,-21.8420261],[-42.1170396,-21.8464625],[-42.1254147,-21.823916],[-42.11327,-21.8254597],[-42.1030991,-21.8094795],[-42.0921893,-21.8132993],[-42.0854534,-21.8014446],[-42.061476,-21.7991062],[-42.0556594,-21.7818087],[-42.0431846,-21.7792039],[-42.0314785,-21.7658749],[-42.0209077,-21.770239],[-42.0136166,-21.765652],[-42.0219244,-21.7583452],[-42.0227549,-21.7556292],[-42.0214688,-21.7548375],[-42.0186441,-21.7506007],[-42.0043402,-21.7425888],[-41.9849886,-21.7328857],[-41.9633675,-21.7336902],[-41.9551861,-21.7293155],[-41.9486286,-21.7304601],[-41.9398234,-21.7414097]],[[-41.9398234,-21.7414097],[-41.9371006,-21.7412201],[-41.9367381,-21.5967529],[-41.9341058,-21.5930692]],[[-41.9341058,-21.5930692],[-41.900984,-21.5756146],[-41.8846834,-21.5800412],[-41.8709872,-21.5721159],[-41.8734258,-21.5615265],[-41.8609876,-21.5456017],[-41.8236325,-21.5129047],[-41.8257911,-21.5064462],[-41.8157548,-21.4914726],[-41.824984,-21.4822695]],[[-41.824984,-21.4822695],[-41.7099612,-21.4563054]],[[-41.1426513,-22.0896338],[-41.1342426,-22.0931013],[-41.1232334,-22.0841749],[-41.0710789,-22.0546911],[-41.0046307,-22.0215681],[-40.9908291,-22.0102766],[-40.980415,-21.9905908],[-40.9760586,-21.9736536],[-40.9751888,-21.9410341],[-40.9917141,-21.8722894],[-40.9939697,-21.8487058],[-41.0029713,-21.8238714],[-41.0180851,-21.7624281],[-41.0245357,-21.7250841],[-41.0226665,-21.6853864],[-41.0123084,-21.6209843],[-41.0399204,-21.62083],[-41.0436948,-21.6180267],[-41.0468712,-21.6190934],[-41.0481121,-21.6137784],[-41.0459861,-21.6066027],[-41.0649492,-21.5527182],[-41.0726467,-21.5256098],[-41.0690342,-21.4979189],[-41.0573307,-21.4788931],[-41.0376125,-21.4622743],[-41.023109,-21.4452646],[-41.0061069,-21.4190843],[-41.0024754,-21.4074133],[-40.9906612,-21.3933637],[-40.9826275,-21.3916109],[-40.9613987,-21.3607767],[-40.9642902,-21.3492162],[-40.9592911,-21.3029228],[-40.9776179,-21.2851351],[-40.9957952,-21.2861898],[-40.9981659,-21.2661726],[-41.0047404,-21.2510999],[-41.0249052,-21.2458027],[-41.0445825,-21.2530586],[-41.0593193,-21.2346468],[-41.0892187,-21.2195207],[-41.1036998,-21.2191191],[-41.1155525,-21.2286353],[-41.1618193,-21.2437614],[-41.1776147,-21.2390033],[-41.1937387,-21.2440657],[-41.2148521,-21.2372997],[-41.2413685,-21.2203603],[-41.2564946,-21.2252523],[-41.2764484,-21.2402095],[-41.303455,-21.2285988],[-41.3161839,-21.2135457],[-41.3699408,-21.2042226],[-41.4167865,-21.2002234],[-41.4358664,-21.2158489],[-41.4461707,-21.2154814],[-41.4696296,-21.2027933]],[[-41.7427273,-21.464314],[-41.824984,-21.4822695]],[[-41.9341058,-21.5930692],[-41.9367112,-21.5967],[-41.9371223,-21.7411954],[-41.9304036,-21.7413288],[-41.9333425,-21.7478371]],[[-41.9333425,-21.7478371],[-41.9343924,-21.7670677],[-41.9498803,-21.770054],[-41.9593878,-21.7925407],[-41.9710784,-21.8030945],[-41.965203,-21.8277649],[-41.9551701,-21.8480242],[-41.9499107,-21.8560494],[-41.9365254,-21.8723099],[-41.8971501,-21.8783048],[-41.8666761,-21.8849994],[-41.8500609,-21.8860156],[-41.8356453,-21.8872019],[-41.8147567,-21.8794013],[-41.7965011,-21.8789631],[-41.7730581,-21.8897351],[-41.733114,-21.8874261],[-41.7037375,-21.8896672],[-41.7095886,-21.8945405],[-41.7160977,-21.9113885],[-41.7139496,-21.9237424],[-41.721023,-21.944889],[-41.7133991,-21.9614893],[-41.7206132,-21.9680787],[-41.716862,-21.9818561],[-41.7348277,-22.0046156],[-41.7619793,-22.0195128],[-41.7685042,-22.0102538],[-41.7832418,-22.0141163],[-41.7630844,-22.0380029],[-41.7504535,-22.0863971]],[[-41.7504535,-22.0863971],[-41.737366,-22.0843671]],[[-41.737366,-22.0843671],[-41.734618,-22.0763582],[-41.7181675,-22.0606018],[-41.7018294,-22.0511232],[-41.6645772,-22.0573619],[-41.6477103,-22.0515277],[-41.6169726,-22.0459418],[-41.5938301,-22.0472849],[-41.5512667,-22.0554532],[-41.5395492,-22.0500155],[-41.5179889,-22.0171745],[-41.4376289,-21.9865853],[-41.277672,-22.0653238],[-41.2572985,-22.0989579],[-41.2287987,-22.0954827],[-41.1520139,-22.0991523],[-41.1426513,-22.0896338]],[[-41.0248275,-21.6049007],[-41.0483944,-21.5895972],[-41.0442839,-21.6067802],[-41.045911,-21.616218],[-41.0177898,-21.6139691],[-41.0248275,-21.6049007]],[[-41.9601265,-22.1244949],[-41.9681312,-22.1326182],[-41.978291,-22.1262876]],[[-41.978291,-22.1262876],[-42.0054596,-22.143351],[-42.0194076,-22.1470884],[-42.0272001,-22.1579554],[-42.0450473,-22.1630062],[-42.0751196,-22.1639057],[-42.0877798,-22.1704657],[-42.0968012,-22.183149],[-42.0925155,-22.1967551],[-42.1117302,-22.2095279],[-42.1281264,-22.2138659],[-42.1380407,-22.2104528],[-42.158978,-22.2150683],[-42.1780524,-22.2329098],[-42.1833614,-22.2445085],[-42.1929096,-22.2442404],[-42.2153621,-22.2671997]],[[-42.2153621,-22.2671997],[-42.2272938,-22.274225],[-42.233059,-22.285962],[-42.2329479,-22.2881212]],[[-42.2329479,-22.2881212],[-42.2385524,-22.2861819],[-42.2490087,-22.2952436],[-42.2478955,-22.2996229]],[[-42.2478955,-22.2996229],[-42.2518922,-22.3094705]],[[-42.2518922,-22.3094705],[-42.2641728,-22.3155495],[-42.2558305,-22.3215003],[-42.2217027,-22.3392502],[-42.2149285,-22.3466927],[-42.2082672,-22.3608168]],[[-42.2082672,-22.3608168],[-42.2157555,-22.3736828]],[[-42.2157555,-22.3736828],[-42.2070509,-22.387197],[-42.2144176,-22.3984418],[-42.2112271,-22.4076615],[-42.2114383,-22.4115321],[-42.2065459,-22.425506],[-42.1914939,-22.4332586],[-42.173162,-22.4255126],[-42.1614577,-22.4285757],[-42.1587393,-22.4244561],[-42.1496675,-22.4266355],[-42.1372025,-22.4126511],[-42.1256161,-22.4126873],[-42.1178589,-22.4045835],[-42.1113678,-22.404378],[-42.0984217,-22.4166895],[-42.1001598,-22.4274789]],[[-42.1001598,-22.4274789],[-42.1063022,-22.436349],[-42.1003454,-22.436753],[-42.0950428,-22.4387721],[-42.0862621,-22.4391418]],[[-42.0862621,-22.4391418],[-42.0707735,-22.4319876],[-42.0631317,-22.4195174],[-42.0237888,-22.3879439],[-41.9973625,-22.4002958],[-41.9636203,-22.3880662],[-41.9443615,-22.3843654],[-41.9378845,-22.3946379],[-41.9069097,-22.4000169],[-41.888384,-22.4144977],[-41.8698466,-22.4194091],[-41.8551527,-22.4108423],[-41.8280634,-22.4082691],[-41.8177903,-22.417031]],[[-41.8177903,-22.417031],[-41.7692028,-22.3892076],[-41.7734981,-22.3640535],[-41.7641102,-22.3532694],[-41.7392384,-22.3390672],[-41.6917721,-22.3016813],[-41.6504208,-22.2794092],[-41.5187756,-22.2244375],[-41.4513431,-22.2023809],[-41.3567844,-22.1770056],[-41.2700191,-22.1553552],[-41.2191273,-22.1386316],[-41.1674152,-22.1158293],[-41.1341587,-22.0967157],[-41.1426513,-22.0896338]],[[-41.737366,-22.0843671],[-41.7533156,-22.0870514]],[[-41.7533156,-22.0870514],[-41.7530392,-22.085382],[-41.7643914,-22.0843697],[-41.7790516,-22.0973349],[-41.8198511,-22.0991088],[-41.8219567,-22.0943405],[-41.8326297,-22.078302],[-41.8479642,-22.0713559],[-41.8652823,-22.0578326],[-41.8874956,-22.0489693],[-41.9035344,-22.057656],[-41.9086702,-22.0682686],[-41.9360329,-22.056873],[-41.9416917,-22.0703869],[-41.9623817,-22.0786154],[-41.9624482,-22.1055005],[-41.9601265,-22.1244949]],[[-42.6653436,-21.8732509],[-42.6849644,-21.8791981],[-42.7399783,-21.9086643],[-42.7877903,-21.9295698],[-42.8155048,-21.9363599],[-42.8423915,-21.9482613],[-42.8550891,-21.9495019],[-42.8814275,-21.9592662],[-42.8784697,-21.9657735],[-42.8936031,-21.9751693],[-42.90716,-21.9894416],[-42.9592083,-22.0150036],[-42.9689855,-22.014895],[-42.9969043,-22.0361104],[-43.0078774,-22.0315079],[-43.0243471,-22.0417414],[-43.0391521,-22.0445945],[-43.0331612,-22.0659049],[-43.053126,-22.0817249],[-43.0750405,-22.093392],[-43.1061821,-22.0826565],[-43.1222409,-22.0893994],[-43.1274312,-22.1051477],[-43.142258,-22.1044469],[-43.1537114,-22.0741605],[-43.1333747,-22.0584097],[-43.1285357,-22.0293118],[-43.1441576,-22.0337312],[-43.1776488,-22.0285688],[-43.2029477,-22.0374372],[-43.2074747,-22.0296835],[-43.2215116,-22.0337609],[-43.2341933,-22.0141504],[-43.245467,-22.0065741],[-43.261535,-22.0080348],[-43.2949277,-22.0164932],[-43.3022433,-22.0210084],[-43.3162356,-22.0076697],[-43.3300039,-22.010734],[-43.3503725,-22.0080324],[-43.3650143,-22.0104667],[-43.3685753,-22.0205074],[-43.3989411,-22.0407982],[-43.4369938,-22.0599687]],[[-43.4369938,-22.0599687],[-43.3988421,-22.2211443]],[[-43.3988421,-22.2211443],[-43.3253957,-22.2787201]],[[-43.3253957,-22.2787201],[-43.2886686,-22.3707353],[-43.2844937,-22.3665478],[-43.2783281,-22.3561616]],[[-43.2783281,-22.3561616],[-43.2737325,-22.3467659],[-43.2685315,-22.3411988],[-43.2657544,-22.3347322],[-43.2633099,-22.3209589],[-43.2473587,-22.3070746],[-43.2380476,-22.3047794],[-43.2354191,-22.3116604],[-43.2117262,-22.2998627],[-43.2007181,-22.3037602],[-43.1816699,-22.3011449],[-43.1738702,-22.3101723],[-43.1455246,-22.3040041],[-43.1370453,-22.2830073],[-43.1270074,-22.275873],[-43.1063459,-22.2815437],[-43.1012924,-22.2658729],[-43.0898996,-22.2613579],[-43.0939542,-22.2423264],[-43.0759482,-22.2234582],[-43.0477635,-22.2086149],[-43.0404982,-22.1886725],[-43.0207642,-22.1618091],[-43.0172176,-22.148267],[-43.0015041,-22.1539532],[-42.9549754,-22.1388705],[-42.964319,-22.126431],[-42.9738592,-22.0972407],[-42.9686149,-22.0877832],[-42.9550371,-22.0845172],[-42.9437398,-22.0958778],[-42.9126739,-22.1088782],[-42.8955926,-22.1103928],[-42.884186,-22.0999455],[-42.8721995,-22.101401],[-42.8644057,-22.1275928],[-42.874411,-22.1544837],[-42.8638676,-22.1652444],[-42.8360319,-22.1523281],[-42.8276034,-22.1427485],[-42.8036473,-22.1332487],[-42.7937806,-22.1221539],[-42.7690463,-22.1241804],[-42.7617635,-22.1182116]],[[-42.7617635,-22.1182116],[-42.758149,-22.1077974]],[[-42.758149,-22.1077974],[-42.7541084,-22.0995483],[-42.744796,-22.0978866]],[[-42.744796,-22.0978866],[-42.7364557,-22.0960722],[-42.7345099,-22.0948351],[-42.7326419,-22.0891332],[-42.7321105,-22.079731]],[[-42.7321105,-22.079731],[-42.7383289,-22.0644614],[-42.7364109,-22.0476259],[-42.7174608,-22.0523733],[-42.712207,-22.0403182],[-42.715322,-22.0253695],[-42.6998816,-22.0031632],[-42.6993417,-21.9948849],[-42.6928272,-21.9757961]],[[-42.6928272,-21.9757961],[-42.691875,-21.9679103]],[[-42.691875,-21.9679103],[-42.6876553,-21.9651508],[-42.6970723,-21.9630619],[-42.6894748,-21.9497992],[-42.6770767,-21.9446781],[-42.6634677,-21.9154611],[-42.6653436,-21.8732509]],[[-42.5479016,-21.9996332],[-42.5468116,-21.984486],[-42.5569522,-21.9656427],[-42.5386082,-21.9165581],[-42.5273737,-21.9063663],[-42.509021,-21.9074815],[-42.3984656,-22.0599126],[-42.3456191,-22.1059891],[-42.3427399,-22.1243147],[-42.324249,-22.1199831],[-42.3159508,-22.1095143],[-42.3005637,-22.1219667]],[[-42.3005637,-22.1219667],[-42.2932716,-22.1133926]],[[-42.2932716,-22.1133926],[-42.2695925,-22.1213798],[-42.2626605,-22.1183005],[-42.2757283,-22.0921677],[-42.2653903,-22.081878],[-42.2701286,-22.0689335],[-42.2616691,-22.0616795],[-42.2599049,-22.0453331],[-42.2423022,-22.0388125],[-42.2233387,-22.0117551],[-42.2230219,-22.0080097],[-42.2202839,-21.9957744],[-42.2252896,-21.98191],[-42.2392546,-21.9636417],[-42.2413047,-21.9562188],[-42.2378641,-21.9509265],[-42.2303783,-21.9340645],[-42.2275808,-21.931082],[-42.2214426,-21.9181762],[-42.2068006,-21.8770151],[-42.1990894,-21.8814186],[-42.1713339,-21.8649564],[-42.1674324,-21.8621446]],[[-42.1674324,-21.8621446],[-42.1670267,-21.8590048],[-42.2069011,-21.783775]],[[-42.2599387,-21.7129288],[-42.2887589,-21.7214625],[-42.3193101,-21.7402913],[-42.3346161,-21.746031],[-42.3590328,-21.7409898],[-42.3735795,-21.7458488],[-42.3956274,-21.7616407],[-42.4298837,-21.7756712],[-42.4491667,-21.7803726],[-42.4980013,-21.8023352],[-42.5856408,-21.8390783],[-42.6043803,-21.8455572],[-42.6143208,-21.8558872],[-42.6653436,-21.8732509]],[[-42.691875,-21.9679103],[-42.6910566,-21.969284],[-42.5479016,-21.9996332]],[[-42.7248796,-22.3475525],[-42.7160766,-22.3570607]],[[-42.7160766,-22.3570607],[-42.7156242,-22.3599067],[-42.7082713,-22.3653392],[-42.7099259,-22.3749446],[-42.7084458,-22.3764948],[-42.6841528,-22.3934145],[-42.6620718,-22.385414],[-42.6544583,-22.3874931],[-42.6534329,-22.3926209],[-42.6420275,-22.3947614],[-42.6411946,-22.3924332],[-42.624779,-22.3883647],[-42.6093375,-22.373907],[-42.5949494,-22.3677512],[-42.5846049,-22.3552881],[-42.5647529,-22.3592338],[-42.5562723,-22.3690549],[-42.5510756,-22.3865305],[-42.5571005,-22.3962901],[-42.5562315,-22.4239711],[-42.5742997,-22.4382586],[-42.5712024,-22.4489596],[-42.5523358,-22.4518776]],[[-42.5523358,-22.4518776],[-42.5505713,-22.4557544]],[[-42.5505713,-22.4557544],[-42.5365531,-22.4576927],[-42.5151484,-22.4359496],[-42.4999643,-22.4347397],[-42.4712343,-22.4492477],[-42.4555909,-22.4425338],[-42.45097,-22.433881],[-42.4346946,-22.4332724],[-42.4127913,-22.4266076],[-42.4035212,-22.4291174],[-42.3895682,-22.4202697],[-42.3548481,-22.4291713],[-42.3447255,-22.4245751],[-42.3286334,-22.4284775],[-42.3106073,-22.4200206],[-42.2979643,-22.4129223],[-42.2895312,-22.4076012],[-42.2775568,-22.4017327],[-42.2886854,-22.4046796]],[[-42.2886854,-22.4046796],[-42.2941732,-22.3923025],[-42.280504,-22.3854809]],[[-42.280504,-22.3854809],[-42.2571526,-22.3664728],[-42.2224846,-22.358752],[-42.2108869,-22.3617689]],[[-42.2108869,-22.3617689],[-42.2082672,-22.3608168]],[[-42.2518922,-22.3094705],[-42.2534343,-22.3061328]],[[-42.2534343,-22.3061328],[-42.2568293,-22.3029796],[-42.2698506,-22.3017167],[-42.2930927,-22.2884862],[-42.2914904,-22.2805399],[-42.2645941,-22.2663514],[-42.2371456,-22.2282422],[-42.2334613,-22.2246569],[-42.2383106,-22.2249984],[-42.2503323,-22.222017],[-42.265128,-22.2167737],[-42.2860815,-22.2008269],[-42.2805701,-22.1905935],[-42.2976193,-22.1512687],[-42.2909988,-22.1396553],[-42.2798312,-22.1417109],[-42.2788076,-22.1236837],[-42.2891437,-22.1156756]],[[-42.2891437,-22.1156756],[-42.3005637,-22.1219667]],[[-42.5479016,-21.9996332],[-42.6909939,-21.9693209],[-42.6928272,-21.9757961]],[[-42.7321105,-22.079731],[-42.7329799,-22.0903962],[-42.7353365,-22.0955421],[-42.744796,-22.0978866]],[[-42.758149,-22.1077974],[-42.7461388,-22.122379]],[[-42.7461388,-22.122379],[-42.7496667,-22.1450491],[-42.7555737,-22.1565373],[-42.7449549,-22.1761591],[-42.751617,-22.1913085],[-42.7336705,-22.2108875],[-42.7329589,-22.224911],[-42.7440072,-22.2338715],[-42.7213925,-22.2480832],[-42.7185607,-22.2591465],[-42.714134,-22.2681938],[-42.717559,-22.2806286],[-42.7110089,-22.2872787],[-42.7222093,-22.3117775],[-42.719827,-22.323458],[-42.7248796,-22.3475525]],[[-42.2932716,-22.1133926],[-42.2891437,-22.1156756]],[[-42.2534343,-22.3061328],[-42.2478955,-22.2996229]],[[-42.2329479,-22.2881212],[-42.2297754,-22.2779932],[-42.2270963,-22.2740173],[-42.2153621,-22.2671997]],[[-41.978291,-22.1262876],[-41.9601265,-22.1244949]],[[-41.7533156,-22.0870514],[-41.7504535,-22.0863971]],[[-41.9333425,-21.7478371],[-41.9398234,-21.7414097]],[[-42.1616497,-21.8605297],[-42.1674324,-21.8621446]],[[-42.5505713,-22.4557544],[-42.5534556,-22.4665369]],[[-42.5534556,-22.4665369],[-42.5633725,-22.4675799],[-42.5781395,-22.4940901],[-42.5779983,-22.502079],[-42.5931764,-22.5337256],[-42.6033599,-22.5407096],[-42.5645647,-22.6201258],[-42.5513943,-22.6195782],[-42.528002,-22.6316918],[-42.5264332,-22.7046722],[-42.5296255,-22.7103281],[-42.5188958,-22.7175849],[-42.4986634,-22.7256471],[-42.4731925,-22.7245913],[-42.4587268,-22.7186383]],[[-42.4587268,-22.7186383],[-42.4531914,-22.7263502],[-42.4439397,-22.7286087],[-42.4380136,-22.7330824]],[[-42.4380136,-22.7330824],[-42.429125,-22.7329693],[-42.4099631,-22.7293135],[-42.3788801,-22.7185346],[-42.3687534,-22.7242595],[-42.352989,-22.7101834],[-42.337686,-22.706651],[-42.3300492,-22.7004683],[-42.3294264,-22.691953]],[[-42.3294264,-22.691953],[-42.3235372,-22.6858912],[-42.3122986,-22.6432709],[-42.2954769,-22.6238233]],[[-42.2954769,-22.6238233],[-42.2801636,-22.6085137],[-42.2590452,-22.6106917],[-42.2504038,-22.610836],[-42.2433463,-22.6091666],[-42.2283452,-22.5941036],[-42.2060802,-22.5830587],[-42.1919977,-22.5667917],[-42.1928894,-22.5579471],[-42.179748,-22.5497735],[-42.1715303,-22.5488246],[-42.1453566,-22.5403523],[-42.1338449,-22.5423715],[-42.1243904,-22.5646463],[-42.1060437,-22.5603472],[-42.0841405,-22.5691519],[-42.0728786,-22.5674972],[-42.063435,-22.5727462],[-42.0604339,-22.5710021],[-42.0627433,-22.5599658],[-42.0491128,-22.5612995],[-42.0414241,-22.5689469],[-42.029846,-22.5708918],[-42.0107722,-22.5718071],[-41.9908319,-22.5798346],[-41.9961867,-22.5942001]],[[-41.9961867,-22.5942001],[-41.9857174,-22.581846],[-41.9770237,-22.5572889],[-41.9638401,-22.5366266],[-41.9437328,-22.5280302],[-41.9325176,-22.5375345],[-41.893333,-22.4884565],[-41.8826748,-22.4887731],[-41.8595386,-22.4701612],[-41.8538204,-22.4480531],[-41.8346401,-22.4287012],[-41.8177903,-22.417031]],[[-42.0862621,-22.4391418],[-42.1057932,-22.43667],[-42.1064656,-22.4360887],[-42.1025744,-22.4322653],[-42.1028083,-22.4299437],[-42.1001598,-22.4274789]],[[-42.2157555,-22.3736828],[-42.2108869,-22.3617689]],[[-42.280504,-22.3854809],[-42.2935845,-22.3914811],[-42.2886854,-22.4046796]],[[-41.9776527,-22.9781543],[-42.003291,-22.9933547],[-42.0069398,-23.0109182],[-41.9860114,-23.0036896],[-41.9738376,-22.9896207],[-41.9776527,-22.9781543]],[[-42.6412124,-22.9375378],[-42.6016147,-22.9336362],[-42.5666977,-22.9327026],[-42.5059121,-22.9340029],[-42.4742011,-22.9378176],[-42.4557655,-22.9348771],[-42.328489,-22.9366209],[-42.2003942,-22.9435358],[-42.1198907,-22.9499922],[-42.0739117,-22.9555235],[-42.0378843,-22.9671782],[-42.0254538,-22.9818264],[-42.0204781,-22.9615142],[-42.0375355,-22.9309837],[-42.031489,-22.9030863],[-42.0138142,-22.8833977],[-42.004295,-22.8895319],[-41.9896809,-22.8827493],[-41.9822803,-22.8713987],[-41.9864918,-22.8532617],[-41.9795757,-22.8353784],[-41.9701725,-22.8228586],[-41.940292,-22.809408],[-41.9331814,-22.809839],[-41.921825,-22.7871168],[-41.909864,-22.7787819],[-41.8932072,-22.785568],[-41.8890148,-22.771385],[-41.8659397,-22.7615469],[-41.8823391,-22.7406976],[-41.8858944,-22.7544229],[-41.9006763,-22.7548063],[-41.9152866,-22.7712114],[-41.9321285,-22.7673605],[-41.9426075,-22.7580698],[-41.9577366,-22.7359865],[-41.9802814,-22.7243097],[-41.9902912,-22.7036398],[-41.9979511,-22.6640241],[-41.9997364,-22.6354082],[-41.9961867,-22.5942001]],[[-42.2954769,-22.6238233],[-42.3099814,-22.6395156],[-42.3144601,-22.6479938],[-42.3216388,-22.6799086],[-42.3237313,-22.6863802],[-42.3294264,-22.691953]],[[-42.4380136,-22.7330824],[-42.441784,-22.7303105]],[[-42.441784,-22.7303105],[-42.4468128,-22.8227507],[-42.4720018,-22.8201836],[-42.4837301,-22.8299118],[-42.4983648,-22.8309175],[-42.5154853,-22.8257014],[-42.5319499,-22.8087681],[-42.5531578,-22.8150612],[-42.5604551,-22.8114272]],[[-42.5604551,-22.8114272],[-42.562567,-22.8071345],[-42.5660902,-22.8060935],[-42.5674747,-22.804195],[-42.5813511,-22.8057369]],[[-42.5813511,-22.8057369],[-42.5951118,-22.8144226],[-42.6017667,-22.8166443],[-42.6263741,-22.8333907],[-42.6342931,-22.8368721],[-42.6359914,-22.8398161],[-42.6320662,-22.845481],[-42.6378241,-22.8529992]],[[-42.6378241,-22.8529992],[-42.6465409,-22.8554815],[-42.6529915,-22.8557244]],[[-42.6529915,-22.8557244],[-42.6618719,-22.8634545],[-42.6771901,-22.8777261],[-42.6789553,-22.896136],[-42.6738856,-22.9036485],[-42.6760021,-22.9108055],[-42.6702348,-22.9110325],[-42.6653466,-22.9074464],[-42.6465855,-22.9078653],[-42.6341909,-22.9197361],[-42.6412124,-22.9375378]],[[-44.1866535,-22.2412268],[-44.2236691,-22.2599392],[-44.2498362,-22.2604013],[-44.2599334,-22.2680846],[-44.2635061,-22.2434359],[-44.2845176,-22.2435627],[-44.3170128,-22.2593875],[-44.3524219,-22.2576839],[-44.3620225,-22.2519732],[-44.3768855,-22.2682984],[-44.3899627,-22.2705088],[-44.3947967,-22.2589069],[-44.4238966,-22.2556627],[-44.4332095,-22.2514083],[-44.4563461,-22.2571521],[-44.4633792,-22.2763202],[-44.4948214,-22.2997018],[-44.5135755,-22.3086286],[-44.5302293,-22.3231889],[-44.5325793,-22.3307041],[-44.5501376,-22.3253807],[-44.555208,-22.3306953],[-44.5812664,-22.3285415],[-44.592428,-22.3228686],[-44.6100354,-22.3265578],[-44.626141,-22.3353834],[-44.6274461,-22.3459444],[-44.6419546,-22.3561532],[-44.6592574,-22.3743731],[-44.6703924,-22.3748184],[-44.7079531,-22.3688281],[-44.7211659,-22.3602294],[-44.7302412,-22.3611199],[-44.7446961,-22.3755902],[-44.7564257,-22.3746587],[-44.776001,-22.3842932],[-44.7933865,-22.3868711],[-44.8036654,-22.3938141],[-44.805387,-22.4038479],[-44.7784846,-22.4088969],[-44.7711745,-22.4150765],[-44.7553337,-22.4152692],[-44.7339428,-22.4328958],[-44.7192455,-22.4634211],[-44.7238223,-22.4761657],[-44.7127903,-22.509367],[-44.6888605,-22.5198073],[-44.6710072,-22.5366647],[-44.6771244,-22.5475284],[-44.6416234,-22.5602024],[-44.6471202,-22.5846413],[-44.6402486,-22.6080579],[-44.6229872,-22.6051234],[-44.612785,-22.6173448],[-44.5969551,-22.6099938],[-44.5932677,-22.6216814],[-44.583777,-22.6228551],[-44.5716079,-22.6057498],[-44.5640868,-22.6119927],[-44.5460294,-22.6069617],[-44.5375378,-22.6181941],[-44.5156,-22.6301066],[-44.5085884,-22.640947],[-44.485175,-22.6110516],[-44.4648767,-22.6159696],[-44.4467258,-22.6105125],[-44.4314745,-22.5986518],[-44.4059457,-22.5989991],[-44.4002478,-22.5821908],[-44.3823978,-22.5734942],[-44.3712139,-22.5804062],[-44.3704205,-22.5897465],[-44.35183,-22.6002366],[-44.3449903,-22.5878487],[-44.3264885,-22.5884476],[-44.313263,-22.5957672],[-44.2833338,-22.6043817],[-44.2643148,-22.6041075],[-44.2533882,-22.6124709],[-44.2456062,-22.6064197],[-44.2039458,-22.615971],[-44.2043678,-22.6263438],[-44.1842763,-22.6372991],[-44.1901268,-22.648584],[-44.1714498,-22.6594284],[-44.1613652,-22.6782584],[-44.176813,-22.6926214],[-44.1738608,-22.702108],[-44.1852319,-22.7120183],[-44.2037069,-22.7174175],[-44.1989603,-22.7352873],[-44.218331,-22.7323715],[-44.2295279,-22.7355418],[-44.2426384,-22.754611],[-44.2504728,-22.7575675],[-44.2565232,-22.7874906],[-44.2401407,-22.792658],[-44.2463792,-22.8039661],[-44.2613115,-22.8062592],[-44.2676787,-22.8292436],[-44.2833648,-22.8361567],[-44.2965216,-22.8278766],[-44.3081777,-22.8325513],[-44.3144485,-22.842646]],[[-44.3144485,-22.842646],[-44.3055364,-22.8474972],[-44.2820349,-22.8420132],[-44.2720897,-22.84564],[-44.248002,-22.8571718],[-44.2376719,-22.8720312],[-44.2340565,-22.8763866],[-44.2377499,-22.8862265],[-44.2370299,-22.9067647],[-44.2316148,-22.9201754],[-44.2149774,-22.931874],[-44.1925901,-22.9289142]],[[-44.1925901,-22.9289142],[-44.1824042,-22.925473]],[[-44.1824042,-22.925473],[-44.1730574,-22.9226174],[-44.1678271,-22.9066897],[-44.1551234,-22.902163],[-44.1442209,-22.887048],[-44.1333392,-22.8775535],[-44.1175165,-22.8608101],[-44.1130625,-22.8610802],[-44.0884689,-22.8836431],[-44.0713064,-22.8781674],[-44.0515149,-22.8777056],[-44.045259,-22.8829853],[-44.0182628,-22.8706739],[-44.0037864,-22.8590424],[-43.9990894,-22.8450801],[-43.9902289,-22.8423512],[-43.9741819,-22.8545241],[-43.9804114,-22.8659568],[-43.9648722,-22.8863523],[-43.9601419,-22.885626],[-43.9422715,-22.8846736],[-43.9395621,-22.8787027],[-43.9263965,-22.8696756],[-43.9101907,-22.8447487],[-43.9133538,-22.8370891],[-43.894451,-22.8309934],[-43.8777096,-22.8101255],[-43.849447,-22.8018737],[-43.8324789,-22.7931946],[-43.8124511,-22.7717824],[-43.8318168,-22.763134],[-43.8350851,-22.7610661],[-43.839835,-22.7559053],[-43.8359409,-22.7453331],[-43.832772,-22.7311503],[-43.8178034,-22.7176031],[-43.807799,-22.7105541]],[[-43.807799,-22.7105541],[-43.7921259,-22.6917751]],[[-43.7921259,-22.6917751],[-43.7951165,-22.6895662],[-43.8067803,-22.6896691],[-43.8128318,-22.6867389],[-43.8143196,-22.6818694],[-43.8176128,-22.6660558],[-43.833964,-22.6562078],[-43.8290152,-22.6422165],[-43.8026464,-22.6292973],[-43.7891391,-22.612452],[-43.7719771,-22.60726],[-43.7788583,-22.5807161],[-43.776266,-22.5669767],[-43.7933899,-22.5488393]],[[-43.7933899,-22.5488393],[-43.7981424,-22.5521889]],[[-43.7981424,-22.5521889],[-43.8155547,-22.5497279],[-43.8163402,-22.5356093],[-43.8056401,-22.5191287],[-43.822016,-22.516671],[-43.8350477,-22.5133721],[-43.8445121,-22.5036596],[-43.8550576,-22.50716],[-43.8568038,-22.5177399],[-43.8686393,-22.5286002],[-43.9436745,-22.51511],[-43.9578693,-22.5193833],[-44.0013999,-22.5119208],[-44.0056983,-22.4983374],[-44.0189811,-22.4849473],[-44.0278137,-22.4938088],[-44.0427084,-22.4873236],[-44.0477218,-22.4856632],[-44.0545596,-22.4731806],[-44.0636974,-22.462377],[-44.0695957,-22.4620423],[-44.0681747,-22.456099],[-44.036975,-22.4296226],[-44.0279726,-22.4264843],[-44.0025846,-22.4080292],[-44.0841657,-22.3820116],[-44.0798686,-22.3675377],[-44.0683455,-22.3549481],[-44.0631333,-22.3334567],[-44.0225531,-22.3041149],[-44.0406486,-22.3034037],[-44.0515127,-22.3133455],[-44.0841546,-22.3211926],[-44.0948485,-22.3298423],[-44.1195406,-22.3305175],[-44.1241873,-22.3391311],[-44.1460255,-22.3319729],[-44.1481198,-22.3200419],[-44.1575596,-22.3115371],[-44.1453614,-22.2991987],[-44.1470644,-22.28035],[-44.1677496,-22.2688837],[-44.1557861,-22.2571177],[-44.1598628,-22.2501464],[-44.1681269,-22.2465903],[-44.1780223,-22.2417789],[-44.1866535,-22.2412268]],[[-43.4369938,-22.0599687],[-43.4650391,-22.0727172],[-43.5038228,-22.0752023],[-43.5069295,-22.0620096],[-43.5184225,-22.0609476],[-43.5248272,-22.0724075],[-43.559605,-22.083812],[-43.5743059,-22.0783255],[-43.5923143,-22.0562575],[-43.6128889,-22.0822966],[-43.6464278,-22.0648524],[-43.6720908,-22.0903495],[-43.6812941,-22.071777],[-43.7198218,-22.0806484],[-43.7314476,-22.0962232],[-43.7612034,-22.0793653],[-43.7748424,-22.0657263],[-43.7994766,-22.0825953],[-43.8111135,-22.0822192],[-43.8423705,-22.0996411],[-43.8579706,-22.0950507],[-43.8806469,-22.1019531],[-43.8796514,-22.1140214],[-43.9426032,-22.1324943],[-43.9534878,-22.1423281],[-43.9648813,-22.1393525],[-43.998022,-22.1559339],[-44.0338174,-22.1522504],[-44.0483413,-22.162228],[-44.0603543,-22.1602258],[-44.0907204,-22.1793619],[-44.1172885,-22.1899042],[-44.141684,-22.2203866],[-44.1673314,-22.2314902],[-44.176987,-22.2265772],[-44.1866535,-22.2412268]],[[-43.7981424,-22.5521889],[-43.7890469,-22.5344394]],[[-43.7890469,-22.5344394],[-43.777732,-22.5311915],[-43.7699193,-22.5179589],[-43.7657762,-22.4587933],[-43.761905,-22.4545313],[-43.7657104,-22.4489404],[-43.7728787,-22.4375461],[-43.7601191,-22.4231545],[-43.7553254,-22.408878],[-43.7438354,-22.4023694],[-43.728676,-22.3828956],[-43.7190759,-22.3764863],[-43.7012477,-22.3843121],[-43.6914397,-22.369813],[-43.67934,-22.3618644],[-43.6754589,-22.3429736],[-43.6647072,-22.3437826],[-43.6670045,-22.3275394],[-43.6537708,-22.3120283],[-43.6461315,-22.3168795]],[[-43.6461315,-22.3168795],[-43.6426951,-22.3151001],[-43.6402005,-22.3177494],[-43.6379093,-22.3173115],[-43.6243962,-22.3046652]],[[-43.6243962,-22.3046652],[-43.6053513,-22.3072775],[-43.5866506,-22.2864047],[-43.5621442,-22.2648535],[-43.5251682,-22.2763321],[-43.5173088,-22.2613008],[-43.5198795,-22.2443737],[-43.5147473,-22.2364607],[-43.4810676,-22.2498326],[-43.4705153,-22.2244498],[-43.4577583,-22.2163254],[-43.426496,-22.2360492],[-43.4193205,-22.224065]],[[-43.4193205,-22.224065],[-43.4004141,-22.2162982],[-43.4369938,-22.0599687]],[[-44.2315654,-23.0752772],[-44.2377449,-23.0927858],[-44.2499071,-23.109995],[-44.2726213,-23.1174329],[-44.2867117,-23.1360824],[-44.3061617,-23.1211848],[-44.3253934,-23.1543517],[-44.3399667,-23.1534687],[-44.3486825,-23.1612203],[-44.3692448,-23.1668518],[-44.357547,-23.1916006],[-44.3455999,-23.1806438],[-44.3394712,-23.1902812],[-44.3512027,-23.2141959],[-44.3378855,-23.2232601],[-44.3290722,-23.2070696],[-44.3149326,-23.1907004],[-44.3113276,-23.1804693],[-44.2884123,-23.1765762],[-44.2700492,-23.1807702],[-44.2623267,-23.192475],[-44.2534797,-23.1892814],[-44.244869,-23.1999884],[-44.2070373,-23.1924798],[-44.1926804,-23.1986729],[-44.1848163,-23.1798419],[-44.172154,-23.1815792],[-44.1586024,-23.1714891],[-44.1399607,-23.1670272],[-44.1255788,-23.1733074],[-44.1177421,-23.1859001],[-44.0945029,-23.1747534],[-44.1171524,-23.1533358],[-44.1376976,-23.1596698],[-44.1402736,-23.1216087],[-44.1644271,-23.1419058],[-44.1763606,-23.1171075],[-44.1894415,-23.1218143],[-44.2089007,-23.1114835],[-44.2091948,-23.0922599],[-44.2335601,-23.0905996],[-44.2315654,-23.0752772]],[[-44.3144485,-22.842646],[-44.325274,-22.8377612],[-44.3710612,-22.8574525],[-44.4019157,-22.8546255],[-44.4106793,-22.846359],[-44.4230592,-22.8504965],[-44.4332925,-22.8688376],[-44.4661916,-22.8853713],[-44.4801342,-22.8665045],[-44.4753333,-22.8572393],[-44.4849432,-22.846201],[-44.5052785,-22.8515493],[-44.5184214,-22.8653248],[-44.5306093,-22.868087],[-44.5559534,-22.8880917],[-44.5698635,-22.8840013],[-44.6073108,-22.885237],[-44.6386733,-22.9142883],[-44.658994,-22.9279312],[-44.6716121,-22.9220663],[-44.6872237,-22.9325197],[-44.7035452,-22.936102],[-44.7134344,-22.9298754],[-44.7278651,-22.9418204],[-44.7438207,-22.9472056],[-44.7517661,-22.9626382],[-44.751031,-22.972011],[-44.7648405,-22.9833138],[-44.7767395,-22.9780555],[-44.7936473,-22.9863291],[-44.8012564,-22.9965004],[-44.7928172,-23.0098386],[-44.8019625,-23.0315875],[-44.8022084,-23.0487801],[-44.8188437,-23.0914584],[-44.8093378,-23.1013904],[-44.8105998,-23.1155346],[-44.8254815,-23.143741],[-44.8227272,-23.1600769],[-44.8429035,-23.1666863],[-44.8604567,-23.180978],[-44.8727325,-23.1825022],[-44.8801147,-23.2133097],[-44.8889315,-23.2245049],[-44.8859508,-23.2357903],[-44.8694641,-23.249834],[-44.8521219,-23.2488988],[-44.8399931,-23.2633896],[-44.8284829,-23.2695571],[-44.8188487,-23.2897377],[-44.8053644,-23.2900491],[-44.7874214,-23.2991069],[-44.778112,-23.3155977],[-44.7816111,-23.3258969],[-44.7707526,-23.3382542],[-44.7357554,-23.3656372],[-44.7159333,-23.3451632],[-44.7011774,-23.3402412],[-44.6850498,-23.347481],[-44.6550234,-23.3429163],[-44.6400855,-23.3309999],[-44.5993579,-23.3591691],[-44.5853556,-23.3595584],[-44.563271,-23.3329699],[-44.5662958,-23.3229946],[-44.5557631,-23.3035671],[-44.5421927,-23.3022155],[-44.5358118,-23.2920771],[-44.5139483,-23.2916589],[-44.5271944,-23.2727545],[-44.5400776,-23.2665515],[-44.547805,-23.2743106],[-44.5799661,-23.2708988],[-44.5849023,-23.2637483],[-44.5760951,-23.2537046],[-44.5748435,-23.2335604],[-44.5908709,-23.232514],[-44.5971096,-23.2442307],[-44.6209522,-23.2582831],[-44.6303995,-23.2819104],[-44.6437093,-23.2940573],[-44.6572725,-23.2921632],[-44.641982,-23.2774468],[-44.6248925,-23.2439805],[-44.6382847,-23.2339882],[-44.6519644,-23.2350194],[-44.6639192,-23.247937],[-44.6803425,-23.2526713],[-44.6783521,-23.2382105],[-44.6667264,-23.2350824],[-44.6571267,-23.2146882],[-44.6406227,-23.2146406],[-44.6251187,-23.2223684],[-44.6263612,-23.1962341],[-44.6437158,-23.1964214],[-44.652676,-23.18835],[-44.6607458,-23.2084402],[-44.6948458,-23.2326372],[-44.7151398,-23.2301514],[-44.7095291,-23.2164356],[-44.7211571,-23.2018262],[-44.7109887,-23.1780103],[-44.7038103,-23.169387],[-44.7059164,-23.1562595],[-44.6951627,-23.1511773],[-44.6990838,-23.1306665],[-44.6951781,-23.0990118],[-44.6868467,-23.0752527],[-44.6685526,-23.0541686],[-44.644925,-23.0467126],[-44.6380673,-23.05253],[-44.6185755,-23.044163],[-44.6082141,-23.0498064],[-44.5961987,-23.0450674],[-44.5770236,-23.0488298],[-44.5545596,-23.0364026],[-44.5305385,-23.0271277],[-44.4948288,-23.024135],[-44.4775306,-23.0058107],[-44.4611853,-23.0073678],[-44.4484932,-23.0251924],[-44.4411822,-22.9921536],[-44.4344154,-22.9851531],[-44.4341611,-22.9628484],[-44.4230012,-22.950631],[-44.414293,-22.9540957],[-44.3926444,-22.950955],[-44.3671543,-22.9604358],[-44.3494832,-22.9457888],[-44.371393,-22.9379779],[-44.3666228,-22.9286415],[-44.3311195,-22.9258117],[-44.3235565,-22.9426842],[-44.3340628,-22.9468183],[-44.3362,-22.9645805],[-44.3189443,-22.9564692],[-44.2998713,-22.9586671],[-44.3175266,-22.9853907],[-44.3258915,-22.9918131],[-44.345302,-22.991253],[-44.3549759,-22.9985956],[-44.3630425,-23.0182486],[-44.3486912,-23.0282105],[-44.3029345,-23.002256],[-44.2970724,-23.0098024],[-44.299008,-23.026067],[-44.2799671,-23.0141045],[-44.2733666,-23.0040225],[-44.2587544,-23.006073],[-44.2413617,-23.0010878],[-44.2305499,-23.0142225],[-44.2332392,-23.0269455],[-44.2478432,-23.0450089],[-44.237068,-23.0565336],[-44.219252,-23.0499788],[-44.2013781,-23.0383127],[-44.1916294,-23.0541358],[-44.176037,-23.0363789],[-44.1656601,-23.0339368]],[[-44.1656601,-23.0339368],[-44.1676989,-23.003356],[-44.1724248,-22.9841651],[-44.1876557,-22.9518279],[-44.1874294,-22.9406797]],[[-44.1874294,-22.9406797],[-44.1925901,-22.9289142]],[[-44.3721167,-23.0366347],[-44.3513808,-23.0594547],[-44.3472155,-23.043257],[-44.3721167,-23.0366347]],[[-43.7890469,-22.5344394],[-43.7933899,-22.5488393]],[[-43.7921259,-22.6917751],[-43.7720182,-22.6929955]],[[-43.7720182,-22.6929955],[-43.7644924,-22.6991237],[-43.7529651,-22.7001044]],[[-43.7529651,-22.7001044],[-43.7512255,-22.6909639],[-43.7480049,-22.6853954],[-43.7430134,-22.6822082],[-43.7377961,-22.6741094]],[[-43.7377961,-22.6741094],[-43.7111602,-22.6478379],[-43.7131081,-22.6412245],[-43.6982767,-22.6487228],[-43.6882701,-22.6503591]],[[-43.6882701,-22.6503591],[-43.6786789,-22.6473342],[-43.6707825,-22.652912]],[[-43.6707825,-22.652912],[-43.6685315,-22.6326162],[-43.6612963,-22.6192381],[-43.6227298,-22.6422221],[-43.6288252,-22.6257241],[-43.6021787,-22.5995295],[-43.5892606,-22.5931723],[-43.5771322,-22.5774106],[-43.5505349,-22.5734415],[-43.5335872,-22.565685],[-43.5100482,-22.5718323],[-43.4983181,-22.5543946],[-43.4742119,-22.5409328],[-43.4624713,-22.5382201],[-43.4457892,-22.5260125],[-43.4195032,-22.5380526],[-43.3828756,-22.5292519],[-43.3319659,-22.5192206],[-43.3126288,-22.4953408]],[[-43.3126288,-22.4953408],[-43.2996287,-22.4823497],[-43.2963726,-22.4757144],[-43.3019197,-22.4738897]],[[-43.3019197,-22.4738897],[-43.3001878,-22.4691276],[-43.2974158,-22.4642958],[-43.2934184,-22.4656481],[-43.2894739,-22.4579536],[-43.2979735,-22.455381],[-43.3022071,-22.4528609],[-43.3203465,-22.4590062],[-43.3520545,-22.4484651],[-43.3641595,-22.4504281],[-43.3760891,-22.4450998],[-43.373761,-22.4432466],[-43.374175,-22.4344539],[-43.3609645,-22.4195936],[-43.3379925,-22.4147451],[-43.3265114,-22.4013167],[-43.3180974,-22.3839639],[-43.2962027,-22.3723589]],[[-43.2962027,-22.3723589],[-43.2884305,-22.3713316],[-43.3253957,-22.2787201]],[[-43.3988421,-22.2211443],[-43.4193205,-22.224065]],[[-43.6243962,-22.3046652],[-43.6380685,-22.3174201],[-43.640784,-22.3176797],[-43.6427911,-22.3150885],[-43.6461315,-22.3168795]],[[-43.2783281,-22.3561616],[-43.2805372,-22.3579599],[-43.2877033,-22.3706847],[-43.2962027,-22.3723589]],[[-43.3019197,-22.4738897],[-43.2953954,-22.4755036]],[[-43.2953954,-22.4755036],[-43.2385224,-22.5115226],[-43.2367219,-22.5155529],[-43.2315981,-22.5143859],[-43.2265929,-22.5162394],[-43.2248025,-22.5212801],[-43.2460052,-22.5270316],[-43.2607019,-22.5553568],[-43.2556632,-22.5722685],[-43.2250105,-22.5636331],[-43.1981498,-22.5531358],[-43.1826089,-22.5532197],[-43.1489214,-22.5396975],[-43.1179353,-22.5306526],[-43.1107072,-22.53485],[-43.0763235,-22.5109818],[-43.0706302,-22.5005333],[-43.0796757,-22.4874078],[-43.0597092,-22.4837344],[-43.0553086,-22.4677623],[-43.0403841,-22.456427],[-43.0164912,-22.467102],[-42.999821,-22.4596747],[-42.9847971,-22.4626586],[-42.9705864,-22.4711724],[-42.9551438,-22.4577407],[-42.9407713,-22.4571701],[-42.930178,-22.4479991],[-42.9192914,-22.4523706]],[[-42.9192914,-22.4523706],[-42.9184264,-22.450888],[-42.9125572,-22.4563718]],[[-42.9125572,-22.4563718],[-42.8852871,-22.4535656],[-42.8686682,-22.4372596],[-42.8506835,-22.4258415],[-42.8524038,-22.4169173],[-42.8399982,-22.4113334],[-42.8270058,-22.4129479],[-42.8105379,-22.4052316],[-42.813083,-22.3889534],[-42.7934877,-22.3754453],[-42.770162,-22.3843002],[-42.7631115,-22.3779597],[-42.7390098,-22.3704956],[-42.7400261,-22.3610029]],[[-42.7400261,-22.3610029],[-42.7248796,-22.3475525]],[[-42.7461388,-22.122379],[-42.7617635,-22.1182116]],[[-42.747222,-22.6865326],[-42.7088972,-22.7234154],[-42.7035247,-22.7259678],[-42.6979826,-22.7336798],[-42.6951225,-22.742004],[-42.6864842,-22.7589967],[-42.6809221,-22.7697667],[-42.6755447,-22.7739688],[-42.6861578,-22.7878597],[-42.6794761,-22.7947091],[-42.672542,-22.7959704],[-42.6590911,-22.8022278],[-42.6667284,-22.8033063],[-42.6666673,-22.8101997],[-42.6697371,-22.8154094],[-42.6626453,-22.8261939]],[[-42.6626453,-22.8261939],[-42.6689517,-22.8439423],[-42.6614959,-22.8467784],[-42.6605002,-22.8490214],[-42.6506421,-22.8471446]],[[-42.6506421,-22.8471446],[-42.6436855,-22.8476229],[-42.6451257,-22.8548975]],[[-42.6451257,-22.8548975],[-42.6378241,-22.8529992]],[[-42.5813511,-22.8057369],[-42.5695409,-22.8040062],[-42.5630326,-22.8067115],[-42.5604551,-22.8114272]],[[-42.441784,-22.7303105],[-42.4442978,-22.728465],[-42.4539677,-22.7259053],[-42.4587268,-22.7186383]],[[-42.5534556,-22.4665369],[-42.5523358,-22.4518776]],[[-42.7160766,-22.3570607],[-42.7400261,-22.3610029]],[[-42.9125572,-22.4563718],[-42.9181886,-22.4510065]],[[-42.9181886,-22.4510065],[-42.9199369,-22.4539085],[-42.9229814,-22.4694947]],[[-42.9229814,-22.4694947],[-42.9061575,-22.498205],[-42.8912763,-22.5026221],[-42.8881255,-22.512157],[-42.8912518,-22.5377608],[-42.8858177,-22.5480227],[-42.8708671,-22.5593153],[-42.8655835,-22.5716248],[-42.8833354,-22.5823156],[-42.8875934,-22.5921783],[-42.9071327,-22.6011935],[-42.9106983,-22.619299],[-42.8992833,-22.6385163],[-42.9045743,-22.6525148],[-42.8552333,-22.6408916],[-42.845187,-22.6361812],[-42.8246889,-22.6390865],[-42.7977157,-22.6387864]],[[-42.7977157,-22.6387864],[-42.7898938,-22.6345521],[-42.7839672,-22.6402291],[-42.747222,-22.6865326]],[[-43.6666383,-23.0425727],[-43.6957378,-23.0506468],[-43.7539941,-23.059757],[-43.7957611,-23.0615658],[-43.8175367,-23.0600387],[-43.8421013,-23.0543877],[-43.8773965,-23.0498313],[-43.8823228,-23.0669963],[-43.8994668,-23.0687956],[-43.9161008,-23.0592741],[-43.9333909,-23.057165],[-43.9474778,-23.0504415],[-43.9544335,-23.0409264],[-43.9737221,-23.0455041],[-43.9824587,-23.0581788],[-44.0107424,-23.0793065],[-44.006465,-23.0964754],[-43.9879975,-23.1024004],[-43.964113,-23.0890992],[-43.891318,-23.0760787],[-43.8470545,-23.0717752],[-43.7836641,-23.0626873],[-43.6677971,-23.0530589]],[[-43.6677971,-23.0530589],[-43.6666383,-23.0425727]],[[-43.9167514,-22.9908631],[-43.9274642,-22.988897],[-43.937401,-22.9986783],[-43.931237,-23.0076512],[-43.9167514,-22.9908631]],[[-44.0301681,-22.996081],[-44.0501723,-23.0010968],[-44.0471574,-23.0115108],[-44.0305933,-23.0082521],[-44.0301681,-22.996081]],[[-44.1824042,-22.925473],[-44.1874294,-22.9406797]],[[-44.1656601,-23.0339368],[-44.1446907,-23.036032],[-44.1133457,-23.0232034],[-44.0959409,-23.0048576],[-44.0961004,-22.9956112],[-44.0825803,-22.9929905],[-44.0756499,-22.9729791],[-44.0813277,-22.9594999],[-44.0742717,-22.9520492],[-44.0473145,-22.9419823],[-44.0410331,-22.9474006],[-44.0419851,-22.9633696],[-44.052685,-22.9730671],[-44.0472935,-22.9845043],[-44.0326291,-22.9810598],[-44.0327782,-22.9711357],[-44.0122839,-22.9459265],[-43.9909103,-22.9402695],[-43.9764112,-22.9313923],[-43.9648895,-22.9344399],[-43.9503952,-22.9268956],[-43.9102718,-22.9310166],[-43.8830205,-22.9215042],[-43.8804592,-22.9122439],[-43.867489,-22.9039029],[-43.8456571,-22.9017065],[-43.839026,-22.9117719],[-43.8522129,-22.9244979],[-43.8320353,-22.9311906],[-43.8102224,-22.917569],[-43.7960258,-22.9170753]],[[-43.7960258,-22.9170753],[-43.7922496,-22.9083127],[-43.7898205,-22.9035603],[-43.7745994,-22.8927201]],[[-43.7745994,-22.8927201],[-43.7730475,-22.8925022],[-43.7667271,-22.8952678],[-43.7516191,-22.8887358],[-43.7507151,-22.8877565],[-43.7521979,-22.880584]],[[-43.7521979,-22.880584],[-43.7343452,-22.8783254],[-43.7176008,-22.8724872],[-43.7065241,-22.8686132],[-43.6810534,-22.8626774],[-43.6702582,-22.8523859],[-43.6567815,-22.849274],[-43.6298484,-22.8299128],[-43.6223542,-22.8206728],[-43.629177,-22.810703],[-43.6352942,-22.7805013],[-43.6323431,-22.7748653],[-43.6422243,-22.7561735],[-43.6447499,-22.7369547],[-43.6369393,-22.7161413],[-43.652449,-22.6804754],[-43.6461074,-22.6711139]],[[-43.6461074,-22.6711139],[-43.6393164,-22.6710569],[-43.6353827,-22.6686348],[-43.6332292,-22.6618915],[-43.6371251,-22.654417],[-43.6416074,-22.6505921],[-43.6506634,-22.6534425]],[[-43.6506634,-22.6534425],[-43.6623175,-22.6572446]],[[-43.6623175,-22.6572446],[-43.6690595,-22.6554085],[-43.676814,-22.6478395],[-43.6793915,-22.6473499],[-43.6833656,-22.6496874],[-43.6882701,-22.6503591]],[[-43.7377961,-22.6741094],[-43.7420743,-22.6812469],[-43.7494616,-22.6872293],[-43.7529651,-22.7001044]],[[-43.7720182,-22.6929955],[-43.7912752,-22.6957221],[-43.807799,-22.7105541]],[[-43.8825542,-22.9248612],[-43.8923565,-22.9335452],[-43.9019991,-22.9303666],[-43.9109268,-22.9413852],[-43.8968922,-22.9586076],[-43.8681712,-22.9255746],[-43.8825542,-22.9248612]],[[-43.6677971,-23.0530589],[-43.6060767,-23.0505107],[-43.5806798,-23.0549999],[-43.577935,-23.0476659],[-43.6029892,-23.0395066],[-43.6145741,-23.0309919],[-43.6666383,-23.0425727]],[[-42.6529915,-22.8557244],[-42.6451257,-22.8548975]],[[-42.6506421,-22.8471446],[-42.6601196,-22.8490767],[-42.6618358,-22.8466003],[-42.6689144,-22.8446417],[-42.6561575,-22.8284274],[-42.6626453,-22.8261939]],[[-42.747222,-22.6865326],[-42.7896327,-22.6346505],[-42.7977157,-22.6387864]],[[-42.9229814,-22.4694947],[-42.9206814,-22.4561065],[-42.9181886,-22.4510065]],[[-42.9181886,-22.4510065],[-42.9192914,-22.4523706]],[[-43.2953954,-22.4755036],[-43.2967115,-22.4757525],[-43.300489,-22.4835647],[-43.3126288,-22.4953408]],[[-43.6707825,-22.652912],[-43.6623175,-22.6572446]],[[-43.6506634,-22.6534425],[-43.6410319,-22.6505872],[-43.6333588,-22.6608602],[-43.6362836,-22.6699418],[-43.6461074,-22.6711139]],[[-43.7521979,-22.880584],[-43.7512127,-22.8884801],[-43.7659386,-22.8950596],[-43.7676705,-22.895402],[-43.7692241,-22.8932804],[-43.7731952,-22.892497],[-43.7745994,-22.8927201]],[[-43.7960258,-22.9170753],[-43.7740441,-22.9327601],[-43.7452531,-22.9465005],[-43.7109637,-22.970579],[-43.7006032,-22.9857035],[-43.6742791,-22.9803094],[-43.6589721,-22.9916438],[-43.6532004,-23.0027751],[-43.6229159,-23.0078702],[-43.6141027,-23.0176301],[-43.599564,-23.0228836],[-43.5942573,-23.0323949],[-43.5780745,-23.0456081],[-43.562373,-23.0531564],[-43.569089,-23.0662934],[-43.5541368,-23.0726433],[-43.5489318,-23.0607076],[-43.5343866,-23.0502917],[-43.5085352,-23.0475738],[-43.4928009,-23.0353181],[-43.4455964,-23.0229183],[-43.3986838,-23.0143491],[-43.3359425,-23.011363],[-43.3070557,-23.0160003],[-43.2873845,-23.0148424],[-43.2747269,-23.002277],[-43.2407815,-23.0004151],[-43.226668,-22.988537],[-43.1952466,-22.9884332],[-43.1769288,-22.9683585],[-43.1625485,-22.965274],[-43.1565953,-22.9533049],[-43.1803779,-22.9479346],[-43.1712692,-22.9324076],[-43.1615378,-22.9052779],[-43.1770238,-22.8958765],[-43.1958862,-22.8920373],[-43.2108437,-22.8976064],[-43.2165364,-22.8735543],[-43.2266671,-22.8741249],[-43.2262096,-22.8691535],[-43.2365296,-22.8620282],[-43.243236,-22.8422557],[-43.2539085,-22.8373219],[-43.2735418,-22.8101522],[-43.2705035,-22.7987592],[-43.27863,-22.7804863],[-43.2578794,-22.7564137],[-43.2381868,-22.7428017],[-43.219323,-22.7389899],[-43.1947401,-22.7220395],[-43.184716,-22.7216902],[-43.151794,-22.7080015],[-43.1339363,-22.7150404],[-43.1173525,-22.7068537],[-43.1176099,-22.6986864],[-43.1004127,-22.6859606],[-43.0845631,-22.6796607],[-43.0513496,-22.692737],[-43.037207,-22.7007754],[-43.0291613,-22.7262947],[-43.0294023,-22.7476182],[-43.0638281,-22.7648069],[-43.0683784,-22.7786477],[-43.0815323,-22.7893856],[-43.0789438,-22.7991317],[-43.0650793,-22.8029319],[-43.0820829,-22.8200513],[-43.0971232,-22.8281171],[-43.1015676,-22.8530319],[-43.1345626,-22.8815742],[-43.1289631,-22.8917403],[-43.1304204,-22.908519],[-43.1167964,-22.9043641],[-43.1110183,-22.9153319],[-43.0957821,-22.9155471],[-43.0986248,-22.9315746],[-43.1174468,-22.9367357],[-43.1104297,-22.9536496],[-43.0773004,-22.9559543],[-43.0519448,-22.9636319],[-43.0457447,-22.9724856],[-43.0140716,-22.9770959],[-43.0046864,-22.9697186],[-42.9668363,-22.9700059],[-42.9177002,-22.9749446],[-42.8707092,-22.9656493],[-42.7331058,-22.9564613],[-42.7026317,-22.9565952],[-42.689761,-22.9620791],[-42.6804787,-22.9461577],[-42.6412124,-22.9375378]],[[-43.1722502,-22.7756489],[-43.1856682,-22.784698],[-43.1885841,-22.7945695],[-43.2076901,-22.7949895],[-43.2193146,-22.7851515],[-43.2566881,-22.7974008],[-43.2656753,-22.8128498],[-43.2376545,-22.8327381],[-43.2267189,-22.8206628],[-43.2102231,-22.8156526],[-43.1911223,-22.8203098],[-43.1845642,-22.8300555],[-43.1726462,-22.825297],[-43.1783521,-22.8020611],[-43.1574536,-22.7873981],[-43.1566559,-22.7790715],[-43.1722502,-22.7756489]],[[-43.2276827,-22.8370601],[-43.2431297,-22.8398519],[-43.2362388,-22.8611336],[-43.2219459,-22.870743],[-43.2140988,-22.8678269],[-43.2181023,-22.8588697],[-43.232374,-22.8474515],[-43.2276827,-22.8370601]]],"bbox":[-44.8889315,-23.3656372,-40.9592911,-20.7633863]}
