{"type":"Topology","objects":{"geometrias":{"type":"GeometryCollection","geometries":[{"type":"Polygon","arcs":[[0,1,2,3,4,5,6,7,8,9,10,11]],"properties":{"code_micro":50001,"name_micro":"Baixo Pantanal","code_state":50,"code_region":5,"abbrev_state":"MS","name_state":"Mato Grosso do Sul","name_region":"Centro-Oeste","year":2020}},{"type":"Polygon","arcs":[[12,13,14,15,16,17,18,19,20,21,-11,22,-9,23,-7,24]],"properties":{"code_micro":50002,"name_micro":"Aquidauana","code_state":50,"code_region":5,"abbrev_state":"MS","name_state":"Mato Grosso do Sul","name_region":"Centro-Oeste","year":2020}},{"type":"Polygon","arcs":[[-12,25,-21,26,27,28,29,30,31,32,33,34,35,36]],"properties":{"code_micro":50003,"name_micro":"Alto Taquari","code_state":50,"code_region":5,"abbrev_state":"MS","name_state":"Mato Grosso do Sul","name_region":"Centro-Oeste","year":2020}},{"type":"Polygon","arcs":[[37,38,39,40,41,42,43,44,45,-30,46,-28,47,-19]],"properties":{"code_micro":50004,"name_micro":"Campo Grande","code_state":50,"code_region":5,"abbrev_state":"MS","name_state":"Mato Grosso do Sul","name_region":"Centro-Oeste","year":2020}},{"type":"Polygon","arcs":[[48,-36,49,50,51,52,53,54,55,56,57,58,59]],"properties":{"code_micro":50005,"name_micro":"Cassilândia","code_state":50,"code_region":5,"abbrev_state":"MS","name_state":"Mato Grosso do Sul","name_region":"Centro-Oeste","year":2020}},{"type":"Polygon","arcs":[[60,61,62,63,64,-60,65,-58,66,-56,67,68,69]],"properties":{"code_micro":50006,"name_micro":"Paranaíba","code_state":50,"code_region":5,"abbrev_state":"MS","name_state":"Mato Grosso do Sul","name_region":"Centro-Oeste","year":2020}},{"type":"Polygon","arcs":[[70,-32,71,-45,72,-43,73,74,75,76,77,78,79,80,81,-64,82,-62,83,-70,84,-53,85,-51,86,-34]],"properties":{"code_micro":50007,"name_micro":"Três Lagoas","code_state":50,"code_region":5,"abbrev_state":"MS","name_state":"Mato Grosso do Sul","name_region":"Centro-Oeste","year":2020}},{"type":"Polygon","arcs":[[87,-79,88,-77,89,90,91,92,93,94,95,96,97,98,99,100,101,102,-81]],"properties":{"code_micro":50008,"name_micro":"Nova Andradina","code_state":50,"code_region":5,"abbrev_state":"MS","name_state":"Mato Grosso do Sul","name_region":"Centro-Oeste","year":2020}},{"type":"Polygon","arcs":[[103,-2,104,105,-14,106,-25,-6,107,-4]],"properties":{"code_micro":50009,"name_micro":"Bodoquena","code_state":50,"code_region":5,"abbrev_state":"MS","name_state":"Mato Grosso do Sul","name_region":"Centro-Oeste","year":2020}},{"type":"Polygon","arcs":[[108,109,110,111,112,113,114,115,116,-91,117,-75,118,-41,119,-39,120,-17,121,-15,-106]],"properties":{"code_micro":50010,"name_micro":"Dourados","code_state":50,"code_region":5,"abbrev_state":"MS","name_state":"Mato Grosso do Sul","name_region":"Centro-Oeste","year":2020}},{"type":"Polygon","arcs":[[122,-114,123,-112,124,-110,125,-102,126,127,-99,128,-97,129,-95,130,-93,131,-116]],"properties":{"code_micro":50011,"name_micro":"Iguatemi","code_state":50,"code_region":5,"abbrev_state":"MS","name_state":"Mato Grosso do Sul","name_region":"Centro-Oeste","year":2020}}]}},"arcs":[[[-55.1389964,-17.6478325],[-55.170614,-17.640834],[-55.1740705,-17.6306315],[-55.2089503,-17.6157483],[-55.2503096,-17.5848767],[-55.2751489,-17.558826],[-55.2996749,-17.541193],[-55.331581,-17.5492658],[-55.3518155,-17.5476916],[-55.3537599,-17.531617],[-55.4052044,-17.5123968],[-55.4437374,-17.5117761],[-55.4654475,-17.4868574],[-55.5150329,-17.4836213],[-55.5597307,-17.4396546],[-55.5748727,-17.434666],[-55.5852567,-17.4076463],[-55.5829072,-17.3790709],[-55.6134215,-17.359852],[-55.6263398,-17.3640297],[-55.6389256,-17.3497901],[-55.6892624,-17.3404395],[-55.7043718,-17.3516831],[-55.7215605,-17.3494956],[-55.7612066,-17.323532],[-55.7725398,-17.3320496],[-55.7876445,-17.3286458],[-55.805011,-17.3094399],[-55.8452305,-17.2986061],[-55.8696498,-17.2753556],[-55.8865622,-17.2847647],[-55.9093871,-17.263146],[-55.9469868,-17.2712912],[-55.9601547,-17.2501906],[-55.9917599,-17.2502234],[-56.0120377,-17.2366818],[-56.0185698,-17.2094581],[-56.0160675,-17.1902288],[-56.0554506,-17.1837167],[-56.0616804,-17.1707109],[-56.0827304,-17.1777458],[-56.1123441,-17.1663486],[-56.1288482,-17.1794232],[-56.1844615,-17.1945709],[-56.2004015,-17.2062734],[-56.2130102,-17.2259386],[-56.2337303,-17.2273371],[-56.2690411,-17.239792],[-56.2865701,-17.2704402],[-56.2978498,-17.2765881],[-56.313541,-17.2694291],[-56.3440177,-17.2852847],[-56.3606549,-17.2808443],[-56.3830663,-17.2879584],[-56.38893,-17.3019463],[-56.4325993,-17.3185875],[-56.442331,-17.3312821],[-56.4773991,-17.305408],[-56.5080719,-17.2952844],[-56.5138734,-17.3128227],[-56.5323742,-17.3129638],[-56.5510156,-17.3228763],[-56.5656558,-17.3155211],[-56.5749373,-17.3281327],[-56.6118524,-17.3319082],[-56.6200181,-17.3220326],[-56.6514596,-17.3265476],[-56.663575,-17.3388297],[-56.6831814,-17.3165664],[-56.7016512,-17.3199384],[-56.7338542,-17.3098602],[-56.7387664,-17.3244993],[-56.7568856,-17.3256863],[-56.7674608,-17.3645847],[-56.7843122,-17.3686531],[-56.7910296,-17.3910659],[-56.8044112,-17.386628],[-56.8297428,-17.3913258],[-56.8313544,-17.4097369],[-56.824407,-17.4230789],[-56.8409099,-17.4420086],[-56.8254896,-17.4530866],[-56.8454081,-17.4624442],[-56.8502388,-17.4867813],[-56.8759675,-17.5329722],[-56.9175445,-17.5413551],[-56.9449609,-17.5529495],[-56.9503793,-17.5686349],[-56.9734925,-17.5803843],[-56.9814111,-17.6110155],[-56.9591079,-17.6128389],[-56.9838501,-17.6418931],[-56.9882191,-17.65929],[-57.0132748,-17.6724294],[-57.0192699,-17.6921665],[-57.0333769,-17.6947412],[-57.0449146,-17.7303213],[-57.0739121,-17.7354635],[-57.0931034,-17.7536734],[-57.0985808,-17.7704176],[-57.1209426,-17.780164],[-57.1467441,-17.7675051],[-57.15594,-17.7784118],[-57.1748515,-17.7762386],[-57.2042483,-17.7892519],[-57.2271374,-17.7827847],[-57.2454666,-17.8063147],[-57.2648357,-17.8203496],[-57.2837729,-17.8129128],[-57.3113845,-17.8178245],[-57.3252263,-17.8291508],[-57.3534564,-17.8378584],[-57.3680807,-17.8261992],[-57.4097521,-17.8539153],[-57.4262763,-17.856396],[-57.4467253,-17.8745041],[-57.4459197,-17.8919683],[-57.4619356,-17.8985358],[-57.4852744,-17.8622281],[-57.5093604,-17.8638881],[-57.5347769,-17.8536338],[-57.5310279,-17.8391135],[-57.5520038,-17.8282053],[-57.5763315,-17.8005284],[-57.6023611,-17.8048678],[-57.6093088,-17.7975415],[-57.6231109,-17.736359],[-57.6403039,-17.7173593],[-57.6635542,-17.7298538],[-57.6846131,-17.7164815],[-57.6797986,-17.6834825],[-57.6717799,-17.6641124],[-57.6968904,-17.6206428],[-57.712196,-17.5589094],[-57.712139,-17.5431338],[-57.7250315,-17.5310124],[-57.7400515,-17.5363052],[-57.7522947,-17.5644631],[-57.7928672,-17.5557418],[-57.7777497,-17.5844599],[-57.7840251,-17.6074213],[-57.7743313,-17.6261798],[-57.7829185,-17.6361722],[-57.7756908,-17.6570178],[-57.7622474,-17.6606126],[-57.7490399,-17.6932195],[-57.7406979,-17.6936747],[-57.730967,-17.7187723],[-57.709642,-17.7298838],[-57.7201344,-17.7717191],[-57.6832259,-17.8080026],[-57.6831673,-17.8281371],[-57.7206673,-17.8278599],[-57.6319187,-17.9856326],[-57.600112,-18.0463673],[-57.5748646,-18.1318873],[-57.5051406,-18.2003416],[-57.4805248,-18.20676],[-57.453919,-18.2311941],[-57.5578344,-18.2403485],[-57.7666753,-18.8992853],[-57.7198374,-18.8990654],[-57.7193149,-18.977049],[-57.6970058,-18.9973912],[-57.698865,-19.0135372],[-57.7102033,-19.0325932],[-57.7844457,-19.0339013],[-58.1318187,-19.7584974],[-57.8581517,-19.9714168],[-57.8624267,-19.9856452],[-57.8873471,-20.0154973],[-57.902348,-20.0421143],[-57.9277073,-20.0229986],[-57.9579053,-20.0214339],[-57.9725993,-20.0481103],[-57.9875137,-20.0585966],[-58.0228438,-20.0581684],[-58.0372913,-20.0718584],[-58.0439877,-20.0987806],[-58.0567652,-20.1072692],[-58.0931544,-20.110354],[-58.115353,-20.1437452],[-58.1526595,-20.152869],[-58.1671536,-20.167267],[-58.1593346,-20.1814165],[-58.1399603,-20.1806667],[-58.1218462,-20.1943926],[-58.1320068,-20.2072585],[-58.154222,-20.215731],[-58.1664182,-20.2366334],[-58.159397,-20.2638484],[-58.1445503,-20.2717774],[-58.1195235,-20.2495816],[-58.0966498,-20.253925],[-58.089891,-20.264528],[-58.0947535,-20.3012547],[-58.1030505,-20.3211688],[-58.0939362,-20.3513566],[-58.0763752,-20.3846884],[-58.0434247,-20.3982398],[-58.0246189,-20.4000963],[-58.0043487,-20.4265916],[-57.99856,-20.4555636],[-58.0135964,-20.4802642],[-58.0201755,-20.509763],[-57.9970131,-20.5755259],[-58.0131283,-20.6082964],[-57.9955743,-20.6317264],[-57.970386,-20.6441918],[-57.9882287,-20.6867291],[-57.9810273,-20.7057461],[-57.950181,-20.6982951],[-57.9367946,-20.6700127],[-57.9136749,-20.6707641],[-57.9032882,-20.6898206],[-57.870173,-20.7254706],[-57.8648347,-20.7422987],[-57.8789114,-20.7505168],[-57.9203691,-20.7439442],[-57.9341543,-20.7459545],[-57.9495254,-20.7652765],[-57.9594917,-20.7979086],[-57.9412272,-20.8008159],[-57.9110131,-20.7889558],[-57.8932904,-20.7907824],[-57.8593969,-20.8248557],[-57.8578964,-20.850928],[-57.8726808,-20.8539],[-57.9289443,-20.8952298],[-57.9218884,-20.9044734],[-57.9021668,-20.9018107],[-57.8865311,-20.9086465],[-57.8746115,-20.9398031],[-57.8636024,-20.9488495],[-57.8444332,-20.9464894],[-57.8321105,-20.9348823],[-57.8197813,-20.9379956],[-57.8252691,-20.965241],[-57.8175295,-20.9805825],[-57.8405396,-21.0055865],[-57.8681955,-21.0418754],[-57.865794,-21.0667101],[-57.8458909,-21.0969282],[-57.8649891,-21.1363361],[-57.8489583,-21.1878573],[-57.8530214,-21.2271316],[-57.8771939,-21.2477733],[-57.9064641,-21.265551],[-57.9204283,-21.2846397],[-57.8949626,-21.3071725],[-57.8547358,-21.3168718],[-57.8611244,-21.3506169],[-57.8924513,-21.3779487],[-57.9080965,-21.4026099],[-57.9100862,-21.4209737],[-57.927257,-21.4498314],[-57.9250939,-21.4619478],[-57.9344177,-21.4841208],[-57.9604876,-21.5099208],[-57.9685265,-21.5353372],[-57.9616162,-21.5624435],[-57.918964,-21.5822012],[-57.9145595,-21.5956142],[-57.9422158,-21.6208996],[-57.9300377,-21.6573316],[-57.8871923,-21.6820763],[-57.8985469,-21.7058784],[-57.9408933,-21.7329073],[-57.9474245,-21.7459547],[-57.9402748,-21.7583507],[-57.9084931,-21.7739686],[-57.9311093,-21.824589],[-57.9426555,-21.8354527],[-57.9719784,-21.8458866],[-57.916173,-21.8762919],[-57.947985,-21.9003903],[-57.9369953,-21.9279206],[-57.9650196,-21.9836133],[-57.9647368,-22.0010872],[-57.9749461,-22.015409],[-58.0061611,-22.0312131],[-58.0095925,-22.0452751],[-57.9876849,-22.0591377],[-57.9832708,-22.0706978],[-57.9920301,-22.0904636],[-57.9419989,-22.0829157],[-57.9297197,-22.1202719],[-57.8860855,-22.1303112],[-57.8627107,-22.1309544],[-57.8290297,-22.1201906],[-57.8052315,-22.1500503],[-57.7792735,-22.1251745],[-57.747723,-22.1390495],[-57.7234044,-22.1102015],[-57.6892317,-22.088592],[-57.677376,-22.1015604],[-57.636983,-22.1058067],[-57.6181636,-22.0953892],[-57.607533,-22.1269456],[-57.5864271,-22.1444473],[-57.5883869,-22.1651782],[-57.5807663,-22.175337],[-57.5374703,-22.1803831],[-57.5168337,-22.173625]],[[-57.5168337,-22.173625],[-57.5078775,-22.1713569],[-57.5064831,-22.1626559],[-57.5094395,-22.161276]],[[-57.5094395,-22.161276],[-57.5090628,-22.1592296],[-57.5049058,-22.1580149],[-57.5019213,-22.1590036],[-57.5017268,-22.167181]],[[-57.5017268,-22.167181],[-57.4970359,-22.1657748],[-57.4935333,-22.1604224],[-57.4905619,-22.1410515],[-57.4769393,-22.1314118],[-57.4537533,-22.09543],[-57.4480729,-22.0729473],[-57.4298433,-22.06935],[-57.417492,-22.024661],[-57.3970995,-22.0042512],[-57.3775816,-21.9956234],[-57.3855898,-21.984448],[-57.3751626,-21.9700128],[-57.3611469,-21.9620425],[-57.3374745,-21.9613114],[-57.3070025,-21.9312984],[-57.277594,-21.940988],[-57.2706913,-21.9334247],[-57.2476984,-21.939015],[-57.2471276,-21.9256476],[-57.2258054,-21.8995807],[-57.2062543,-21.8870203],[-57.1905459,-21.8533271],[-57.1926849,-21.8390801],[-57.1765573,-21.8043813],[-57.1568047,-21.7853313],[-57.1662664,-21.7568864],[-57.135707,-21.7254541],[-57.1413248,-21.7093283],[-57.1180136,-21.7063113],[-57.1066656,-21.679277],[-57.0736276,-21.6588901],[-57.0450089,-21.653787],[-57.0278222,-21.630488],[-57.0114395,-21.6226419],[-56.9589511,-21.6371705],[-56.9631594,-21.6195889],[-56.9450434,-21.6148936],[-56.944356,-21.5930672],[-56.9305786,-21.5547296],[-56.8860898,-21.5023472],[-56.8745336,-21.4994117],[-56.8519301,-21.4605194],[-56.8263141,-21.4628905],[-56.8117286,-21.4866741],[-56.8008538,-21.4756899],[-56.8044816,-21.4542872],[-56.7912456,-21.4515381],[-56.8035836,-21.4346806],[-56.8150525,-21.4021727],[-56.8040995,-21.3501585],[-56.8119667,-21.326052],[-56.788296,-21.292337],[-56.7965622,-21.2294895],[-56.8161702,-21.1907276],[-56.8312971,-21.1518126],[-56.8588922,-21.1137473],[-56.8447441,-21.0753421],[-56.8670339,-21.0444445],[-56.8694076,-21.0179775],[-56.8604689,-20.9825197],[-56.8767608,-20.9494114],[-56.8805055,-20.9305154],[-56.8596664,-20.8863761],[-56.8738329,-20.8575607],[-56.8586071,-20.8350364],[-56.8464587,-20.7923869],[-56.8685223,-20.763798],[-56.8718866,-20.7280883],[-56.8898167,-20.6973367],[-56.8927127,-20.6841799],[-56.8834602,-20.6590136],[-56.8689016,-20.6387906],[-56.8697862,-20.6112992],[-56.87762,-20.5958268],[-56.8733714,-20.5801993],[-56.8940477,-20.5568469],[-56.9060985,-20.5333542],[-56.9107313,-20.5072335],[-56.9239774,-20.490901],[-56.9205519,-20.464831],[-56.9391606,-20.4420732],[-56.9335343,-20.4312075],[-56.9420616,-20.4150592],[-56.9620638,-20.4135378],[-56.9675099,-20.4249409],[-56.9903015,-20.4215945],[-56.9905406,-20.3946913],[-57.0101495,-20.3588478],[-57.0068303,-20.3407578],[-56.9737067,-20.3368033]],[[-56.9737067,-20.3368033],[-56.947899,-20.3330191],[-56.9444769,-20.3277068],[-56.9486619,-20.3189226]],[[-56.9486619,-20.3189226],[-56.9464825,-20.3036082],[-56.9633366,-20.2919075],[-56.9651746,-20.2773049],[-56.9574221,-20.2459934],[-56.9628877,-20.2314802],[-56.9673259,-20.222879],[-56.9979761,-20.1889198]],[[-56.9979761,-20.1889198],[-56.9867001,-20.1323366],[-57.0031186,-20.112249],[-56.9998022,-20.0765122],[-57.0020901,-20.049974],[-57.0254322,-20.0281171],[-57.0276937,-20.015453],[-57.0674952,-20.0153023],[-57.0025165,-19.6679419],[-56.995259,-19.6212415],[-56.9822017,-19.6113649],[-56.974891,-19.6115875],[-56.97242,-19.6175061],[-56.965402,-19.6227707],[-56.9208808,-19.6117823],[-56.8855111,-19.6198407],[-56.8573284,-19.6170829],[-56.8517809,-19.6057897],[-56.6188806,-19.5136363],[-56.5801944,-19.2774134],[-55.9731217,-19.2789047],[-55.971755,-19.4659457]],[[-55.971755,-19.4659457],[-55.9491786,-19.4653689],[-55.9431624,-19.4494031]],[[-55.9431624,-19.4494031],[-55.9259258,-19.437121]],[[-55.9259258,-19.437121],[-55.9201697,-19.4226202],[-55.9090064,-19.421826],[-55.8983304,-19.4164301]],[[-55.8983304,-19.4164301],[-55.8894599,-19.3909789],[-55.8603921,-19.3713378],[-55.8451698,-19.3506532],[-55.8336692,-19.3472472],[-55.8324023,-19.3411065],[-55.8202306,-19.3157442],[-55.8221512,-19.2984207],[-55.8228253,-19.2857499],[-55.7900392,-19.2572862],[-55.7843772,-19.2360322],[-55.7668754,-19.2102459],[-55.7649782,-19.1924956],[-55.7377016,-19.1623758],[-55.7260824,-19.1272355],[-55.709196,-19.1107127],[-55.7039001,-19.0924396],[-55.6683609,-19.0576746],[-55.653719,-19.0548217],[-55.6314843,-19.0263322],[-55.6152797,-19.0187099],[-55.5990365,-18.9979844],[-55.5578611,-18.9729158],[-55.5279421,-18.9403594],[-55.3990029,-18.5820937]],[[-55.3990029,-18.5820937],[-55.3061819,-18.2479791],[-55.1389964,-17.6478325]],[[-55.9902359,-20.8119665],[-55.9744475,-20.8175388],[-55.9659099,-20.8199048],[-55.953774,-20.8163749]],[[-55.953774,-20.8163749],[-55.9384624,-20.8216896],[-55.9251118,-20.8115055],[-55.8924993,-20.8076631],[-55.8709705,-20.7862664],[-55.8710661,-20.775806],[-55.8457119,-20.7550081],[-55.8455664,-20.7333508],[-55.7920782,-20.7483589],[-55.7833462,-20.7595155],[-55.7747024,-20.7620429],[-55.7577154,-20.757081],[-55.7512219,-20.7578217],[-55.7301681,-20.7756959],[-55.7197563,-20.8176752],[-55.7064531,-20.8351183],[-55.7094636,-20.8477807],[-55.6885082,-20.8871026],[-55.686528,-20.9179057],[-55.6378105,-20.9498868],[-55.6209494,-20.9752767],[-55.6022818,-20.9850342],[-55.5624235,-20.9957426],[-55.5562143,-20.9908172],[-55.5240141,-20.9933693],[-55.5087254,-21.0028792],[-55.4861152,-21.022369]],[[-55.4861152,-21.022369],[-55.4733,-21.0194122],[-55.4311911,-21.0503564],[-55.3786284,-21.0453893],[-55.3589208,-21.0340974],[-55.3190242,-21.0509065],[-55.3008255,-21.0215364]],[[-55.3008255,-21.0215364],[-55.2663957,-20.9983316]],[[-55.2663957,-20.9983316],[-55.2540427,-21.0156699]],[[-55.2540427,-21.0156699],[-55.2077277,-21.0355096]],[[-55.2077277,-21.0355096],[-55.2082671,-21.0030956],[-55.1892029,-20.9967951],[-55.2018297,-20.964214],[-55.1973333,-20.9318797],[-55.2005535,-20.8902203],[-55.1774315,-20.866707],[-55.1645692,-20.8606912],[-55.170837,-20.8448748],[-55.1658314,-20.8326018],[-55.1564144,-20.8271977],[-55.154638,-20.8252286],[-55.1530154,-20.7990691],[-55.1555976,-20.7918686],[-55.1577923,-20.7838929],[-55.1635251,-20.7738765],[-55.16625,-20.7556488],[-55.1778459,-20.7350827],[-55.20492,-20.7218861],[-55.2031703,-20.7067948],[-55.2208953,-20.6922359],[-55.2195315,-20.6787309],[-55.2100868,-20.6693995],[-55.2179396,-20.6522565],[-55.2043693,-20.6138731],[-55.2019554,-20.6059325],[-55.2055613,-20.5997143],[-55.2082572,-20.5908094],[-55.2096127,-20.589367],[-55.2061078,-20.5762327],[-55.2122313,-20.5546006],[-55.2177052,-20.5447374],[-55.2189178,-20.5414749],[-55.2274691,-20.5372219],[-55.2364213,-20.5312496],[-55.2364653,-20.5214798],[-55.2490044,-20.5129792],[-55.2492502,-20.5056693],[-55.252037,-20.5060359],[-55.2543841,-20.5061501],[-55.2530515,-20.503948],[-55.2514899,-20.4960024],[-55.257028,-20.4790436],[-55.2650561,-20.4765124],[-55.2728908,-20.4735913],[-55.2729705,-20.456264],[-55.2760765,-20.4481903],[-55.2945218,-20.4382427],[-55.2982579,-20.4320021],[-55.3060842,-20.4227758],[-55.3080739,-20.4240468],[-55.3069798,-20.4198208],[-55.3061371,-20.4164168],[-55.3188515,-20.4098449],[-55.342202,-20.4174179],[-55.3453646,-20.4322208],[-55.3490908,-20.4325614],[-55.3495647,-20.4431075],[-55.3601781,-20.4374517],[-55.3796423,-20.4437198],[-55.3909402,-20.4324592],[-55.3876539,-20.4093441],[-55.3693859,-20.4020959],[-55.355951,-20.3872747],[-55.3556624,-20.3470473],[-55.3408161,-20.3379316],[-55.3454631,-20.3151532],[-55.319665,-20.3261735],[-55.3197031,-20.3368367],[-55.2949186,-20.337341],[-55.2963132,-20.322267],[-55.2790395,-20.322129],[-55.2585072,-20.3309582],[-55.2533428,-20.3102082],[-55.2429661,-20.3013796],[-55.247234,-20.2862432],[-55.2710169,-20.2867516],[-55.2681889,-20.2495086],[-55.2535798,-20.2434912],[-55.2500988,-20.2296259],[-55.2294893,-20.2020384],[-55.1912169,-20.1726778],[-55.1727195,-20.1669767],[-55.1373554,-20.1446368],[-55.1328696,-20.156632],[-55.1058335,-20.1488226],[-55.095559,-20.1563316],[-55.0804529,-20.1519228],[-55.0804283,-20.1362221],[-55.0654856,-20.1272147],[-55.0638512,-20.1090226],[-55.0812275,-20.0690814],[-55.0881641,-20.0599264],[-55.0963868,-20.0455978],[-55.0961711,-20.0310526],[-55.1111204,-20.005008],[-55.1286081,-19.9991424],[-55.1396748,-19.9717971],[-55.1796668,-19.9927563],[-55.1997223,-19.9941283],[-55.2223978,-19.978997],[-55.2516166,-19.9828494],[-55.2679981,-20.0005976],[-55.2851557,-19.9903823],[-55.314661,-19.9868424],[-55.3179641,-19.9827751],[-55.3233724,-19.9722599],[-55.3102469,-19.9471188],[-55.3226508,-19.9419334],[-55.329762,-19.9243142],[-55.33676,-19.8820453],[-55.3546444,-19.8628067],[-55.3788075,-19.8495309],[-55.3887367,-19.8329663],[-55.3946094,-19.8014974],[-55.3465947,-19.7607357],[-55.3470182,-19.7385518],[-55.3375766,-19.7319535],[-55.3241208,-19.6931324],[-55.3057655,-19.6726688],[-55.2884572,-19.6073923],[-55.2659397,-19.5857835],[-55.2492882,-19.5366979],[-55.2411352,-19.5213971],[-55.2399308,-19.5006663],[-55.225964,-19.496234],[-55.214473,-19.4482983],[-55.2065205,-19.4412508],[-55.203931,-19.4167572],[-55.1874889,-19.4042216],[-55.1634778,-19.403467],[-55.1445703,-19.3871446],[-55.1119051,-19.3699429],[-55.1240117,-19.3529602],[-55.101672,-19.3349992]],[[-55.101672,-19.3349992],[-55.1030564,-19.3342176]],[[-55.1030564,-19.3342176],[-55.107025,-19.3283366],[-55.1169079,-19.3301115],[-55.1208209,-19.3390515],[-55.1424276,-19.3457548],[-55.1699846,-19.3333449],[-55.1768434,-19.3155616],[-55.2044022,-19.288256],[-55.2089094,-19.2853645],[-55.2116793,-19.2847083],[-55.2159856,-19.2825625],[-55.2229585,-19.28498],[-55.2257477,-19.2773284],[-55.2368992,-19.2658585],[-55.2481865,-19.2536783],[-55.2579783,-19.2503471],[-55.2699753,-19.2493492],[-55.2767282,-19.2489393],[-55.3043683,-19.2579294],[-55.3200907,-19.2386884],[-55.3410601,-19.2457656],[-55.3456268,-19.246853],[-55.3463162,-19.2485588],[-55.3572987,-19.2644119],[-55.3654964,-19.2635318],[-55.3734035,-19.260897],[-55.3934756,-19.2625635],[-55.3969433,-19.263694],[-55.4037783,-19.264419],[-55.4220351,-19.2577506],[-55.4306945,-19.2411112],[-55.4521838,-19.2216905]],[[-55.4521838,-19.2216905],[-55.4649488,-19.2186485],[-55.3990029,-18.5820937]],[[-55.8983304,-19.4164301],[-55.9195246,-19.4221292],[-55.9259258,-19.437121]],[[-55.9431624,-19.4494031],[-55.9475935,-19.4632253],[-55.9495275,-19.4656153],[-55.971755,-19.4659457]],[[-56.9979761,-20.1889198],[-56.9471153,-20.1869624],[-56.9306863,-20.1971442],[-56.9269793,-20.2141059],[-56.9054354,-20.2367935],[-56.8871084,-20.2394589],[-56.8781008,-20.2570843],[-56.8256917,-20.272581],[-56.8342979,-20.3132691],[-56.8329381,-20.35495],[-56.8204594,-20.3723725],[-56.8191172,-20.3866433],[-56.7937216,-20.3993227],[-56.7795648,-20.4171778],[-56.7524513,-20.4023977],[-56.702088,-20.4044999],[-56.6943201,-20.3996824],[-56.6778776,-20.3700021],[-56.6806293,-20.3576937],[-56.5680762,-20.3563249],[-56.5493548,-20.3626334],[-56.5164872,-20.3565074],[-56.5096196,-20.3444217],[-56.4717873,-20.3286897],[-56.4507035,-20.3137112],[-56.430147,-20.3189597],[-56.4178153,-20.3361951],[-56.4023582,-20.3362085],[-56.3889046,-20.3360698],[-56.3916095,-20.3372638],[-56.3984791,-20.3482858],[-56.3969171,-20.3745637],[-56.4071468,-20.3862443],[-56.3915099,-20.3958355],[-56.396828,-20.42739],[-56.385736,-20.4411059],[-56.3962884,-20.4553636],[-56.3930046,-20.4836556],[-56.3729295,-20.494241],[-56.3643792,-20.5318516],[-56.3383243,-20.5532143],[-56.3160031,-20.5828956],[-56.2853549,-20.6169338],[-56.2748674,-20.6365766],[-56.2654589,-20.6444891],[-56.2291944,-20.6583953],[-56.2147998,-20.6459853],[-56.2177016,-20.6129546],[-56.2007406,-20.604716],[-56.1966011,-20.6240602],[-56.1746555,-20.6195213],[-56.1686819,-20.6162208],[-56.1624779,-20.6212548],[-56.1586165,-20.6211516],[-56.1486868,-20.6311316],[-56.1468205,-20.6700654],[-56.140863,-20.6917724],[-56.1281316,-20.7106591],[-56.1345585,-20.7223899],[-56.1294729,-20.7283365],[-56.1176511,-20.7409508],[-56.0738997,-20.7681083],[-56.0550154,-20.7630081],[-56.0369003,-20.7770944],[-56.0119444,-20.7863624],[-56.0064636,-20.8016993],[-56.0027921,-20.8041906],[-55.9902359,-20.8119665]],[[-55.3990029,-18.5820937],[-55.4649957,-19.2182463],[-55.4521838,-19.2216905]],[[-55.1030564,-19.3342176],[-55.0974497,-19.3327411]],[[-55.0974497,-19.3327411],[-55.0906147,-19.3383473],[-55.0601445,-19.3442832],[-55.0527286,-19.3451654],[-55.0514122,-19.3454997],[-55.0523978,-19.3399461],[-55.0473103,-19.3295765],[-55.0462171,-19.325549],[-55.0330507,-19.3102576],[-55.0233704,-19.2971671],[-55.0163515,-19.2948464],[-55.0132402,-19.2912559],[-55.0031756,-19.2637547],[-55.0095581,-19.2564966],[-55.0003848,-19.2493544],[-54.9989651,-19.2426791],[-54.9892333,-19.234877],[-54.9133486,-19.2347324],[-54.8924122,-19.2119034],[-54.8813419,-19.2072955],[-54.8713793,-19.187058],[-54.8633727,-19.1883311],[-54.8533573,-19.1900424],[-54.789471,-19.2051074],[-54.7762431,-19.2187739],[-54.7413682,-19.2292027],[-54.7489884,-19.2656328],[-54.7107404,-19.3033204],[-54.7243985,-19.3145332],[-54.7402113,-19.3479026],[-54.7428184,-19.3643964],[-54.7673213,-19.4073636],[-54.7821766,-19.425465],[-54.780173,-19.4399616],[-54.7949054,-19.4554199],[-54.786274,-19.4728792],[-54.7324768,-19.508774],[-54.7453105,-19.5195317],[-54.7455548,-19.5403863],[-54.7309288,-19.5436525],[-54.7331223,-19.5687951],[-54.7267237,-19.5904662],[-54.6915248,-19.5906889],[-54.6766172,-19.5968488],[-54.6391636,-19.5780026],[-54.6274305,-19.560561],[-54.5889994,-19.5647315],[-54.5577552,-19.5387332],[-54.5128895,-19.5378333],[-54.5033176,-19.5580688],[-54.4849702,-19.561619],[-54.4691169,-19.5401339],[-54.4306477,-19.553309],[-54.3989691,-19.5961245],[-54.3473001,-19.6033919],[-54.3308934,-19.6117491],[-54.287315,-19.6221342],[-54.2623348,-19.6163725],[-54.2498018,-19.620761],[-54.20863,-19.6130953],[-54.1704662,-19.627333],[-54.1437908,-19.6505944],[-54.1152911,-19.6641318],[-54.0963288,-19.6602327],[-54.0652325,-19.6342192],[-54.0396973,-19.632247]],[[-54.0396973,-19.632247],[-54.0221682,-19.6329457],[-54.0166986,-19.6385113],[-54.0185475,-19.6464779]],[[-54.0185475,-19.6464779],[-54.0107234,-19.6653959],[-53.9978758,-19.6776976],[-53.9992635,-19.7027633],[-53.9878003,-19.7153801],[-53.9892957,-19.7194925]],[[-53.9892957,-19.7194925],[-53.9849175,-19.7212316]],[[-53.9849175,-19.7212316],[-53.9758186,-19.7203033],[-53.9637881,-19.7176854],[-53.9614004,-19.7175836],[-53.9531935,-19.7112306],[-53.9336197,-19.7122495],[-53.9234332,-19.7135434],[-53.9043477,-19.7022435],[-53.8625875,-19.5302819],[-53.8313326,-19.5454237],[-53.7945155,-19.5813791],[-53.7826961,-19.6168757],[-53.7620228,-19.6367223],[-53.7213448,-19.6642605],[-53.7103875,-19.6812967],[-53.6658739,-19.6973125],[-53.6485646,-19.7078205],[-53.6339546,-19.7400269],[-53.6189155,-19.7490869],[-53.6003189,-19.7716524],[-53.5840066,-19.7708179],[-53.5507896,-19.7845747],[-53.5329153,-19.7809629],[-53.4941617,-19.794272],[-53.4712347,-19.7881352],[-53.4551503,-19.7980028],[-53.4454192,-19.792176]],[[-53.4454192,-19.792176],[-53.4319959,-19.7896957],[-53.4302154,-19.7877077],[-53.4260559,-19.7872974],[-53.4247171,-19.7849027],[-53.4343257,-19.773437],[-53.4321758,-19.7723006],[-53.4343895,-19.7709859],[-53.4350499,-19.7654522],[-53.4394971,-19.759768],[-53.4432653,-19.7578869]],[[-53.4432653,-19.7578869],[-53.4517892,-19.7378126],[-53.4583024,-19.730045],[-53.4596501,-19.7227372],[-53.459585,-19.7198664],[-53.4638244,-19.7079541],[-53.4699611,-19.6980849],[-53.4723985,-19.6958979],[-53.4854158,-19.6864854],[-53.4951304,-19.6729201],[-53.4850538,-19.6559257],[-53.4885635,-19.6350178],[-53.4797034,-19.6188885],[-53.4769976,-19.6085959],[-53.4785344,-19.605044],[-53.4807995,-19.6003519],[-53.4818338,-19.5956963]],[[-53.4818338,-19.5956963],[-53.4885713,-19.5865744]],[[-53.4885713,-19.5865744],[-53.4894036,-19.5839393],[-53.494822,-19.5757665],[-53.5022117,-19.5588528],[-53.5265369,-19.5154549],[-53.5286313,-19.4933116],[-53.5511746,-19.4617321],[-53.5716826,-19.3772422],[-53.582352,-19.3511606],[-53.6030909,-19.3289187],[-53.6069671,-19.302451],[-53.6377598,-19.2667827],[-53.6221014,-19.2549746],[-53.6089721,-19.2144048],[-53.6079427,-19.1833055],[-53.575096,-19.187146],[-53.5407165,-19.1864931],[-53.5186674,-19.1810324],[-53.4870993,-19.1860676],[-53.4434269,-19.1784002],[-53.4287233,-19.1598321],[-53.4213941,-19.1118859],[-53.4039727,-19.0999493],[-53.3949035,-19.080036],[-53.3546064,-19.0628934],[-53.3396987,-19.0500962],[-53.3693373,-19.02061],[-53.4019337,-19.0063824],[-53.3869505,-18.9811463],[-53.3824253,-18.9435443],[-53.4010749,-18.9412359],[-53.4161042,-18.9127696],[-53.4365441,-18.8962283],[-53.4562128,-18.8944276],[-53.4632206,-18.8745131],[-53.4895711,-18.8497398],[-53.4885514,-18.837547],[-53.3453389,-18.775399],[-53.3771821,-18.7413519],[-53.3816904,-18.7230468],[-53.3730825,-18.6803973],[-53.4126333,-18.6543503],[-53.4331452,-18.6545586],[-53.4349445,-18.6305624],[-53.456683,-18.6298402],[-53.4691794,-18.6182931],[-53.47245,-18.5774901],[-53.4845151,-18.5598699],[-53.5005437,-18.5214605],[-53.518135,-18.5139181],[-53.5517899,-18.4742636],[-53.5664117,-18.4373204],[-53.5457409,-18.4189695],[-53.5247229,-18.4168228],[-53.4989159,-18.4013155],[-53.4877911,-18.4105344],[-53.4618056,-18.4033994],[-53.4419751,-18.3867327],[-53.4355312,-18.3825803],[-53.4488953,-18.3506228],[-53.4309878,-18.3313951],[-53.4464348,-18.3095847],[-53.449566,-18.289981],[-53.4588891,-18.2813814],[-53.4569515,-18.2736328],[-53.4394762,-18.2540337],[-53.4002185,-18.2399752],[-53.3630815,-18.2563844],[-53.3474946,-18.2570197],[-53.3312898,-18.2348158],[-53.3794439,-18.2031251],[-53.3577426,-18.1939951],[-53.3433587,-18.2038295],[-53.317157,-18.2085187],[-53.3054737,-18.2035787],[-53.2943873,-18.1971946],[-53.2652821,-18.164412],[-53.2488805,-18.1599934],[-53.2264104,-18.1349582],[-53.2242346,-18.1094552],[-53.2254701,-18.0661818],[-53.2363156,-18.05134]],[[-53.2363156,-18.05134],[-53.2373092,-18.0081751],[-53.2415444,-18.0047098],[-53.307573,-17.9959785],[-53.3356748,-18.0069075],[-53.3807712,-18.0087572],[-53.4057084,-17.9920489],[-53.4178796,-17.9947962],[-53.4350488,-17.9845827],[-53.4572943,-17.999699],[-53.4601554,-18.0220326],[-53.4728278,-18.0375901],[-53.4860712,-18.0404003],[-53.5178768,-18.0206482],[-53.5750192,-18.0126507],[-53.6069948,-17.9954897],[-53.6125462,-17.9780328],[-53.6520434,-17.9763287],[-53.6777472,-17.9897936],[-53.6927188,-18.0069201],[-53.7268023,-18.0034729],[-53.7338219,-17.9953349],[-53.7742172,-18.0007701],[-53.7945174,-17.9772828],[-53.8086091,-17.9722466],[-53.8241628,-17.9487043],[-53.854247,-17.9258343],[-53.8769378,-17.9235289],[-53.8985506,-17.9088024],[-53.9242445,-17.9199634],[-53.9522962,-17.9146877],[-53.9477716,-17.8987829],[-53.9550243,-17.8712438],[-53.9359416,-17.8320981],[-53.910353,-17.8038856],[-53.8954943,-17.7770247],[-53.8883811,-17.7489926],[-53.8770212,-17.731882],[-53.8609367,-17.7207118],[-53.8546834,-17.7030036],[-53.8002416,-17.6707893],[-53.7569664,-17.6734603],[-53.739769,-17.6650093],[-53.7200464,-17.6688123],[-53.7046075,-17.6635095],[-53.6934025,-17.5002017],[-53.6800749,-17.2535697],[-53.6944957,-17.2339839],[-53.7086559,-17.228167],[-53.73321,-17.2309018],[-53.7590784,-17.2431425],[-53.7642685,-17.2582753],[-53.7857133,-17.2875151],[-53.8200727,-17.2946157],[-53.834963,-17.3357604],[-53.8332681,-17.3571102],[-53.8683836,-17.3683775],[-53.8879887,-17.3926058],[-53.9146006,-17.4144145],[-53.9311006,-17.4394503],[-53.9639387,-17.4612726],[-53.9730501,-17.472244],[-54.0232666,-17.4770731],[-54.0376378,-17.4864488],[-54.0412462,-17.5005236],[-54.0580771,-17.5131293],[-54.045908,-17.5372274],[-54.051633,-17.5627701],[-54.0732693,-17.5878013],[-54.0846925,-17.6190348],[-54.0995493,-17.6131178],[-54.1341872,-17.6187264],[-54.1620475,-17.6072396],[-54.1934133,-17.6061271],[-54.2139957,-17.6201748],[-54.2437438,-17.6289046],[-54.2503568,-17.6404976],[-54.2745496,-17.6540482],[-54.2919724,-17.6530012],[-54.3308523,-17.661479],[-54.3716358,-17.6450507],[-54.3877987,-17.6319367],[-54.3770818,-17.607434],[-54.3859105,-17.5814497],[-54.4037144,-17.5645427],[-54.4059423,-17.5536054],[-54.4263032,-17.5370001],[-54.4669149,-17.5290742],[-54.484664,-17.4890941],[-54.536332,-17.4775852],[-54.5541884,-17.4886684],[-54.5816628,-17.468007],[-54.5886138,-17.4771219],[-54.6360808,-17.4957244],[-54.6463065,-17.4906128],[-54.6679499,-17.5035633],[-54.6955269,-17.503521],[-54.7154673,-17.5131428],[-54.746913,-17.5199422],[-54.7570029,-17.5344943],[-54.7587809,-17.5656964],[-54.7773872,-17.5706656],[-54.8213108,-17.5973862],[-54.8250042,-17.6096759],[-54.8515863,-17.6130333],[-54.8608638,-17.6238535],[-54.8806366,-17.6168702],[-54.8970355,-17.620346],[-54.9143075,-17.6084507],[-54.9434244,-17.6090284],[-54.9483371,-17.615347],[-54.9849431,-17.6240765],[-54.9959242,-17.6384509],[-55.0080031,-17.632978],[-55.0473123,-17.640333],[-55.0726482,-17.6316326],[-55.0933663,-17.6360368],[-55.1113648,-17.6312286],[-55.127256,-17.6527223],[-55.1389964,-17.6478325]],[[-55.2077277,-21.0355096],[-55.2668646,-21.009432],[-55.2728798,-21.0114001]],[[-55.2728798,-21.0114001],[-55.2791393,-21.0357356],[-55.2943865,-21.0547595],[-55.3034544,-21.0761501],[-55.3087633,-21.0909663],[-55.306845,-21.0964415],[-55.3209896,-21.1146738],[-55.3217082,-21.1192338],[-55.3063858,-21.1384483],[-55.3257707,-21.1694863],[-55.3292214,-21.1762767],[-55.3268119,-21.1896116],[-55.3247226,-21.2010531],[-55.3184184,-21.2016039],[-55.3170376,-21.2156269],[-55.3194994,-21.2421188],[-55.3004675,-21.2488742],[-55.2937355,-21.2760338],[-55.2958054,-21.290677],[-55.3016887,-21.3048592],[-55.2878228,-21.3111262],[-55.2908283,-21.3288547],[-55.2940803,-21.3313989],[-55.2970053,-21.3465225],[-55.2850527,-21.3540802],[-55.2676037,-21.3974564],[-55.2615476,-21.4003908],[-55.2397122,-21.4174767],[-55.2120637,-21.4278646],[-55.2107208,-21.4420104],[-55.1912075,-21.4466243],[-55.1671264,-21.4607366],[-55.1704739,-21.479768],[-55.1492306,-21.4746666],[-55.1384351,-21.4836211],[-55.1417052,-21.5083573],[-55.1200096,-21.5210052],[-55.1033155,-21.5392801],[-55.0983078,-21.5689571],[-55.0868513,-21.5657936],[-55.0672381,-21.5604181],[-55.0583668,-21.5640441],[-55.0633028,-21.5730712],[-55.044682,-21.581526],[-55.0179546,-21.5600277],[-55.013362,-21.4845837],[-54.8925741,-21.3377201],[-54.8644231,-21.3369539],[-54.8414433,-21.351064],[-54.8175074,-21.3377247],[-54.7829877,-21.347357],[-54.7851843,-21.3672484],[-54.7701302,-21.3781266],[-54.7014275,-21.3554424],[-54.6807723,-21.3450853],[-54.672725,-21.3048261],[-54.6492836,-21.3017439],[-54.630844,-21.2925045],[-54.5995609,-21.2628575],[-54.5879163,-21.2624652],[-54.5735287,-21.2390968],[-54.5302539,-21.2125626],[-54.5162376,-21.2094814],[-54.5242379,-21.1895821],[-54.5491964,-21.1654277],[-54.5590497,-21.1483414],[-54.5215751,-21.1271778],[-54.5019128,-21.1308765],[-54.4822451,-21.122512],[-54.5089239,-21.0095125],[-54.5068311,-20.9941304],[-54.4748759,-21.0108337],[-54.4635912,-21.0084833],[-54.4522984,-21.0232076],[-54.4253451,-21.0278304],[-54.408242,-21.0421611],[-54.3765541,-21.105999],[-54.3550807,-21.1017616],[-54.3362865,-21.1208611],[-54.292169,-21.1397689],[-54.2982605,-21.1544241],[-54.2960149,-21.1740108],[-54.2792501,-21.1751807],[-54.270951,-21.1977546],[-54.2603479,-21.2047619],[-54.266801,-21.2276663],[-54.2435131,-21.2569667],[-54.2295811,-21.2911454],[-54.205716,-21.2975878],[-54.2078549,-21.3157784],[-54.1990017,-21.3351352],[-54.1473808,-21.3740589],[-54.1457394,-21.3819961],[-54.1019284,-21.4188178],[-54.1051193,-21.42969],[-54.0565079,-21.4657044],[-54.0375603,-21.4756758],[-54.0057887,-21.5132079],[-53.9409907,-21.5460051],[-53.935902,-21.5411828],[-53.9015305,-21.5487819],[-53.8822074,-21.5610358],[-53.8514167,-21.5643428],[-53.8267907,-21.5569339],[-53.763142,-21.5734048],[-53.7406651,-21.568129],[-53.7283949,-21.5784934],[-53.7019063,-21.5673774],[-53.69621,-21.5572641]],[[-53.69621,-21.5572641],[-53.6743179,-21.552334],[-53.6696339,-21.5521018],[-53.6679739,-21.5540687],[-53.6683631,-21.5556567],[-53.6706469,-21.5563587],[-53.6744347,-21.5547454],[-53.673588,-21.558253],[-53.6649242,-21.55842]],[[-53.6649242,-21.55842],[-53.6588415,-21.5581891],[-53.6444664,-21.5653726],[-53.6430111,-21.568172],[-53.6289364,-21.5759404],[-53.6250806,-21.5725869]],[[-53.6250806,-21.5725869],[-53.6170894,-21.57009]],[[-53.6170894,-21.57009],[-53.6136875,-21.5659431],[-53.6023663,-21.560127],[-53.6033555,-21.5557206],[-53.6016162,-21.5524532],[-53.6079869,-21.5528794],[-53.6052763,-21.5452365],[-53.6126693,-21.5247275],[-53.6095581,-21.5083538],[-53.6108618,-21.4992719],[-53.6142983,-21.4930326],[-53.6153001,-21.4789658],[-53.618726,-21.4716139],[-53.6222969,-21.4702974],[-53.636339,-21.4595323],[-53.6372647,-21.4561188],[-53.6281692,-21.4433604],[-53.6291305,-21.4414486],[-53.6246294,-21.4372185],[-53.6275027,-21.4312874],[-53.625817,-21.4271094],[-53.6209807,-21.420116],[-53.6190417,-21.4206835],[-53.6175696,-21.4146007],[-53.6214276,-21.4119097],[-53.6220699,-21.4084087],[-53.6150854,-21.3864816],[-53.6148968,-21.3839306],[-53.6165696,-21.3757857],[-53.6214297,-21.3628169],[-53.6207544,-21.3611139],[-53.6257244,-21.355295],[-53.6280027,-21.3535577],[-53.6301431,-21.3478926],[-53.6380211,-21.3365132],[-53.6415788,-21.3150226],[-53.6424259,-21.3064453],[-53.6460256,-21.3003703],[-53.6540326,-21.2867724],[-53.6837593,-21.2243077],[-53.6833663,-21.2156129],[-53.6832593,-21.2053205],[-53.6842603,-21.1936297],[-53.6823958,-21.1945194],[-53.6857167,-21.1827549],[-53.6923309,-21.1731101],[-53.7229707,-21.1462279],[-53.726206,-21.1423301],[-53.7611468,-21.0792199],[-53.7761475,-21.0730905],[-53.8096628,-21.0707054],[-53.8282281,-21.0507244],[-53.8480144,-21.0439868],[-53.8472342,-21.0075431],[-53.8562723,-20.9896351],[-53.876129,-20.9830714],[-53.8879764,-20.9789891],[-53.9084267,-20.9579058],[-53.9524473,-20.9602744],[-53.9626035,-20.9566512],[-53.9710173,-20.9532823],[-53.9735671,-20.9499452],[-53.9825017,-20.9423712],[-53.9860535,-20.933918],[-54.0054898,-20.922791],[-54.0058868,-20.8918438],[-54.0169426,-20.8813031],[-54.0230179,-20.8549079],[-54.0726462,-20.8293393],[-54.0920974,-20.7980308],[-54.1141463,-20.7848057],[-54.1369064,-20.7829251]],[[-54.1369064,-20.7829251],[-54.1459235,-20.7802979],[-54.1560019,-20.7740509],[-54.1618784,-20.7635122],[-54.1638013,-20.7557165],[-54.1690629,-20.7541283]],[[-54.1690629,-20.7541283],[-54.1727252,-20.7403561],[-54.1754035,-20.7251896],[-54.2023852,-20.7110335],[-54.2066405,-20.6730407],[-54.1959595,-20.6574398],[-54.1938603,-20.6377992],[-54.1827229,-20.6204919],[-54.1827061,-20.590435],[-54.1864335,-20.5688384],[-54.1926132,-20.5475307],[-54.1908254,-20.5234612],[-54.1864709,-20.5096775],[-54.1827939,-20.4901515],[-54.1862487,-20.4642048],[-54.1819614,-20.464095],[-54.1562065,-20.4497328],[-54.1520524,-20.4477255],[-54.1412856,-20.4568039],[-54.112831,-20.4355403],[-54.0781663,-20.4262464],[-54.0597416,-20.4285227],[-54.0513322,-20.4203513],[-54.0275152,-20.4102929],[-54.0216805,-20.4053585],[-54.0173483,-20.4078194],[-54.0088799,-20.4079146],[-54.0076323,-20.3955974],[-53.9855559,-20.3973426],[-53.9663377,-20.3814913],[-53.9410169,-20.3822146],[-53.9218727,-20.3712404],[-53.8877858,-20.3649204],[-53.9149492,-20.3413812],[-53.9297761,-20.3431924],[-53.9538405,-20.331317],[-53.9668011,-20.316991],[-53.9897969,-20.304381],[-53.9858175,-20.2748428],[-54.0113433,-20.2495797],[-54.0086681,-20.2389865],[-54.0415306,-20.2103444],[-54.0660229,-20.1775538],[-54.0689105,-20.1492143],[-54.0825843,-20.1402275],[-54.0844658,-20.1372917],[-54.0891268,-20.127916],[-54.0944746,-20.1228579],[-54.0969301,-20.1196016],[-54.0969685,-20.111485],[-54.0669811,-20.0892184],[-54.0543328,-20.0698101],[-53.9761344,-20.0480935],[-53.9582984,-20.0310095],[-53.9600726,-20.0173606],[-53.9509796,-19.9984884],[-53.9192232,-19.9995486],[-53.8955689,-19.9951508],[-53.9049456,-19.9625841],[-53.9076594,-19.9376645],[-53.9193081,-19.9130455],[-53.9489724,-19.8698031],[-53.9482652,-19.8673923],[-53.9631081,-19.8615461],[-53.9771472,-19.7972613],[-53.9769096,-19.7857903],[-53.9834925,-19.7729215],[-53.9932224,-19.7257996]],[[-53.9932224,-19.7257996],[-53.9892957,-19.7194925]],[[-54.0185475,-19.6464779],[-54.0164041,-19.6393927],[-54.0211037,-19.6334884],[-54.0396973,-19.632247]],[[-55.0974497,-19.3327411],[-55.101672,-19.3349992]],[[-51.5411471,-19.147642],[-51.5544263,-19.1324339],[-51.569566,-19.1345416],[-51.5918369,-19.1266473],[-51.6089775,-19.1410449],[-51.6338214,-19.1313634],[-51.6599195,-19.1343787],[-51.682563,-19.1209272],[-51.7001146,-19.1187949],[-51.7170503,-19.1069853],[-51.7418615,-19.10057],[-51.751782,-19.0855882],[-51.7910824,-19.0798312],[-51.796312,-19.0664318],[-51.8168818,-19.0547208],[-51.8576816,-19.0505313],[-51.8906643,-19.0177686],[-51.8967809,-18.994702],[-51.9067679,-18.9945819],[-51.9400077,-18.968472],[-51.9509943,-18.9811377],[-51.9661678,-18.9692929],[-51.9956616,-18.9742346],[-52.0344708,-18.9580622],[-52.0799944,-18.9508492],[-52.1064517,-18.9245994],[-52.1127718,-18.9021424],[-52.1359691,-18.8902837],[-52.1462319,-18.8946598],[-52.1730423,-18.8569967],[-52.1873538,-18.8458754],[-52.2505018,-18.839869],[-52.2632303,-18.8282244],[-52.2933538,-18.8292451],[-52.3051407,-18.8404398],[-52.3241716,-18.8335309],[-52.3442559,-18.8181456],[-52.4082737,-18.7564979],[-52.4123932,-18.7397541],[-52.4243518,-18.7329831],[-52.4480256,-18.6919665],[-52.4741711,-18.6861859],[-52.5120358,-18.6700026],[-52.5315493,-18.6574807],[-52.5524044,-18.6570821],[-52.5860116,-18.6809013],[-52.5886921,-18.6879335],[-52.6404504,-18.6905284],[-52.6873098,-18.6783425],[-52.7161033,-18.6914091],[-52.746015,-18.6924069],[-52.7651871,-18.6806226],[-52.7852626,-18.6815089],[-52.8091012,-18.667215],[-52.8254311,-18.6723998],[-52.8464687,-18.666953],[-52.872214,-18.6461177],[-52.9167596,-18.6402946],[-52.9176575,-18.6152409],[-52.9406221,-18.6114954],[-52.9344536,-18.5991122],[-52.9518167,-18.5766716],[-52.9623514,-18.5408197],[-52.942511,-18.5170307],[-52.9157605,-18.5089029],[-52.8990952,-18.4768327],[-52.8809573,-18.4654927],[-52.8732937,-18.4267916],[-52.8067938,-18.4176957],[-52.7945183,-18.4105164],[-52.7860677,-18.3903091],[-52.769958,-18.3802603],[-52.7588732,-18.3631404],[-52.7593196,-18.3480709],[-52.7759033,-18.3287534],[-52.814259,-18.3112978],[-52.8732067,-18.3148335],[-52.9352301,-18.2965543],[-52.9652657,-18.2989407],[-53.0139382,-18.3261391],[-53.020866,-18.3462792],[-53.0699358,-18.3428798],[-53.0996557,-18.3136191],[-53.1020397,-18.2726203],[-53.107513,-18.2601411],[-53.1101876,-18.2195633],[-53.1297381,-18.1607025],[-53.1290165,-18.1384845],[-53.1367112,-18.1185249],[-53.14324,-18.0818367],[-53.1236517,-18.0588283],[-53.0786288,-18.0530295],[-53.0722775,-18.0339753],[-53.1767934,-18.0415807],[-53.1905394,-18.0362986],[-53.1987916,-18.0203061],[-53.237764,-18.0074432],[-53.2363156,-18.05134]],[[-53.4885713,-19.5865744],[-53.4824116,-19.5779627],[-53.4678547,-19.570227]],[[-53.4678547,-19.570227],[-53.454014,-19.5610422],[-53.4281409,-19.5413566],[-53.4102669,-19.5217069],[-53.3929058,-19.5156839],[-53.3748443,-19.5033736],[-53.3697096,-19.4878523],[-53.346445,-19.4500242],[-53.3276994,-19.497156],[-53.2972472,-19.4923044],[-53.2739351,-19.4834788],[-53.1402951,-19.4565761],[-53.0934111,-19.4609271],[-53.0981246,-19.4234379],[-53.0872868,-19.4241463]],[[-53.0872868,-19.4241463],[-53.0727242,-19.4189175],[-53.0568901,-19.424206]],[[-53.0568901,-19.424206],[-53.0196955,-19.4303801],[-53.0115953,-19.4420342],[-52.9653577,-19.4746276],[-52.9362988,-19.4839557],[-52.9260052,-19.5002946],[-52.9089992,-19.4983095],[-52.8946917,-19.5071553],[-52.8849977,-19.5245017],[-52.8625625,-19.5369675],[-52.821058,-19.5379401],[-52.7631962,-19.5277504],[-52.7071923,-19.5529216],[-52.6936384,-19.5263968],[-52.6561795,-19.4906447],[-52.6243613,-19.4346126],[-52.621504,-19.4208652],[-52.5792353,-19.4102842],[-52.5751042,-19.4368768],[-52.5668322,-19.4393057],[-52.5490081,-19.4672635],[-52.5285315,-19.4871676],[-52.5298905,-19.5010308],[-52.5186505,-19.5209585],[-52.5176478,-19.5438287]],[[-52.5176478,-19.5438287],[-52.5156456,-19.550397]],[[-52.5156456,-19.550397],[-52.5134687,-19.5492665],[-52.5083287,-19.5514527],[-52.5050816,-19.5458168]],[[-52.5050816,-19.5458168],[-52.4983466,-19.5359833],[-52.4864622,-19.5225194],[-52.4849328,-19.5010673],[-52.4711456,-19.4919502],[-52.4634387,-19.4589133],[-52.4736814,-19.4190559],[-52.4669241,-19.3912368],[-52.4433357,-19.3629922],[-52.4421122,-19.3403248],[-52.434593,-19.334252],[-52.3865782,-19.3363186],[-52.3434483,-19.3565195]],[[-52.3434483,-19.3565195],[-52.3300806,-19.3650585],[-52.3246935,-19.3665181],[-52.3202842,-19.3665737],[-52.308552,-19.3648603]],[[-52.308552,-19.3648603],[-52.2659431,-19.363013],[-52.2492044,-19.3693478]],[[-52.2492044,-19.3693478],[-52.2272947,-19.3725537],[-52.2178093,-19.3755504],[-52.2107995,-19.3731747],[-52.2082016,-19.3688268]],[[-52.2082016,-19.3688268],[-52.2017185,-19.3470599],[-52.1851416,-19.3363489],[-52.17016,-19.351771],[-52.1521891,-19.3490786],[-52.1260716,-19.3739003],[-52.0785793,-19.3225617],[-52.0893984,-19.3049171],[-52.1141881,-19.3010637],[-52.1623961,-19.306556],[-52.180853,-19.2866815],[-52.2003905,-19.2481598],[-52.2220993,-19.2336817],[-52.2077861,-19.2193482],[-52.1950428,-19.2184296],[-52.1675139,-19.1991671],[-52.142335,-19.2066973],[-52.1068951,-19.2303165],[-52.0903237,-19.2554154],[-52.0785815,-19.2591528],[-52.0561894,-19.2502003],[-52.0510996,-19.2273877],[-52.0202202,-19.198815],[-51.9799887,-19.1910896],[-51.936586,-19.2129489],[-51.8684491,-19.2230467],[-51.8319579,-19.2255268],[-51.8098502,-19.2353357],[-51.7978318,-19.2214257],[-51.780171,-19.2214731],[-51.7496332,-19.2102259],[-51.7249962,-19.2401361],[-51.7029096,-19.2410155],[-51.6533686,-19.2551944],[-51.6366937,-19.2697598],[-51.6109064,-19.2695592],[-51.602173,-19.2701076],[-51.5774884,-19.2831864],[-51.5680027,-19.2807466],[-51.5712379,-19.2483997],[-51.5538636,-19.211016],[-51.5544628,-19.1791001],[-51.5411471,-19.147642]],[[-52.1275225,-20.1220904],[-52.106443,-20.1582446]],[[-52.106443,-20.1582446],[-52.0887738,-20.1881703],[-52.0917687,-20.2107501],[-52.0870033,-20.2142741],[-52.0883217,-20.2376894],[-52.0959706,-20.2522605],[-52.0830605,-20.2661334],[-52.0910381,-20.2755885],[-52.0846931,-20.2846592],[-52.0698523,-20.3264607],[-52.0662786,-20.3518221],[-52.0642281,-20.3655415],[-52.045191,-20.3893464],[-52.0239965,-20.4050895],[-52.0118857,-20.4225567]],[[-52.0118857,-20.4225567],[-52.0074569,-20.4520262]],[[-52.0074569,-20.4520262],[-52.0125648,-20.4610817],[-51.9672514,-20.4838549],[-51.950318,-20.5123484],[-51.9262655,-20.5181561],[-51.8937371,-20.4794437],[-51.8739161,-20.4826665],[-51.8595637,-20.4610981],[-51.8328776,-20.4433876],[-51.7890726,-20.4491123],[-51.764549,-20.4360606],[-51.751319,-20.4356941],[-51.7225564,-20.4547335],[-51.6994787,-20.4905975],[-51.6761177,-20.4923719],[-51.6483949,-20.5210928],[-51.640438,-20.5390209],[-51.6248771,-20.5532995],[-51.6142202,-20.5795971],[-51.5832098,-20.5961716],[-51.5812708,-20.6216175]],[[-51.5812708,-20.6216175],[-51.5676317,-20.6183249],[-51.5330051,-20.5969939],[-51.5002223,-20.5682163],[-51.4928561,-20.5465063],[-51.4443681,-20.4789171],[-51.4092796,-20.4595706],[-51.3989579,-20.4457611],[-51.3751155,-20.396527],[-51.3612244,-20.3845403],[-51.3508686,-20.3631794],[-51.321445,-20.3396192],[-51.2956845,-20.3284821],[-51.2399055,-20.3169359],[-51.1780597,-20.3092856],[-51.1369683,-20.2974622],[-51.117583,-20.2869446],[-51.0691631,-20.2500495],[-51.0589327,-20.2351607],[-51.048812,-20.1985769],[-51.0215848,-20.1333489],[-51.0011911,-20.0963348],[-51.0178884,-20.0483925],[-51.0060365,-20.0252998],[-51.0048071,-19.9992171],[-51.0211489,-19.9640283],[-51.0024986,-19.924795],[-50.9994713,-19.9063755],[-51.0193069,-19.8704502],[-51.0181987,-19.8372811],[-51.0236289,-19.8039456],[-51.0399394,-19.7771183],[-51.0303071,-19.7514419],[-51.0454329,-19.7375557],[-51.0384955,-19.7195332],[-51.0365743,-19.6870124],[-51.0107733,-19.6445296],[-50.9904676,-19.6054019],[-50.9875546,-19.5895076],[-50.9618022,-19.5817398],[-50.9465426,-19.5916898],[-50.9243946,-19.5808846],[-50.9241683,-19.5586174],[-50.9308813,-19.5422439],[-50.9629462,-19.5005788],[-50.9638634,-19.4863539],[-50.9494406,-19.4710515],[-50.9349978,-19.4674775],[-50.9521315,-19.4426335],[-50.9853022,-19.4313828],[-50.9869467,-19.4121607],[-51.0053474,-19.4008287],[-51.0189384,-19.4010838],[-51.029906,-19.3669788],[-51.0455374,-19.3433676],[-51.086857,-19.3139993],[-51.1265369,-19.3032868],[-51.1432251,-19.2870724],[-51.1691682,-19.2869631],[-51.1876418,-19.2689996],[-51.2291436,-19.2652102],[-51.2573458,-19.2664855],[-51.2759732,-19.2611264],[-51.2978876,-19.2386039],[-51.3070969,-19.2180815],[-51.3370336,-19.2222874],[-51.3448675,-19.2139068],[-51.3639605,-19.222506],[-51.3701184,-19.1995871],[-51.3926331,-19.1962778],[-51.4053572,-19.175547],[-51.4272881,-19.1651906],[-51.4585146,-19.1677776],[-51.4740732,-19.1537129],[-51.4976479,-19.1614011],[-51.5278318,-19.1388472],[-51.5411471,-19.147642]],[[-52.2082016,-19.3688268],[-52.211322,-19.3735362],[-52.2185749,-19.3756853],[-52.2492044,-19.3693478]],[[-52.308552,-19.3648603],[-52.3154625,-19.3641302],[-52.3212802,-19.3667146],[-52.3271803,-19.3660555],[-52.3434483,-19.3565195]],[[-52.5050816,-19.5458168],[-52.507728,-19.5511379],[-52.5095632,-19.5515633],[-52.5138919,-19.5492247],[-52.5156456,-19.550397]],[[-52.5156456,-19.550397],[-52.5107879,-19.5640811]],[[-52.5107879,-19.5640811],[-52.4947993,-19.5797488],[-52.4814154,-19.6031135],[-52.479576,-19.6079525],[-52.4534008,-19.6149786],[-52.4405838,-19.6319035],[-52.4315074,-19.6344252],[-52.3890483,-19.6332641],[-52.3616099,-19.6558594],[-52.3485015,-19.6685483],[-52.3407698,-19.6782747],[-52.3425968,-19.7007979],[-52.3304871,-19.7166504],[-52.3347066,-19.7292028],[-52.3202842,-19.7438965],[-52.3037626,-19.7495553],[-52.2964036,-19.7839162],[-52.2733313,-19.810828],[-52.2625168,-19.8143254],[-52.2123319,-19.8701639],[-52.2158084,-19.8938596],[-52.2102215,-19.9026262],[-52.2199641,-19.9195441],[-52.2204152,-19.9609771],[-52.2060108,-19.984659],[-52.2066745,-20.0025116],[-52.1960314,-20.0187865],[-52.2005674,-20.0327708],[-52.1837416,-20.0525531],[-52.1670716,-20.0584135],[-52.1675306,-20.0718352],[-52.1533319,-20.0799042],[-52.1466642,-20.107623],[-52.1275225,-20.1220904]],[[-53.4432653,-19.7578869],[-53.436738,-19.7629458],[-53.4348402,-19.7659865],[-53.4343524,-19.771065],[-53.4321873,-19.7722423],[-53.4342468,-19.7735963],[-53.424776,-19.7849201],[-53.4262862,-19.7874776],[-53.4454192,-19.792176]],[[-53.9849175,-19.7212316],[-53.9932224,-19.7257996]],[[-54.1690629,-20.7541283],[-54.1577516,-20.7724728],[-54.1494254,-20.7760782],[-54.1458017,-20.7803685],[-54.1369064,-20.7829251]],[[-53.6170894,-21.57009],[-53.6205863,-21.5764354]],[[-53.6205863,-21.5764354],[-53.6083537,-21.5902361]],[[-53.6083537,-21.5902361],[-53.6091372,-21.5908939]],[[-53.6091372,-21.5908939],[-53.5951362,-21.5895439],[-53.5889457,-21.6068255],[-53.566002,-21.6009273],[-53.5431809,-21.6015517],[-53.509738,-21.5870062],[-53.50269,-21.596486],[-53.4938701,-21.5938385],[-53.4671228,-21.5721586],[-53.4481206,-21.5754087],[-53.4394095,-21.5557375],[-53.4245709,-21.5570705],[-53.4222327,-21.5626696],[-53.402258,-21.5602511],[-53.3744659,-21.5785673],[-53.3480389,-21.5835595],[-53.3431865,-21.5878959],[-53.3436628,-21.595209],[-53.3318758,-21.594317],[-53.3104321,-21.5845267],[-53.2821987,-21.5917744],[-53.2631889,-21.5820589],[-53.2441317,-21.5999929],[-53.224005,-21.5804748]],[[-53.224005,-21.5804748],[-53.2088279,-21.5707532],[-53.1971115,-21.5777621]],[[-53.1971115,-21.5777621],[-53.1862919,-21.5890355],[-53.1689612,-21.5893275],[-53.1628459,-21.5894205],[-53.1522784,-21.5842466],[-53.1414543,-21.5758079],[-53.128816,-21.5801639],[-53.1278928,-21.5851118],[-53.105375,-21.5842154],[-53.0924789,-21.5884653],[-53.0657453,-21.599257]],[[-53.0657453,-21.599257],[-53.065442,-21.6036957],[-53.0628614,-21.606357],[-53.0565588,-21.610209],[-53.0504399,-21.6089094],[-53.04654,-21.6095824],[-53.045851,-21.6143406],[-53.0429567,-21.6162339],[-53.0395771,-21.6160136],[-53.035924,-21.609086],[-53.0299354,-21.6072834],[-53.0149919,-21.6183985]],[[-53.0149919,-21.6183985],[-52.9786982,-21.6535539],[-52.952014,-21.6533702],[-52.9361573,-21.6662444],[-52.9050969,-21.6655675],[-52.8828846,-21.6569995],[-52.8554943,-21.6624158],[-52.8398462,-21.6729892],[-52.8180331,-21.6683421],[-52.8031824,-21.6831513],[-52.7873552,-21.6885688],[-52.7338861,-21.7268054],[-52.6924599,-21.739571],[-52.6603052,-21.7223608],[-52.6416257,-21.7231912],[-52.628605,-21.7082325],[-52.6122999,-21.7113928],[-52.5842101,-21.7061639],[-52.548033,-21.7130827],[-52.5160363,-21.698939],[-52.506954,-21.7065202],[-52.4898657,-21.6884196],[-52.4245566,-21.6736822],[-52.3961939,-21.6710113],[-52.3374087,-21.6398766],[-52.3216821,-21.6409813],[-52.3103372,-21.631211],[-52.2868018,-21.644696],[-52.2570097,-21.6327987],[-52.2454637,-21.6436727],[-52.216235,-21.6541204],[-52.1963165,-21.6695255],[-52.1915402,-21.6879288],[-52.1724341,-21.7069196],[-52.1770028,-21.7303538],[-52.1675669,-21.7379105],[-52.1669392,-21.7518845],[-52.1612618,-21.7707737]],[[-52.1612618,-21.7707737],[-52.147792,-21.7595888],[-52.1037891,-21.7460538],[-52.0764924,-21.7148802],[-52.0558254,-21.6771588],[-52.0483403,-21.6563421],[-52.0520923,-21.6365942],[-52.0688756,-21.5981075],[-52.1021641,-21.5698135],[-52.0959624,-21.5420636],[-52.0777894,-21.5152225],[-52.0570666,-21.5036097],[-52.0003676,-21.5166265],[-51.9679033,-21.5017621],[-51.9523993,-21.4736037],[-51.9286818,-21.4558161],[-51.9182051,-21.4121824],[-51.9075357,-21.3864558],[-51.8687621,-21.3535302],[-51.86196,-21.3416175],[-51.8569297,-21.2895262],[-51.8485145,-21.2666384],[-51.8636776,-21.2267111],[-51.8795737,-21.1994307],[-51.8757603,-21.1810441],[-51.8789848,-21.1481377],[-51.8654739,-21.1305401],[-51.82359,-21.1268398],[-51.8080062,-21.1100231],[-51.7896709,-21.1021195],[-51.7756445,-21.0730936],[-51.7719774,-21.0459252],[-51.7596476,-21.0221968],[-51.7222304,-20.976768],[-51.705683,-20.9703564],[-51.6787264,-20.9729444],[-51.6596463,-20.9685035],[-51.6281707,-20.9490296],[-51.6189985,-20.9325906],[-51.6150883,-20.886086],[-51.6297015,-20.8614529],[-51.6329772,-20.8215582],[-51.6223984,-20.776872],[-51.6339969,-20.7474793],[-51.6242875,-20.7125187],[-51.603296,-20.6616955],[-51.5812708,-20.6216175]],[[-52.0074569,-20.4520262],[-52.0050615,-20.4319194],[-52.0118857,-20.4225567]],[[-52.106443,-20.1582446],[-52.1210184,-20.1256738],[-52.1275225,-20.1220904]],[[-52.5107879,-19.5640811],[-52.5117094,-19.5580223],[-52.5176478,-19.5438287]],[[-53.0568901,-19.424206],[-53.0717029,-19.4189834],[-53.080808,-19.4231485],[-53.0872868,-19.4241463]],[[-53.4678547,-19.570227],[-53.4822746,-19.5778562],[-53.4839241,-19.5847204],[-53.4818338,-19.5956963]],[[-53.0149919,-21.6183985],[-53.0200472,-21.6204453],[-53.0258853,-21.6147396],[-53.030315,-21.6071861],[-53.0367747,-21.6097814],[-53.0391971,-21.6155691],[-53.0411381,-21.6165149],[-53.045747,-21.6144945],[-53.0468692,-21.609447],[-53.0570505,-21.6100546],[-53.0648527,-21.6046034],[-53.0657453,-21.599257]],[[-53.1971115,-21.5777621],[-53.2086986,-21.5707601],[-53.224005,-21.5804748]],[[-53.6091372,-21.5908939],[-53.6170265,-21.5972642]],[[-53.6170265,-21.5972642],[-53.6263347,-21.6131957],[-53.7335757,-21.6215031],[-53.727188,-21.6643757],[-53.7417778,-21.6841551],[-53.7323389,-21.7302932],[-53.7370633,-21.7893943],[-53.7277019,-21.8057354],[-53.7559226,-21.83384],[-53.7625361,-21.8472166],[-53.7869533,-21.8787792],[-53.7908092,-21.9079471],[-53.7860566,-21.914913]],[[-53.7860566,-21.914913],[-53.7932406,-21.9295464]],[[-53.7932406,-21.9295464],[-53.7822989,-21.948421],[-53.760318,-21.9604084],[-53.7610997,-21.9841041],[-53.7607289,-21.9937821]],[[-53.7607289,-21.9937821],[-53.7537707,-21.9859748],[-53.7364109,-21.9865978],[-53.7315383,-21.9941327],[-53.7322119,-21.9987489],[-53.7367681,-22.0031416],[-53.7483369,-22.0033438],[-53.7503061,-22.0057794],[-53.7495943,-22.008476],[-53.7376055,-22.0163751]],[[-53.7376055,-22.0163751],[-53.6946484,-22.0328001],[-53.6926575,-22.0546194],[-53.6730713,-22.0737847],[-53.663408,-22.1116755],[-53.6445212,-22.1165867]],[[-53.6445212,-22.1165867],[-53.6273705,-22.1223739],[-53.6239669,-22.1274503],[-53.6241707,-22.1324509],[-53.6268076,-22.1388258]],[[-53.6268076,-22.1388258],[-53.5961324,-22.1477278]],[[-53.5961324,-22.1477278],[-53.5860561,-22.1633622],[-53.5939684,-22.1717337]],[[-53.5939684,-22.1717337],[-53.5867463,-22.1875381],[-53.5903376,-22.2031394],[-53.562813,-22.2315245],[-53.5744346,-22.2425493],[-53.5661179,-22.2781561],[-53.5523238,-22.2928057],[-53.5568309,-22.3049155],[-53.5337857,-22.3349777],[-53.5389482,-22.3749275],[-53.5279642,-22.3960414],[-53.5143712,-22.402932],[-53.5101348,-22.4339823],[-53.4963134,-22.4349813],[-53.4829139,-22.4553185],[-53.4881116,-22.4760344],[-53.5009081,-22.4907302],[-53.5184624,-22.5318283],[-53.5330183,-22.5430617]],[[-53.5330183,-22.5430617],[-53.5476183,-22.5446276],[-53.5526796,-22.5472254],[-53.5606648,-22.5563192],[-53.5627604,-22.5669724]],[[-53.5627604,-22.5669724],[-53.5605329,-22.5706384],[-53.5503941,-22.5709745],[-53.5448502,-22.5775286],[-53.5402074,-22.5792637],[-53.5334838,-22.5803454],[-53.510124,-22.5769131]],[[-53.510124,-22.5769131],[-53.4991097,-22.5871588],[-53.5004402,-22.6055266],[-53.5143607,-22.6001561],[-53.5244202,-22.6096586],[-53.5240399,-22.6147307],[-53.5125236,-22.6319003],[-53.5411813,-22.6527274],[-53.5535505,-22.6495043],[-53.5580854,-22.6716433],[-53.5589217,-22.6845899],[-53.5461689,-22.691875],[-53.5476528,-22.7106847],[-53.5346719,-22.7206193],[-53.5189141,-22.7549169],[-53.5057199,-22.7627602],[-53.5248636,-22.7934773],[-53.5600008,-22.8103077],[-53.5683414,-22.8353119],[-53.5875938,-22.8419401],[-53.6121834,-22.8595752],[-53.6223975,-22.9019975],[-53.6345028,-22.909952],[-53.6520762,-22.9224224],[-53.6528566,-22.939515],[-53.6491914,-22.9568617],[-53.6564509,-22.9814197],[-53.6340024,-23.0033823]],[[-53.6340024,-23.0033823],[-53.6074235,-22.9513335],[-53.5707711,-22.9284913],[-53.5468271,-22.8900963],[-53.4847612,-22.8638542],[-53.4508573,-22.8419368],[-53.4296508,-22.8329554],[-53.3987296,-22.8067269],[-53.3775322,-22.8032341],[-53.3520355,-22.7756806],[-53.3001456,-22.7538518],[-53.2441288,-22.7346976],[-53.2067208,-22.7312603],[-53.1888907,-22.7219472],[-53.1660298,-22.6937994],[-53.1476084,-22.6780813],[-53.1051872,-22.6219296],[-53.108915,-22.5983165],[-53.0738065,-22.5488576],[-53.039801,-22.5273956],[-53.0143612,-22.5206658],[-52.9985791,-22.4931813],[-52.9796933,-22.4835477],[-52.885837,-22.4528736],[-52.8547612,-22.4391124],[-52.8398869,-22.415311],[-52.7983309,-22.3782734],[-52.745835,-22.343313],[-52.7242686,-22.3351079],[-52.6951341,-22.3146106],[-52.6502765,-22.301001],[-52.6333804,-22.2849861],[-52.6019914,-22.2719514],[-52.5869392,-22.2567505],[-52.5420795,-22.2402663],[-52.5232339,-22.2290219],[-52.4877143,-22.217206],[-52.4799657,-22.2008818],[-52.4606752,-22.1887434],[-52.4081883,-22.1416352],[-52.3919064,-22.1146789],[-52.377218,-22.1066782],[-52.3551312,-22.0772314],[-52.3391918,-22.0478264],[-52.3190194,-21.9721319],[-52.3014847,-21.9421686],[-52.2749632,-21.9149419],[-52.2484061,-21.9022804],[-52.233433,-21.883754],[-52.1905614,-21.8461447],[-52.1839844,-21.8144605],[-52.1612618,-21.7707737]],[[-57.5017268,-22.167181],[-57.5018107,-22.1591248],[-57.504545,-22.1580173],[-57.5089608,-22.1590704],[-57.5094395,-22.161276]],[[-57.5168337,-22.173625],[-57.5098554,-22.1822767],[-57.4835499,-22.1922816],[-57.4448357,-22.1877668],[-57.3862672,-22.2044165],[-57.3713845,-22.2317503],[-57.3576889,-22.2264003],[-57.3158021,-22.2361892],[-57.2959932,-22.2191034],[-57.2704357,-22.2371283],[-57.2377612,-22.2512801],[-57.2179698,-22.2410823],[-57.2151324,-22.2216109],[-57.2032521,-22.2117245],[-57.1841904,-22.2293179],[-57.1484636,-22.2338362],[-57.1363038,-22.2262593],[-57.1086453,-22.2314046],[-57.1022908,-22.2484589],[-57.0794982,-22.2495249],[-57.0187796,-22.2312654],[-57.0000043,-22.2229663],[-56.9874526,-22.2426378],[-56.9590973,-22.237984],[-56.9472109,-22.2561111],[-56.9157353,-22.2553976],[-56.8890809,-22.245303],[-56.8753501,-22.2635159],[-56.8798582,-22.2777037],[-56.8423859,-22.3015878],[-56.8026856,-22.2835045],[-56.8080905,-22.2710349],[-56.8019673,-22.2490303],[-56.7724664,-22.2584168],[-56.7630014,-22.2424148],[-56.7441029,-22.2412392],[-56.7203029,-22.2566662],[-56.6824244,-22.2215012],[-56.6789775,-22.2464656],[-56.6385734,-22.2603803],[-56.6313169,-22.2454508],[-56.6055921,-22.2319817],[-56.6031998,-22.2204209],[-56.5823173,-22.2056444],[-56.5566365,-22.1967626],[-56.5570521,-22.1690914],[-56.5378432,-22.1577436],[-56.5226885,-22.1377567],[-56.5188509,-22.1082824],[-56.4962675,-22.0939333],[-56.48386,-22.0953248],[-56.4708908,-22.0798515],[-56.4345803,-22.0849081],[-56.39324,-22.074652],[-56.3927277,-22.1008968],[-56.3782455,-22.1146516],[-56.3676632,-22.1368543],[-56.3738377,-22.1499626],[-56.3668081,-22.1630702],[-56.3450889,-22.1796277]],[[-56.3450889,-22.1796277],[-56.3312209,-22.1752702],[-56.3190721,-22.1845543],[-56.304022,-22.1859281],[-56.3035501,-22.1836322],[-56.2890411,-22.161095],[-56.2575474,-22.1628711],[-56.2355547,-22.1738614],[-56.2035983,-22.1727685],[-56.2020789,-22.106217],[-56.1338786,-22.1128722],[-56.1129666,-22.1274967],[-56.0951306,-22.1202598],[-56.0797935,-22.0890876],[-56.0299204,-22.1316125],[-56.0245587,-22.1253071],[-56.0458379,-22.1005959],[-56.0415837,-22.089112],[-56.0173122,-22.0935836],[-56.0095603,-22.0765542],[-56.0285913,-22.0393555],[-56.0459578,-22.0365105],[-56.0283047,-22.0104062],[-56.0459792,-21.9752099],[-56.0596151,-21.9793907],[-56.080621,-21.9675527],[-56.0691926,-21.9410268],[-56.0867138,-21.9123531],[-56.0914003,-21.8950715],[-56.0584709,-21.8985617],[-56.0249401,-21.883953],[-56.0025894,-21.9041283],[-56.0007835,-21.8812075],[-55.9871301,-21.8665965],[-56.0038125,-21.8551877],[-56.0173267,-21.8361802],[-56.0192101,-21.8095108],[-55.9998445,-21.812188],[-55.9914248,-21.8351056],[-55.963458,-21.8470101],[-55.9685796,-21.8223197],[-55.9577972,-21.8205441],[-55.946173,-21.8497583],[-55.912365,-21.8133937],[-55.9390278,-21.810074],[-55.9510869,-21.7882036],[-55.9308823,-21.7899405],[-55.9243603,-21.7776571],[-55.8967569,-21.7718104],[-55.8886465,-21.750241],[-55.899192,-21.741036],[-55.9343746,-21.7347655],[-55.9227006,-21.7108989],[-55.9425269,-21.7086765],[-55.9513483,-21.6889544],[-55.9391679,-21.6743107],[-55.9459145,-21.6613841],[-55.9230949,-21.6568195],[-55.9209725,-21.6845546],[-55.9080549,-21.6837153],[-55.9017282,-21.6588005],[-55.8859646,-21.665523],[-55.8679294,-21.6550541],[-55.8348609,-21.6536954],[-55.831191,-21.629493],[-55.8150809,-21.629055],[-55.8242896,-21.6040927],[-55.812023,-21.5980405],[-55.8009938,-21.6153066],[-55.7749814,-21.6152129],[-55.7504043,-21.6403691],[-55.7473315,-21.6385644],[-55.758392,-21.6165977],[-55.755264,-21.5948613],[-55.7828006,-21.5953242],[-55.7876795,-21.5936261],[-55.7962185,-21.5806172],[-55.7936559,-21.5604218],[-55.8098543,-21.5460325],[-55.8187045,-21.5375522],[-55.8202867,-21.52861],[-55.8132867,-21.5347177],[-55.8063367,-21.5244915],[-55.78897,-21.5258399],[-55.7834525,-21.5216161],[-55.8065977,-21.5092428],[-55.8016762,-21.4962786],[-55.8050415,-21.4985958],[-55.8136578,-21.4960758],[-55.8230651,-21.4990946],[-55.8271068,-21.4946905],[-55.8278005,-21.4906977],[-55.8283806,-21.4852735],[-55.8317282,-21.4802043],[-55.8270632,-21.4844942],[-55.8243302,-21.4754083],[-55.8231771,-21.4581432],[-55.8187051,-21.4505606],[-55.8204051,-21.4505895],[-55.8267954,-21.451964],[-55.8288726,-21.4468581],[-55.8242009,-21.4470675],[-55.7920824,-21.4584951],[-55.7945429,-21.4609445],[-55.7902233,-21.465584],[-55.7929547,-21.4619765],[-55.7877717,-21.455193],[-55.7813415,-21.4561724],[-55.7748613,-21.4490353],[-55.7750972,-21.445766],[-55.7553922,-21.4533368],[-55.7311134,-21.4281089],[-55.7025261,-21.4210401],[-55.7076945,-21.4467154],[-55.694755,-21.4447454],[-55.6900182,-21.4473851],[-55.6797154,-21.4605114],[-55.6792158,-21.4668435],[-55.681396,-21.4789371],[-55.6783983,-21.4842993],[-55.6775833,-21.4882722],[-55.6749614,-21.4772336],[-55.6669708,-21.482609],[-55.6636379,-21.4840202],[-55.6586645,-21.4804075],[-55.6566743,-21.4787447],[-55.6633025,-21.4728033],[-55.6628838,-21.4669116],[-55.6598198,-21.4572383],[-55.6588405,-21.4527981],[-55.662448,-21.4516116],[-55.6662526,-21.4467303],[-55.676519,-21.4319536],[-55.6786724,-21.423709],[-55.6581983,-21.4089411],[-55.6518494,-21.3766342],[-55.703209,-21.3877385],[-55.7023788,-21.3785239],[-55.6720545,-21.3798584],[-55.6780497,-21.3623851],[-55.6912552,-21.3524796],[-55.6776548,-21.3276537],[-55.6883304,-21.3231934],[-55.6667951,-21.2896301],[-55.694635,-21.2557532],[-55.6771868,-21.2520923],[-55.6697873,-21.2382148],[-55.6708948,-21.2341428],[-55.6821677,-21.2205491],[-55.6640899,-21.2080867],[-55.6830481,-21.1986926],[-55.685248,-21.1939399],[-55.6809815,-21.1973704],[-55.673478,-21.1933394],[-55.6572171,-21.2170417],[-55.6436859,-21.2250715],[-55.6371153,-21.2229009],[-55.6325275,-21.2392794],[-55.6309108,-21.2392395],[-55.6286461,-21.2319773],[-55.6286665,-21.229837],[-55.6313869,-21.2256922],[-55.6458676,-21.1965091],[-55.6271063,-21.1936611],[-55.625263,-21.1653474],[-55.6031578,-21.1702879],[-55.5986792,-21.1679153],[-55.6067178,-21.1650563],[-55.6084614,-21.1595282],[-55.6194979,-21.1566778],[-55.6200614,-21.1494073],[-55.625211,-21.1284471],[-55.6258178,-21.1248691],[-55.6283403,-21.1169311],[-55.6352268,-21.1169759],[-55.6352592,-21.1000499],[-55.6432967,-21.0992746],[-55.644144,-21.0930186],[-55.6515989,-21.0894264],[-55.6566552,-21.0846002],[-55.6624672,-21.0868491],[-55.6698736,-21.0837077],[-55.6691104,-21.0746417],[-55.6619,-21.0847161],[-55.6539192,-21.0811516],[-55.6531062,-21.0846405],[-55.6405443,-21.0889554],[-55.6366267,-21.0936479],[-55.6268025,-21.0905359],[-55.6274784,-21.0790741],[-55.6127109,-21.0676373],[-55.5932571,-21.0653393],[-55.5869137,-21.0454646],[-55.5852494,-21.0501328],[-55.586484,-21.0739551],[-55.587827,-21.0800947],[-55.586704,-21.0810496],[-55.5804715,-21.0845772],[-55.5583286,-21.0633857],[-55.5518323,-21.0480287],[-55.5457491,-21.045948],[-55.5362387,-21.0506216],[-55.5230823,-21.0642985],[-55.5229714,-21.0668799],[-55.5255493,-21.0677463],[-55.5449639,-21.0604822],[-55.5632895,-21.0910775],[-55.5643614,-21.0938506],[-55.5543772,-21.085219],[-55.5354515,-21.0961167],[-55.5295231,-21.0940551],[-55.5193868,-21.082459],[-55.4939801,-21.0754329],[-55.4889161,-21.0547312],[-55.5024204,-21.0396825],[-55.4861152,-21.022369]],[[-55.953774,-20.8163749],[-55.9679343,-20.8196701],[-55.9902359,-20.8119665]],[[-56.9486619,-20.3189226],[-56.9444822,-20.3271273],[-56.9489903,-20.3334162],[-56.9737067,-20.3368033]],[[-56.3450889,-22.1796277],[-56.3218538,-22.2143943],[-56.299425,-22.2174598],[-56.2850974,-22.2321428],[-56.26304,-22.2396433],[-56.2374592,-22.2366225],[-56.233905,-22.2554331],[-56.2090751,-22.2782067],[-56.193285,-22.2710097],[-56.1743279,-22.2856057],[-56.1305909,-22.2842049],[-56.1245682,-22.2706425],[-56.0866096,-22.2863124],[-56.0635321,-22.2764259],[-56.0078013,-22.2926982],[-55.9799898,-22.2793142],[-55.9495481,-22.2931298],[-55.9459982,-22.2835833],[-55.9165691,-22.2777171],[-55.901812,-22.2851819],[-55.8653447,-22.2835474],[-55.8431265,-22.2871094],[-55.8323762,-22.3256526],[-55.8209895,-22.3451086],[-55.8008553,-22.3553042],[-55.8037116,-22.372243],[-55.7798183,-22.3843248],[-55.7487056,-22.3834175],[-55.7372206,-22.4111581],[-55.7339153,-22.4415317],[-55.7511166,-22.4746765],[-55.7472827,-22.505515],[-55.7236467,-22.5517823],[-55.698471,-22.5632723],[-55.6828835,-22.5888691],[-55.641368,-22.6127055],[-55.6251579,-22.6282529],[-55.6228744,-22.6504692],[-55.6144219,-22.6550953],[-55.6172826,-22.6776087],[-55.6133942,-22.717023],[-55.6201529,-22.7533634],[-55.6506364,-22.7933309],[-55.6533701,-22.8166425],[-55.6658547,-22.8524621],[-55.6612184,-22.882188],[-55.6509664,-22.8872855],[-55.6454864,-22.9244448],[-55.6516119,-22.9310648],[-55.6383685,-22.950554],[-55.6368276,-22.9647894],[-55.6219274,-22.9844943],[-55.6339058,-22.991781],[-55.6393893,-23.0259092],[-55.6113185,-23.047665],[-55.6113109,-23.0768353],[-55.5958235,-23.1194677],[-55.5967818,-23.1525978],[-55.5733963,-23.1433433],[-55.5418854,-23.1561324],[-55.5430994,-23.1807879],[-55.5232812,-23.197787],[-55.5402337,-23.2208337],[-55.5390992,-23.2411989]],[[-55.5390992,-23.2411989],[-55.5200442,-23.239826],[-55.4981536,-23.2061067],[-55.4930605,-23.196719],[-55.4945399,-23.1925484]],[[-55.4945399,-23.1925484],[-55.4961576,-23.1650006],[-55.4900603,-23.1564834]],[[-55.4900603,-23.1564834],[-55.4792281,-23.1287141],[-55.4477297,-23.098345],[-55.4438653,-23.0927028],[-55.4327566,-23.1023162],[-55.4219063,-23.1276024],[-55.4023117,-23.1482727],[-55.374926,-23.1952009],[-55.3732093,-23.2079927],[-55.3588205,-23.2195631]],[[-55.3588205,-23.2195631],[-55.3553319,-23.2406187],[-55.3414338,-23.2615076],[-55.3365094,-23.2649942]],[[-55.3365094,-23.2649942],[-55.3101684,-23.2726006],[-55.2344712,-23.3189384],[-55.2214296,-23.3205373],[-55.1572433,-23.3635536],[-55.1454299,-23.4095525],[-55.1031991,-23.4465649],[-55.0910204,-23.4654768],[-55.0808471,-23.4712191],[-55.0430793,-23.4922766],[-55.0205518,-23.4967663],[-54.9974847,-23.5142925],[-54.9692994,-23.5421802],[-54.924427,-23.5627756],[-54.9169004,-23.563132],[-54.8735549,-23.5505453],[-54.835389,-23.5532748],[-54.8184774,-23.5483348],[-54.8154501,-23.5478074],[-54.8136541,-23.5475501],[-54.8136359,-23.5387945],[-54.8286208,-23.5230329],[-54.8399141,-23.5003552],[-54.8414073,-23.4894199],[-54.8426169,-23.4792372],[-54.8808128,-23.4362771],[-54.8646062,-23.4088824],[-54.8367591,-23.3877125],[-54.8408711,-23.3625623],[-54.8327175,-23.3388991],[-54.818279,-23.3170529]],[[-54.818279,-23.3170529],[-54.8159411,-23.3072287],[-54.813709,-23.3056906],[-54.7896899,-23.3060142]],[[-54.7896899,-23.3060142],[-54.7717849,-23.2906827],[-54.7318528,-23.2936859],[-54.7070873,-23.2868906],[-54.6720828,-23.3113243],[-54.6532891,-23.2894657],[-54.6435031,-23.27478],[-54.6530756,-23.2638829],[-54.6553751,-23.2323534],[-54.6618536,-23.2113109],[-54.6547643,-23.1860546],[-54.6341654,-23.1637669],[-54.590566,-23.1560225],[-54.56436,-23.1302026],[-54.543908,-23.1174414],[-54.5219085,-23.1122724],[-54.5108907,-23.0901652],[-54.4806498,-23.065889],[-54.4708794,-23.0504859],[-54.4682594,-23.0435179],[-54.4701522,-23.0409309],[-54.4651096,-23.0300749],[-54.4474168,-22.9973617],[-54.4435867,-22.9761755],[-54.4321116,-22.958435],[-54.4328983,-22.9280423],[-54.4287574,-22.8786214],[-54.4163464,-22.8649251],[-54.4275049,-22.8325468],[-54.4258808,-22.8216036],[-54.1736878,-22.7688501],[-54.1612063,-22.7650043],[-54.1275501,-22.7756515],[-54.1035584,-22.7598325],[-54.1018492,-22.7446282],[-54.1260196,-22.7226741],[-54.1462043,-22.7117745],[-54.1687143,-22.7122527],[-54.191812,-22.7224863],[-54.2274677,-22.7105147],[-54.3259944,-22.5846948],[-54.3542017,-22.6103881],[-54.3887008,-22.6317079],[-54.4069262,-22.6347962],[-54.4303742,-22.6259815],[-54.2625483,-22.2516319],[-54.303396,-22.2356707],[-54.3017056,-22.2222622],[-54.2794733,-22.2174382],[-54.282355,-22.2027224],[-54.2692183,-22.1949786],[-54.2663206,-22.1715466],[-54.2476196,-22.1475375],[-54.2289749,-22.1396867],[-54.2396288,-22.1222882],[-54.2395737,-22.0901632],[-54.2190001,-22.0315509],[-54.2074971,-22.020047],[-54.2075919,-22.0020082],[-54.2207619,-21.9954544],[-54.2196199,-21.9772914],[-54.2308716,-21.9722523],[-54.2319934,-21.953839],[-54.2140919,-21.9486545],[-54.1914304,-21.9245074],[-54.1401102,-21.9462542],[-54.1327816,-21.9307101],[-54.0967421,-21.913551],[-54.0825074,-21.9278851],[-54.0638965,-21.9084658],[-54.0266464,-21.8966044],[-54.0128642,-21.9041724],[-53.9929543,-21.9012757],[-53.9451599,-21.9190134],[-53.9290059,-21.9013278],[-53.9144556,-21.8980309],[-53.9036205,-21.9108676],[-53.880118,-21.8824563],[-53.8620233,-21.8968699],[-53.848206,-21.9027308],[-53.8286378,-21.9034474],[-53.8148502,-21.9126916]],[[-53.8148502,-21.9126916],[-53.7860566,-21.914913]],[[-53.6170265,-21.5972642],[-53.6083537,-21.5902361]],[[-53.6205863,-21.5764354],[-53.6250806,-21.5725869]],[[-53.6649242,-21.55842],[-53.6686267,-21.5558775],[-53.6680687,-21.553685],[-53.6699829,-21.5520206],[-53.69621,-21.5572641]],[[-55.2728798,-21.0114001],[-55.2540427,-21.0156699]],[[-55.2663957,-20.9983316],[-55.2757056,-20.999743],[-55.3008255,-21.0215364]],[[-54.7896899,-23.3060142],[-54.8066547,-23.3054236],[-54.8155623,-23.3066905],[-54.818279,-23.3170529]],[[-55.3365094,-23.2649942],[-55.3410726,-23.2618635],[-55.3552868,-23.2407264],[-55.3588205,-23.2195631]],[[-55.4900603,-23.1564834],[-55.4958974,-23.1640771],[-55.4934943,-23.1758972],[-55.4945399,-23.1925484]],[[-55.5390992,-23.2411989],[-55.5226578,-23.259713],[-55.5530803,-23.2795321],[-55.5491776,-23.3037066],[-55.5559125,-23.3163231],[-55.5345664,-23.3333552],[-55.5206239,-23.3522861],[-55.5194212,-23.3651743],[-55.5044807,-23.3784698],[-55.5155897,-23.4095754],[-55.5446944,-23.4493317],[-55.540589,-23.4555265],[-55.5516965,-23.4894396],[-55.5466839,-23.5226098],[-55.5361329,-23.5549904],[-55.526527,-23.5673511],[-55.5381803,-23.5918935],[-55.5304278,-23.6278216],[-55.5103413,-23.6326177],[-55.4746739,-23.6504699],[-55.4759663,-23.6751962],[-55.462156,-23.6839427],[-55.4634672,-23.7119674],[-55.4362574,-23.7167603],[-55.4486744,-23.7422695],[-55.4432349,-23.7657457],[-55.4301796,-23.7901412],[-55.4538885,-23.8192704],[-55.4415458,-23.8293466],[-55.4355666,-23.8723807],[-55.4394863,-23.9048976],[-55.4463353,-23.9169315],[-55.4278692,-23.9263193],[-55.4199855,-23.9572967],[-55.3975574,-23.9741481],[-55.3875992,-23.9675007],[-55.3454859,-23.9945972],[-55.336089,-23.9929515],[-55.3177216,-23.9628938],[-55.3041758,-23.9650266],[-55.2777987,-23.9845562],[-55.235373,-24.006622],[-55.2290402,-24.0139666],[-55.2069243,-24.0036025],[-55.1984203,-23.9866936],[-55.1786588,-23.9937987],[-55.1287264,-23.98373],[-55.1069709,-23.9652119],[-55.0903576,-23.9825746],[-55.0623315,-23.9932886],[-55.0332878,-23.9739009],[-55.0200794,-23.9726203],[-54.9985893,-23.9575893],[-54.9666801,-23.9661659],[-54.9252523,-23.9602818],[-54.9303274,-23.9443204],[-54.9268771,-23.924814],[-54.9086879,-23.9113704],[-54.8601131,-23.9052013],[-54.8363205,-23.8839164],[-54.8143204,-23.8904277],[-54.7927967,-23.8680787],[-54.7452925,-23.8687084],[-54.7051834,-23.8646063],[-54.6985731,-23.8419968],[-54.6686473,-23.8171906],[-54.6467748,-23.8337631],[-54.6165884,-23.8350205],[-54.6097366,-23.8513764],[-54.5814792,-23.8458011],[-54.5643949,-23.8542135],[-54.5685808,-23.874467],[-54.5434369,-23.868102],[-54.5231574,-23.8735922],[-54.5148814,-23.8851784],[-54.4930047,-23.8851551],[-54.4867798,-23.8939793],[-54.4401395,-23.9042761],[-54.426221,-23.9157118],[-54.4268301,-23.9310901],[-54.4147006,-23.9581102],[-54.394308,-23.9652556],[-54.3868621,-23.9828167],[-54.351957,-24.0076726],[-54.337917,-24.0015631],[-54.3188541,-24.0105075],[-54.3216312,-24.0245429],[-54.3099595,-24.0463149],[-54.284134,-24.0675568],[-54.2494639,-24.0559018],[-54.2272831,-24.0432521],[-54.1746867,-24.0019728],[-54.1402563,-23.9884028],[-54.1175484,-23.9713288],[-54.101765,-23.9519635],[-54.0799057,-23.8889783],[-54.0881053,-23.8445303],[-54.0804586,-23.7808971],[-54.0705151,-23.754011],[-54.0526388,-23.7250676],[-54.0535148,-23.7016786],[-54.0446082,-23.6686559],[-54.0322298,-23.6516617],[-54.0240178,-23.5860784],[-54.0084866,-23.5490387],[-54.0043425,-23.51108],[-53.9865967,-23.4647936],[-53.9601976,-23.4434149],[-53.932055,-23.4459488],[-53.8765944,-23.4197884],[-53.8160218,-23.3856449],[-53.7754879,-23.3751314],[-53.7413238,-23.3356384],[-53.7252209,-23.3104334],[-53.7055967,-23.2632524],[-53.699341,-23.2349043],[-53.6795624,-23.1952574],[-53.6679996,-23.1823501],[-53.6547546,-23.1441601],[-53.6365887,-23.1250308],[-53.6298958,-23.0135048],[-53.6340024,-23.0033823]],[[-53.510124,-22.5769131],[-53.517717,-22.5754684],[-53.5341165,-22.5804068],[-53.5435033,-22.5781725],[-53.5509278,-22.5707193],[-53.5627604,-22.5669724]],[[-53.5627604,-22.5669724],[-53.5614428,-22.5579699],[-53.556904,-22.5512644],[-53.5501834,-22.5455227],[-53.5330183,-22.5430617]],[[-53.5939684,-22.1717337],[-53.5961324,-22.1477278]],[[-53.6268076,-22.1388258],[-53.6237553,-22.1298924],[-53.626284,-22.1230195],[-53.6383328,-22.1178688],[-53.6445212,-22.1165867]],[[-53.7376055,-22.0163751],[-53.7499133,-22.0080414],[-53.7500761,-22.0051072],[-53.7473154,-22.0028987],[-53.7378562,-22.0033545],[-53.7337034,-22.001125],[-53.7312548,-21.9952541],[-53.735809,-21.9870257],[-53.7529573,-21.9857818],[-53.7607289,-21.9937821]],[[-53.7932406,-21.9295464],[-53.7929596,-21.9167224],[-53.8148502,-21.9126916]]],"bbox":[-58.1671536,-24.0675568,-50.9241683,-17.1663486]}
