{"type":"Topology","objects":{"geometrias":{"type":"GeometryCollection","geometries":[{"type":"Polygon","arcs":[[0,1]],"properties":{"code_micro":17001,"name_micro":"Bico do Papagaio","code_state":17,"code_region":1,"abbrev_state":"TO","name_state":"Tocantins","name_region":"Norte","year":2020}},{"type":"Polygon","arcs":[[2,3,4,5,6,-2]],"properties":{"code_micro":17002,"name_micro":"Araguaína","code_state":17,"code_region":1,"abbrev_state":"TO","name_state":"Tocantins","name_region":"Norte","year":2020}},{"type":"Polygon","arcs":[[7,8,9,10,11,12,13,14,15,16,17,18,19,20,21,22,23,24,-4]],"properties":{"code_micro":17003,"name_micro":"Miracema do Tocantins","code_state":17,"code_region":1,"abbrev_state":"TO","name_state":"Tocantins","name_region":"Norte","year":2020}},{"type":"Polygon","arcs":[[25,26,27,28,29,30,-9]],"properties":{"code_micro":17004,"name_micro":"Rio Formoso","code_state":17,"code_region":1,"abbrev_state":"TO","name_state":"Tocantins","name_region":"Norte","year":2020}},{"type":"Polygon","arcs":[[31,-27,32,33,34,35,36,37,38,39,40,-29]],"properties":{"code_micro":17005,"name_micro":"Gurupi","code_state":17,"code_region":1,"abbrev_state":"TO","name_state":"Tocantins","name_region":"Norte","year":2020}},{"type":"Polygon","arcs":[[41,-30,-41,42,-39,43,-37,44,45,46,47,48,49,50,51,52,53,54,-15,55,-13,56,-11]],"properties":{"code_micro":17006,"name_micro":"Porto Nacional","code_state":17,"code_region":1,"abbrev_state":"TO","name_state":"Tocantins","name_region":"Norte","year":2020}},{"type":"Polygon","arcs":[[57,-52,58,-50,59,-48,60,61,62,-6,63,-24,64,-22,65,-20,66,-18,67,68,-54]],"properties":{"code_micro":17007,"name_micro":"Jalapão","code_state":17,"code_region":1,"abbrev_state":"TO","name_state":"Tocantins","name_region":"Norte","year":2020}},{"type":"Polygon","arcs":[[69,-34,70,-62,71,-46,72]],"properties":{"code_micro":17008,"name_micro":"Dianópolis","code_state":17,"code_region":1,"abbrev_state":"TO","name_state":"Tocantins","name_region":"Norte","year":2020}}]}},"arcs":[[[-47.5471007,-7.0167185],[-47.5288692,-6.9772069],[-47.5295707,-6.946013],[-47.5076246,-6.9071901],[-47.5070392,-6.8720101],[-47.5204916,-6.8404706],[-47.5296459,-6.8313891],[-47.516702,-6.7902601],[-47.4941187,-6.7548332],[-47.4986441,-6.6712316],[-47.4687902,-6.6212462],[-47.4625341,-6.6017466],[-47.4651301,-6.5772858],[-47.4564977,-6.5382745],[-47.4342054,-6.5043796],[-47.4166526,-6.4856784],[-47.4342057,-6.4311886],[-47.4099549,-6.3696555],[-47.4086249,-6.3280669],[-47.3772358,-6.2667683],[-47.3853684,-6.2303915],[-47.4014776,-6.2092485],[-47.423204,-6.1601861],[-47.4344778,-6.0931153],[-47.428042,-6.0392245],[-47.4456221,-6.0015723],[-47.4463681,-5.9845441],[-47.4345974,-5.9516005],[-47.4288701,-5.9194832],[-47.4310634,-5.8692106],[-47.4422786,-5.8307859],[-47.4665086,-5.7783003],[-47.4826225,-5.7593056],[-47.4933745,-5.7305307],[-47.4930942,-5.7100384],[-47.4737045,-5.6619797],[-47.4844013,-5.595604],[-47.4832614,-5.5648989],[-47.5001205,-5.5256048],[-47.5283488,-5.4926657],[-47.5602606,-5.4632127],[-47.5805091,-5.4700166],[-47.6186197,-5.4597262],[-47.6667723,-5.4217873],[-47.7210679,-5.3945317],[-47.7409265,-5.3814482],[-47.7683377,-5.3782023],[-47.7929894,-5.3847115],[-47.8275409,-5.3865882],[-47.8437594,-5.3762088],[-47.8676241,-5.3428159],[-47.8657451,-5.317225],[-47.8729236,-5.2723581],[-47.8855715,-5.2607002],[-47.9281041,-5.2412355],[-48.0040589,-5.2346202],[-48.0189578,-5.2398258],[-48.0492647,-5.2661013],[-48.0738428,-5.2722461],[-48.1122927,-5.2656258],[-48.1785442,-5.2607761],[-48.2064996,-5.248984],[-48.2349277,-5.2283067],[-48.2730178,-5.2159652],[-48.2934032,-5.2040481],[-48.3286879,-5.1965942],[-48.3639098,-5.1683805],[-48.4725988,-5.1870923],[-48.4863222,-5.1938198],[-48.5194602,-5.1921355],[-48.548824,-5.2135555],[-48.5610735,-5.2301992],[-48.5685726,-5.2829328],[-48.5841326,-5.3112956],[-48.6061317,-5.3365008],[-48.6301017,-5.3329578],[-48.6386591,-5.3200089],[-48.66208,-5.3072081],[-48.6794384,-5.3058201],[-48.6992101,-5.3201232],[-48.7044669,-5.3447281],[-48.7304354,-5.3479944],[-48.749297,-5.3673877],[-48.6504881,-5.3849182],[-48.6291243,-5.4100587],[-48.5967334,-5.4225444],[-48.5575365,-5.416711],[-48.5139025,-5.4298196],[-48.4915489,-5.4259418],[-48.4645898,-5.4122918],[-48.3935104,-5.3942126],[-48.3734856,-5.4027369],[-48.3515976,-5.4278364],[-48.341084,-5.4670646],[-48.328787,-5.4910438],[-48.300707,-5.5230066],[-48.2786891,-5.5404233],[-48.2380102,-5.5527711],[-48.2261928,-5.5506543],[-48.1947353,-5.5630933],[-48.138152,-5.6026901],[-48.1322491,-5.6181301],[-48.1412274,-5.6543538],[-48.1709594,-5.7073508],[-48.1939529,-5.7201423],[-48.2306488,-5.7292609],[-48.27571,-5.7265134],[-48.2902384,-5.7435391],[-48.2976365,-5.7651235],[-48.2997946,-5.7959706],[-48.2919698,-5.8368374],[-48.2703991,-5.871435],[-48.2456023,-5.8962332],[-48.2327868,-5.9166308],[-48.2316293,-5.9461389],[-48.2519581,-5.9603733],[-48.2919557,-5.9685142],[-48.321462,-5.9855016],[-48.3347163,-6.0042748],[-48.3351601,-6.0357197],[-48.2984849,-6.0501309],[-48.2831587,-6.0815576],[-48.2880473,-6.0975637],[-48.3245162,-6.1327193],[-48.3654883,-6.1473739],[-48.3912929,-6.1467035],[-48.4082705,-6.1534022],[-48.4349388,-6.1831683],[-48.436132,-6.2013716],[-48.4127108,-6.2813296],[-48.4180506,-6.2948936],[-48.4063464,-6.3108115],[-48.3848765,-6.324503],[-48.3756899,-6.3449927]],[[-48.3756899,-6.3449927],[-48.3466291,-6.3564844],[-48.3433296,-6.3838093],[-48.3381636,-6.3956034],[-48.3207378,-6.4080603],[-48.304878,-6.402526],[-48.2925639,-6.4244379],[-48.2919984,-6.4481712],[-48.2698965,-6.4370365],[-48.2469684,-6.4411278],[-48.2397046,-6.4593227],[-48.2266533,-6.4648317],[-48.2228634,-6.4603069],[-48.2208057,-6.4589617],[-48.2130473,-6.4515822],[-48.2057138,-6.4631472],[-48.2026328,-6.467088],[-48.2024444,-6.4687485],[-48.2028064,-6.4702924],[-48.202695,-6.4727303],[-48.1812329,-6.5052503],[-48.1601583,-6.5091197],[-48.13931,-6.528724],[-48.1256858,-6.5562854],[-48.1337743,-6.5670293],[-48.1253387,-6.5852946],[-48.127308,-6.5870415],[-48.1185874,-6.5968795],[-48.1270122,-6.6127666],[-48.1252299,-6.6343632],[-48.1064536,-6.6529355],[-48.069064,-6.6575922],[-48.0401286,-6.6891726],[-48.0178672,-6.6910385],[-48.0157448,-6.70258],[-47.9942246,-6.705164],[-47.9389234,-6.7599611],[-47.9284312,-6.7588435],[-47.9142369,-6.7771867],[-47.8996118,-6.7812472],[-47.9049882,-6.8054956],[-47.8826647,-6.8355554],[-47.8783053,-6.863207],[-47.8654757,-6.8629294],[-47.8569368,-6.8804292],[-47.8281903,-6.9023065],[-47.7939776,-6.9096611],[-47.7642837,-6.9045557],[-47.7102159,-6.9078449],[-47.6973839,-6.9299134],[-47.6548556,-6.9646073],[-47.6352764,-6.9881183],[-47.5748368,-6.9965509],[-47.5471007,-7.0167185]],[[-48.3756899,-6.3449927],[-48.3826793,-6.3796079],[-48.4216325,-6.358483],[-48.447707,-6.3511789],[-48.5002152,-6.3509276],[-48.5112392,-6.3569323],[-48.5405762,-6.4008421],[-48.607185,-6.4480111],[-48.6462681,-6.5088892],[-48.6645491,-6.5676742],[-48.6539295,-6.6015438],[-48.6519604,-6.6399512],[-48.676189,-6.6733797],[-48.6976577,-6.683716],[-48.7229311,-6.6877073],[-48.7444027,-6.6985804],[-48.7690982,-6.7307016],[-48.7926841,-6.7436913],[-48.8258553,-6.7546541],[-48.8511291,-6.7486772],[-48.913853,-6.7573695],[-48.9637126,-6.7794597],[-49.0188835,-6.7842105],[-49.0437712,-6.8157714],[-49.1030511,-6.8571659],[-49.1152709,-6.8699495],[-49.1504653,-6.8888509],[-49.1719412,-6.8929351],[-49.1839167,-6.9078872],[-49.2095281,-6.9254206],[-49.2174451,-6.9614693],[-49.1952789,-7.0262647],[-49.1913048,-7.0749287],[-49.193796,-7.1298147],[-49.1831997,-7.2145997],[-49.1852842,-7.2351718],[-49.2067867,-7.2707293],[-49.2159234,-7.2977333],[-49.231475,-7.3257861],[-49.2543332,-7.3494278],[-49.2694453,-7.3728486],[-49.3779974,-7.4964458],[-49.384052,-7.5434922],[-49.3815774,-7.5691029],[-49.3401424,-7.6604679],[-49.328079,-7.677795],[-49.2965276,-7.6964425],[-49.2399968,-7.7407245],[-49.2211632,-7.7615992],[-49.1856373,-7.7836514],[-49.16552,-7.7887831],[-49.1500554,-7.8121134],[-49.164913,-7.8328703],[-49.1672618,-7.8564048]],[[-49.1672618,-7.8564048],[-49.1512295,-7.8664428],[-49.1420467,-7.8703882],[-49.0940127,-7.8835186],[-49.0705612,-7.8752607],[-49.0588951,-7.8830287],[-49.0363155,-7.8806957],[-49.0317592,-7.8709516],[-49.0000823,-7.8774886],[-48.9608231,-7.8712484],[-48.9370635,-7.8562647],[-48.9127684,-7.8489885],[-48.8810685,-7.8770826],[-48.8509632,-7.8841423],[-48.8411011,-7.9014695],[-48.8204178,-7.9038772],[-48.8106078,-7.927987],[-48.8186415,-7.9375527],[-48.8084908,-7.9716038],[-48.7956266,-7.9895586],[-48.8086471,-8.0049031],[-48.7962824,-8.0287551],[-48.7982819,-8.0702454],[-48.7766906,-8.1206521],[-48.7610088,-8.1250015],[-48.7438281,-8.1500549],[-48.7349785,-8.1784677],[-48.7113895,-8.1845253],[-48.7030644,-8.21898],[-48.6901447,-8.2380231],[-48.6976237,-8.257854],[-48.6844338,-8.2837],[-48.6676475,-8.2829603],[-48.6607791,-8.297976],[-48.6646522,-8.3165202],[-48.6308096,-8.3627692],[-48.6273729,-8.3117432],[-48.6158787,-8.293646],[-48.596064,-8.2843633],[-48.5747275,-8.254837],[-48.5530448,-8.2453983],[-48.5401766,-8.2302112],[-48.5241283,-8.2343864],[-48.5149626,-8.2624031],[-48.4896729,-8.2584159],[-48.4762825,-8.2398443],[-48.4683391,-8.2144411],[-48.4369753,-8.2014276],[-48.428203,-8.1795279],[-48.3942825,-8.1719784],[-48.3968033,-8.150111],[-48.3897738,-8.1388764],[-48.3617637,-8.1419001],[-48.3490808,-8.1316296],[-48.3047388,-8.132713],[-48.2558504,-8.1376205],[-48.2342152,-8.1265828],[-48.2306531,-8.1273467],[-48.2116091,-8.145532],[-48.1934322,-8.1512009],[-48.1892957,-8.1556977],[-48.1840489,-8.1651899],[-48.1709682,-8.1617102],[-48.1664655,-8.1572324],[-48.1600665,-8.1571637],[-48.1526227,-8.1505463]],[[-48.1526227,-8.1505463],[-48.1346654,-8.1150962]],[[-48.1346654,-8.1150962],[-48.1109009,-8.0866848],[-48.0654437,-8.0906252],[-47.9922272,-8.0757951],[-47.9497495,-8.0547255],[-47.9458634,-8.0320175],[-47.9588193,-7.9479966],[-47.9540122,-7.924448],[-47.9369399,-7.8937103],[-47.9358937,-7.8685218],[-47.9185179,-7.8585956],[-47.9068233,-7.8259586],[-47.908307,-7.8132549],[-47.8947016,-7.7928885],[-47.8083026,-7.7567257],[-47.7871298,-7.7526232],[-47.775161,-7.7373515],[-47.7181327,-7.6968701],[-47.6952141,-7.688193],[-47.6656106,-7.6681515],[-47.6431056,-7.6446207],[-47.6287855,-7.6145567],[-47.6319169,-7.5713919],[-47.6235801,-7.542044],[-47.6236373,-7.5210624],[-47.6337826,-7.5029006],[-47.6034561,-7.4550623]],[[-47.6034561,-7.4550623],[-47.5798641,-7.4186803],[-47.5607365,-7.4048656],[-47.5385941,-7.3997894],[-47.4929962,-7.3758749],[-47.48291,-7.3637969],[-47.4782024,-7.3367537],[-47.4997864,-7.2938583],[-47.5401768,-7.2657935],[-47.5875338,-7.2637182],[-47.6073727,-7.2721222],[-47.6270111,-7.3008237],[-47.6539303,-7.2982028],[-47.679205,-7.2511087],[-47.6910091,-7.2382985],[-47.73507,-7.2188998],[-47.7498258,-7.1952617],[-47.7451291,-7.1625048],[-47.7106552,-7.1376528],[-47.6940629,-7.1369639],[-47.6603749,-7.1513681],[-47.644456,-7.1436116],[-47.6274527,-7.1215814],[-47.6184295,-7.0911604],[-47.5972327,-7.063401],[-47.574782,-7.0503378],[-47.5471007,-7.0167185]],[[-49.1672618,-7.8564048],[-49.1632428,-7.9212833],[-49.1696421,-7.9547897],[-49.1820284,-7.9769635],[-49.1737507,-8.0144182],[-49.1781072,-8.0647607],[-49.193163,-8.0764651],[-49.2073277,-8.1225007],[-49.2038625,-8.1400069],[-49.215854,-8.1942117],[-49.2486603,-8.2553764],[-49.2674375,-8.3341894],[-49.2833241,-8.3795572],[-49.2991332,-8.3953662],[-49.3494094,-8.4183765],[-49.3770137,-8.4552851],[-49.3914974,-8.4897785],[-49.4005772,-8.5587983],[-49.4098882,-8.5800019],[-49.4540257,-8.6153915],[-49.4713612,-8.6480958],[-49.4876063,-8.6885047],[-49.5434457,-8.761395],[-49.5620082,-8.7969918],[-49.5924113,-8.8394912],[-49.6126673,-8.846228],[-49.6414979,-8.8467186],[-49.6843583,-8.8564749],[-49.7334988,-8.9027029],[-49.7450881,-8.9061636],[-49.7676841,-8.9336881],[-49.7936636,-8.9794338],[-49.8425897,-9.0273259],[-49.8516138,-9.0654349],[-49.8673317,-9.0970914],[-49.8968794,-9.1436736],[-49.9100544,-9.1535224],[-49.9054199,-9.1697448],[-49.943475,-9.2008857],[-49.9668654,-9.2310558]],[[-49.9668654,-9.2310558],[-49.9613309,-9.2569555],[-49.9723567,-9.2687215],[-49.9726497,-9.2872137],[-49.9616476,-9.3023916],[-49.972408,-9.3229231],[-49.9723481,-9.3664149],[-49.976145,-9.3754266],[-50.0011348,-9.3896583],[-49.9888478,-9.4088241],[-49.9896711,-9.4265186],[-49.9768451,-9.4808643],[-49.9957086,-9.4917533],[-49.9966663,-9.5076419],[-49.9912274,-9.5720442],[-49.9827261,-9.5853565],[-49.998371,-9.607181],[-49.9889076,-9.6378405],[-49.9951736,-9.6519282],[-49.9945459,-9.6749159],[-49.9991321,-9.6831986],[-50.0146547,-9.6912509],[-50.0235454,-9.6993244],[-50.0279181,-9.7092667],[-50.008577,-9.7314459],[-50.0119319,-9.751696],[-50.0292568,-9.7536121],[-50.0329716,-9.7602338],[-50.0137681,-9.7737886],[-50.0073716,-9.79672],[-49.9843911,-9.8075913],[-49.9868858,-9.8195584],[-49.9832533,-9.829432],[-49.9791776,-9.8299941],[-49.9761927,-9.8341005],[-49.9762116,-9.8404939],[-49.9679777,-9.8442206],[-49.9682804,-9.8461931],[-49.9644082,-9.8623942],[-49.9427405,-9.876761],[-49.9264971,-9.8967961],[-49.9097429,-9.8936796],[-49.9053441,-9.9199562],[-49.8957693,-9.9268438],[-49.8809876,-9.9164108],[-49.8455207,-9.919959],[-49.8373095,-9.9081017],[-49.8106327,-9.8982753],[-49.7724666,-9.9402684],[-49.7492506,-9.9547057],[-49.732673,-9.9742558],[-49.673469,-9.9946521],[-49.6497831,-9.992176],[-49.6436916,-9.9976538],[-49.631311,-9.9952751],[-49.619419,-9.988037],[-49.6013189,-9.9845022],[-49.5872716,-9.9635115],[-49.5560525,-9.9488582],[-49.5227213,-9.9761766],[-49.4986348,-9.9752951],[-49.4668738,-9.9862002],[-49.466345,-9.9960419],[-49.4599049,-9.999146],[-49.4556516,-10.0023277],[-49.453222,-10.0057517],[-49.4445731,-10.0076442],[-49.4142413,-9.9839182],[-49.3992712,-9.9621449],[-49.3707542,-9.979862],[-49.3508401,-9.982718],[-49.3133782,-10.0080633],[-49.3018365,-10.033809],[-49.2880602,-10.0375714],[-49.2590419,-10.0601957],[-49.2420742,-10.0580385],[-49.2177519,-10.0686592],[-49.2160125,-10.0689559],[-49.2105051,-10.0863825],[-49.1924935,-10.097373],[-49.1940604,-10.0988096],[-49.1693776,-10.0999934],[-49.1699607,-10.1012524],[-49.1580267,-10.1089428],[-49.1305653,-10.148311],[-49.1109156,-10.1490008],[-49.1086616,-10.1483888],[-49.0956942,-10.1392126],[-49.0656072,-10.1434532],[-49.0519649,-10.1510806],[-49.032075,-10.1459619],[-49.0208376,-10.1318115],[-48.9486175,-10.1247262],[-48.9255587,-10.0939764],[-48.8876625,-10.0637035],[-48.8776853,-10.0275337],[-48.8412016,-10.0414006],[-48.8359976,-10.0576284],[-48.8005614,-10.0510357],[-48.7775949,-10.0264261],[-48.7553514,-10.0360711],[-48.7405497,-10.0323354],[-48.7275373,-10.043892],[-48.7266271,-10.0601941],[-48.7075799,-10.082082],[-48.6845931,-10.0856135]],[[-48.6845931,-10.0856135],[-48.6642914,-10.0861782]],[[-48.6642914,-10.0861782],[-48.624295,-10.0777413],[-48.6150392,-10.0626753],[-48.5701921,-10.0267958],[-48.5607344,-10.0397886],[-48.5209499,-10.0331556],[-48.5079521,-10.0445536],[-48.4849442,-10.0289612],[-48.4648824,-10.0329542],[-48.4534542,-10.0192677],[-48.4382873,-10.0182619],[-48.4138836,-10.031192],[-48.3988264,-10.0477793],[-48.3589357,-10.053841],[-48.3323986,-10.0413832],[-48.3370416,-10.000005],[-48.3497494,-9.9702352],[-48.3683767,-9.9479104],[-48.3709189,-9.9315543],[-48.361705,-9.9078143],[-48.334454,-9.8794958],[-48.3315144,-9.8450593],[-48.3381614,-9.8194074],[-48.3750014,-9.7919933],[-48.3750004,-9.7576699],[-48.3619002,-9.7464058],[-48.3605779,-9.7229968],[-48.3719252,-9.6759563],[-48.3835062,-9.6688745],[-48.4032115,-9.6347764],[-48.4002294,-9.6017393],[-48.3827366,-9.5683284],[-48.3763377,-9.5433783],[-48.3706698,-9.4916227],[-48.3773118,-9.4379266],[-48.3614937,-9.4072247],[-48.3599414,-9.3761989],[-48.3679269,-9.3575357],[-48.3614276,-9.3281293],[-48.3445035,-9.2768999],[-48.3369077,-9.2500046],[-48.3162929,-9.2116286]],[[-48.3162929,-9.2116286],[-48.3162701,-9.1942436],[-48.3131733,-9.1863218],[-48.3049191,-9.1706542]],[[-48.3049191,-9.1706542],[-48.2869263,-9.144988],[-48.2775727,-9.121898],[-48.2446594,-9.0825599],[-48.2224831,-9.0565172],[-48.1940773,-9.0329316],[-48.1857374,-9.0168997],[-48.1796256,-8.981208],[-48.1815007,-8.9678472],[-48.1726899,-8.9282522],[-48.1705448,-8.8971415],[-48.1391355,-8.8348684],[-48.1229782,-8.8176285]],[[-48.1229782,-8.8176285],[-48.1130831,-8.7921389],[-48.1117639,-8.7788005],[-48.1122566,-8.7648067]],[[-48.1122566,-8.7648067],[-48.1275234,-8.7414533],[-48.1293936,-8.7175728],[-48.1233159,-8.674421],[-48.1248777,-8.6563793]],[[-48.1248777,-8.6563793],[-48.1298238,-8.6389587],[-48.1353641,-8.5997988],[-48.1356306,-8.5856553],[-48.1313476,-8.5633074]],[[-48.1313476,-8.5633074],[-48.1334605,-8.5389988],[-48.1323184,-8.5324125],[-48.1263793,-8.526283]],[[-48.1263793,-8.526283],[-48.1068761,-8.5221642],[-48.0962628,-8.5101585],[-48.0850893,-8.4733018]],[[-48.0850893,-8.4733018],[-48.0812189,-8.4266196],[-48.0826376,-8.4190779],[-48.0856149,-8.4144949]],[[-48.0856149,-8.4144949],[-48.1228762,-8.3787819]],[[-48.1228762,-8.3787819],[-48.1281599,-8.367162],[-48.1336921,-8.309594]],[[-48.1336921,-8.309594],[-48.1377019,-8.269536]],[[-48.1377019,-8.269536],[-48.1448244,-8.2311145],[-48.1584468,-8.2058922],[-48.1617781,-8.1965826]],[[-48.1617781,-8.1965826],[-48.1620458,-8.1858155]],[[-48.1620458,-8.1858155],[-48.1596366,-8.1686834],[-48.1526227,-8.1505463]],[[-49.9668654,-9.2310558],[-49.9969316,-9.2376524],[-50.0050057,-9.2687597],[-50.0377849,-9.2894054],[-50.0507537,-9.3130697],[-50.055468,-9.3346989],[-50.0528335,-9.372673],[-50.0655334,-9.4008017],[-50.0901168,-9.4315957],[-50.1053376,-9.4754105],[-50.0895623,-9.5456929],[-50.1073321,-9.5725075],[-50.1073697,-9.5942802],[-50.1274471,-9.6209281],[-50.1390049,-9.6274599],[-50.1400573,-9.6545043],[-50.1501673,-9.6747268],[-50.1510053,-9.6956082],[-50.1978964,-9.7588349],[-50.2037848,-9.7909143],[-50.2143946,-9.813223],[-50.2254493,-9.8539582],[-50.2437871,-9.8712422],[-50.2642803,-9.9084975],[-50.2672055,-9.9346539],[-50.2789435,-9.9552493],[-50.2779318,-9.9707729],[-50.2906705,-9.9908185],[-50.2942791,-10.016107],[-50.3124518,-10.0456588],[-50.3398411,-10.0609382],[-50.3572811,-10.0902957],[-50.3778102,-10.1107158],[-50.3982581,-10.1554697],[-50.3894009,-10.1749275],[-50.3815645,-10.2189129],[-50.3980942,-10.2544301],[-50.4062032,-10.2882508],[-50.4230666,-10.3274417],[-50.4182853,-10.3562814],[-50.4410615,-10.375566],[-50.4482858,-10.3915721],[-50.4737254,-10.4049055],[-50.4878673,-10.4679723],[-50.4826205,-10.4900386],[-50.5161464,-10.5039094],[-50.5149514,-10.5259606],[-50.5230342,-10.5407962],[-50.5197293,-10.5624786],[-50.5340361,-10.5845957],[-50.541428,-10.6093227],[-50.5631719,-10.6113215],[-50.5825666,-10.6440813],[-50.6028977,-10.658234],[-50.6028204,-10.6737601],[-50.5876039,-10.6860094],[-50.5705877,-10.7525041],[-50.5968989,-10.8047216],[-50.6121984,-10.8103215],[-50.6220066,-10.8394178],[-50.6190437,-10.8640944],[-50.6049528,-10.8724723],[-50.6007891,-10.9006838],[-50.6326193,-10.9318615],[-50.6202415,-10.9689077],[-50.6248407,-10.9838385],[-50.617593,-11.0024252],[-50.6174251,-11.0320006],[-50.6094574,-11.0674457],[-50.6175928,-11.085811],[-50.6370427,-11.1005471],[-50.6438862,-11.1231826],[-50.6576348,-11.1278124],[-50.6644814,-11.1515989],[-50.6547324,-11.2150298],[-50.6560371,-11.2402367],[-50.6713266,-11.2867414],[-50.6968135,-11.3046578],[-50.7070991,-11.3281658],[-50.7122605,-11.3598453],[-50.7285111,-11.3825659],[-50.7281426,-11.4169059],[-50.7392596,-11.435385],[-50.742064,-11.4603495],[-50.7347961,-11.5118226],[-50.7389352,-11.5445116],[-50.7159867,-11.5789533],[-50.6805146,-11.5836283],[-50.6574739,-11.5928064],[-50.6637021,-11.6775273],[-50.7215915,-11.7317126],[-50.7078612,-11.768234],[-50.7005871,-11.8034665],[-50.6880448,-11.825041],[-50.6863045,-11.8589954],[-50.6653727,-11.8644579],[-50.6392882,-11.8845665],[-50.640571,-11.9026897],[-50.6678955,-11.9277674],[-50.6547364,-11.9479861],[-50.6568339,-11.9668494],[-50.682238,-11.9908876],[-50.6778492,-12.0195134],[-50.6870762,-12.0356338],[-50.6676227,-12.0645602],[-50.6760295,-12.1238958],[-50.6708686,-12.1407806],[-50.6790353,-12.1553342],[-50.6791814,-12.1880779],[-50.6868718,-12.2021539],[-50.6813773,-12.2169497],[-50.6437098,-12.222965],[-50.6464236,-12.2560953],[-50.6323402,-12.2686416],[-50.6312602,-12.284883],[-50.6489155,-12.2990896],[-50.6378161,-12.325286],[-50.6445669,-12.345909],[-50.6268725,-12.384032],[-50.6326753,-12.4171039],[-50.618255,-12.4289922],[-50.6235737,-12.4552838],[-50.6530391,-12.4600739],[-50.6470935,-12.4855232],[-50.659598,-12.5060873],[-50.6637105,-12.5374332],[-50.6864785,-12.5692042],[-50.669429,-12.5807652],[-50.6738731,-12.6001196],[-50.6944285,-12.5926752],[-50.7064888,-12.609701],[-50.6963941,-12.649685],[-50.6562041,-12.6459931],[-50.6463495,-12.6637937],[-50.6547658,-12.6791794],[-50.6347107,-12.7253575],[-50.6229618,-12.7346385],[-50.6302565,-12.776069],[-50.6117659,-12.7758968],[-50.6253595,-12.8000195],[-50.5819162,-12.7993793],[-50.5978467,-12.826775],[-50.5669545,-12.8434234],[-50.5319858,-12.8436218],[-50.5203415,-12.8363941],[-50.507729,-12.8513963],[-50.496249,-12.8453518],[-50.4838415,-12.8105787],[-50.4932856,-12.7836871],[-50.4749808,-12.7707892],[-50.4833995,-12.7393087],[-50.477353,-12.7164962],[-50.4608311,-12.6927772],[-50.4389381,-12.6975408],[-50.4363734,-12.6781082],[-50.4171486,-12.6349777],[-50.4181009,-12.6244473],[-50.386478,-12.5898503],[-50.3695501,-12.557338],[-50.3104161,-12.4953762],[-50.2616921,-12.477218],[-50.2530304,-12.4616048],[-50.2283186,-12.4541338],[-50.2117812,-12.4355973],[-50.170666,-12.418804],[-50.1791191,-12.4383606],[-50.2176095,-12.4873571],[-50.2184498,-12.514831],[-50.2295244,-12.531189],[-50.2136392,-12.5466268],[-50.207071,-12.5665508],[-50.2240634,-12.5852615],[-50.2447603,-12.5974743],[-50.2363815,-12.6236716],[-50.2684329,-12.6517489],[-50.2636153,-12.6665305],[-50.271462,-12.6832418],[-50.2954765,-12.6836702],[-50.2882198,-12.7348842],[-50.3024772,-12.7473437],[-50.3107784,-12.7916062],[-50.3075478,-12.8177422],[-50.2960416,-12.8314538],[-50.2504494,-12.85349],[-50.225444,-12.8599517],[-50.2244967,-12.87304],[-50.185178,-12.8936382],[-50.1578672,-12.8931307],[-50.1470251,-12.9032391],[-50.0917026,-12.9085261],[-50.0558533,-12.9202356],[-50.0374525,-12.9356091],[-50.0093375,-12.9310255],[-49.9499656,-12.9592881],[-49.9330662,-12.9566911],[-49.9092331,-12.9748676],[-49.3683159,-13.2723014],[-49.3372447,-13.2472816],[-49.3489569,-13.2105459],[-49.3470578,-13.1676757],[-49.3557086,-13.1557731],[-49.3410799,-13.1274961],[-49.3543037,-13.1123772],[-49.3520922,-13.0926942],[-49.3372722,-13.0643396],[-49.3069216,-13.0331474],[-49.2757252,-12.979242],[-49.2797504,-12.9669855],[-49.2675385,-12.9443663],[-49.2492919,-12.9265398],[-49.2488814,-12.9060402],[-49.2338225,-12.8885776],[-49.2487144,-12.8750003]],[[-49.2487144,-12.8750003],[-49.252746,-12.8750722],[-49.2554868,-12.8698604],[-49.2537874,-12.8618134],[-49.2519384,-12.8585027],[-49.2541174,-12.8546983],[-49.2625329,-12.842295],[-49.2738888,-12.8354667],[-49.2825498,-12.8326153],[-49.2922261,-12.8139108],[-49.3234276,-12.814693],[-49.3218727,-12.8042459],[-49.3480897,-12.7901342],[-49.3542179,-12.7635137],[-49.3453887,-12.736629],[-49.3509975,-12.7256782],[-49.3473241,-12.6947038],[-49.333392,-12.6651265],[-49.3287133,-12.6270218],[-49.3369123,-12.6185223],[-49.3417901,-12.614366],[-49.3476025,-12.6051496],[-49.347097,-12.5907364],[-49.3608609,-12.56102],[-49.355532,-12.5470913],[-49.3566574,-12.5462312],[-49.3583344,-12.5389945],[-49.3696279,-12.528884],[-49.3814968,-12.523456],[-49.4020577,-12.5132464],[-49.4218055,-12.5164149],[-49.4285342,-12.4861025],[-49.4636762,-12.4782396],[-49.4883635,-12.4873487],[-49.5072608,-12.4729457],[-49.5089806,-12.4497269],[-49.5350927,-12.4356041],[-49.538159,-12.4182264],[-49.5561629,-12.417347],[-49.5935679,-12.4016761],[-49.5909991,-12.3744201],[-49.6109796,-12.3396567],[-49.5776335,-12.3189518],[-49.5975801,-12.2815231],[-49.6242338,-12.267593],[-49.6448718,-12.2718185],[-49.6489311,-12.2481728],[-49.6243442,-12.2261694],[-49.5637718,-12.2292091],[-49.538333,-12.2383081],[-49.5093219,-12.224112],[-49.4747506,-12.2290338],[-49.4504392,-12.2165041],[-49.4282927,-12.1948994],[-49.4207868,-12.1714784],[-49.4079492,-12.1569244],[-49.3846317,-12.1485514],[-49.364032,-12.1313585],[-49.3440933,-12.1250052],[-49.3475592,-12.1100807],[-49.3373985,-12.0792443],[-49.3253758,-12.0669411],[-49.3230354,-12.0396276],[-49.2729927,-12.0033333],[-49.2710097,-11.9833678],[-49.259276,-11.9688692],[-49.2620882,-11.9515132],[-49.2749104,-11.9336063],[-49.2835092,-11.9072539],[-49.3028088,-11.8937471],[-49.3095886,-11.8750069],[-49.3043435,-11.8527593],[-49.3268245,-11.8550935],[-49.3499747,-11.8204615],[-49.3764797,-11.8077318],[-49.3822151,-11.7835778],[-49.4029536,-11.7669459],[-49.383022,-11.7522691],[-49.3515576,-11.7506735],[-49.3300805,-11.7433344],[-49.2910922,-11.7527471],[-49.2533794,-11.7438775],[-49.2399765,-11.7482184],[-49.2153109,-11.7425148]],[[-49.2153109,-11.7425148],[-49.1672025,-11.7442598],[-49.1755981,-11.7307968]],[[-49.1755981,-11.7307968],[-49.1633134,-11.6753884],[-49.1494061,-11.6633225],[-49.1314263,-11.6640558],[-49.1020555,-11.6358366],[-49.0989833,-11.6063476],[-49.0817441,-11.5984042],[-49.0441394,-11.6028031],[-49.0439955,-11.5844727],[-48.9922512,-11.5864619],[-48.9824749,-11.56368],[-48.9561867,-11.5406818],[-48.953694,-11.535298],[-48.9495676,-11.5184526],[-48.957664,-11.5128607],[-48.9852137,-11.4911428],[-48.9954369,-11.4800595],[-48.9992594,-11.4798753],[-49.0097043,-11.4602738],[-49.0103443,-11.4519558],[-49.0343112,-11.439395],[-49.0650442,-11.4117225],[-49.0753073,-11.3959948],[-49.1100275,-11.3991856],[-49.1146169,-11.376638],[-49.1283468,-11.3620523],[-49.1404565,-11.3365075],[-49.1619346,-11.3247677],[-49.1862003,-11.3276021],[-49.2022872,-11.3439834],[-49.2179736,-11.3283139],[-49.2655774,-11.3238862],[-49.2718318,-11.3175725],[-49.263802,-11.3048009],[-49.2990826,-11.288387],[-49.3170421,-11.2608251],[-49.3397964,-11.2499367],[-49.3577344,-11.2336873],[-49.3632953,-11.2293646],[-49.3687984,-11.2061509],[-49.3870283,-11.1948393],[-49.3969591,-11.1813532],[-49.3996509,-11.180851],[-49.4096499,-11.1828801],[-49.4311095,-11.1855529],[-49.4479355,-11.1703985],[-49.4646881,-11.1833644],[-49.4769904,-11.1744241],[-49.5029502,-11.1869935],[-49.52563,-11.1761377],[-49.5394468,-11.181885],[-49.5861649,-11.1606849],[-49.6116117,-11.1453501],[-49.6186983,-11.1311712],[-49.6523517,-11.1238892],[-49.6571201,-11.1255314],[-49.6631881,-11.1097739],[-49.6932959,-11.0997469],[-49.7180677,-11.0684659],[-49.7307064,-11.0610936],[-49.7734838,-11.0053699],[-49.7872821,-11.0099422],[-49.7985798,-10.995954],[-49.7832588,-10.9529385],[-49.7800905,-10.9326],[-49.7642053,-10.9218949],[-49.7616188,-10.9131147],[-49.7650124,-10.909663],[-49.7582082,-10.9008666],[-49.7426796,-10.904518],[-49.73246,-10.9069563],[-49.7271093,-10.9156309],[-49.72233,-10.9174023],[-49.7157957,-10.9201616],[-49.7114742,-10.9091501],[-49.7040499,-10.9099762],[-49.6925782,-10.9258814],[-49.6663714,-10.9138871],[-49.6302293,-10.92682],[-49.621716,-10.9139673],[-49.6040758,-10.9095813],[-49.5788772,-10.8903774],[-49.5780503,-10.8661479],[-49.5660562,-10.8435381],[-49.5436419,-10.8313893],[-49.509458,-10.8311363],[-49.483208,-10.815238],[-49.465367,-10.8156558],[-49.4404768,-10.8028757],[-49.4253967,-10.7830466],[-49.4027596,-10.7749404],[-49.3894607,-10.7593168],[-49.3380068,-10.7399251],[-49.2892803,-10.7491404],[-49.2739269,-10.7573189],[-49.2425161,-10.7542835],[-49.2248267,-10.761285],[-49.2024814,-10.8002655],[-49.1535137,-10.7941946],[-49.1139338,-10.8162088],[-49.1008646,-10.8060838],[-49.0790935,-10.815036],[-49.0598558,-10.8090801],[-49.0498126,-10.7935664],[-49.0146666,-10.7764662],[-49.0053595,-10.8017116],[-48.9985728,-10.84141],[-48.9034374,-10.8442625],[-48.8844297,-10.8509267],[-48.8830314,-10.8571108],[-48.878814,-10.8650929],[-48.8686659,-10.8864126],[-48.8716609,-10.9158531],[-48.8512181,-10.9375384],[-48.8488803,-10.9652117],[-48.8334205,-10.9628288],[-48.8080205,-10.9285381],[-48.8055778,-10.9105956],[-48.8032902,-10.9057966],[-48.7983139,-10.8797057],[-48.7935336,-10.8670093],[-48.8049351,-10.8524134],[-48.7890206,-10.7943997]],[[-48.7890206,-10.7943997],[-48.7738125,-10.7667722],[-48.7723418,-10.7518604],[-48.7738151,-10.736489],[-48.7786891,-10.7038115],[-48.7920366,-10.6729327],[-48.8059785,-10.6516784],[-48.8239966,-10.6375326],[-48.8220067,-10.6258394],[-48.8244553,-10.6116408],[-48.8130084,-10.5926389],[-48.8238463,-10.5858078],[-48.8282387,-10.5624961],[-48.8093408,-10.5475734],[-48.8133494,-10.5306903],[-48.8020631,-10.4865612],[-48.805068,-10.4697936],[-48.7676401,-10.4584546],[-48.7572948,-10.4352705],[-48.7579388,-10.416506],[-48.7147401,-10.4058475],[-48.6961637,-10.3929276],[-48.698236,-10.3803948],[-48.6675706,-10.3715175],[-48.6445651,-10.3488844],[-48.6267527,-10.3433056],[-48.5965525,-10.3223395],[-48.6049745,-10.3057456],[-48.5977282,-10.2940188],[-48.6190361,-10.2756309],[-48.6251972,-10.2591799],[-48.6402971,-10.2483692],[-48.6634846,-10.2472255],[-48.6921935,-10.2232271],[-48.6911286,-10.1976793],[-48.6997245,-10.1905663],[-48.6911703,-10.1440165],[-48.676282,-10.1213319],[-48.6719384,-10.0907181]],[[-48.6719384,-10.0907181],[-48.6845931,-10.0856135]],[[-49.1755981,-11.7307968],[-49.1680436,-11.7442293],[-49.2153109,-11.7425148]],[[-49.2487144,-12.8750003],[-49.2376552,-12.8837861],[-49.2109365,-12.8780701],[-49.1795587,-12.8466265],[-49.1441475,-12.8177577],[-49.1380501,-12.801185],[-49.1176838,-12.7900847],[-49.1046307,-12.8354203],[-49.0737183,-12.8458037],[-49.0732435,-12.869707],[-49.0874736,-12.887177],[-49.0754895,-12.9052517],[-49.0330387,-12.9022575],[-49.0091156,-12.9164814],[-49.0029909,-12.9337856],[-48.9793848,-12.9468414],[-48.9762335,-12.9578931],[-48.8703122,-12.8032618],[-48.8464274,-12.8092887],[-48.8428259,-12.8425068],[-48.8248181,-12.8453398],[-48.805945,-12.8692098],[-48.7736691,-12.8884402],[-48.7333252,-12.9356951],[-48.7325583,-12.9837304],[-48.7157524,-13.0022834],[-48.6749137,-12.9927556],[-48.6561079,-13.0117733],[-48.6385121,-13.0136178],[-48.6371785,-13.0336065],[-48.6270522,-13.0519085],[-48.6022054,-13.057559],[-48.6022296,-13.0772677],[-48.578367,-13.1174367],[-48.5818401,-13.1410294],[-48.5907997,-13.1514697],[-48.5812523,-13.1682561],[-48.5774783,-13.1952471],[-48.5844342,-13.2270548],[-48.5999452,-13.2386606],[-48.5889337,-13.2635269],[-48.5998625,-13.2879857],[-48.5876603,-13.3100071],[-48.5535925,-13.3026334],[-48.5554078,-13.2424233],[-48.5503175,-13.2298481],[-48.5537521,-13.2035451],[-48.5296886,-13.1914152],[-48.5173926,-13.1463231],[-48.4946538,-13.1368825],[-48.4701744,-13.1458577],[-48.4772668,-13.1788007],[-48.4723679,-13.2010499],[-48.476282,-13.2300904],[-48.458876,-13.2523081],[-48.4577023,-13.2824783],[-48.435071,-13.2901429],[-48.430047,-13.2711776],[-48.3854841,-13.2662822],[-48.3621149,-13.2429505],[-48.2920688,-13.2199679],[-48.2625454,-13.1976362],[-48.2447494,-13.1926502],[-48.2307606,-13.1712946],[-48.193604,-13.1730343],[-48.1797662,-13.1515657],[-48.1645252,-13.1582759],[-48.1427556,-13.1428228]],[[-48.1427556,-13.1428228],[-48.1391373,-13.1204385],[-48.127463,-13.1010943],[-48.1517934,-13.0588247],[-48.1453784,-13.0273033],[-48.1489887,-13.0057386],[-48.1399201,-12.9873327],[-48.1480695,-12.9699165],[-48.1627733,-12.95995],[-48.1863949,-12.9125507],[-48.188895,-12.8834817],[-48.2070572,-12.849583],[-48.2295138,-12.8286094],[-48.2414771,-12.7913067],[-48.2237179,-12.7584243],[-48.2262235,-12.7459013],[-48.2455191,-12.740319],[-48.2605438,-12.7472029],[-48.2702801,-12.7316004],[-48.2441,-12.704883],[-48.2400623,-12.6910263],[-48.2849726,-12.6777149],[-48.2882754,-12.6526805],[-48.2723295,-12.6359968],[-48.2747872,-12.6064221],[-48.2671445,-12.5835707],[-48.2933915,-12.5606645],[-48.2500016,-12.5504125],[-48.2325675,-12.5406923],[-48.2310073,-12.4951001],[-48.209678,-12.4851703],[-48.2115787,-12.4638288],[-48.2623029,-12.4616666],[-48.2609966,-12.4348492],[-48.2342295,-12.4062509],[-48.2281603,-12.390952],[-48.2348936,-12.373655],[-48.2487203,-12.3651011],[-48.2567516,-12.3448002],[-48.2558132,-12.3123442],[-48.312714,-12.2693244],[-48.2877734,-12.2438814],[-48.2819463,-12.2225507],[-48.2533124,-12.1757499],[-48.2198235,-12.1595916],[-48.1942321,-12.1840146],[-48.1552253,-12.17978],[-48.152009,-12.1624433],[-48.1167143,-12.1355874],[-48.1204304,-12.1115008],[-48.1143148,-12.0878099],[-48.1458951,-12.0706536],[-48.1651267,-12.0499948],[-48.1815985,-12.0659268],[-48.2110304,-12.0568376],[-48.2077565,-12.0341837],[-48.2197119,-12.0152585],[-48.2161365,-12.0016959],[-48.2776772,-11.96416],[-48.3028628,-11.9422811],[-48.3222314,-11.9351997],[-48.3352219,-11.9197631],[-48.3396923,-11.8957703],[-48.3491004,-11.8850498],[-48.3425548,-11.8570754],[-48.3652289,-11.8173219],[-48.3640559,-11.7975509],[-48.3752217,-11.7831496],[-48.3803135,-11.7504652],[-48.3743452,-11.7266801],[-48.3819306,-11.6540759],[-48.4064806,-11.6240549],[-48.4144411,-11.5910891],[-48.4499625,-11.5586261],[-48.4643609,-11.5286146],[-48.4572462,-11.5082948],[-48.4757432,-11.4763311],[-48.4617126,-11.4559366],[-48.4657236,-11.4393349],[-48.4639565,-11.435834],[-48.4656132,-11.4326664],[-48.4655036,-11.4293245],[-48.4668166,-11.4291757],[-48.4714358,-11.422034],[-48.4733638,-11.421037],[-48.4780809,-11.4170422],[-48.4767849,-11.4156253],[-48.4795315,-11.4048287],[-48.4746315,-11.3718347],[-48.4790131,-11.3625021]],[[-48.4790131,-11.3625021],[-48.468159,-11.3417446],[-48.4626355,-11.3263778],[-48.4572579,-11.2945071],[-48.4519453,-11.2751067]],[[-48.4519453,-11.2751067],[-48.452322,-11.2675364],[-48.4551616,-11.2597002],[-48.4620905,-11.2481665],[-48.472849,-11.2364003],[-48.481552,-11.2292254]],[[-48.481552,-11.2292254],[-48.488799,-11.2201062],[-48.5176647,-11.1588713],[-48.5212625,-11.1250037],[-48.5389093,-11.0997749],[-48.5419021,-11.0730221],[-48.5534348,-11.0553469]],[[-48.5534348,-11.0553469],[-48.5594617,-11.0313149],[-48.5580479,-11.0219886],[-48.5536243,-11.0137476]],[[-48.5536243,-11.0137476],[-48.5311183,-10.9952018],[-48.510585,-10.9516605],[-48.4644871,-10.9313425],[-48.4467461,-10.9181895],[-48.4190509,-10.881428],[-48.3967244,-10.829404],[-48.3962125,-10.7675917],[-48.4147748,-10.7508994],[-48.4262363,-10.7589925],[-48.4609408,-10.7684655],[-48.4690901,-10.7804977],[-48.505572,-10.7831547],[-48.5128938,-10.7925856],[-48.5401225,-10.794579],[-48.5471175,-10.8021786],[-48.5328022,-10.8171703],[-48.5469352,-10.8334865],[-48.5474645,-10.8567607],[-48.5602975,-10.854828],[-48.5824524,-10.8664454],[-48.5928018,-10.8673174],[-48.5932862,-10.8645622]],[[-48.5932862,-10.8645622],[-48.5856293,-10.8587702],[-48.5823996,-10.8545024],[-48.5824572,-10.8497731],[-48.5862637,-10.845736],[-48.5958375,-10.8437174],[-48.6069059,-10.8457853]],[[-48.6069059,-10.8457853],[-48.617858,-10.8610477],[-48.635551,-10.8701917],[-48.6366671,-10.8543331],[-48.6504144,-10.8379621],[-48.690221,-10.8368521],[-48.7246882,-10.8021235],[-48.7500013,-10.8104127],[-48.7765873,-10.8061028],[-48.7890206,-10.7943997]],[[-48.6642914,-10.0861782],[-48.6719384,-10.0907181]],[[-48.6069059,-10.8457853],[-48.6010214,-10.8439739],[-48.5890897,-10.8447555],[-48.5832647,-10.8481583],[-48.5822265,-10.8522531],[-48.5838414,-10.856867],[-48.5932862,-10.8645622]],[[-48.5536243,-11.0137476],[-48.5590406,-11.0260324],[-48.5589585,-11.0359778],[-48.5534348,-11.0553469]],[[-48.481552,-11.2292254],[-48.463364,-11.2465517],[-48.4541187,-11.2625234]],[[-48.4541187,-11.2625234],[-48.4498056,-11.2625668],[-48.4433884,-11.2628692],[-48.4231804,-11.2737296],[-48.3875039,-11.2725334],[-48.3495444,-11.2891444],[-48.2840758,-11.2974245],[-48.2590764,-11.281705],[-48.2221719,-11.2804513],[-48.2014223,-11.2724151],[-48.15661,-11.2699314],[-48.1338297,-11.3078787],[-48.0956755,-11.318508],[-48.0803482,-11.2881861],[-48.0127144,-11.2554499],[-47.9856427,-11.2508958],[-47.9667938,-11.2550946],[-47.9471513,-11.2463307],[-47.9290541,-11.2469301],[-47.8921383,-11.2250583],[-47.8721817,-11.2033585],[-47.8595959,-11.2074182],[-47.8557022,-11.2104321],[-47.836595,-11.2170514],[-47.8264507,-11.2160196],[-47.8235109,-11.21645],[-47.81366,-11.2141003],[-47.8112078,-11.2124993],[-47.8073028,-11.2108761],[-47.8045483,-11.2088011],[-47.8025023,-11.2075152],[-47.7931308,-11.1908088],[-47.7823893,-11.1816696],[-47.7789275,-11.1709981],[-47.7768773,-11.1719027],[-47.7719804,-11.1653508],[-47.7688397,-11.1609053],[-47.7661893,-11.1580715],[-47.7558161,-11.1369372],[-47.6905926,-11.0484249],[-47.7084577,-11.0327436],[-47.7141635,-10.9940069],[-47.7283379,-10.9847892],[-47.7274909,-10.9805185],[-47.7231852,-10.973979],[-47.7267023,-10.9570523],[-47.7257347,-10.9507142]],[[-47.7257347,-10.9507142],[-47.736578,-10.9480497]],[[-47.736578,-10.9480497],[-47.7393817,-10.9467529],[-47.7449433,-10.9307736],[-47.738338,-10.9106397],[-47.7519204,-10.8966154],[-47.756325,-10.8598228],[-47.767817,-10.8380992],[-47.7693681,-10.8319123],[-47.7750413,-10.827003],[-47.7878745,-10.7988406],[-47.7968359,-10.7869995],[-47.7942249,-10.7744216],[-47.805963,-10.7722312],[-47.8231215,-10.7519784],[-47.8157387,-10.742253],[-47.8067194,-10.7267484],[-47.7912514,-10.7187333],[-47.7919199,-10.6895004],[-47.8101937,-10.6812004],[-47.803703,-10.6661091],[-47.8197318,-10.6542295],[-47.8316511,-10.6226799],[-47.8251661,-10.6132156],[-47.8492331,-10.5863812],[-47.8401028,-10.5455625],[-47.8479462,-10.528512],[-47.8271196,-10.4777049],[-47.8332674,-10.4270347],[-47.8425765,-10.4076773],[-47.8452397,-10.3796977],[-47.8647802,-10.377019],[-47.8678256,-10.3299846],[-47.8559506,-10.319401],[-47.857662,-10.2886192],[-47.8408493,-10.2762042],[-47.8261803,-10.2486234],[-47.8202278,-10.2435623],[-47.8134343,-10.219441]],[[-47.8134343,-10.219441],[-47.8148108,-10.2072242],[-47.8027374,-10.1924772],[-47.7933137,-10.1734758]],[[-47.7933137,-10.1734758],[-47.7937104,-10.1649963],[-47.7964965,-10.1532766],[-47.8040886,-10.1090478],[-47.8080289,-10.0777166],[-47.805263,-10.0616221]],[[-47.805263,-10.0616221],[-47.8032057,-10.0525465],[-47.8037592,-10.0458022],[-47.8080373,-10.0412372],[-47.8166296,-10.0363146],[-47.8188661,-10.0328367]],[[-47.8188661,-10.0328367],[-47.8217547,-10.004927],[-47.8341748,-9.9928444],[-47.832073,-9.9678599],[-47.8571698,-9.932856],[-47.8561216,-9.9231964],[-47.8425363,-9.9077632],[-47.8409307,-9.8781799],[-47.8696603,-9.8538426],[-47.8794625,-9.8363497],[-47.8816614,-9.8130839],[-47.8911814,-9.7953918],[-47.8979328,-9.7339187],[-47.9074248,-9.6805721],[-47.9083199,-9.6533453],[-47.9188999,-9.6197334],[-47.9115551,-9.6101382],[-47.9241638,-9.5849711],[-47.924889,-9.5557455]],[[-47.924889,-9.5557455],[-47.9359698,-9.5421717],[-47.9368152,-9.5354603],[-47.9252668,-9.5153369]],[[-47.9252668,-9.5153369],[-47.9301863,-9.4844552],[-47.8997891,-9.3978842],[-47.8965733,-9.3691419],[-47.9045516,-9.3445052],[-47.8791834,-9.3340409],[-47.8626222,-9.3505335],[-47.8363304,-9.3444916],[-47.816488,-9.3215489],[-47.7654694,-9.3217961],[-47.7392384,-9.3333084],[-47.7254984,-9.3150904],[-47.7135818,-9.3080048],[-47.7063927,-9.3073423],[-47.6990402,-9.2966618],[-47.685484,-9.2761951],[-47.6932878,-9.1934038],[-47.6690269,-9.171089],[-47.6512731,-9.1720574],[-47.6267982,-9.1562531],[-47.6172526,-9.1404143],[-47.6187083,-9.0940069],[-47.6246359,-9.0808915],[-47.6059166,-9.0494],[-47.6110575,-9.0278485],[-47.5425575,-8.9375922],[-47.4734563,-8.7974261],[-47.49907,-8.800786],[-47.5198634,-8.8131732],[-47.5287743,-8.8312274],[-47.557486,-8.8389526],[-47.5758143,-8.8257638],[-47.5990054,-8.8209415],[-47.6076355,-8.8108163],[-47.6565035,-8.8005379],[-47.6796357,-8.8036376],[-47.7011411,-8.762348],[-47.6990572,-8.7367308],[-47.6841106,-8.7241422],[-47.6801174,-8.699883],[-47.7441989,-8.7299487],[-47.7671977,-8.7290229],[-47.787598,-8.7435633],[-47.8052402,-8.7365078],[-47.807585,-8.7375671],[-47.8218609,-8.7408057],[-47.8504554,-8.7437994],[-47.8618546,-8.7439084],[-47.8912698,-8.73707],[-47.8994836,-8.7383943],[-47.9173638,-8.7369283],[-47.925668,-8.7266762],[-47.9435768,-8.6867592],[-47.9576917,-8.6779907],[-47.9589347,-8.6784495],[-47.9823561,-8.6695733],[-47.9917182,-8.6617696],[-47.9974373,-8.6611561],[-48.000443,-8.6577827],[-48.0035673,-8.6572279],[-48.007146,-8.6568281],[-48.0110864,-8.6521644],[-48.0113529,-8.648243],[-48.0394964,-8.6718311],[-48.0778095,-8.6621965],[-48.0846492,-8.6594851],[-48.1106284,-8.6539818],[-48.1300094,-8.6351849]],[[-48.1300094,-8.6351849],[-48.1248777,-8.6563793]],[[-48.1122566,-8.7648067],[-48.1123677,-8.7877161],[-48.1146518,-8.7980789],[-48.1229782,-8.8176285]],[[-48.3049191,-9.1706542],[-48.3150481,-9.1903903],[-48.3166471,-9.1978611],[-48.3162929,-9.2116286]],[[-47.9252668,-9.5153369],[-47.9352273,-9.5313866],[-47.9369252,-9.5398691],[-47.9321202,-9.5481556],[-47.924889,-9.5557455]],[[-47.8188661,-10.0328367],[-47.815951,-10.036891],[-47.8049304,-10.043938],[-47.8033102,-10.0479812],[-47.805263,-10.0616221]],[[-47.7933137,-10.1734758],[-47.8146035,-10.2067026],[-47.8134343,-10.219441]],[[-47.736578,-10.9480497],[-47.7111382,-10.9499731]],[[-47.7111382,-10.9499731],[-47.7105584,-10.9458094],[-47.7062236,-10.9458096],[-47.7070711,-10.9496267],[-47.699331,-10.9508612],[-47.6944318,-10.9505221],[-47.6886212,-10.9478387],[-47.6718046,-10.9608568],[-47.6621926,-10.9745762],[-47.6587197,-10.9757923],[-47.6480385,-10.9652141],[-47.6398327,-10.9700535],[-47.6256045,-10.9780878],[-47.6194281,-10.976828],[-47.6045659,-10.998643],[-47.5858628,-10.999961],[-47.5814235,-10.9903622],[-47.5735123,-10.9954783],[-47.5676264,-11.0108575],[-47.5534583,-11.0077352],[-47.5398716,-11.0114496],[-47.5308288,-11.0066481],[-47.5276097,-10.9949725],[-47.5130381,-11.0146137],[-47.4734377,-11.0237593],[-47.4434152,-11.022114],[-47.4139215,-11.0067017],[-47.3569464,-11.0048225],[-47.3033392,-10.9977224],[-47.2824921,-10.98261],[-47.2619691,-10.9837389],[-47.25719,-10.9968445],[-47.2252692,-11.0091013],[-47.2196338,-11.0186692],[-47.1911347,-11.0355483],[-47.1631797,-11.0419188],[-47.1297581,-11.1040247],[-47.1127773,-11.1054942],[-47.0912236,-11.1236041],[-47.0573777,-11.1321357],[-47.0388719,-11.1523023],[-47.0027747,-11.1619981],[-46.9870186,-11.1626715],[-46.9717245,-11.1528775],[-46.9581732,-11.152751],[-46.9215962,-11.1346918],[-46.9097028,-11.1221352],[-46.8572968,-11.1087979],[-46.8354004,-11.0926454],[-46.8288799,-11.0947085],[-46.7968568,-11.0897888],[-46.7558275,-11.1064099],[-46.7489654,-11.1190006],[-46.7199766,-11.1229105],[-46.6975855,-11.1373446],[-46.6854094,-11.1689505],[-46.6900367,-11.2013791],[-46.6715686,-11.2189324],[-46.6396485,-11.2274855],[-46.6118462,-11.2497779],[-46.5967755,-11.2472097],[-46.5530097,-11.2653785]],[[-46.5530097,-11.2653785],[-46.4660929,-11.1336023],[-46.3415579,-10.9390123],[-46.2672663,-10.9348023],[-46.260537,-10.8120374],[-46.2264451,-10.7829371],[-46.206199,-10.8004666],[-46.195922,-10.745224],[-46.1651513,-10.7224792],[-46.1503463,-10.691554],[-46.1607629,-10.659439],[-46.1497049,-10.6359108],[-46.1272996,-10.6204473],[-46.0607652,-10.6001785],[-45.9746323,-10.5518698],[-45.9292229,-10.5216007],[-45.8708973,-10.5032789],[-45.8212513,-10.458074],[-45.7981846,-10.3232473],[-45.7268896,-10.3125357],[-45.6995761,-10.2596862],[-45.7019773,-10.1793504],[-45.7234839,-10.1554127],[-45.734997,-10.1721653],[-45.7268217,-10.2071033],[-45.7440252,-10.2399559],[-45.7937433,-10.2676724],[-45.8670709,-10.2541064],[-45.8967285,-10.2642902],[-45.9156318,-10.3126645],[-45.8871714,-10.3404619],[-45.9109369,-10.3710886],[-45.9331981,-10.3700391],[-45.9711149,-10.3589393],[-45.9819861,-10.3450251],[-45.9820642,-10.3260795],[-45.9973317,-10.3167634],[-45.9998711,-10.2966799],[-46.0282068,-10.2771033],[-46.0198746,-10.2556523],[-46.0180794,-10.2187425],[-46.0282782,-10.1768696],[-46.0584106,-10.1855633],[-46.0928346,-10.2099009],[-46.1071296,-10.2128818],[-46.1404129,-10.2067574],[-46.1656992,-10.2131439],[-46.2020098,-10.1740091],[-46.2408341,-10.1718858],[-46.2682935,-10.1812102],[-46.3130818,-10.1728238],[-46.3275253,-10.1836944],[-46.3678895,-10.1688141],[-46.3839691,-10.1201424],[-46.420695,-10.0808792],[-46.4452004,-10.0773873],[-46.4574213,-10.0472814],[-46.457085,-10.0180174],[-46.4773101,-9.9898467],[-46.4718656,-9.9736545],[-46.4770081,-9.9527489],[-46.4657237,-9.9370574],[-46.4786115,-9.9238687],[-46.4708399,-9.8980472],[-46.4802539,-9.8568686],[-46.4971395,-9.8436787],[-46.4936439,-9.8274242],[-46.5128672,-9.7975034],[-46.5423899,-9.8103118],[-46.5624781,-9.8106895],[-46.579665,-9.7963455],[-46.570808,-9.7811042],[-46.5750865,-9.7585754],[-46.5961386,-9.7472513],[-46.6236666,-9.7502102],[-46.6443936,-9.7403333],[-46.6533374,-9.6934421],[-46.6130575,-9.6658082],[-46.6061184,-9.6301634],[-46.5955344,-9.6142346],[-46.5923881,-9.5872005],[-46.5793054,-9.5840768],[-46.5391662,-9.5601446],[-46.540479,-9.5501624],[-46.5745282,-9.5206835],[-46.5757819,-9.5082503],[-46.5591976,-9.4929926],[-46.5732556,-9.4777617],[-46.5926609,-9.4834595],[-46.6004795,-9.4704554],[-46.6275914,-9.4657229],[-46.6495644,-9.444091],[-46.6479244,-9.427145],[-46.6337571,-9.4137633],[-46.6659757,-9.3919186],[-46.7002276,-9.3989695],[-46.7233119,-9.3963646],[-46.7543134,-9.4138029],[-46.7659532,-9.4018957],[-46.7586743,-9.3812175],[-46.768315,-9.3655046],[-46.7991716,-9.3388432],[-46.8187517,-9.3034377],[-46.8353123,-9.3082186],[-46.8470632,-9.2924222],[-46.8189454,-9.2600573],[-46.8288944,-9.2400898],[-46.8196135,-9.2116185],[-46.8523673,-9.1861361],[-46.8478096,-9.1680103],[-46.861117,-9.1464228],[-46.8846186,-9.1439041],[-46.8999976,-9.1280193],[-46.9263087,-9.1349438],[-46.9302566,-9.1059806],[-46.9121494,-9.0827243],[-46.9216248,-9.0668129],[-46.9402883,-9.0637411],[-46.9759264,-9.0817295],[-46.9893377,-9.0751717],[-47.0073415,-9.0821934],[-47.0411236,-9.0681621],[-47.0577274,-9.0529545],[-47.0440083,-9.0229101],[-47.0358639,-8.989814],[-47.0215615,-8.9886406],[-47.0112552,-8.9466044],[-46.9714187,-8.9164052],[-46.9929219,-8.8788894],[-46.9813377,-8.869445],[-46.9597282,-8.8754498],[-46.9415578,-8.859479],[-46.9181468,-8.856995],[-46.9180873,-8.8396966],[-46.9028067,-8.8145359],[-46.9075097,-8.7720788],[-46.9248679,-8.7442212],[-46.9143685,-8.7085831],[-46.8869493,-8.6864898],[-46.8891737,-8.6697885],[-46.9163941,-8.6484068],[-46.9170946,-8.6329114],[-46.8977279,-8.6010165],[-46.9022558,-8.5862755],[-46.8624212,-8.55537],[-46.8433518,-8.5228537],[-46.8491469,-8.4746502],[-46.8234833,-8.4744962],[-46.8005095,-8.4540934],[-46.7954804,-8.429969],[-46.8026138,-8.4060856],[-46.7857303,-8.3953681],[-46.7824337,-8.3680837],[-46.7612149,-8.37844],[-46.7365293,-8.3792104],[-46.7025988,-8.3481655],[-46.6804273,-8.3367629],[-46.6621744,-8.3350169],[-46.6338866,-8.3183546],[-46.6122489,-8.3276849],[-46.5439995,-8.3174359],[-46.5181666,-8.2906017],[-46.5068685,-8.2658847],[-46.5091024,-8.2355974],[-46.4891624,-8.2077175],[-46.4935179,-8.1908103],[-46.5109326,-8.1813686],[-46.5138952,-8.164658],[-46.4908179,-8.1181075],[-46.4825614,-8.0887668],[-46.4655932,-8.0719288],[-46.4800166,-8.0422919],[-46.4766494,-8.0138999],[-46.5010969,-7.9732902],[-46.5598218,-7.9408804],[-46.577697,-7.9111659],[-46.6091661,-7.8929592],[-46.6494081,-7.9100205],[-46.694513,-7.9167979],[-46.70928,-7.9134842],[-46.7461334,-7.927386],[-46.7861749,-7.952884],[-46.8139012,-7.9511515],[-46.8378081,-7.9593901],[-46.8832574,-7.9642485],[-46.8960416,-7.9860631],[-46.909218,-7.9804195],[-46.9416367,-7.9979071],[-46.970654,-8.0435818],[-47.0031523,-8.0638818],[-47.0453176,-8.0532451],[-47.0607044,-8.0246004],[-47.0624465,-8.0045961],[-47.0796204,-7.9908226],[-47.0997545,-7.9846888],[-47.1036372,-7.9540427],[-47.1271626,-7.9244347],[-47.1390131,-7.9253498],[-47.1470843,-7.8968663],[-47.1877127,-7.8586617],[-47.2073757,-7.8337771],[-47.2184976,-7.833556],[-47.2403072,-7.8138036],[-47.235753,-7.8042997],[-47.2632039,-7.7520021],[-47.2889445,-7.7295401],[-47.3058134,-7.7348062],[-47.3161674,-7.7175096],[-47.3029899,-7.6902464],[-47.3316711,-7.6854401],[-47.3387494,-7.6669041],[-47.3230007,-7.655917],[-47.3369882,-7.6362198],[-47.3662371,-7.6354749],[-47.3660018,-7.6554106],[-47.3822788,-7.6545981],[-47.3884071,-7.6324683],[-47.383018,-7.6003894],[-47.4051568,-7.5871964],[-47.3990893,-7.5691277],[-47.4342679,-7.5595947],[-47.4245863,-7.5294229],[-47.4621207,-7.5185247],[-47.4802534,-7.5260026],[-47.4805071,-7.4915047],[-47.4963582,-7.4813961],[-47.5028049,-7.4390608],[-47.5284919,-7.4335397],[-47.5628339,-7.4506335],[-47.5915697,-7.4400683],[-47.6034561,-7.4550623]],[[-48.1346654,-8.1150962],[-48.1525279,-8.1503021],[-48.1577925,-8.1635675],[-48.1620458,-8.1858155]],[[-48.1617781,-8.1965826],[-48.1470254,-8.2259094],[-48.1429209,-8.2371821],[-48.1377019,-8.269536]],[[-48.1336921,-8.309594],[-48.1285684,-8.3638185],[-48.1266863,-8.3717169],[-48.1228762,-8.3787819]],[[-48.0856149,-8.4144949],[-48.0815339,-8.422737],[-48.082316,-8.4484808],[-48.0850893,-8.4733018]],[[-48.1263793,-8.526283],[-48.1302816,-8.5293858],[-48.1331179,-8.5354962],[-48.1313476,-8.5633074]],[[-48.1313476,-8.5633074],[-48.1357258,-8.5902619],[-48.1320107,-8.6250011],[-48.1300094,-8.6351849]],[[-48.4519453,-11.2751067],[-48.4602774,-11.3168905],[-48.4652898,-11.3352556],[-48.4790131,-11.3625021]],[[-48.1427556,-13.1428228],[-48.1559808,-13.1780289],[-48.1659237,-13.1892998],[-48.1543121,-13.2210279],[-48.1667655,-13.2325899],[-48.1571961,-13.2500059],[-48.1532145,-13.2783113],[-48.1698794,-13.3003456],[-48.1430995,-13.3061551],[-48.0792374,-13.2853782],[-48.0760426,-13.2427307],[-48.0541503,-13.2395873],[-48.0522263,-13.2567218],[-48.0340912,-13.2537265],[-48.0252513,-13.2798336],[-47.9885408,-13.2763636],[-47.9705718,-13.3115825],[-47.9439503,-13.303586],[-47.9363044,-13.2898552],[-47.9064982,-13.2991233],[-47.8986464,-13.3125729],[-47.8740603,-13.3204879],[-47.8236019,-13.3117114],[-47.7982282,-13.3289841],[-47.6797484,-13.4681748],[-47.6709903,-13.4412691],[-47.6556354,-13.4286756],[-47.6545058,-13.4154436],[-47.6377011,-13.3898225],[-47.6287514,-13.365694],[-47.6500735,-13.3491826],[-47.6536575,-13.3134643],[-47.6614696,-13.3027767],[-47.639661,-13.2642926],[-47.6652143,-13.2183676],[-47.6661664,-13.1726605],[-47.6516952,-13.1498235],[-47.6458713,-13.1198323],[-47.6156147,-13.1036851],[-47.5931215,-13.1154824],[-47.5746786,-13.1149265],[-47.5609943,-13.1255621],[-47.5685676,-13.1434514],[-47.5652595,-13.179662],[-47.5410293,-13.1917981],[-47.5177151,-13.1833875],[-47.5088443,-13.1900339],[-47.4774514,-13.1871897],[-47.4878931,-13.2112802],[-47.4651907,-13.227158],[-47.4421239,-13.2223176],[-47.4321613,-13.2379692],[-47.4544222,-13.2505276],[-47.4364455,-13.2667829],[-47.4171999,-13.2708326],[-47.3914681,-13.2583855],[-47.394499,-13.2462665],[-47.3797227,-13.2306025],[-47.3381852,-13.2463509],[-47.3238054,-13.2582586],[-47.3063623,-13.249093],[-47.2821518,-13.2651268],[-47.2683979,-13.2374476],[-47.2482667,-13.2278975],[-47.2523793,-13.2126088],[-47.2296138,-13.1947384],[-47.1969246,-13.1936844],[-47.1679426,-13.2111178],[-47.1335041,-13.1993901],[-47.1321165,-13.1778641],[-47.0854035,-13.1717336],[-47.0712409,-13.1589459],[-47.0078393,-13.1386366],[-47.0053109,-13.1265186],[-46.9791473,-13.1218422],[-46.9275007,-13.0897505],[-46.8916768,-13.0523851],[-46.8782265,-13.0516605],[-46.8614231,-13.0667377],[-46.8228182,-13.0067893],[-46.750611,-12.969155],[-46.4546499,-12.9711526],[-46.4459259,-12.9357678],[-46.4325688,-12.9306408],[-46.4179848,-12.8224367],[-46.4091181,-12.8455928],[-46.3829617,-12.8485596],[-46.3657643,-12.863354],[-46.3684008,-12.9025899],[-46.3652006,-12.9346972],[-46.3724272,-12.9445488],[-46.3706226,-12.987923],[-46.304931,-12.97854],[-46.2810157,-12.968555],[-46.2380935,-12.9623869],[-46.2223573,-12.9502317],[-46.254501,-12.9392031],[-46.2942225,-12.9529523],[-46.3080359,-12.9399232],[-46.3112453,-12.9090544],[-46.2903724,-12.9003262],[-46.2998758,-12.8563612],[-46.2775822,-12.8435595],[-46.2735822,-12.815966],[-46.3097625,-12.7966012],[-46.3069477,-12.7866967],[-46.2824396,-12.7670996],[-46.2951944,-12.7560431],[-46.2737155,-12.7388185],[-46.2728226,-12.7142207],[-46.2946262,-12.7074643],[-46.301703,-12.6843133],[-46.2688648,-12.6673292],[-46.2744064,-12.6438603],[-46.305393,-12.6399891],[-46.2757846,-12.5944306],[-46.2935417,-12.5790284],[-46.2716121,-12.5700454],[-46.2549312,-12.5398977],[-46.2244444,-12.528641],[-46.2053289,-12.5033552],[-46.2508606,-12.502217],[-46.2659518,-12.4827186],[-46.2638259,-12.4602543],[-46.272503,-12.4389958],[-46.2904543,-12.416632],[-46.3100667,-12.4296701],[-46.3155489,-12.4634304],[-46.3370353,-12.4530633],[-46.3248555,-12.4075111],[-46.3135813,-12.4055048],[-46.2898836,-12.376653],[-46.3000205,-12.3637318],[-46.3487602,-12.3518799],[-46.3563495,-12.332222],[-46.3491463,-12.2991233],[-46.3843873,-12.2945067],[-46.3857616,-12.2810697],[-46.3695687,-12.2674682],[-46.3828769,-12.2552194],[-46.366521,-12.215083],[-46.3730731,-12.2035997],[-46.3966896,-12.1899616],[-46.3810937,-12.1810752],[-46.3980695,-12.1627045],[-46.3847266,-12.1502777],[-46.3715438,-12.1232291],[-46.3711652,-12.0997193],[-46.3980347,-12.0894981],[-46.3883727,-12.0774568],[-46.3844223,-12.0517563],[-46.3943808,-12.0463967],[-46.4220194,-12.0515148],[-46.4525443,-12.0501117],[-46.461389,-12.0359692],[-46.4448951,-12.0261783],[-46.3969376,-12.0139181],[-46.3635629,-11.9903413],[-46.3648267,-11.9807722],[-46.3154903,-11.941993],[-46.2966545,-11.9377059],[-46.2330576,-11.9364818],[-46.2025928,-11.9233524],[-46.1951004,-11.904136],[-46.2477131,-11.9192975],[-46.2880029,-11.9096549],[-46.3067835,-11.9137471],[-46.3530272,-11.8843192],[-46.3706583,-11.8895899],[-46.3807875,-11.8615878],[-46.3721335,-11.8299619],[-46.337911,-11.814101],[-46.3352985,-11.7964368],[-46.3462438,-11.7843342],[-46.3436773,-11.7600875],[-46.3737917,-11.7663207],[-46.3785453,-11.7485209],[-46.3423999,-11.7374137],[-46.3077347,-11.6864407],[-46.3320947,-11.6723541],[-46.343791,-11.6551257],[-46.3401945,-11.6395843],[-46.3615956,-11.6328366],[-46.3871296,-11.6464154],[-46.3850367,-11.627159],[-46.3602947,-11.6152354],[-46.3506712,-11.6204826],[-46.3043291,-11.6061903],[-46.2867875,-11.6158247],[-46.2746199,-11.6070501],[-46.2360793,-11.610525],[-46.2385496,-11.6231161],[-46.2142962,-11.6427527],[-46.1572177,-11.6514962],[-46.1467465,-11.6452323],[-46.1444858,-11.6243474],[-46.1073456,-11.625734],[-46.1043079,-11.6079673],[-46.2093463,-11.5853507],[-46.2504813,-11.536689],[-46.3481413,-11.5066007],[-46.4402129,-11.520884],[-46.5240555,-11.4636343],[-46.5276146,-11.402574],[-46.5320213,-11.3746657],[-46.5674829,-11.372004],[-46.5772529,-11.3604873],[-46.5764346,-11.341899],[-46.5530097,-11.2653785]],[[-47.7111382,-10.9499731],[-47.7257347,-10.9507142]],[[-48.4541187,-11.2625234],[-48.4517121,-11.2707824],[-48.4519453,-11.2751067]]],"bbox":[-50.742064,-13.4681748,-45.6995761,-5.1683805]}
