{"type":"Topology","objects":{"geometrias":{"type":"GeometryCollection","geometries":[{"type":"Polygon","arcs":[[0,1,2,3,4,5,6,7,8]],"properties":{"code_micro":13001,"name_micro":"Rio Negro","code_state":13,"code_region":1,"abbrev_state":"AM","name_state":"Amazonas","name_region":"Norte","year":2020}},{"type":"Polygon","arcs":[[9,10,11,12,-9,13,14]],"properties":{"code_micro":13002,"name_micro":"Japurá","code_state":13,"code_region":1,"abbrev_state":"AM","name_state":"Amazonas","name_region":"Norte","year":2020}},{"type":"Polygon","arcs":[[15,16,17,18,19,20,-15]],"properties":{"code_micro":13003,"name_micro":"Alto Solimões","code_state":13,"code_region":1,"abbrev_state":"AM","name_state":"Amazonas","name_region":"Norte","year":2020}},{"type":"Polygon","arcs":[[21,22,23,24,25,26,-17]],"properties":{"code_micro":13004,"name_micro":"Juruá","code_state":13,"code_region":1,"abbrev_state":"AM","name_state":"Amazonas","name_region":"Norte","year":2020}},{"type":"Polygon","arcs":[[27,28,29,-11,30,31,-19,32,-26]],"properties":{"code_micro":13005,"name_micro":"Tefé","code_state":13,"code_region":1,"abbrev_state":"AM","name_state":"Amazonas","name_region":"Norte","year":2020}},{"type":"Polygon","arcs":[[-13,33,-29,34,35,36,37,-5,38,-3,39,-1]],"properties":{"code_micro":13006,"name_micro":"Coari","code_state":13,"code_region":1,"abbrev_state":"AM","name_state":"Amazonas","name_region":"Norte","year":2020}},{"type":"Polygon","arcs":[[-38,40,41,42,43,44,-6]],"properties":{"code_micro":13007,"name_micro":"Manaus","code_state":13,"code_region":1,"abbrev_state":"AM","name_state":"Amazonas","name_region":"Norte","year":2020}},{"type":"Polygon","arcs":[[45,46,47,48,-7,-45]],"properties":{"code_micro":13008,"name_micro":"Rio Preto da Eva","code_state":13,"code_region":1,"abbrev_state":"AM","name_state":"Amazonas","name_region":"Norte","year":2020}},{"type":"Polygon","arcs":[[-46,-44,49,50,51,52,53,54]],"properties":{"code_micro":13009,"name_micro":"Itacoatiara","code_state":13,"code_region":1,"abbrev_state":"AM","name_state":"Amazonas","name_region":"Norte","year":2020}},{"type":"Polygon","arcs":[[55,-52,56,57,58,-48,59,-54]],"properties":{"code_micro":13010,"name_micro":"Parintins","code_state":13,"code_region":1,"abbrev_state":"AM","name_state":"Amazonas","name_region":"Norte","year":2020}},{"type":"Polygon","arcs":[[60,61,62,-23]],"properties":{"code_micro":13011,"name_micro":"Boca do Acre","code_state":13,"code_region":1,"abbrev_state":"AM","name_state":"Amazonas","name_region":"Norte","year":2020}},{"type":"Polygon","arcs":[[63,-62,64,65,66,-35,-28,-25]],"properties":{"code_micro":13012,"name_micro":"Purus","code_state":13,"code_region":1,"abbrev_state":"AM","name_state":"Amazonas","name_region":"Norte","year":2020}},{"type":"Polygon","arcs":[[-37,67,-66,68,-58,69,-50,-43,70,-41]],"properties":{"code_micro":13013,"name_micro":"Madeira","code_state":13,"code_region":1,"abbrev_state":"AM","name_state":"Amazonas","name_region":"Norte","year":2020}}]}},"arcs":[[[-64.3672163,-2.2651189],[-64.3377466,-2.2777242],[-64.3139435,-2.2670701],[-64.2864396,-2.2169336],[-64.260026,-2.20516],[-64.2538833,-2.12416],[-64.2332472,-2.106812],[-64.2111403,-2.1022652],[-64.1689062,-2.1314509],[-64.1556669,-2.171616],[-64.0858002,-2.1917968],[-64.0287772,-2.1606626],[-63.9929451,-2.2159133],[-64.0068359,-2.3284588],[-63.9772737,-2.3735014],[-63.974442,-2.4227329],[-63.9570554,-2.4665937],[-63.9881669,-2.5279292],[-63.9842779,-2.5654014],[-63.9646079,-2.5753802],[-63.9114684,-2.5621664],[-63.7884706,-2.5571956],[-63.7673264,-2.5931525],[-63.7295286,-2.693559],[-63.7145286,-2.7712514],[-63.7246662,-2.824412],[-63.6915554,-2.8346003],[-63.6296666,-2.8067521],[-63.5639944,-2.7628517],[-63.5250505,-2.753819],[-63.4972486,-2.73321],[-63.4630817,-2.7034447],[-63.4086592,-2.7074877],[-63.3049101,-2.7001944],[-63.2835521,-2.7107928],[-63.2407555,-2.7962541],[-63.1890164,-2.8371298],[-63.0955685,-2.831803],[-63.0497713,-2.8147603],[-63.0096618,-2.8408059],[-62.9288574,-2.8536175],[-62.9104606,-2.9253342],[-62.9334612,-3.0009415],[-62.8280763,-3.0030413],[-62.7799878,-3.0201961],[-62.7602428,-3.0400753]],[[-62.7602428,-3.0400753],[-62.7414352,-3.0670813],[-62.7279102,-3.0788392],[-62.7111308,-3.0884618],[-62.6919934,-3.0927211],[-62.6342398,-3.0918641]],[[-62.6342398,-3.0918641],[-62.5830899,-3.1067603],[-62.5507986,-3.091096],[-62.5056603,-3.0095621],[-62.4896574,-2.9431036]],[[-62.4896574,-2.9431036],[-62.488489,-2.901631],[-62.484519,-2.8820884],[-62.4739934,-2.8588168],[-62.4588289,-2.8391478]],[[-62.4588289,-2.8391478],[-62.4494876,-2.8299556],[-62.4275855,-2.8167953],[-62.3857667,-2.806624],[-62.3543264,-2.7740409],[-62.2442614,-2.7653908],[-62.1584581,-2.7293458],[-62.0930414,-2.7119582],[-62.0609338,-2.6627379],[-62.0387893,-2.6483369],[-61.9638723,-2.6360101],[-61.9241553,-2.6095497],[-61.8611243,-2.6237583],[-61.8102941,-2.6100698],[-61.7601243,-2.640338],[-61.7462825,-2.6927936],[-61.7086485,-2.7342727],[-61.7055171,-2.7715875],[-61.7329879,-2.8226631],[-61.6832325,-2.8567032],[-61.6621529,-2.8611368],[-61.6405997,-2.8281664],[-61.6080988,-2.8344461],[-61.5395116,-2.8265019],[-61.4834851,-2.7866161]],[[-61.4834851,-2.7866161],[-61.4661282,-2.7668832],[-61.4491214,-2.7610612],[-61.4042629,-2.7615549],[-61.3682349,-2.7456684],[-61.3135965,-2.7394016],[-61.2506264,-2.7410293],[-61.2219531,-2.7645133],[-61.1656543,-2.7854918],[-61.1441237,-2.8079512],[-61.0613424,-2.8137643],[-61.0164517,-2.8522223],[-61.0005079,-2.8836754],[-60.942034,-2.8420942],[-60.9135681,-2.8118731],[-60.8732454,-2.82097],[-60.8625807,-2.8375119],[-60.7564315,-2.8217883],[-60.8027272,-2.5392258],[-60.7918145,-2.4844828],[-60.7737018,-2.4535746],[-60.7438421,-2.4304352],[-60.7689269,-2.3994846],[-60.69531,-2.3461769],[-60.71137,-2.3200781],[-60.6920593,-2.2426657],[-60.7389514,-2.1893529],[-60.7001694,-2.1731506],[-60.6639797,-2.1306854],[-60.6820321,-2.1080968],[-60.6681733,-2.0746064],[-60.6222036,-2.0463373],[-60.5989812,-1.9988342],[-60.5425305,-2.0026808],[-60.5036232,-2.0174548],[-60.4166408,-1.9968324],[-60.3577562,-1.954464]],[[-60.3577562,-1.954464],[-60.4445902,-1.9496221],[-60.4815028,-1.9182267],[-60.5734093,-1.9139602],[-60.6162428,-1.864287],[-60.6092662,-1.8359504],[-60.6253321,-1.7867937],[-60.6162305,-1.7231829],[-60.6275075,-1.6920902],[-60.6036531,-1.6309716],[-60.5812118,-1.6042767],[-60.5895983,-1.5509025],[-60.6709242,-1.4880099],[-60.7503988,-1.4456228],[-60.8062898,-1.4477014],[-60.854241,-1.4342898],[-60.8364174,-1.4069033],[-60.847612,-1.3593353],[-60.8826746,-1.3334217],[-60.8881102,-1.3092724],[-60.9187158,-1.310207],[-60.9548295,-1.3177346],[-60.9629756,-1.3145736],[-60.9545363,-1.2824616],[-60.9059154,-1.2512771],[-60.8556914,-1.2612225],[-60.856398,-1.2173926],[-60.8267592,-1.124906],[-60.8277603,-1.0913902],[-60.7835032,-1.0882942],[-60.7582,-1.0675396],[-60.7949965,-1.023586],[-60.7620092,-0.8485891]],[[-60.7620092,-0.8485891],[-60.7779021,-0.7888959],[-60.7712078,-0.7560625],[-60.7926101,-0.7417466],[-60.8185079,-0.6891733],[-60.8551557,-0.6863394],[-60.8576966,-0.6554596],[-60.8915103,-0.6452966],[-60.9276695,-0.6055239],[-60.9213172,-0.5790412],[-60.9336309,-0.5478676],[-60.9948083,-0.5610602],[-61.0568653,-0.543861],[-61.0790494,-0.5061397],[-61.1616292,-0.5017422],[-61.168861,-0.516303],[-61.2230998,-0.4998854],[-61.2340453,-0.5619397],[-61.3091977,-0.5790412],[-61.3289387,-0.5972175],[-61.3595274,-0.5969244],[-61.4287185,-0.6495475],[-61.4581344,-0.6547267],[-61.4846186,-0.716877],[-61.5356323,-0.7544012],[-61.5567415,-0.86492],[-61.5523438,-0.8894467],[-61.5764824,-0.9111396],[-61.5807825,-0.9779761],[-61.5509756,-0.9831549],[-61.5428642,-1.0622039],[-61.5727688,-1.0757856],[-61.5786325,-1.1137947],[-61.5661233,-1.129135],[-61.6083416,-1.2524404],[-61.6269031,-1.29397],[-61.5821752,-1.3534073],[-61.6191215,-1.3947977],[-61.548014,-1.429518],[-61.5235688,-1.4906328],[-61.473291,-1.5278497],[-61.4827365,-1.5806331],[-61.5446819,-1.5256267],[-61.5596818,-1.4950728],[-61.6049547,-1.4481315],[-61.7180136,-1.4097932],[-61.7407891,-1.3920181],[-61.7980094,-1.38063],[-61.8171838,-1.3995172],[-61.8966239,-1.3953553],[-61.906898,-1.3561901],[-61.9499562,-1.2970205],[-61.966905,-1.2428579],[-62.0174603,-1.141744],[-62.062179,-1.0997992],[-62.0996815,-1.0967433],[-62.1719075,-1.0059124],[-62.1999604,-1.0003542],[-62.2274549,-0.9734411],[-62.2591241,-0.9759149],[-62.2721852,-0.9520217],[-62.3127423,-0.930355],[-62.3649621,-0.8773045],[-62.3760672,-0.8364693],[-62.4332906,-0.8039684],[-62.5010732,-0.7814661],[-62.4949568,-0.7506342],[-62.5082918,-0.7142492],[-62.4866273,-0.6814673],[-62.4271271,-0.6897596],[-62.4050896,-0.7222027],[-62.3674645,-0.6944991],[-62.3558105,-0.671608],[-62.3080217,-0.6577317],[-62.2867171,-0.632373],[-62.2906262,-0.5984635],[-62.3123217,-0.5759385],[-62.3072399,-0.5081186],[-62.2927274,-0.5036722],[-62.2804137,-0.4507057],[-62.232796,-0.4244911],[-62.1871572,-0.3278407],[-62.2421259,-0.2992467],[-62.253389,-0.2700021],[-62.2530225,-0.2129053],[-62.241564,-0.1704673],[-62.2778209,-0.1498469],[-62.3197948,-0.0963412],[-62.326538,-0.0016922],[-62.3658734,0.0557716],[-62.4092644,0.0750728],[-62.4281258,0.1281387],[-62.4241258,0.1532502],[-62.4527436,0.2074142],[-62.4666294,0.2679859],[-62.4585849,0.3134941],[-62.4668891,0.3329678],[-62.4463713,0.3791138],[-62.4585682,0.4176914],[-62.485246,0.4540804],[-62.5186613,0.4437009],[-62.5330086,0.5088084],[-62.5188492,0.5937719],[-62.5382905,0.6751955],[-62.5333109,0.7013007],[-62.5004942,0.7479483],[-62.4630261,0.7768688],[-62.4660739,0.8290772],[-62.4846856,0.8760203],[-62.4671893,0.9237996],[-62.4427354,0.9585339],[-62.4746958,1.0162997],[-62.4716209,1.0862816],[-62.5210879,1.0838159],[-62.5452401,1.1207622],[-62.5546935,1.1749041],[-62.6205211,1.3626934],[-62.6202536,1.4037833],[-62.6399648,1.4382383],[-62.6769036,1.4546309],[-62.7308005,1.499632],[-62.7363493,1.5296296],[-62.8052823,1.5913457],[-62.7929928,1.6353122],[-62.7286068,1.7],[-62.7223724,1.7224945],[-62.7310733,1.8182323],[-62.7041791,1.8739468],[-62.7033106,1.9338206],[-62.7295838,1.9605494],[-62.8132455,1.9916842],[-62.8385715,2.0163864],[-62.9484827,2.0310414],[-63.0237762,2.0146794],[-63.0772673,2.0460662],[-63.1198323,2.0964525],[-63.1463394,2.1732586],[-63.1941336,2.1812129],[-63.2763514,2.1543897],[-63.3107885,2.165004],[-63.3597912,2.1971016],[-63.3888586,2.1829859],[-63.3977409,2.1468868],[-63.4441372,2.1251611],[-63.4666357,2.1409856],[-63.4924661,2.1154656],[-63.5619064,2.1323587],[-63.6174619,2.1065552],[-63.6449669,2.064929],[-63.6621933,2.0654655],[-63.668021,2.0168828],[-63.7033005,2.0462687],[-63.7849696,1.9815483],[-63.8238572,1.9910289],[-63.8296883,1.9682281],[-63.9066373,1.9915269],[-63.9227463,1.9829242],[-63.9755238,1.9913059],[-64.0191381,1.9512979],[-64.0619156,1.9307373],[-64.0560847,1.8410087],[-64.0624667,1.7896248],[-64.0780269,1.7590416],[-64.0613558,1.7016127],[-64.065248,1.6760096],[-64.1121903,1.5893265],[-64.1441374,1.582435],[-64.1938566,1.5426979],[-64.2155218,1.5084945],[-64.2402475,1.5112846],[-64.3021953,1.4682845],[-64.3260851,1.4359802],[-64.3427474,1.3843245],[-64.3999729,1.3948723],[-64.3913578,1.429611],[-64.3571906,1.4838108],[-64.3513625,1.5182727],[-64.3974674,1.5268362],[-64.4385855,1.4718185],[-64.4535773,1.4802195],[-64.5005247,1.4426544],[-64.5313556,1.4352188],[-64.5827463,1.3754932],[-64.5908,1.3374136],[-64.634971,1.3202018],[-64.6602494,1.2913363],[-64.7019142,1.2913088],[-64.7224702,1.2384823],[-64.7638611,1.2307695],[-64.7935823,1.2693605],[-64.8033094,1.3105007],[-64.8616387,1.2693133],[-64.8688597,1.2410053],[-64.9066365,1.2416119],[-64.9263644,1.2146505],[-64.9696934,1.2171516],[-64.9608037,1.1896693],[-65.022249,1.1149409],[-65.1030858,1.1566564],[-65.1514751,1.1164774],[-65.1540281,1.0563536],[-65.1472772,1.009346],[-65.1649762,0.9504778],[-65.1971933,0.9107701],[-65.2088678,0.9287523],[-65.2408088,0.921048],[-65.3027514,0.9421604],[-65.3291401,0.9315675],[-65.3519192,0.8729742],[-65.3735819,0.8646456],[-65.3980261,0.8213317],[-65.3974706,0.7499208],[-65.4235867,0.7079645],[-65.452757,0.6854416],[-65.5305331,0.6679567],[-65.5641402,0.675712],[-65.5913674,0.721611],[-65.5735861,0.764372],[-65.5485837,0.7745993],[-65.5035907,0.8524478],[-65.5083615,0.915535],[-65.5363912,0.9480537],[-65.5419203,0.9755243],[-65.5722221,0.9849942],[-65.5855583,1.0089346],[-65.6527545,1.0117712],[-65.6785847,0.9887953],[-65.6955293,1.0040538],[-65.7394209,0.9995908],[-65.767201,0.9640511],[-65.8163665,0.9520823],[-65.8622852,0.9309006],[-65.8815576,0.9016085],[-65.9365849,0.8821381],[-65.9713703,0.8060344],[-66.0172603,0.8000405],[-66.0700558,0.8050584],[-66.08853,0.7590606],[-66.1510876,0.744472],[-66.2129729,0.7806478],[-66.3185201,0.7550422],[-66.5993098,0.9996884],[-66.8569331,1.2302063],[-67.0881602,1.1668967],[-67.0888285,1.3249804],[-67.072331,1.4426041],[-67.078717,1.4998321],[-67.0815227,1.6381769],[-67.0995477,1.6817408],[-67.0973816,1.7326009],[-67.1240535,1.7989282],[-67.1570501,1.8488441],[-67.1743336,1.8570207],[-67.2439499,1.8581853],[-67.278087,1.8757471],[-67.3001994,1.9266702],[-67.3260885,2.0297139],[-67.336873,2.0980903],[-67.3434869,2.2054799],[-67.3892608,2.2440111],[-67.4309917,2.241616],[-67.4481787,2.2081033],[-67.5219342,2.1703146],[-67.5509126,2.1417181],[-67.5580226,2.1060894],[-67.5863565,2.0854913],[-67.6198315,2.0236732],[-67.6706442,2.0200117],[-67.7499272,2.0401289],[-67.7794222,2.031064],[-67.8182306,1.9668342],[-67.8826199,1.9028001],[-67.9129869,1.8978188],[-67.9068721,1.8661181],[-67.9412948,1.8307309],[-67.9735795,1.8327501],[-68.0434404,1.8996897],[-68.0875265,1.9013133],[-68.1031103,1.93634],[-68.1406947,1.9847824],[-68.1829182,1.978796],[-68.2432559,1.9267464],[-68.2669026,1.8273363],[-68.233675,1.8299145],[-68.2449542,1.7949035],[-68.2365907,1.7725223],[-68.2025902,1.7863312],[-68.1695326,1.7706642],[-68.1568127,1.7316353],[-69.0007639,1.7321173],[-69.1786162,1.7334428],[-69.3848865,1.729737],[-69.4261623,1.7568641],[-69.4868981,1.7621574],[-69.5523449,1.7917466],[-69.5673754,1.7772693],[-69.6575812,1.7367307],[-69.7111159,1.7494561],[-69.7522569,1.7389191],[-69.7950949,1.7099626],[-69.8425454,1.7207748],[-69.8455758,1.4996463],[-69.8443766,1.0853793],[-69.8020646,1.0735832],[-69.7848071,1.1013492],[-69.7547522,1.1186755],[-69.7105853,1.1265092],[-69.7092201,1.0901973],[-69.684761,1.0764769],[-69.6069069,1.105173],[-69.5664707,1.0807469],[-69.4934233,1.0879038],[-69.4373989,1.0806241],[-69.4165087,1.0523523],[-69.3859886,1.0825802],[-69.3215783,1.0956949],[-69.2898073,1.0624061],[-69.265356,1.0643609],[-69.213045,1.0201808],[-69.2061373,0.9722809],[-69.1735002,0.9598324],[-69.1906398,0.9325853],[-69.1718296,0.9026969],[-69.1358289,0.877186],[-69.1659125,0.8284801],[-69.1450214,0.7830299],[-69.1873348,0.7492421],[-69.1803573,0.7244394],[-69.1445521,0.7025014],[-69.115159,0.6498419],[-69.1932214,0.6515253],[-69.212809,0.6096125],[-69.2389516,0.6023902],[-69.3115405,0.6374274],[-69.3688512,0.6275135],[-69.4100205,0.674732],[-69.4814747,0.7356074],[-69.5664838,0.6840547],[-69.6067941,0.629207],[-69.6346047,0.6363892],[-69.6481052,0.6608446],[-69.6798001,0.6705732],[-69.7180314,0.6430104],[-69.7252278,0.61686],[-69.81315,0.5828062],[-69.831598,0.5900167],[-69.8873226,0.5749305],[-69.9148269,0.5852725],[-69.9423858,0.5542955],[-69.9914495,0.5609718],[-70.0042258,0.5409198],[-70.0435655,0.5588281],[-70.0466782,0.0682999],[-70.0215376,0.0672639]],[[-70.0215376,0.0672639],[-69.9855758,0.038552],[-69.984548,-0.0057422],[-69.951861,-0.0205853],[-69.9418779,-0.0853522],[-69.9062966,-0.108419],[-69.8834965,-0.1433531],[-69.8481273,-0.1232283],[-69.8126094,-0.1183886],[-69.7979937,-0.0813401],[-69.7576588,-0.0985894],[-69.7563592,-0.1484248],[-69.734518,-0.1677653],[-69.6768682,-0.1676026],[-69.6041821,-0.2208749],[-69.603876,-0.3105485],[-69.5751268,-0.3342994],[-69.5432128,-0.3382388],[-69.4876931,-0.3714745],[-69.4857958,-0.4010243],[-69.4089407,-0.4069321],[-69.3743529,-0.4386514],[-69.3540147,-0.4771687],[-69.3094066,-0.489455],[-69.2698576,-0.5214023],[-69.2189668,-0.5115098],[-69.1586389,-0.5385361],[-69.1175419,-0.5339852],[-69.1046949,-0.5158486],[-69.0634753,-0.4997279],[-69.032632,-0.503119],[-69.0140852,-0.4849859],[-68.9610569,-0.477283],[-68.9212659,-0.4841291],[-68.8204426,-0.5278302],[-68.7839344,-0.5496162],[-68.6989524,-0.5695733],[-68.6634213,-0.624965],[-68.6250252,-0.6632508],[-68.6219593,-0.6968512],[-68.5568793,-0.7430394],[-68.5039113,-0.7573279],[-68.4478848,-0.7508178],[-68.4260265,-0.7574496],[-68.4046211,-0.7350231],[-68.3717003,-0.7348072],[-68.262224,-0.6708929],[-68.1956732,-0.6649912],[-68.1649454,-0.6759649],[-68.1611162,-0.9990705],[-68.160696,-1.4834319],[-68.1271932,-1.4997395],[-68.0888563,-1.4987713],[-68.0352757,-1.4746248],[-67.9625762,-1.4903196],[-67.9341246,-1.5126039],[-67.9045668,-1.5173733],[-67.8317202,-1.4819238],[-67.8004763,-1.4867215],[-67.7346606,-1.5254857],[-67.7113893,-1.5278777],[-67.6495041,-1.5120702],[-67.6167315,-1.5665921],[-67.6085981,-1.6122106],[-67.5266503,-1.6509276],[-67.4892099,-1.652198],[-67.4388766,-1.6407007],[-67.3939297,-1.6653102],[-67.3693741,-1.6318248],[-67.3438682,-1.6183819],[-67.2862877,-1.609603],[-67.2542621,-1.6199693],[-67.2148455,-1.608903],[-67.1514513,-1.6043433],[-67.1100676,-1.5821071],[-67.0497633,-1.5817386],[-67.0061804,-1.5946128],[-66.9731754,-1.5909122],[-66.9185689,-1.6102448],[-66.8526805,-1.6077982],[-66.8086718,-1.5978315],[-66.775256,-1.6016541],[-66.7249584,-1.6261062],[-66.7051739,-1.62388],[-66.657457,-1.6014078],[-66.6302032,-1.5713086],[-66.4784307,-1.5062897],[-66.4531741,-1.4787092],[-66.3870379,-1.4694319],[-66.3637881,-1.485015],[-66.3721428,-1.533281],[-66.3457292,-1.5633385],[-66.316846,-1.5692237],[-66.2881206,-1.5485353],[-66.2415072,-1.4919524],[-66.1928365,-1.4723839],[-66.1569494,-1.4467262],[-66.0974789,-1.4230838],[-65.9422011,-1.4125342],[-65.9124569,-1.4209251],[-65.8939235,-1.4325451],[-65.860505,-1.4715988],[-65.8177857,-1.4731954],[-65.7590863,-1.5030738],[-65.6865712,-1.5019788],[-65.6623369,-1.5158018],[-65.6395361,-1.5566719],[-65.6479724,-1.6056135],[-65.6409518,-1.6361768],[-65.6048932,-1.6629151],[-65.5597522,-1.6600549],[-65.5250053,-1.6975788],[-65.5258631,-1.7672012],[-65.5140636,-1.7929899],[-65.4844773,-1.7860548],[-65.4580025,-1.7387651],[-65.4205058,-1.7354797],[-65.3909727,-1.7544368],[-65.290891,-1.7857736],[-65.2291403,-1.7759498],[-65.1935336,-1.798155],[-65.1797007,-1.8328486],[-65.1831423,-1.9370638],[-65.1714468,-1.959746],[-65.1363669,-1.9747086],[-65.0849466,-1.9618472],[-65.0580607,-1.9696584],[-65.0202266,-1.9131588],[-64.9735805,-1.8870884],[-64.934338,-1.899687],[-64.9496113,-2.000339],[-64.9249493,-2.044779],[-64.9306711,-2.1100662],[-64.8867251,-2.1001725],[-64.8669975,-2.0803565],[-64.8028934,-2.0733075],[-64.78692,-2.0468208],[-64.7044449,-2.0196449],[-64.6879694,-2.0576803],[-64.7083063,-2.1197446],[-64.7118641,-2.1424745],[-64.6659175,-2.1946879],[-64.6633349,-2.2142007],[-64.5335003,-2.245311],[-64.5117998,-2.235488],[-64.5039708,-2.1917292],[-64.4625579,-2.1854525],[-64.4076328,-2.2078579],[-64.3672163,-2.2651189]],[[-65.2581013,-2.377599],[-65.2478814,-2.3864993]],[[-65.2478814,-2.3864993],[-65.2294875,-2.3880113],[-65.216029,-2.380429],[-65.2186067,-2.2860373],[-65.1932057,-2.283566],[-65.1884452,-2.315774],[-65.1390395,-2.3373976],[-65.116355,-2.3949688],[-65.0558362,-2.5070174],[-64.998094,-2.5603055],[-64.9807754,-2.5979293],[-65.0036087,-2.7032218],[-64.9726635,-2.7227888],[-64.9167406,-2.7104827],[-64.8796581,-2.7160383],[-64.8663941,-2.7354179],[-64.8771006,-2.8125367],[-64.8924568,-2.8750011],[-64.8106116,-2.9472432],[-64.8038294,-3.0145754],[-64.7580327,-3.0752794],[-64.7349958,-3.0846387],[-64.7190136,-3.1194531],[-64.7825422,-3.1384267],[-64.7790076,-3.1685425],[-64.7031678,-3.2218687],[-64.6754685,-3.2632151],[-64.6206099,-3.2887168],[-64.5438736,-3.3117684],[-64.5220188,-3.3269986],[-64.4628827,-3.4139141],[-64.4441449,-3.4635473],[-64.3870631,-3.5034261],[-64.3549691,-3.5367643],[-64.2915463,-3.5705496],[-64.2157973,-3.6245886],[-64.1773806,-3.662553],[-64.1296407,-3.6877362],[-64.071599,-3.7043105]],[[-64.071599,-3.7043105],[-64.0456115,-3.7043678],[-64.0173884,-3.7065471]],[[-64.0173884,-3.7065471],[-64.0115018,-3.701239],[-63.9878083,-3.7067875],[-63.977743,-3.7645047],[-63.942111,-3.8128695],[-63.8670227,-3.8111903],[-63.7703019,-3.8006214],[-63.7599174,-3.7952919],[-63.7811191,-3.7815434],[-63.8315798,-3.7801996],[-63.8445694,-3.7985569],[-63.8815927,-3.7920382],[-63.9264843,-3.7368674],[-63.9196218,-3.6565087],[-63.9863536,-3.6027814],[-64.0202038,-3.6228991],[-64.0625985,-3.543609],[-64.1071928,-3.5406559],[-64.1288621,-3.5166204],[-64.1583617,-3.5112206],[-64.1603375,-3.5058024],[-64.1432566,-3.4583877],[-64.1510244,-3.4184706],[-64.1275143,-3.363439],[-64.0837908,-3.3601484],[-64.08744,-3.3303166],[-64.1200315,-3.2864579],[-64.1498808,-3.2671699],[-64.1629514,-3.2375977],[-64.1922188,-3.2536378],[-64.2508818,-3.1858707],[-64.2913828,-3.151763],[-64.2873761,-3.1335926],[-64.2825581,-3.1318759],[-64.273281,-3.1379861],[-64.2693049,-3.1078353],[-64.2619522,-3.098693],[-64.2581587,-3.1074979],[-64.2549376,-3.1095165],[-64.2454603,-3.1026871],[-64.255686,-3.0892384],[-64.3212432,-3.0961756],[-64.3408289,-3.0167685],[-64.362058,-3.0121196],[-64.4045005,-2.9628549],[-64.4102958,-2.9589041],[-64.4482712,-2.9246506],[-64.4487511,-2.9045061],[-64.4498925,-2.8819264],[-64.4528871,-2.8487502],[-64.4999836,-2.7624203],[-64.4949804,-2.7377439],[-64.445297,-2.7414354],[-64.4050446,-2.7150731],[-64.3575997,-2.7194163],[-64.3462327,-2.7034802],[-64.3428403,-2.6978532],[-64.338703,-2.6822034],[-64.3388524,-2.6775409],[-64.3371532,-2.6762913],[-64.3391211,-2.6706545],[-64.341161,-2.6702715],[-64.3479513,-2.6611876],[-64.4276381,-2.6353283],[-64.4200359,-2.6077466],[-64.4347014,-2.5521288],[-64.4649976,-2.5223948],[-64.4613309,-2.4708133],[-64.490335,-2.4602879],[-64.4918861,-2.4300701],[-64.5293301,-2.3367907],[-64.497186,-2.3201187],[-64.4480571,-2.3239718],[-64.450331,-2.283717],[-64.417198,-2.2844175],[-64.3672163,-2.2651189]],[[-70.0215376,0.0672639],[-70.0463539,0.0683096],[-70.0463531,-0.0210809],[-70.0416633,-0.1241509],[-70.0574332,-0.1867765],[-69.9971611,-0.2347713],[-69.9638269,-0.2849628],[-69.9231595,-0.3315149],[-69.8925192,-0.3491759],[-69.8448846,-0.3457965],[-69.8235482,-0.3810107],[-69.7753282,-0.4002804],[-69.7177421,-0.4551373],[-69.6449955,-0.48302],[-69.6111023,-0.5134525],[-69.6146924,-0.540342],[-69.593214,-0.567686],[-69.6049651,-0.6000017],[-69.573801,-0.6498361],[-69.5852481,-0.6844086],[-69.6226049,-0.7321441],[-69.6120784,-0.7702015],[-69.5595997,-0.8229638],[-69.5737193,-0.8422155],[-69.5385204,-0.8619845],[-69.5232685,-0.8862752],[-69.5273769,-0.921957],[-69.4635765,-0.967341],[-69.443406,-1.0366031],[-69.4243255,-1.0494773],[-69.4250746,-1.0836273],[-69.4008846,-1.1139529],[-69.3983811,-1.1444042],[-69.4307987,-1.241949],[-69.4111889,-1.2817651],[-69.3999899,-1.3707265],[-69.4296539,-1.3873204],[-69.435329,-1.457894],[-69.4574972,-1.4934757],[-69.4533231,-1.5314554],[-69.5344634,-2.0005089],[-69.6134115,-2.4402489]],[[-69.6134115,-2.4402489],[-69.5067708,-2.4494275],[-69.4317167,-2.4914569],[-69.4418526,-2.5311511],[-69.3755711,-2.5314159],[-69.3458264,-2.5515495],[-69.3087695,-2.6155863],[-69.2392155,-2.5934905],[-69.2045799,-2.6070597],[-69.183465,-2.6428723],[-69.1719674,-2.7060558],[-69.0948561,-2.7866461],[-69.0666057,-2.8381255],[-69.0376563,-2.8256924],[-69.0126602,-2.7854652],[-68.9868011,-2.7896926],[-68.9570481,-2.8160776],[-68.8878489,-2.7942718],[-68.840327,-2.8058483],[-68.8144043,-2.7827323],[-68.7756306,-2.7819783],[-68.7366057,-2.7514651],[-68.6533504,-2.7118738],[-68.6126304,-2.6467167],[-68.5627118,-2.6560228],[-68.5459334,-2.6092281],[-68.491988,-2.5932645],[-68.4026544,-2.6196105],[-68.3574062,-2.61625],[-68.3381794,-2.5961113],[-68.3082687,-2.5300812],[-68.2447914,-2.5420075],[-68.2140176,-2.5716684],[-68.1739573,-2.5542374],[-68.1094019,-2.5430336],[-68.0896827,-2.5608811],[-68.0586536,-2.5539097],[-68.055961,-2.6090185],[-68.0151004,-2.6644828],[-67.9690435,-2.6891795],[-67.9512637,-2.6681857],[-67.9275682,-2.687896],[-67.8970137,-2.6899391],[-67.8238739,-2.7330458],[-67.7965144,-2.7082091],[-67.7567876,-2.7096355],[-67.7357642,-2.6576416],[-67.7434819,-2.6330845],[-67.6686262,-2.585885],[-67.641119,-2.5612178],[-67.6312904,-2.4935581],[-67.5717312,-2.47479],[-67.5589908,-2.3927371],[-67.4897049,-2.3453685],[-67.465149,-2.3378375],[-67.3381833,-2.257386],[-67.346232,-2.2333848],[-67.314429,-2.1791865],[-67.2838756,-2.1765543],[-67.2637058,-2.1960774],[-67.2094065,-2.2219647],[-67.2040938,-2.2458645],[-67.1326447,-2.2474644],[-67.0785136,-2.2741269],[-67.0410901,-2.2568025],[-66.9459593,-2.2453596],[-66.9217869,-2.2295011],[-66.8575431,-2.2201726],[-66.825725,-2.2005021],[-66.7857583,-2.1956719],[-66.7788462,-2.1536568],[-66.7141517,-2.1658471],[-66.6722572,-2.1506756],[-66.6211712,-2.1510187],[-66.5998146,-2.1178049],[-66.5584824,-2.1078925],[-66.529177,-2.0643073],[-66.53868,-2.0244631],[-66.5188991,-1.9794831],[-66.4600613,-1.9343748],[-66.4438094,-1.9306225],[-66.4261749,-1.94023],[-66.4050379,-1.9958622],[-66.3373667,-2.0563927],[-66.30522,-2.029785],[-66.256043,-2.0250115],[-66.176616,-1.9863332],[-66.1623451,-2.0209887],[-66.1734109,-2.0551354],[-66.1709575,-2.0645615],[-66.1361714,-2.0750424],[-66.0564824,-2.0739326],[-66.0395159,-2.0872305],[-66.0138738,-2.1401983],[-65.9721504,-2.1506156],[-65.9574588,-2.1637731],[-65.94792,-2.2094245],[-65.9385696,-2.2548576],[-65.9012952,-2.2605332],[-65.8972734,-2.3052088],[-65.862268,-2.2879863],[-65.8550012,-2.2527237],[-65.7999782,-2.2525005],[-65.7301686,-2.2640079],[-65.6983312,-2.2600527],[-65.6603039,-2.2734003],[-65.6551015,-2.2548715],[-65.6077041,-2.2375479],[-65.5903202,-2.2472532],[-65.5851721,-2.2549936],[-65.5906794,-2.2637638],[-65.5999945,-2.2792655],[-65.6250228,-2.2863969],[-65.6204758,-2.3057576],[-65.60313,-2.3270161],[-65.6119926,-2.3794961],[-65.5876855,-2.3844026],[-65.5550573,-2.357796],[-65.5046147,-2.3887818],[-65.486402,-2.3596845],[-65.5170788,-2.3453657],[-65.5140845,-2.320806],[-65.4596084,-2.3281487],[-65.4778426,-2.3802817],[-65.4721036,-2.400848],[-65.4267564,-2.3924979],[-65.4158022,-2.3514777],[-65.3714094,-2.3397498],[-65.3278987,-2.3513187],[-65.280169,-2.316698],[-65.2728722,-2.3701916],[-65.2581013,-2.377599]],[[-69.6134115,-2.4402489],[-69.7123019,-3.0006097],[-69.8940261,-4.0006775],[-69.9351666,-4.2164712],[-69.9512441,-4.227073],[-69.9575556,-4.2842592],[-69.9809463,-4.3274264],[-70.0327789,-4.3551675],[-70.0793069,-4.3249745],[-70.0816114,-4.2920231],[-70.1037271,-4.2762463],[-70.1287251,-4.2936979],[-70.1517787,-4.2801866],[-70.1681391,-4.3147638],[-70.1523918,-4.3355861],[-70.2056966,-4.3609937],[-70.2089486,-4.3281441],[-70.2555001,-4.3184365],[-70.2556147,-4.2776837],[-70.2895923,-4.2823148],[-70.3159161,-4.2595045],[-70.2848931,-4.233844],[-70.2988341,-4.1660642],[-70.3318584,-4.1563215],[-70.3408093,-4.1868325],[-70.3758354,-4.1418254],[-70.4191694,-4.140455],[-70.4733106,-4.1773737],[-70.5094768,-4.1635548],[-70.520951,-4.1426805],[-70.5652808,-4.1690945],[-70.624947,-4.1927938],[-70.6388893,-4.1662659],[-70.6261129,-4.1431175],[-70.6534994,-4.127195],[-70.6810338,-4.1997918],[-70.7299472,-4.1844437],[-70.7590075,-4.1599719],[-70.8081727,-4.183532],[-70.830202,-4.2189279],[-70.8498925,-4.2786538],[-70.8794739,-4.2925811],[-70.9155014,-4.3540325],[-70.9493684,-4.3795118],[-70.9884771,-4.3696929],[-71.0432845,-4.4010013],[-71.1005362,-4.3773914],[-71.1848414,-4.3926988],[-71.2171471,-4.3800231],[-71.2715899,-4.3970196],[-71.2665943,-4.4287341],[-71.3199826,-4.444544],[-71.3887583,-4.4281756],[-71.4178389,-4.4662349],[-71.4599855,-4.4394544],[-71.5375641,-4.4673765],[-71.5696479,-4.5072792],[-71.6064534,-4.53443],[-71.6539535,-4.5082536],[-71.6900664,-4.5020885],[-71.7149524,-4.5122609],[-71.7411775,-4.4855264],[-71.7770367,-4.4875548],[-71.8564553,-4.5131742],[-71.9025679,-4.5439147],[-71.9364248,-4.5769228],[-71.9454618,-4.604907],[-71.9767889,-4.6081153],[-72.0059011,-4.6416792],[-72.0393326,-4.6232419],[-72.1003473,-4.7031959],[-72.1412369,-4.7137233],[-72.2165389,-4.7679288],[-72.2472341,-4.7809445],[-72.3206825,-4.7778577],[-72.3241226,-4.7968614],[-72.3716546,-4.8073656],[-72.3856879,-4.8722773],[-72.4124322,-4.8849049],[-72.4581265,-4.9255647],[-72.5476795,-4.9585074],[-72.5696248,-4.9814794],[-72.6066747,-4.9955799],[-72.6110959,-5.0372389],[-72.6526505,-5.0637014],[-72.7075402,-5.0528985],[-72.7342917,-5.0641167],[-72.739266,-5.0915008],[-72.8145777,-5.1097384],[-72.8160149,-5.1384917],[-72.8850672,-5.1668175],[-72.8635207,-5.2397924],[-72.8701065,-5.299351],[-72.8986544,-5.3370326],[-72.9569091,-5.4654078],[-72.9637658,-5.4981048],[-72.9537678,-5.5401488],[-72.986267,-5.6623082],[-72.9921899,-5.703779],[-73.0206019,-5.7395149],[-73.0425194,-5.7490234],[-73.064046,-5.7892817],[-73.1146581,-5.8537511],[-73.1510448,-5.8634491],[-73.1878491,-5.9387877],[-73.1817802,-5.962788],[-73.2374686,-6.032191],[-73.2317769,-6.0735718],[-73.2507967,-6.1049176],[-73.2502476,-6.1449404],[-73.2205261,-6.1785345],[-73.2192172,-6.2216958],[-73.1654897,-6.274208],[-73.1335201,-6.387364],[-73.1088656,-6.4100313],[-73.122566,-6.4318613],[-73.1384161,-6.4979764],[-73.1533807,-6.5200106],[-73.1842126,-6.527574],[-73.212964,-6.5778386],[-73.2934088,-6.5928142],[-73.3544914,-6.5949159],[-73.3806914,-6.6350228],[-73.4586391,-6.6655406],[-73.5164161,-6.6773499],[-73.5597748,-6.7209528],[-73.5845542,-6.7247215],[-73.6428058,-6.762149],[-73.6667812,-6.8064476],[-73.7071961,-6.8396508],[-73.721445,-6.8890873],[-73.7545814,-6.9419073],[-73.7267824,-7.0225233],[-73.8015581,-7.1118244],[-73.7382002,-7.1346838]],[[-73.7382002,-7.1346838],[-73.7087976,-7.0411515],[-73.6662243,-7.0007151],[-73.6804641,-6.9539475],[-73.6279182,-6.9365761],[-73.5681335,-6.9302013],[-73.5356551,-6.9421533],[-73.5063882,-6.9266374],[-73.4535533,-6.9290397],[-73.4447642,-6.9456232],[-73.3593778,-6.9494454],[-73.2983091,-6.9429809],[-73.2601621,-6.9205867],[-73.193191,-6.9182984],[-73.1404364,-6.9461407],[-73.1221959,-6.9776105],[-73.0101086,-7.0282946],[-72.9754379,-7.0253707],[-72.9135004,-6.9992988],[-72.8510832,-7.0000315],[-72.784912,-6.9722852],[-72.7621565,-6.9379783],[-72.7176588,-6.9050675],[-72.6726126,-6.9159954],[-72.663576,-6.9504622],[-72.6970421,-6.960911],[-72.6985491,-7.0098721],[-72.6323275,-7.0976674],[-72.6149591,-7.111722],[-72.5694922,-7.1137651],[-72.5332115,-7.132174],[-72.4328219,-7.1124777],[-72.3936287,-7.1674807],[-72.3584889,-7.2030247],[-72.3233483,-7.2073564],[-72.2751273,-7.1833636],[-72.2503749,-7.1907041],[-72.2402722,-7.1913285],[-72.2155142,-7.1809093],[-72.183488,-7.1332262],[-72.0900432,-7.1264607],[-72.0417756,-7.0986787],[-71.9892251,-7.0967015],[-71.9770782,-7.0580547],[-71.9882226,-7.0280222],[-71.9716231,-7.0037212],[-71.9309316,-7.0064892],[-71.9097845,-6.9868644],[-71.8406686,-6.9966256],[-71.8008635,-6.9840174],[-71.7959629,-6.913753],[-71.7823399,-6.9087703],[-71.7155852,-6.913889],[-71.6831894,-6.8856468],[-71.6340556,-6.9302708],[-71.6481117,-6.9512144],[-71.6305694,-6.9730356],[-71.5974627,-6.9541185],[-71.5855282,-6.9277235],[-71.5554615,-6.9507764],[-71.5394619,-6.8711516],[-71.504174,-6.8508185],[-71.4742937,-6.8634048],[-71.45,-6.8366933],[-71.4434433,-6.8053648],[-71.3867409,-6.761018],[-71.3433284,-6.6813207],[-71.3000903,-6.6908071],[-71.2805968,-6.7207254],[-71.1895121,-6.7269398],[-71.1804814,-6.7089838],[-71.1434888,-6.7062748],[-71.0907638,-6.6605219],[-70.9934701,-6.6467949],[-70.9754849,-6.65098],[-70.9299872,-6.6970129],[-70.8642023,-6.7263799],[-70.7904324,-6.7072229],[-70.7722351,-6.6560256],[-70.730842,-6.6541071],[-70.6809798,-6.6092463],[-70.6535969,-6.5950994],[-70.6173384,-6.606946],[-70.5952428,-6.5953982],[-70.5718988,-6.534523],[-70.5364565,-6.5629371],[-70.4901467,-6.5776547],[-70.4411428,-6.5662369],[-70.4197846,-6.5797317],[-70.4165616,-6.6090771],[-70.3749796,-6.6173866],[-70.3680631,-6.6450902],[-70.308147,-6.6354767],[-70.2878946,-6.6093674],[-70.261371,-6.634795],[-70.2456748,-6.6025426],[-70.2056442,-6.5868714],[-70.1943896,-6.6121275],[-70.1434996,-6.6084189],[-70.0920864,-6.6319273],[-70.0824481,-6.6016397],[-70.01492,-6.5890316],[-69.9823114,-6.5635835],[-69.9328067,-6.5809329],[-69.9105004,-6.5482264],[-69.8562245,-6.5507942],[-69.8332809,-6.5700079],[-69.8088333,-6.5651455],[-69.7945903,-6.5279462],[-69.7965338,-6.4740056],[-69.7684194,-6.4393504],[-69.7016472,-6.4226863],[-69.651138,-6.4284373],[-69.6077506,-6.4383982],[-69.5885905,-6.4608014],[-69.5326625,-6.457382],[-69.5151459,-6.4120339],[-69.4870052,-6.3889942],[-69.4134487,-6.3572881],[-69.3456163,-6.3636211],[-69.3238864,-6.3486418],[-69.3118689,-6.3066022],[-69.2681157,-6.2842148],[-69.215755,-6.3352033],[-69.2165565,-6.3804729],[-69.2370249,-6.4131694],[-69.2174784,-6.4323475],[-69.1808882,-6.4052391],[-69.1576648,-6.4180569],[-69.1108618,-6.3721639],[-69.0912525,-6.37048],[-69.0368353,-6.3986354],[-68.9947491,-6.35942],[-68.9314695,-6.3767789],[-68.902334,-6.3623215],[-68.8793901,-6.4169516],[-68.8233572,-6.4245566],[-68.8092465,-6.3891392],[-68.7691915,-6.4013242],[-68.7406394,-6.4254938],[-68.6635509,-6.404912],[-68.6825537,-6.3549931],[-68.6816111,-6.3069852],[-68.630555,-6.2689259],[-68.5730266,-6.2085647],[-68.5107703,-6.1938459],[-68.4876968,-6.1789656],[-68.4326609,-6.1645863],[-68.4186074,-6.1432845],[-68.3727468,-6.1091588],[-68.3686658,-6.0843523],[-68.306607,-6.061382],[-68.2980795,-6.0077879],[-68.3128027,-5.9586064],[-68.2958562,-5.9222965],[-68.2661587,-5.9074097],[-68.2472761,-5.9245889],[-68.2146889,-5.9252242],[-68.209713,-5.8692967],[-68.2247754,-5.822882],[-68.2186868,-5.8058917],[-68.2496913,-5.7576574],[-68.2266889,-5.7101806],[-68.2320794,-5.6864366],[-68.2816021,-5.6537749],[-68.2383534,-5.5960617],[-68.2732435,-5.5750202],[-68.2603286,-5.521026],[-68.2743793,-5.5030537],[-68.2363562,-5.4742904],[-68.2203572,-5.4782044],[-68.2094098,-5.3975811],[-68.2228249,-5.3673151],[-68.1952719,-5.2821161],[-68.2008278,-5.2206255],[-68.1698827,-5.1811541],[-68.160579,-5.1392321],[-68.1135255,-5.0872323],[-68.0921906,-5.0471814],[-68.048742,-5.0598976],[-68.0490988,-4.9928944],[-67.9975158,-4.9479206],[-67.9979649,-4.7926365],[-67.9687982,-4.7498294],[-67.9447427,-4.7813407],[-67.8893547,-4.7834529],[-67.8609866,-4.769203],[-67.8484085,-4.7224904],[-67.8193507,-4.6856898],[-67.7681881,-4.656902],[-67.7101281,-4.5976916],[-67.649241,-4.571482],[-67.6035459,-4.5903176],[-67.569852,-4.5427803],[-67.4969346,-4.5396505],[-67.4768734,-4.5129309],[-67.4505508,-4.5049446],[-67.4026726,-4.5174911],[-67.3753945,-4.5447892],[-67.3528683,-4.5217862],[-67.3189088,-4.5247096],[-67.2993001,-4.4791261],[-67.26822,-4.4524508],[-67.233294,-4.4761753],[-67.1733181,-4.477366],[-67.1469617,-4.4931148],[-67.10759,-4.4812653],[-67.0484558,-4.4901095],[-67.0306179,-4.5102229],[-66.8993913,-4.4818692],[-66.8868183,-4.4124039],[-66.8911346,-4.3721852],[-66.9318538,-4.3023961],[-66.9329502,-4.2616887],[-66.9149415,-4.2318602],[-66.9353797,-4.2084699],[-67.0040949,-4.1750775],[-67.0596768,-4.1278369],[-67.0756842,-4.0584351],[-67.123624,-4.0372244],[-67.1604117,-3.9997252],[-67.1934117,-3.9272147],[-67.1892636,-3.8824506],[-67.1347854,-3.9332399],[-67.0430629,-3.9646488],[-67.018449,-3.9830468],[-66.987413,-3.9790643],[-66.9883783,-3.9226515],[-67.0120695,-3.8919625],[-66.988539,-3.8553036],[-66.9710418,-3.8610396],[-66.976681,-3.7476432],[-66.9892924,-3.7077451],[-66.9472608,-3.6624886],[-66.9234553,-3.6250393],[-66.9151273,-3.5715229],[-66.9467308,-3.5537576],[-66.9982603,-3.54864],[-67.0281547,-3.5290437],[-67.0349889,-3.415657],[-66.9926796,-3.3730667],[-66.9957326,-3.3412313],[-66.94171,-3.3037447],[-66.9377624,-3.2453588],[-66.9251589,-3.225885],[-66.9182298,-3.203086],[-66.9138403,-3.1944453],[-66.9121634,-3.1887848],[-66.9072187,-3.1768039],[-66.9068733,-3.1657993],[-66.898843,-3.1603041],[-66.8543781,-3.1350948],[-66.8014652,-3.1414291],[-66.7758692,-3.1682318],[-66.7375293,-3.1550705],[-66.6997122,-3.1633721],[-66.6378544,-3.1416928],[-66.5476634,-3.1498055],[-66.4837227,-3.1470972],[-66.4677323,-3.1363583],[-66.4055689,-3.1359862],[-66.3045884,-3.1563335],[-66.2947135,-3.1365179],[-66.2518809,-3.1201977],[-66.2162452,-3.0714045],[-66.1970743,-3.0055928],[-66.1985382,-2.9742365],[-66.1701652,-2.9527636],[-66.1672558,-2.9262464],[-66.1072927,-2.8800371],[-66.1009958,-2.8429276],[-66.0665687,-2.7771729],[-66.0531297,-2.7249901],[-66.0209932,-2.7109153],[-65.9873865,-2.6755393],[-65.9826945,-2.6429885],[-65.9594937,-2.6166424],[-65.8584501,-2.6123855],[-65.7986526,-2.5920044],[-65.8174991,-2.5003393],[-65.784148,-2.4795382],[-65.7407301,-2.5066214],[-65.7272522,-2.5185756],[-65.7215061,-2.5273779],[-65.7141678,-2.612068],[-65.6637878,-2.6622251],[-65.5893681,-2.6573678],[-65.5183078,-2.5916447],[-65.4884181,-2.5392629],[-65.4424804,-2.5100725],[-65.3992041,-2.4700888],[-65.3486453,-2.4723167]],[[-65.3486453,-2.4723167],[-65.3401684,-2.4738418]],[[-65.3401684,-2.4738418],[-65.3383151,-2.460432],[-65.3285877,-2.4467258],[-65.305803,-2.4195084],[-65.3117373,-2.4081737],[-65.3249004,-2.4012196],[-65.3536162,-2.393973],[-65.369016,-2.3977176],[-65.3741865,-2.3714608],[-65.3560812,-2.3635523]],[[-65.3560812,-2.3635523],[-65.3200283,-2.3615155],[-65.3048266,-2.366154],[-65.2760484,-2.3800825]],[[-65.2760484,-2.3800825],[-65.2581013,-2.377599]],[[-73.7382002,-7.1346838],[-72.5847656,-7.5520042],[-70.0549793,-7.8451491],[-69.8017091,-8.061126]],[[-69.8017091,-8.061126],[-69.792234,-7.9926807],[-69.7985113,-7.9771621],[-69.7848663,-7.90847],[-69.7924475,-7.8677798],[-69.7306744,-7.820315],[-69.704926,-7.7874143],[-69.6819748,-7.7933703],[-69.6252241,-7.7523929],[-69.5983659,-7.6909165],[-69.5698152,-7.6865556],[-69.5552812,-7.6587077],[-69.5873935,-7.6271855],[-69.5553127,-7.5704615],[-69.5656729,-7.5572717],[-69.5337802,-7.4892564],[-69.5087599,-7.4589268],[-69.5247019,-7.4364638],[-69.4911211,-7.4049014],[-69.5117578,-7.3602125],[-69.4888668,-7.3378017],[-69.4925641,-7.2792359],[-69.4744451,-7.2522225],[-69.4910373,-7.2031529],[-69.4564151,-7.170541],[-69.4543881,-7.1461628],[-69.4829784,-7.1288891],[-69.4865335,-7.1058382],[-69.4138663,-7.0746364],[-69.3900601,-7.0265136],[-69.3610575,-7.012564],[-69.2863925,-7.0121543],[-69.2362504,-6.9929094],[-69.1928086,-6.9449469],[-69.1654739,-6.9608764],[-69.132638,-6.9614985],[-69.1270046,-7.01591],[-69.0524523,-7.0499613],[-69.0126945,-7.0347895],[-68.9962736,-7.058076],[-68.9030302,-7.1051193],[-68.8405608,-7.1085551],[-68.8065549,-7.0995043],[-68.7297829,-7.1220796],[-68.6885538,-7.1022177],[-68.6565303,-7.1039263],[-68.6055353,-7.1420692],[-68.5989142,-7.1788935],[-68.54289,-7.2237622],[-68.5341662,-7.2470215],[-68.4927227,-7.2484869],[-68.4767239,-7.2204171],[-68.491195,-7.1914984],[-68.4876098,-7.1615562],[-68.4571373,-7.1575209],[-68.387244,-7.1794443],[-68.3454721,-7.1744742],[-68.3196051,-7.158926],[-68.2731419,-7.177793],[-68.2023357,-7.1422236],[-68.1725273,-7.1686309],[-68.1148069,-7.1465375],[-68.0772238,-7.1440687],[-68.0415469,-7.1172309],[-68.0005241,-7.1506666],[-67.9145763,-7.1549544],[-67.8821662,-7.2095679],[-67.8763279,-7.2405552],[-67.8394117,-7.2522504],[-67.7246612,-7.2628652],[-67.6918265,-7.3093344],[-67.6980477,-7.3313746],[-67.6550255,-7.3566343],[-67.6417787,-7.3993804],[-67.5985772,-7.401951],[-67.5651375,-7.3493172],[-67.5229085,-7.3253608],[-67.5031945,-7.2922515],[-67.5009906,-7.2615258]],[[-67.5009906,-7.2615258],[-67.5005522,-7.2066318]],[[-67.5005522,-7.2066318],[-67.4448548,-7.0003587],[-67.4151081,-6.9546411],[-67.416469,-6.9519815],[-67.4226165,-6.9173125],[-67.3797506,-6.8241414],[-67.3655259,-6.8117422],[-67.2324325,-6.8350252],[-67.1784259,-6.8245563],[-67.158227,-6.7852219],[-67.129447,-6.7751706],[-67.0733952,-6.7849218],[-67.0212886,-6.7456334],[-66.9165652,-6.8104681],[-66.8910807,-6.800319],[-66.7994589,-6.8131385],[-66.7845403,-6.7933018],[-66.688219,-6.7946404],[-66.678868,-6.7808825],[-66.621869,-6.772375],[-66.5716856,-6.7301927],[-66.5377601,-6.741898],[-66.4639421,-6.7369065],[-66.422889,-6.7158711],[-66.4203385,-6.6909944],[-66.3923165,-6.6430076],[-66.3620316,-6.6362673],[-66.3592047,-6.6201093],[-66.3884197,-6.6339615],[-66.4212875,-6.6256942],[-66.4747867,-6.569997],[-66.5235686,-6.5777065],[-66.5371177,-6.5610859],[-66.6207526,-6.5520649],[-66.6303941,-6.5347506],[-66.6789317,-6.5188641],[-66.6991672,-6.5254378],[-66.7469795,-6.5001004],[-66.7792448,-6.4965251],[-66.8110271,-6.4678828],[-66.8230432,-6.4386737],[-66.867198,-6.4073061],[-66.9298847,-6.4004309],[-66.9909843,-6.3771961],[-67.0465986,-6.3868728],[-67.0914741,-6.3327424],[-67.1228993,-6.3399643],[-67.2062114,-6.3326959],[-67.2225082,-6.3434468],[-67.2456644,-6.4137105],[-67.3020944,-6.4207852],[-67.3505486,-6.4513801],[-67.3732636,-6.4926074],[-67.4348206,-6.5174909],[-67.4545058,-6.5026046],[-67.5093278,-6.5425742],[-67.5321379,-6.5362921],[-67.6405272,-6.5692188],[-67.7104142,-6.5484873],[-67.7414121,-6.5094417],[-67.7971938,-6.5197188],[-67.7744658,-6.4714651],[-67.781104,-6.456393],[-67.7543244,-6.3832165],[-67.7336073,-6.3521358],[-67.7007136,-6.3298844],[-67.696854,-6.3012283],[-67.6664957,-6.2545238],[-67.6215507,-6.2394604],[-67.6449916,-6.1782165],[-67.6783961,-6.1414876],[-67.6689599,-6.0963861],[-67.6692396,-6.0435905],[-67.6921861,-6.0247519],[-67.7028278,-5.9976643],[-67.6993256,-5.9453101],[-67.6594966,-5.9353792],[-67.6296065,-5.9513352],[-67.5882969,-5.9910781],[-67.565848,-5.9886789],[-67.5621866,-5.9442023],[-67.5449942,-5.9125771],[-67.5005749,-5.8922926],[-67.4479386,-5.8908197],[-67.4252933,-5.920364],[-67.3660212,-5.9009615],[-67.35796,-5.8778284],[-67.3887766,-5.8247307],[-67.3323756,-5.7980778],[-67.3088766,-5.8245668],[-67.3004313,-5.8482637],[-67.2652959,-5.8187916],[-67.2234077,-5.75047],[-67.1853264,-5.7234706],[-67.2029058,-5.694287],[-67.1974877,-5.6474182],[-67.1580166,-5.6215222],[-67.121154,-5.6255649],[-67.1110164,-5.5738378],[-67.0390711,-5.5223398],[-67.021826,-5.4993218],[-66.9912647,-5.4994776],[-66.976625,-5.444409],[-66.9581868,-5.4198788]],[[-66.9581868,-5.4198788],[-66.9744552,-5.3843119],[-66.9677626,-5.368469],[-66.9541274,-5.3331158],[-66.9333763,-5.3197198],[-66.9384026,-5.2775497],[-66.9095746,-5.263746],[-66.8817474,-5.2150566],[-66.839083,-5.1935983],[-66.8155998,-5.1621488],[-66.7909325,-5.1522026],[-66.7637102,-5.0784269],[-66.7238913,-5.058254],[-66.6899898,-5.058902],[-66.6257379,-5.0856487],[-66.6047347,-5.0734999],[-66.5482646,-4.9893027],[-66.5290907,-4.9508081],[-66.4725986,-4.9149703],[-66.460707,-4.8921235],[-66.4086221,-4.8543223],[-66.3874847,-4.8243331],[-66.36318,-4.828001],[-66.3047014,-4.7845427],[-66.2697902,-4.7803885],[-66.2506574,-4.7436256],[-66.2456533,-4.6837847],[-66.1996514,-4.6389156],[-66.1959783,-4.5949759],[-66.2062935,-4.5710827],[-66.2105416,-4.4924258],[-66.1532952,-4.4441605],[-66.1507945,-4.4249172],[-66.100516,-4.3954738],[-66.0594244,-4.4008684],[-65.9501758,-4.2946423],[-65.9088738,-4.2926715],[-65.9254582,-4.2609105],[-65.9028179,-4.1957217],[-65.8659301,-4.1697963],[-65.8627618,-4.1462007],[-65.9209248,-4.034586],[-65.9551151,-3.9987656],[-65.9482849,-3.9577822],[-65.9809781,-3.9027267],[-65.9866708,-3.858269],[-65.9829767,-3.7934614],[-65.9495074,-3.7518019],[-65.9615043,-3.7310707],[-65.9915048,-3.728058],[-65.9852058,-3.6847053],[-65.9925362,-3.642294],[-65.9781163,-3.4873379],[-65.9425092,-3.4617589],[-65.9145619,-3.3819612],[-65.8707333,-3.3405849],[-65.8690043,-3.3042407],[-65.8394827,-3.267451],[-65.8023389,-3.1837669],[-65.7523417,-3.1563477],[-65.7319459,-3.0763109],[-65.7022842,-3.0435953],[-65.6574764,-2.9540788],[-65.6147795,-2.9288198],[-65.5892275,-2.8716338],[-65.5598163,-2.8885457],[-65.5315619,-2.8839356],[-65.4971977,-2.8589063],[-65.449258,-2.8552732],[-65.4267276,-2.873406],[-65.3811731,-2.8540584],[-65.3461158,-2.819853],[-65.3383915,-2.7739796],[-65.3769515,-2.71775],[-65.3862398,-2.6872781],[-65.357729,-2.6490409],[-65.3130824,-2.6384698],[-65.2585546,-2.6012282],[-65.2564813,-2.5639885],[-65.3190128,-2.4751055]],[[-65.3190128,-2.4751055],[-65.3486453,-2.4723167]],[[-66.9581868,-5.4198788],[-66.9034052,-5.4524796],[-66.9032367,-5.4969114],[-66.8576258,-5.5200289],[-66.8097629,-5.5306485],[-66.7856524,-5.5471589],[-66.7150401,-5.5458098],[-66.6852906,-5.5593766],[-66.6695753,-5.5293649],[-66.6421005,-5.5202949],[-66.6305392,-5.4871719],[-66.5840392,-5.4669388],[-66.5647885,-5.3935813],[-66.5178208,-5.4447883],[-66.4949033,-5.4335092],[-66.4285382,-5.4320824],[-66.3671274,-5.3908301],[-66.3521549,-5.3819958],[-66.3368763,-5.3859149],[-66.2943161,-5.3601854],[-66.2685954,-5.3565766],[-66.1577604,-5.369859],[-66.14407,-5.3904562],[-66.1160552,-5.3700591],[-66.0845424,-5.3791217],[-66.0748277,-5.4184978],[-65.997871,-5.4170256],[-65.9563999,-5.399273],[-65.9409854,-5.4070238],[-65.9005917,-5.4369759]],[[-65.9005917,-5.4369759],[-65.8935965,-5.3942101],[-65.866119,-5.3377416],[-65.8301197,-5.3076098],[-65.7701771,-5.3066475],[-65.7273975,-5.2857919],[-65.6817874,-5.3075745],[-65.6784802,-5.2612273],[-65.7002857,-5.1892798],[-65.6500611,-5.1350205],[-65.6599254,-5.1067442],[-65.6978388,-5.105404],[-65.6862614,-5.0447894],[-65.6171426,-5.017979],[-65.5709758,-4.9441975],[-65.5793989,-4.9004874],[-65.516426,-4.8157579],[-65.4714494,-4.777532],[-65.4466441,-4.6802588],[-65.3818222,-4.6537041],[-65.3640029,-4.6099604],[-65.2875257,-4.6259107],[-65.2575374,-4.6201822],[-65.1468697,-4.5340145],[-65.1232,-4.5168755],[-65.0921382,-4.4551062],[-65.0329242,-4.4358054],[-65.0162812,-4.4053188],[-65.0154697,-4.3618093],[-65.0033368,-4.3104343],[-64.9942868,-4.2944795],[-64.9793965,-4.2834551],[-64.9454527,-4.2980573],[-64.8903333,-4.2829222],[-64.8361445,-4.2815732],[-64.8092009,-4.259474],[-64.7770044,-4.2066746],[-64.7315004,-4.1958984],[-64.7180044,-4.1425721],[-64.6961081,-4.1166725],[-64.6599767,-4.1284061],[-64.6112522,-4.0651976],[-64.5671437,-4.0332455],[-64.5648355,-3.9901265],[-64.5258648,-3.9594445],[-64.4392213,-3.9875974],[-64.382406,-3.9658494],[-64.3818078,-3.9682981],[-64.3737768,-3.9692363],[-64.3585355,-3.9729279],[-64.333054,-3.9681821],[-64.3169334,-3.9516987],[-64.2884995,-3.9464486],[-64.2519456,-3.8880308],[-64.2369965,-3.8936235],[-64.1665576,-3.8655471],[-64.1598902,-3.8116493],[-64.1109975,-3.7598185],[-64.076496,-3.767406]],[[-64.076496,-3.767406],[-64.071599,-3.7043105]],[[-65.2478814,-2.3864993],[-65.2760484,-2.3800825]],[[-65.2760484,-2.3800825],[-65.3107613,-2.3638341],[-65.326256,-2.3613703],[-65.3560812,-2.3635523]],[[-65.3401684,-2.4738418],[-65.3190128,-2.4751055]],[[-64.0173884,-3.7065471],[-64.0715793,-3.7040845],[-64.076496,-3.767406]],[[-65.9005917,-5.4369759],[-65.8756511,-5.4481643],[-65.8576237,-5.4773562],[-65.8447624,-5.4922706],[-65.7854867,-5.4916561],[-65.7530981,-5.4514585],[-65.729985,-5.4459104],[-65.710176,-5.5141326],[-65.6891784,-5.5466863],[-65.6652815,-5.552935],[-65.6260097,-5.5225492],[-65.6096824,-5.527205],[-65.5947902,-5.582854],[-65.5294547,-5.6425071],[-65.4527341,-5.6738782],[-65.398647,-5.6449014],[-65.3566223,-5.6459369],[-65.3237069,-5.6867605],[-65.2583751,-5.7074222],[-65.2409518,-5.7404513],[-65.1968162,-5.7346265],[-65.1464791,-5.6964668],[-65.125512,-5.6996788],[-65.0692887,-5.7521652],[-64.9613795,-5.7453619],[-64.9068975,-5.7592536],[-64.8558113,-5.7844238],[-64.812894,-5.7870052],[-64.7637586,-5.8048393],[-64.7233383,-5.8026],[-64.6702264,-5.7686259],[-64.6037818,-5.6984076],[-64.5506479,-5.6838034],[-64.5244257,-5.6997597],[-64.4766662,-5.6703412],[-64.4739464,-5.6345543],[-64.4522226,-5.6002473],[-64.4432559,-5.5632751],[-64.4053627,-5.5492008],[-64.2986679,-5.480566],[-64.2323588,-5.473851],[-64.1643412,-5.4257812],[-64.1112267,-5.4233452],[-64.0862253,-5.3739576],[-64.0490875,-5.325531],[-64.0372535,-5.2808957],[-64.0091396,-5.2586164],[-63.9449769,-5.2361211],[-63.9268002,-5.2101885],[-63.8830055,-5.1937572],[-63.8251963,-5.152422],[-63.7660586,-5.127858],[-63.7022788,-5.1100188],[-63.637055,-5.1432269],[-63.6035053,-5.1363868],[-63.5541368,-5.1561353],[-63.450609,-5.1530147],[-63.3721324,-5.1217777],[-63.3559399,-5.1000888],[-63.3405045,-5.0450955],[-63.3409114,-5.0006374],[-63.2782484,-4.9266428],[-63.248439,-4.9066421],[-63.2303593,-4.8437011],[-63.2068531,-4.7898891],[-63.1778591,-4.7681808],[-63.1292502,-4.760639],[-63.093775,-4.7344864],[-63.0519399,-4.7243093],[-63.0311476,-4.7051686],[-62.9901756,-4.7440639],[-62.9998805,-4.7918749],[-62.9438743,-4.8209567],[-62.9147383,-4.7843584],[-62.8786422,-4.8024952],[-62.8260188,-4.7915527],[-62.7997545,-4.8002027],[-62.7567566,-4.8445676],[-62.7267757,-4.8357797],[-62.7061608,-4.8507949],[-62.6968861,-4.9093174],[-62.7366043,-4.9443518],[-62.7331579,-4.9688129],[-62.6936585,-4.9624272],[-62.6791077,-4.9165124],[-62.6501086,-4.9004668],[-62.5771848,-5.0006846],[-62.1028197,-5.4599315]],[[-62.1028197,-5.4599315],[-62.0811621,-5.4156038]],[[-62.0811621,-5.4156038],[-62.0102512,-5.3213873],[-61.942076,-5.2945065],[-61.8608713,-5.2155444],[-61.7839175,-5.1671686],[-61.7009731,-5.0973989],[-61.5247099,-4.9401862],[-61.443789,-4.89148],[-61.4191927,-4.8545975],[-61.3187055,-4.7630563],[-61.2714876,-4.6624675],[-61.2486071,-4.62765],[-61.1678288,-4.544239],[-61.0093905,-4.4234954],[-60.8489643,-4.2821915],[-60.8070978,-4.181597]],[[-60.8070978,-4.181597],[-60.8269137,-4.1594338],[-60.8411687,-4.154617],[-60.8939025,-4.1672053],[-60.9251609,-4.1297572],[-60.9650831,-4.1345111],[-60.9648876,-4.1105613],[-61.0094905,-4.0806221],[-61.0532789,-4.1231737],[-61.0978539,-4.134468],[-61.1406914,-4.1246437],[-61.1637082,-4.1407041],[-61.1636533,-3.9749079],[-61.0876526,-3.9180206],[-61.0750978,-3.9070322],[-61.0506526,-3.8652297],[-61.0447363,-3.8214569],[-61.0621479,-3.7948545],[-61.145893,-3.790121],[-61.1468885,-3.7007958],[-61.3323234,-3.6962007],[-61.4105011,-3.6221475],[-61.3663802,-3.5991603],[-61.2884474,-3.6002873],[-61.2910099,-3.541572],[-61.3023569,-3.5003986],[-61.211483,-3.4948831],[-61.1973174,-3.4405746],[-61.1495085,-3.4087162],[-61.1190743,-3.4165356],[-61.1006915,-3.4511658],[-61.0755208,-3.4442796],[-61.0734817,-3.3853362],[-61.1096635,-3.345704],[-61.1144175,-3.3167464],[-61.0980127,-3.2906422],[-61.1189588,-3.2529496],[-61.150626,-3.253631],[-61.2273182,-3.2364173],[-61.28282,-3.2046387],[-61.3189566,-3.1975181],[-61.320846,-3.1479068],[-61.3489262,-3.1160894],[-61.3591895,-3.0048832],[-61.3818591,-2.9923845],[-61.4139514,-2.8693324],[-61.4789458,-2.8179958],[-61.4834851,-2.7866161]],[[-62.4588289,-2.8391478],[-62.4692931,-2.8519005],[-62.4785164,-2.8670303],[-62.4871568,-2.8919095],[-62.4896574,-2.9431036]],[[-62.6342398,-3.0918641],[-62.6819105,-3.0928737],[-62.7018786,-3.0912728],[-62.7209062,-3.0836173],[-62.7347135,-3.0734926],[-62.7466029,-3.0609517],[-62.7602428,-3.0400753]],[[-60.8070978,-4.181597],[-60.8003528,-4.1811014],[-60.7835719,-4.1866383],[-60.7688265,-4.186701],[-60.7647529,-4.1977453],[-60.7548285,-4.1961851],[-60.7587803,-4.1962901]],[[-60.7587803,-4.1962901],[-60.761967,-4.1937982],[-60.7513715,-4.1905061],[-60.7491528,-4.1911739],[-60.7480794,-4.1966506]],[[-60.7480794,-4.1966506],[-60.7443279,-4.1930855],[-60.7409405,-4.1984612],[-60.7006079,-4.1959356],[-60.6989857,-4.2165005],[-60.686303,-4.220655],[-60.6391995,-4.2008186],[-60.6179394,-4.174389],[-60.5776861,-4.1795838],[-60.489663,-4.1312018],[-60.4497384,-4.1730648],[-60.4038209,-4.1641459],[-60.385434,-4.1796038],[-60.3209408,-4.1893224],[-60.2870022,-4.1645078],[-60.2618285,-4.2344308],[-60.2154373,-4.2952675],[-60.1844074,-4.2939688],[-60.1666487,-4.3369149],[-60.1236897,-4.3380884],[-60.1250197,-4.3784724],[-60.1008529,-4.4073881],[-60.06423,-4.3785953],[-60.039388,-4.4210304],[-59.9969781,-4.3967844],[-59.9540449,-4.3885138],[-59.9488578,-4.3618227],[-59.9679181,-4.3397524],[-59.9700873,-4.3075115],[-59.9889155,-4.2637087],[-59.9390596,-4.2464634],[-59.9289188,-4.2128426],[-59.6944041,-4.2122098],[-59.675436,-4.188732],[-59.620154,-4.1985888],[-59.5861452,-4.1407835],[-59.5875088,-4.0767949],[-59.558708,-4.0214449],[-59.5575082,-3.9826557],[-59.5278475,-3.9556244],[-59.5259284,-3.9258052],[-59.5004286,-3.9191569],[-59.2082255,-3.9200744]],[[-59.2082255,-3.9200744],[-59.1710912,-3.8888112],[-59.105042,-3.8755901],[-59.0875468,-3.8618535],[-59.0507876,-3.7964517],[-59.051548,-3.7761637],[-59.1016476,-3.6989589],[-59.093286,-3.6824974],[-59.0047616,-3.6096694],[-58.9853814,-3.607309],[-58.9171927,-3.5475841],[-58.8914223,-3.4978441],[-58.8373881,-3.4495179],[-58.7989541,-3.4395682],[-58.7844131,-3.3796475],[-58.8207197,-3.3995823],[-58.8499313,-3.4007411],[-58.9030528,-3.3626054],[-58.9398083,-3.311547],[-58.9406629,-3.295236],[-58.9981431,-3.2452109],[-59.0337844,-3.2488924],[-59.1220758,-3.2831445],[-59.1520042,-3.2799369],[-59.2380022,-3.2378683],[-59.3837361,-3.181003],[-59.3518989,-3.1456001],[-59.241811,-3.1620776],[-59.2069989,-3.1797438],[-59.1952706,-3.1569465],[-59.2621154,-3.1290176],[-59.3045319,-3.1319016],[-59.3415584,-3.1066447],[-59.3738939,-3.0716152],[-59.4313407,-3.0484995],[-59.4553311,-3.0297491],[-59.5003077,-2.9718958]],[[-59.5003077,-2.9718958],[-59.5134098,-2.9618467],[-59.5471517,-2.9567735],[-59.5794807,-2.9605979],[-59.6203373,-2.9644101],[-59.6372325,-2.9614542],[-59.6627429,-2.9444628],[-59.7061518,-2.9396008],[-59.7286047,-2.8987896],[-59.7156537,-2.8813157],[-59.7596553,-2.8222224],[-59.782813,-2.8304843],[-59.8191358,-2.8033503],[-59.8335161,-2.7355213],[-59.8761116,-2.7157101],[-59.8736307,-2.683865],[-59.9044918,-2.6576795],[-59.9146982,-2.6167885],[-59.9424212,-2.6222362],[-59.9500553,-2.6068897],[-59.9411924,-2.5782778],[-59.9995579,-2.5494273],[-60.0332813,-2.5493039],[-60.0357775,-2.5003631],[-60.024428,-2.4483346],[-60.0465613,-2.3282623],[-60.0396371,-2.26456],[-60.0278655,-2.2421672],[-59.9971746,-2.134253],[-60.0148393,-2.1018493],[-60.0834781,-2.0763671],[-60.0912827,-2.0599885],[-60.1486997,-2.0420968],[-60.2047245,-2.004048],[-60.2670573,-1.9864968],[-60.297427,-1.9574248],[-60.3577562,-1.954464]],[[-59.5003077,-2.9718958],[-59.4298682,-2.9264219],[-59.4093808,-2.8885669],[-59.3683971,-2.8821155],[-59.3675633,-2.8943574],[-59.358237,-2.8748325],[-59.356479,-2.8593323],[-59.3570685,-2.8282447],[-59.3072821,-2.7621596],[-59.2682173,-2.738472],[-59.2288143,-2.6975448],[-59.2282413,-2.6494237],[-59.1923609,-2.6065537],[-59.2008833,-2.5643103],[-59.1558889,-2.5174563],[-59.1968816,-2.470979],[-59.2386073,-2.4697171],[-59.275943,-2.4883371],[-59.2720021,-2.44762],[-59.1729971,-2.3858019],[-59.1333387,-2.3413285],[-59.1095864,-2.2974032],[-59.0878123,-2.2848825]],[[-59.0878123,-2.2848825],[-59.0824461,-2.2759746]],[[-59.0824461,-2.2759746],[-59.1293846,-2.2237061],[-59.1442467,-2.2496696],[-59.1787078,-2.2102443],[-59.1796037,-2.1851433],[-59.1439864,-2.1719217],[-59.1284412,-2.1007164],[-59.1128015,-2.0773273],[-59.1240798,-2.0073282],[-59.1623034,-1.9855174],[-59.1613138,-1.9602119],[-59.201832,-1.940385],[-59.2038033,-1.9180262],[-59.2517462,-1.8331754],[-59.2266897,-1.8265492],[-59.1960287,-1.7107743],[-59.1403289,-1.6430868],[-59.1275756,-1.6075287],[-59.1564662,-1.5452959],[-59.1514085,-1.5159073],[-59.1866076,-1.4729943],[-59.1913631,-1.4464311],[-59.2705247,-1.4312094],[-59.2962237,-1.4540588],[-59.3053891,-1.483909],[-59.3301961,-1.4819349],[-59.3597518,-1.45904],[-59.4378368,-1.4347642],[-59.4862511,-1.4539987],[-59.5193767,-1.4329097],[-59.504122,-1.3894286],[-59.4680928,-1.3355031],[-59.4424833,-1.3193108],[-59.4403974,-1.2852738],[-59.3733622,-1.2366835],[-59.3725854,-1.1937699],[-59.3841963,-1.175882],[-59.380618,-1.1066735],[-59.6139594,-1.1098998],[-59.6400526,-1.0756346],[-59.7018115,-1.1044761],[-59.7217837,-1.0780813],[-59.7439819,-1.076608],[-59.8011516,-1.0300772],[-59.8421762,-0.9695916],[-59.8482999,-0.9238421],[-59.8989104,-0.8719161],[-59.948086,-0.8536829],[-59.9804675,-0.8298228],[-60.0021979,-0.7975857],[-60.0104394,-0.7916111],[-60.0103651,-0.7947979],[-60.0131825,-0.7839773],[-60.0326474,-0.7480499],[-60.0345755,-0.7374208],[-60.0542705,-0.6759923],[-60.022437,-0.6172167],[-60.0384185,-0.5965325],[-60.000945,-0.5695518],[-59.9676402,-0.5688767],[-59.9541333,-0.5155766],[-59.8928663,-0.4553841],[-59.87019,-0.4692927],[-59.8313147,-0.4113408],[-59.8531953,-0.3921335],[-59.8387438,-0.2675718],[-59.8104776,-0.2300113],[-59.8475626,-0.1817764],[-59.9134065,-0.1500504],[-59.9194453,-0.1259591],[-59.8804416,-0.0961443],[-59.8645351,-0.0466405],[-59.9169142,0.0335384],[-59.9426978,0.0158265],[-59.9359193,-0.0392109],[-59.9765065,-0.0625882],[-60.0235046,-0.0431349],[-60.0825021,-0.04807],[-60.1226498,-0.0796509],[-60.1800389,-0.0855288],[-60.2276107,-0.1217106]],[[-60.2276107,-0.1217106],[-60.2211607,-0.1419768],[-60.2688029,-0.1765234],[-60.3034961,-0.2585161],[-60.2925506,-0.294626],[-60.3263644,-0.3389936],[-60.3267553,-0.3809179],[-60.3514803,-0.4056424],[-60.3464962,-0.4379405],[-60.3826554,-0.4592444],[-60.4000998,-0.5174879],[-60.3827531,-0.5538409],[-60.3815315,-0.5884836],[-60.3536303,-0.6173605],[-60.3152723,-0.6364651],[-60.3076495,-0.7108794],[-60.3466917,-0.739609],[-60.3735668,-0.7318403],[-60.4263396,-0.7711722],[-60.4748613,-0.7615958],[-60.4978273,-0.7806509],[-60.5028602,-0.8406985],[-60.5362098,-0.869476],[-60.5880053,-0.843288],[-60.5959213,-0.8662514],[-60.6328134,-0.8614633],[-60.6634998,-0.881202],[-60.6842669,-0.8654697],[-60.7620092,-0.8485891]],[[-59.2082255,-3.9200744],[-59.1555557,-3.9260023],[-59.199775,-3.9677878],[-59.1547025,-3.9726382],[-59.0464326,-3.9589815],[-59.0098081,-3.9378122],[-58.9979614,-3.8981463],[-58.9640132,-3.8879674],[-58.9205516,-3.9090017],[-58.8849112,-3.8573095],[-58.8393556,-3.8768578],[-58.8155828,-3.8743388],[-58.7867353,-3.9189605],[-58.8195037,-3.987734],[-58.8171152,-4.0112202],[-58.7882062,-4.0360886],[-58.7730315,-4.0739359],[-58.7061108,-4.1093325],[-58.6790678,-4.1572451],[-58.6899181,-4.1877592],[-58.6615662,-4.237159],[-58.6572674,-4.2637617],[-58.6237632,-4.2598788],[-58.6155763,-4.2897144],[-58.6519801,-4.3431761],[-58.6525751,-4.3901089],[-58.633004,-4.4245397],[-58.6366374,-4.4541985],[-58.6080685,-4.4602717],[-58.5831572,-4.4654845],[-58.5522982,-4.4940191],[-58.5116832,-4.4692983],[-58.5015072,-4.4722629],[-58.4853854,-4.4934539],[-58.4386622,-4.5066916],[-58.3960965,-4.5032953],[-58.3845684,-4.4607367],[-58.3566827,-4.464559],[-58.3395407,-4.4416194],[-58.2941893,-4.427575],[-58.2803149,-4.3949834],[-58.2553972,-4.378928],[-58.2258634,-4.3806684],[-58.21718,-4.357483],[-58.1759885,-4.3635219],[-58.1604556,-4.3682746],[-58.151574,-4.370107],[-58.1438089,-4.3668053]],[[-58.1438089,-4.3668053],[-58.1195869,-4.3707817]],[[-58.1195869,-4.3707817],[-58.1553534,-4.2401062],[-58.183608,-4.217606],[-58.2193552,-4.2317341],[-58.2518756,-4.2281955],[-58.27111,-4.177332],[-58.3210838,-4.1419504],[-58.3084474,-4.1178186],[-58.334924,-4.0886312],[-58.3460476,-4.0577985],[-58.3831147,-4.0152902],[-58.4603344,-3.9468543],[-58.4593033,-3.9361443],[-58.4561168,-3.918359],[-58.4108201,-3.8976165],[-58.3439924,-3.8861879],[-58.3149943,-3.8322828],[-58.2862988,-3.8128441],[-58.3092036,-3.7434581],[-58.2955727,-3.6934966],[-58.2541446,-3.6873369],[-58.213344,-3.6973274],[-58.2011372,-3.6665739],[-58.2282937,-3.6513347],[-58.2366413,-3.6120899],[-58.3372624,-3.5810807],[-58.3628654,-3.5827317],[-58.3837569,-3.561881],[-58.3703477,-3.5003458],[-58.1813564,-3.4965817],[-58.1739705,-3.4146132],[-58.1771078,-3.367749],[-58.1506342,-3.3451046],[-58.1081547,-3.3482585],[-58.0704741,-3.3063644],[-58.0658519,-3.2151299],[-58.0419911,-3.2016672],[-58.013149,-3.1491017],[-57.9928734,-3.1338323],[-57.8904332,-2.9528768],[-57.8784927,-2.9636297],[-57.8175782,-2.9552059],[-57.792505,-2.9849659],[-57.7613933,-2.9853696],[-57.7475988,-2.9616176],[-57.7099046,-2.9598178],[-57.6523689,-2.9409683],[-57.6310091,-2.9135615],[-57.608505,-2.897697],[-57.5956505,-2.8741768],[-57.5759228,-2.8370393],[-57.4939252,-2.8072048],[-57.4894626,-2.7762728],[-57.4664745,-2.7515641],[-57.4191155,-2.7393876],[-57.418646,-2.7096366],[-57.4575538,-2.694897],[-57.4316967,-2.6407787],[-57.4482463,-2.6095945]],[[-57.4482463,-2.6095945],[-57.449253,-2.6044162],[-57.2892284,-2.4892428]],[[-57.2892284,-2.4892428],[-57.3135998,-2.4744031],[-57.3309861,-2.4555704],[-57.5920086,-2.457284],[-57.6121676,-2.5169849],[-57.710941,-2.6589283],[-57.7853162,-2.7318218],[-57.836996,-2.7576815],[-57.8789647,-2.7511492],[-57.9289518,-2.7583369],[-57.9442448,-2.7616843],[-57.9511414,-2.7517574],[-57.9524594,-2.7496915],[-57.9327234,-2.7304454],[-57.9423367,-2.7037506],[-57.9254183,-2.6950328],[-57.9300536,-2.6703422],[-57.9639554,-2.6725909],[-57.9357166,-2.6177279],[-57.889021,-2.6089001],[-57.8884241,-2.5770273],[-57.9790435,-2.6003249],[-57.972402,-2.6311255],[-58.0150822,-2.6483569],[-58.0687876,-2.6318194],[-58.1788321,-2.5710203],[-58.2085513,-2.52016],[-58.2824511,-2.4656687],[-58.2555186,-2.4295422],[-58.2593171,-2.3966438],[-58.3248217,-2.4106776],[-58.3578263,-2.3409902],[-58.3922338,-2.3350088],[-58.4025674,-2.3168564],[-58.4464929,-2.3099432],[-58.4774109,-2.2926966],[-58.5594521,-2.3153705],[-58.607942,-2.2886873],[-58.6659036,-2.3170083],[-58.6850305,-2.3389804],[-58.7247975,-2.3451752],[-58.7419689,-2.3220023],[-58.7230706,-2.2975907],[-58.7704956,-2.265323],[-58.8191621,-2.2672732],[-58.8177778,-2.2475919],[-58.8334929,-2.2403601],[-58.8495432,-2.2547431],[-58.8795613,-2.2300973],[-58.9054523,-2.2359812],[-58.9322068,-2.2768397],[-58.9765713,-2.2507988],[-59.0137253,-2.254503],[-59.0502051,-2.2319904],[-59.0732704,-2.2541045],[-59.0624005,-2.2670503],[-59.0669588,-2.2741002],[-59.0772811,-2.2769678]],[[-59.0772811,-2.2769678],[-59.0878123,-2.2848825]],[[-57.2892284,-2.4892428],[-57.44975,-2.6053137],[-57.4482463,-2.6095945]],[[-58.1195869,-4.3707817],[-58.1169351,-4.3799342]],[[-58.1169351,-4.3799342],[-58.1321436,-4.4148716],[-58.1219468,-4.4160898],[-58.1522399,-4.4338232],[-58.1825166,-4.4544531],[-58.1859179,-4.4984387],[-58.2077499,-4.4979138],[-58.2053659,-4.5398096],[-58.2028198,-4.5481287],[-58.2062786,-4.55362],[-58.2111257,-4.5450625],[-58.2352406,-4.5734295],[-58.2187854,-4.5904803],[-58.2561907,-4.5963838],[-58.2562274,-4.6323635],[-58.2710882,-4.6554865],[-58.2667962,-4.7036533],[-58.2762188,-4.7359965],[-58.3007081,-4.7495605],[-58.3058905,-4.8005568],[-58.3259481,-4.8397169],[-58.3653285,-4.8548252],[-58.3446883,-4.8827499],[-58.4025861,-4.9653485],[-58.4080564,-5.0133398],[-58.4498379,-5.0381119],[-58.4387516,-5.0724268],[-58.498657,-5.0923771],[-58.5158708,-5.1157889],[-58.5750901,-5.1307634],[-58.5642478,-5.1531034],[-58.6500644,-5.2271329],[-58.6884038,-5.223575],[-58.6982578,-5.2558444],[-58.7714881,-5.3286912],[-58.80651,-5.3503517],[-58.8041642,-5.414855],[-58.8355586,-5.4479567],[-58.8278352,-5.4692564],[-58.8525556,-5.5166342],[-58.8538355,-5.5469081],[-58.8267925,-5.5764172],[-58.8299992,-5.654935],[-58.8460547,-5.6727453],[-58.8366937,-5.7057628],[-58.8111799,-5.7387348],[-58.8295046,-5.8203258],[-58.8146981,-5.8364358],[-58.8297411,-5.8940124],[-58.8090478,-5.9066678],[-58.8261719,-5.9494],[-58.8197523,-5.9711091],[-58.8312565,-6.0136687],[-58.8052366,-6.0469529],[-58.8090731,-6.0996024],[-58.8305706,-6.1323075],[-58.8476559,-6.2077665],[-58.9143808,-6.2598926],[-58.9169097,-6.2937577],[-58.8875237,-6.3443036],[-58.8683676,-6.3528733],[-58.8370577,-6.4227223],[-58.8359419,-6.4708718],[-58.8668683,-6.5434622],[-58.8746666,-6.589494],[-58.8645017,-6.6282062],[-58.8680058,-6.6753895],[-58.8327276,-6.7447649],[-58.7941095,-6.7767498],[-58.7850249,-6.8322646],[-58.7439639,-6.8868975],[-58.6755742,-6.928399],[-58.6328177,-7.0079953],[-58.6016006,-7.0373016],[-58.5418207,-7.036142],[-58.496669,-7.0520665],[-58.5063191,-7.1143349],[-58.5378749,-7.1652522],[-58.5290022,-7.1864638],[-58.5639252,-7.1989291],[-58.5297291,-7.2376356],[-58.5740375,-7.2876127],[-58.540368,-7.3425275],[-58.5003447,-7.3501251],[-58.1473717,-7.343241]],[[-58.1473717,-7.343241],[-58.1700099,-7.3132232],[-58.168085,-7.2313349],[-58.1809958,-7.1817367],[-58.209524,-7.1342626],[-58.2528349,-7.0834243],[-58.2882552,-7.061674],[-58.3354221,-6.9863726],[-58.3802498,-6.970504],[-58.4345559,-6.9088065],[-58.4817556,-6.7814217],[-58.4784712,-6.6996136],[-58.4273058,-6.6161675],[-58.3498866,-6.5624011],[-58.3270562,-6.500374],[-58.2931091,-6.493882],[-58.2552559,-6.4541175],[-58.033639,-5.9781378],[-57.5855733,-5.0007431],[-57.2536156,-4.2967522],[-57.0004891,-3.7591296],[-56.887239,-3.4990467],[-56.7629193,-3.2322098],[-56.6097644,-2.8963407],[-56.4263006,-2.5015831],[-56.4021072,-2.4565168],[-56.462267,-2.4339173],[-56.4655948,-2.4231151],[-56.42565,-2.3691538],[-56.4127577,-2.3217155],[-56.3843157,-2.2704754],[-56.2634986,-2.2210564],[-56.2037697,-2.1830802],[-56.1694261,-2.1455081],[-56.097558,-2.0371332],[-56.1067261,-2.0270363],[-56.2283772,-2.0562204],[-56.2561526,-2.0883161],[-56.2974569,-2.1008075],[-56.3167613,-2.140126],[-56.367785,-2.1370767],[-56.4138828,-2.1759496],[-56.4441803,-2.1539257],[-56.4778933,-2.1703764],[-56.5270653,-2.1391952],[-56.6129132,-2.2101713],[-56.6790728,-2.2125642],[-56.7077679,-2.183902],[-56.760959,-2.1740582],[-56.7694297,-2.1406729],[-56.7327642,-2.0917397],[-56.7266021,-2.0309607],[-56.7669924,-2.0086976],[-56.8167648,-2.0229705],[-56.8590445,-2.015926],[-56.8762985,-1.9923486],[-56.9236786,-1.9643087],[-56.9611252,-1.952972],[-56.9883509,-1.9071603],[-57.0284152,-1.9180238],[-57.0666755,-1.8571237],[-57.0916449,-1.7779555],[-57.1268512,-1.766014],[-57.1580752,-1.7708003],[-57.1616911,-1.7403237],[-57.1996094,-1.7227408],[-57.2308333,-1.7275272],[-57.292255,-1.7082836],[-57.3533836,-1.7368071],[-57.3857558,-1.6976848],[-57.4434639,-1.6646183],[-57.4730754,-1.6788804],[-57.5440744,-1.6111343],[-57.5794518,-1.6043938],[-57.6007075,-1.5721561],[-57.6219144,-1.5891542],[-57.6746383,-1.5950156],[-57.7061555,-1.5724492],[-57.6980441,-1.5549136],[-57.7176873,-1.503283],[-57.7799886,-1.5100239],[-57.8228177,-1.438682],[-57.8771053,-1.4233436],[-57.95431,-1.3797702],[-57.9912388,-1.3512663],[-57.9751627,-1.2398121],[-57.9641683,-1.2152881],[-57.9657808,-1.1710272],[-58.0012559,-1.1481148],[-58.0173321,-1.1036085],[-58.0586708,-1.1065398],[-58.0939993,-1.1621358],[-58.1144244,-1.1645785],[-58.154004,-1.2326797],[-58.1895279,-1.2033192],[-58.2125916,-1.1665326],[-58.2558849,-1.1308204],[-58.3167203,-1.1476751],[-58.3637272,-1.0711199],[-58.4289115,-1.0286156],[-58.4105876,-0.9822266],[-58.4519752,-0.9240868],[-58.4364854,-0.8859778],[-58.4605874,-0.862868],[-58.5559695,-0.8137163],[-58.5602206,-0.7977394],[-58.6128469,-0.75831],[-58.6367412,-0.7201017],[-58.7061278,-0.6788638],[-58.7082778,-0.6567789],[-58.7363256,-0.6193516],[-58.7318301,-0.5791878],[-58.7090107,-0.5458643],[-58.709988,-0.5170359],[-58.736521,-0.4717409],[-58.7252824,-0.4383191],[-58.7834791,-0.388968],[-58.8361542,-0.3727456],[-58.8730952,-0.3437211],[-58.8749835,-0.2958234],[-58.8653947,-0.2655488],[-58.881038,-0.1965794],[-58.8652551,-0.1689373],[-58.8638839,-0.0780298],[-58.8865816,-0.0591839],[-58.8950359,-0.0109629],[-58.8954648,0.2635103],[-60.0379686,0.2635455],[-60.0590829,0.1629969],[-60.1336091,0.1034778],[-60.1213931,0.0880369],[-60.1351238,0.0316482],[-60.2042172,-0.0299202],[-60.2108138,-0.0638805],[-60.2360275,-0.1037044],[-60.2276107,-0.1217106]],[[-59.0824461,-2.2759746],[-59.0772811,-2.2769678]],[[-69.8017091,-8.061126],[-68.6471864,-9.0494166],[-67.516882,-9.5609067],[-67.3260491,-9.5923437]],[[-67.3260491,-9.5923437],[-67.2836146,-9.5125324],[-67.2949419,-9.4431734],[-67.2765033,-9.3898439],[-67.2774993,-9.3347498],[-67.3126693,-9.3158818],[-67.2852065,-9.2496214],[-67.2944011,-9.1666192],[-67.2861865,-9.1334419],[-67.2569054,-9.1134579],[-67.2395661,-9.0620792],[-67.2077408,-9.0614748],[-67.1975046,-9.0298627],[-67.1707204,-9.0170231],[-67.1989399,-8.9842405],[-67.1399177,-8.971978],[-67.1293073,-8.9500485],[-67.0965271,-8.9380983],[-67.0820556,-8.8839648],[-67.1053568,-8.8373428],[-67.0860297,-8.8041094],[-67.1468352,-8.7259224],[-67.1129118,-8.645542],[-67.0875845,-8.6372391],[-67.0981091,-8.5836221],[-67.0608293,-8.5473966],[-67.0577533,-8.5051714],[-66.9503325,-8.4694632],[-66.9259349,-8.4542231],[-66.9269576,-8.4200136],[-66.911362,-8.4029318],[-66.9231141,-8.3346994],[-66.9368863,-8.319609],[-66.9059978,-8.2333229],[-66.8770771,-8.2167343],[-66.8595811,-8.1852222],[-66.8850633,-8.1521053],[-66.8824915,-8.1114438],[-66.8616365,-8.0917398],[-66.871012,-8.035985],[-66.884701,-8.0119892],[-66.8543026,-7.9173128],[-66.8158671,-7.8660581],[-66.8324284,-7.8259594],[-66.7900209,-7.7902584],[-66.7635486,-7.7846732],[-66.7182991,-7.7365339],[-66.7100192,-7.7023892],[-66.6732721,-7.6954166],[-66.6586659,-7.7096111],[-66.6334237,-7.6546307],[-66.5758245,-7.644026],[-66.5557889,-7.6032219],[-66.5062461,-7.6358048],[-66.5029152,-7.5989836],[-66.4688814,-7.566354],[-66.4085469,-7.5719422],[-66.3730436,-7.5609746],[-66.3690678,-7.5110968],[-66.3395523,-7.5009478],[-66.3425016,-7.4962073],[-66.367381,-7.5020723],[-66.3759224,-7.4883198],[-66.4074112,-7.4815039],[-66.4848877,-7.517744],[-66.5009926,-7.506256],[-66.6087717,-7.4881253],[-66.6171942,-7.4708287],[-66.6759604,-7.4439194],[-66.6829428,-7.4194875],[-66.7412499,-7.375438],[-66.7567736,-7.3460374],[-66.7888039,-7.3452867],[-66.854775,-7.3001155],[-66.86076,-7.2759428],[-66.9463012,-7.2426039],[-66.949172,-7.241916],[-66.9573399,-7.2262434],[-66.9411678,-7.1877637],[-66.9701814,-7.1281634],[-66.9958292,-7.1187422],[-66.9987712,-7.09264],[-67.0299153,-7.0902578],[-67.0419755,-7.0340926],[-67.0521105,-7.025869],[-67.0582942,-7.0249453],[-67.0597403,-7.022427],[-67.0684844,-7.0140534],[-67.0774585,-7.0109879],[-67.0808288,-7.0089964],[-67.0880898,-7.0132601],[-67.0928854,-7.0055715],[-67.094689,-7.0052587],[-67.1022267,-7.0114221],[-67.0955984,-7.0136239],[-67.1126004,-7.0158435],[-67.1128007,-7.0115567],[-67.1185539,-7.0254109],[-67.128784,-7.0293128],[-67.140296,-7.0510085],[-67.1433526,-7.0510547],[-67.1467147,-7.0493923],[-67.1595663,-7.0511932],[-67.1648891,-7.0610644],[-67.1725672,-7.0608876],[-67.2111331,-7.0598254],[-67.2587981,-7.0780305],[-67.2636698,-7.0754611],[-67.3496048,-7.1765356],[-67.3375747,-7.2532075],[-67.3483811,-7.2760356],[-67.3839514,-7.2870555],[-67.4422161,-7.2872834],[-67.4689394,-7.260321],[-67.5005554,-7.2471868]],[[-67.5005554,-7.2471868],[-67.5009906,-7.2615258]],[[-67.5005522,-7.2066318],[-67.5005554,-7.2471868]],[[-67.3260491,-9.5923437],[-66.8102531,-9.8180459],[-66.7805792,-9.7913933],[-66.7753636,-9.7530913],[-66.7253897,-9.7560725],[-66.6849453,-9.7146456],[-66.6241659,-9.6808192],[-66.5863066,-9.6735589],[-66.5368884,-9.6435496],[-66.5006134,-9.6335642],[-66.4949168,-9.6015832],[-66.4389348,-9.55439],[-66.4235776,-9.5257876],[-66.3924143,-9.5004801],[-66.3747764,-9.4263661],[-66.2596688,-9.4109965],[-66.2434147,-9.4293871],[-66.1736328,-9.4344187],[-66.1238908,-9.4087794],[-66.0597396,-9.4182176],[-66.0424116,-9.4023724],[-65.9703006,-9.4131601],[-65.9318805,-9.4475944],[-65.9126344,-9.4837503],[-65.8809081,-9.4874649],[-65.8482485,-9.5323243],[-65.8250771,-9.5300912],[-65.8000217,-9.5850225],[-65.7299672,-9.5630727],[-65.6960809,-9.5076713],[-65.6809976,-9.5004075],[-65.6794352,-9.4513929],[-65.5881079,-9.4137738],[-65.5556338,-9.4224552],[-65.5031633,-9.4699754],[-65.4566578,-9.4705194],[-65.4320983,-9.458635],[-65.4566002,-9.4012087],[-65.4402184,-9.3117453],[-65.3775134,-9.3244261],[-65.2466614,-9.2576636],[-65.2117718,-9.2789934],[-65.2089565,-9.3096433],[-65.1883246,-9.3448525],[-65.1961582,-9.3752629],[-65.1735439,-9.3854485],[-65.1854632,-9.4270317],[-65.1428806,-9.4468123],[-65.053546,-9.4021423],[-65.0005153,-9.3046138],[-64.9628795,-9.2927766],[-64.9196828,-9.2202803],[-64.9399298,-9.1245658],[-64.9156801,-9.0746143],[-64.8705663,-9.0121936],[-64.8164156,-8.98662],[-64.7839641,-8.9892699],[-64.7611805,-9.0205834],[-64.7136811,-8.9938629],[-64.6833507,-8.9936169],[-64.6713762,-9.0147962],[-64.641538,-9.006646],[-64.587961,-9.0095099],[-64.5501239,-8.9782709],[-64.446574,-8.9768705],[-64.3799237,-8.9467351],[-64.3233996,-8.9288606],[-64.326072,-8.9798321],[-64.3113185,-8.9964708],[-64.2332051,-8.9923081],[-64.1417669,-8.9450507],[-64.1582033,-8.8431675],[-64.129459,-8.8051627],[-64.1447623,-8.7764473],[-64.1430671,-8.7430315],[-64.1245948,-8.7167138],[-64.0947671,-8.7283635],[-64.0431747,-8.7119098],[-64.0164261,-8.667682],[-63.9862097,-8.5856339],[-63.9459539,-8.6094853],[-63.9245687,-8.5755254],[-63.9456204,-8.550498],[-63.9437881,-8.5266044],[-63.9731772,-8.4784472],[-63.9408384,-8.452264],[-63.9769546,-8.4097397],[-63.9453732,-8.3878261],[-63.9456197,-8.338933],[-63.9108358,-8.3285248],[-63.8707594,-8.2888196],[-63.8253386,-8.3061526],[-63.7912313,-8.3332153],[-63.7735083,-8.3207328],[-63.7465624,-8.2701692],[-63.7227614,-8.249499],[-63.7485628,-8.2078652],[-63.7415348,-8.1900741],[-63.6934211,-8.1583487],[-63.6624486,-8.1011713],[-63.6670003,-8.0816033],[-63.621779,-8.0296108],[-63.62645,-8.0161121],[-63.6218941,-7.9946211],[-63.622065,-7.9837693],[-63.620264,-7.9677926],[-63.619085,-7.9662215]],[[-63.619085,-7.9662215],[-63.6201898,-7.9319227],[-63.6341851,-7.8830089],[-63.6343543,-7.876632],[-63.6303846,-7.8712159],[-63.6296852,-7.8680163],[-63.6231162,-7.8597215],[-63.6193204,-7.8553849],[-63.600261,-7.8482063],[-63.5910709,-7.8481665],[-63.5876757,-7.8463055],[-63.5862654,-7.8465354],[-63.5785837,-7.8458683],[-63.5561499,-7.8409049],[-63.5563147,-7.8389959],[-63.5429297,-7.8080666],[-63.4779022,-7.7607404],[-63.4694946,-7.746093],[-63.4100547,-7.7383044],[-63.3998782,-7.7207207],[-63.3967727,-7.7174262],[-63.3853277,-7.6824246],[-63.3953646,-7.6360851],[-63.4223816,-7.6165902],[-63.374022,-7.5283245],[-63.3404864,-7.5134362],[-63.3047417,-7.4660817],[-63.3209701,-7.4034876],[-63.2658947,-7.4063018],[-63.2484512,-7.3956083],[-63.2457803,-7.3930592],[-63.2674142,-7.3495669],[-63.2887627,-7.3311506],[-63.3029626,-7.2823284],[-63.2800906,-7.2456366],[-63.3205741,-7.2052729],[-63.3054455,-7.1533189],[-63.3143897,-7.1403788],[-63.2889206,-7.1017985],[-63.2409549,-7.0795053],[-63.2044557,-7.0503536],[-63.2185182,-7.0280647],[-63.179466,-7.017325],[-63.1353196,-6.9774712],[-63.1543702,-6.9385459],[-63.1518852,-6.8647796],[-63.1650283,-6.8459843],[-63.0497677,-6.8444891],[-63.0102678,-6.783328],[-62.9701948,-6.6881169],[-62.9416137,-6.5444584],[-62.8949128,-6.4865405],[-62.8472023,-6.4073302],[-62.7918467,-6.3557508],[-62.7415454,-6.2751299],[-62.6449857,-6.1881061],[-62.5674638,-6.0950504],[-62.4926292,-5.9726357],[-62.4431799,-5.9349901],[-62.3320663,-5.8178353],[-62.2903694,-5.758058],[-62.1600769,-5.550728],[-62.1253804,-5.5052658]],[[-62.1253804,-5.5052658],[-62.1028197,-5.4599315]],[[-62.0811621,-5.4156038],[-62.1253804,-5.5052658]],[[-63.619085,-7.9662215],[-63.6212491,-7.9765317],[-63.1183827,-7.9771072],[-62.8666166,-7.9758683],[-62.8328333,-7.9943716],[-62.8099965,-8.0253396],[-62.7439725,-8.0452861],[-62.6922801,-8.0929083],[-62.6730277,-8.1453106],[-62.6866642,-8.1737744],[-62.6598885,-8.1996336],[-62.6550016,-8.2290564],[-62.6000575,-8.2722387],[-62.5853879,-8.2718806],[-62.539557,-8.3581095],[-62.5184725,-8.3847382],[-62.4654746,-8.33974],[-62.4245582,-8.374985],[-62.3840279,-8.3775558],[-62.3608035,-8.3985493],[-62.3692809,-8.4461191],[-62.3660512,-8.4935617],[-62.3373587,-8.5166389],[-62.3258047,-8.5637074],[-62.3357776,-8.6094846],[-62.2943077,-8.6054408],[-62.2688885,-8.5757586],[-62.1837005,-8.5989665],[-62.1746915,-8.628203],[-62.2005306,-8.6442928],[-62.165087,-8.6793938],[-62.1488018,-8.7183088],[-62.1550309,-8.7396423],[-62.1249717,-8.8016711],[-62.031061,-8.7997101],[-61.97914,-8.8732446],[-61.9381066,-8.8814117],[-61.8597486,-8.8529733],[-61.8610249,-8.8036155],[-61.8433013,-8.7794091],[-61.8412499,-8.7394106],[-61.7746056,-8.7482289],[-61.7488815,-8.7237702],[-61.741854,-8.6951929],[-61.6735812,-8.7050168],[-61.6264691,-8.7288535],[-61.6295527,-8.7529562],[-61.6060278,-8.794714],[-61.5831348,-8.7986891],[-60.4201808,-8.7966226],[-60.0005265,-8.8008853],[-59.4813631,-8.8033209],[-59.0003101,-8.8030955],[-58.4428679,-8.7993991],[-58.3880024,-8.7747864],[-58.3283686,-8.7121787],[-58.3758508,-8.703714],[-58.4119558,-8.7206089],[-58.4359716,-8.6954603],[-58.3895183,-8.5947925],[-58.410469,-8.5703919],[-58.4051026,-8.537555],[-58.4178072,-8.4895196],[-58.3901503,-8.4389649],[-58.3545775,-8.3927541],[-58.3448047,-8.3407363],[-58.3148931,-8.3230601],[-58.3280835,-8.2858292],[-58.3129453,-8.2091049],[-58.3224642,-8.1700394],[-58.2901673,-8.1356],[-58.2930643,-8.0709469],[-58.3217286,-8.0249817],[-58.3315026,-7.9687628],[-58.3550493,-7.9439894],[-58.3751355,-7.8990013],[-58.3847417,-7.8439891],[-58.3646072,-7.8167663],[-58.3340604,-7.8044011],[-58.2940558,-7.7715405],[-58.2759903,-7.6996663],[-58.2397897,-7.6536067],[-58.2021706,-7.6208543],[-58.2227233,-7.5240378],[-58.21306,-7.4585347],[-58.173361,-7.3943672],[-58.1370556,-7.3561228],[-58.1473717,-7.343241]],[[-58.1169351,-4.3799342],[-58.1438089,-4.3668053]],[[-60.7480794,-4.1966506],[-60.7498292,-4.1905026],[-60.7615821,-4.1935089],[-60.7617722,-4.1946628],[-60.7587803,-4.1962901]]],"bbox":[-73.8015581,-9.8180459,-56.097558,2.2440111]}
