{"type":"Topology","objects":{"geometrias":{"type":"GeometryCollection","geometries":[{"type":"Polygon","arcs":[[0,1,2,3,4,5,6]],"properties":{"code_micro":11001,"name_micro":"Porto Velho","code_state":11,"code_region":1,"abbrev_state":"RO","name_state":"Rondônia","name_region":"Norte","year":2020}},{"type":"Polygon","arcs":[[7,8,9,10,11,12,-5,13,-3]],"properties":{"code_micro":11002,"name_micro":"Guajará-Mirim","code_state":11,"code_region":1,"abbrev_state":"RO","name_state":"Rondônia","name_region":"Norte","year":2020}},{"type":"Polygon","arcs":[[14,15,16,-1]],"properties":{"code_micro":11003,"name_micro":"Ariquemes","code_state":11,"code_region":1,"abbrev_state":"RO","name_state":"Rondônia","name_region":"Norte","year":2020}},{"type":"Polygon","arcs":[[17,-6,-13,18,19,20,21,22,-16]],"properties":{"code_micro":11004,"name_micro":"Ji-Paraná","code_state":11,"code_region":1,"abbrev_state":"RO","name_state":"Rondônia","name_region":"Norte","year":2020}},{"type":"Polygon","arcs":[[23,24,25,-20,26,-11]],"properties":{"code_micro":11005,"name_micro":"Alvorada d'Oeste","code_state":11,"code_region":1,"abbrev_state":"RO","name_state":"Rondônia","name_region":"Norte","year":2020}},{"type":"Polygon","arcs":[[-22,27,-25,28,-9,29,30,31,32,33]],"properties":{"code_micro":11006,"name_micro":"Cacoal","code_state":11,"code_region":1,"abbrev_state":"RO","name_state":"Rondônia","name_region":"Norte","year":2020}},{"type":"Polygon","arcs":[[34,35,36,-33]],"properties":{"code_micro":11007,"name_micro":"Vilhena","code_state":11,"code_region":1,"abbrev_state":"RO","name_state":"Rondônia","name_region":"Norte","year":2020}},{"type":"Polygon","arcs":[[37,-31,38,-36]],"properties":{"code_micro":11008,"name_micro":"Colorado do Oeste","code_state":11,"code_region":1,"abbrev_state":"RO","name_state":"Rondônia","name_region":"Norte","year":2020}}]}},"arcs":[[[-63.5291279,-10.491324],[-63.5329287,-10.4649295],[-63.497329,-10.4445558],[-63.4942872,-10.4149215],[-63.4590965,-10.3975856],[-63.459629,-10.3756302],[-63.4771227,-10.3373821],[-63.4609356,-10.307938],[-63.485899,-10.2701616],[-63.5386494,-10.2381493],[-63.5652203,-10.2408974],[-63.5826241,-10.1954952],[-63.5853788,-10.1602132],[-63.5766228,-10.1126248],[-63.5896261,-10.0587464],[-63.5834001,-10.0300568],[-63.5969729,-10.0003823],[-63.7658373,-10.0002897],[-63.7380403,-9.9654104],[-63.7184578,-9.9282844],[-63.701453,-9.8583796],[-63.6860152,-9.8528949],[-63.6758148,-9.793376],[-63.6809542,-9.7679691],[-63.662374,-9.7169154],[-63.6405072,-9.6893533],[-63.6237024,-9.6516717],[-63.6251506,-9.6245548],[-63.5731777,-9.5790081],[-63.5508456,-9.5337658],[-63.5478135,-9.5059409],[-63.56159,-9.4565509],[-63.582676,-9.4105974],[-63.6234554,-9.4243468],[-63.623928,-9.4362888],[-63.6861233,-9.4188078],[-63.7114413,-9.4487228],[-63.745565,-9.423338],[-63.7568275,-9.3951652],[-63.3259759,-9.428505],[-63.3267117,-9.4330698],[-63.1011086,-9.4527443],[-63.1021777,-9.4789228],[-63.0780629,-9.5080178],[-63.0768103,-9.5249728],[-63.0005883,-9.5263449],[-62.4224639,-9.5250188],[-62.4267509,-9.4927764],[-62.4080061,-9.4149289],[-62.3855868,-9.3934912],[-62.3881463,-9.3698392],[-62.3619158,-9.3492009],[-62.3342013,-9.3504214],[-62.3084687,-9.312362],[-62.3358645,-9.2164774],[-62.3278916,-9.1124643],[-62.3375858,-9.0677564],[-62.3376945,-9.0194438],[-62.3479117,-8.9901904],[-62.330117,-8.9775239],[-62.3240871,-8.9442246],[-62.3451419,-8.9327181],[-62.3288908,-8.9053406],[-62.3337494,-8.8811169],[-62.2964724,-8.8548427],[-62.311726,-8.8037416],[-62.343033,-8.7858065],[-62.3440043,-8.7577164],[-62.3670306,-8.7509919],[-62.3778268,-8.7282908],[-62.3647508,-8.6926679],[-62.3648365,-8.6842521],[-62.3307845,-8.709301],[-62.2581134,-8.6907167],[-62.2452548,-8.6779207],[-62.2385029,-8.621979],[-62.2456118,-8.5937474],[-62.2688885,-8.5757586]],[[-62.2688885,-8.5757586],[-62.2943077,-8.6054408],[-62.2895024,-8.6390966],[-62.3357776,-8.6094846],[-62.3390795,-8.5868942],[-62.3258047,-8.5637074],[-62.3373587,-8.5166389],[-62.3660512,-8.4935617],[-62.3692809,-8.4461191],[-62.3608035,-8.3985493],[-62.3840279,-8.3775558],[-62.4322478,-8.3720281],[-62.4654746,-8.33974],[-62.5184725,-8.3847382],[-62.539557,-8.3581095],[-62.5853879,-8.2718806],[-62.6000575,-8.2722387],[-62.6550016,-8.2290564],[-62.6598885,-8.1996336],[-62.6866642,-8.1737744],[-62.6730277,-8.1453106],[-62.6922801,-8.0929083],[-62.7128298,-8.0805834],[-62.7439725,-8.0452861],[-62.7862003,-8.026343],[-62.8099965,-8.0253396],[-62.8328333,-7.9943716],[-62.8666166,-7.9758683],[-63.1183827,-7.9771072],[-63.6212491,-7.9765317],[-63.621779,-8.0296108],[-63.6670003,-8.0816033],[-63.6624486,-8.1011713],[-63.6934211,-8.1583487],[-63.7415348,-8.1900741],[-63.7485628,-8.2078652],[-63.7227614,-8.249499],[-63.7465624,-8.2701692],[-63.7735083,-8.3207328],[-63.7912313,-8.3332153],[-63.8253386,-8.3061526],[-63.8707594,-8.2888196],[-63.8949267,-8.3020287],[-63.9108358,-8.3285248],[-63.9456197,-8.338933],[-63.9453732,-8.3878261],[-63.9769546,-8.4097397],[-63.9408384,-8.452264],[-63.9731772,-8.4784472],[-63.9708971,-8.4993333],[-63.9437881,-8.5266044],[-63.9456204,-8.550498],[-63.9245687,-8.5755254],[-63.9459539,-8.6094853],[-63.9862097,-8.5856339],[-63.9910948,-8.6174138],[-64.0048419,-8.6259109],[-64.0164261,-8.667682],[-64.0431747,-8.7119098],[-64.0751521,-8.7131075],[-64.0947671,-8.7283635],[-64.1245948,-8.7167138],[-64.1430671,-8.7430315],[-64.1447623,-8.7764473],[-64.129459,-8.8051627],[-64.1582033,-8.8431675],[-64.1417669,-8.9450507],[-64.2332051,-8.9923081],[-64.2650711,-8.9883824],[-64.3113185,-8.9964708],[-64.326072,-8.9798321],[-64.3095688,-8.9344929],[-64.3233996,-8.9288606],[-64.3799237,-8.9467351],[-64.446574,-8.9768705],[-64.5501239,-8.9782709],[-64.587961,-9.0095099],[-64.611074,-9.0164518],[-64.641538,-9.006646],[-64.6713762,-9.0147962],[-64.6833507,-8.9936169],[-64.7136811,-8.9938629],[-64.730541,-9.0125097],[-64.7611805,-9.0205834],[-64.7839641,-8.9892699],[-64.8164156,-8.98662],[-64.8705663,-9.0121936],[-64.8940991,-9.0437018],[-64.9172668,-9.0431411],[-64.9156801,-9.0746143],[-64.9399298,-9.1245658],[-64.9196828,-9.2202803],[-64.9360779,-9.2558112],[-64.9628795,-9.2927766],[-65.0005153,-9.3046138],[-65.053546,-9.4021423],[-65.0779285,-9.4009814],[-65.0889104,-9.4250804],[-65.1428806,-9.4468123],[-65.1854632,-9.4270317],[-65.1735439,-9.3854485],[-65.1961582,-9.3752629],[-65.1883246,-9.3448525],[-65.2089565,-9.3096433],[-65.2117718,-9.2789934],[-65.2466614,-9.2576636],[-65.2703819,-9.2636117],[-65.3073529,-9.291487],[-65.3775134,-9.3244261],[-65.4402184,-9.3117453],[-65.4461298,-9.3706882],[-65.4566002,-9.4012087],[-65.4320983,-9.458635],[-65.4566578,-9.4705194],[-65.5031633,-9.4699754],[-65.5556338,-9.4224552],[-65.5881079,-9.4137738],[-65.6794352,-9.4513929],[-65.6809976,-9.5004075],[-65.6960809,-9.5076713],[-65.7299672,-9.5630727],[-65.8000217,-9.5850225],[-65.8180266,-9.5622559],[-65.8250771,-9.5300912],[-65.8482485,-9.5323243],[-65.8809081,-9.4874649],[-65.9126344,-9.4837503],[-65.9318805,-9.4475944],[-65.9703006,-9.4131601],[-66.0424116,-9.4023724],[-66.0597396,-9.4182176],[-66.1238908,-9.4087794],[-66.1736328,-9.4344187],[-66.2047463,-9.4259737],[-66.2434147,-9.4293871],[-66.2596688,-9.4109965],[-66.3747764,-9.4263661],[-66.4088584,-9.4069466],[-66.3890009,-9.4642796],[-66.3924143,-9.5004801],[-66.4235776,-9.5257876],[-66.4389348,-9.55439],[-66.4949168,-9.6015832],[-66.5006134,-9.6335642],[-66.5368884,-9.6435496],[-66.5863066,-9.6735589],[-66.6094487,-9.6648985],[-66.6241659,-9.6808192],[-66.6849453,-9.7146456],[-66.691803,-9.7338899],[-66.7253897,-9.7560725],[-66.7753636,-9.7530913],[-66.7805792,-9.7913933],[-66.8102531,-9.8180459],[-66.6267197,-9.8981012],[-66.5875826,-9.9003015],[-66.5588611,-9.8809502],[-66.5280014,-9.887032],[-66.5133329,-9.8764175],[-66.4358032,-9.8660127],[-66.4120831,-9.8820268],[-66.3951909,-9.864176],[-66.3596118,-9.8661512],[-66.3559711,-9.8487645],[-66.313389,-9.8325715],[-66.2550757,-9.8333063],[-66.2376611,-9.8145963],[-66.2133083,-9.8342554],[-66.1950561,-9.8063093],[-66.1529391,-9.785746],[-66.1014448,-9.8033588],[-66.0711099,-9.7842972],[-66.0332195,-9.7889338],[-66.02814,-9.8066732],[-65.9741334,-9.7979149],[-65.9735213,-9.7773322],[-65.9225231,-9.7563988],[-65.9030823,-9.7668253],[-65.8713618,-9.7533886],[-65.8686112,-9.7930308],[-65.8535809,-9.7943418],[-65.8204949,-9.7664367],[-65.80572,-9.788088],[-65.7837427,-9.7863433],[-65.7726588,-9.7581878],[-65.750691,-9.7774574],[-65.7188849,-9.7559534],[-65.6849694,-9.7490081],[-65.6725794,-9.7821248],[-65.6236948,-9.8359798],[-65.5969534,-9.8419106],[-65.5541007,-9.8320442],[-65.5656275,-9.8130935],[-65.5020509,-9.7858367],[-65.5042742,-9.7487262],[-65.4898783,-9.7130291],[-65.4718561,-9.7136851],[-65.4435232,-9.6926521],[-65.4460779,-9.6690549],[-65.4001057,-9.6835637],[-65.3568806,-9.7201732],[-65.3280707,-9.7800172],[-65.3205208,-9.814532],[-65.2873772,-9.8398634],[-65.2958042,-9.8784469],[-65.3318293,-9.9300147],[-65.3330804,-9.9656911],[-65.3200511,-10.0009559],[-65.329357,-10.0431964],[-65.3261626,-10.0661797],[-65.3005774,-10.1009084],[-65.3070251,-10.1649978],[-65.2899869,-10.2088499],[-65.3194156,-10.2922601],[-65.3759058,-10.3521812],[-65.3918561,-10.3769801],[-65.3803542,-10.4009425],[-65.3814996,-10.4290742]],[[-65.3814996,-10.4290742],[-65.3601883,-10.4350203],[-65.3504672,-10.4396216],[-65.3434273,-10.4464995],[-65.3402359,-10.4510429],[-65.3291669,-10.4777202],[-65.3023575,-10.505036],[-65.3088688,-10.5260883],[-65.2867697,-10.5490021],[-65.2002148,-10.5603283],[-65.1823335,-10.5386579],[-65.1384326,-10.539694],[-65.1175266,-10.5280349],[-65.0624081,-10.5287272],[-65.0045739,-10.5224683],[-64.9750773,-10.5126775],[-64.9404954,-10.518492],[-64.9263749,-10.5397491]],[[-64.9263749,-10.5397491],[-64.9020262,-10.5429772],[-64.8828236,-10.5289762]],[[-64.8828236,-10.5289762],[-64.8418831,-10.5080536],[-64.8261635,-10.5004453],[-64.8112418,-10.5109236],[-64.7907468,-10.4783142],[-64.7735293,-10.4779771],[-64.7439088,-10.4550571],[-64.6594346,-10.7615067],[-64.6590427,-10.7687812],[-64.6396585,-10.7880921],[-64.5789365,-10.8108771],[-64.5594973,-10.8006452],[-64.4942391,-10.8312441],[-64.4411312,-10.8341224],[-64.4099108,-10.8244246],[-64.3899103,-10.7792164],[-64.3658766,-10.7755365],[-64.3433896,-10.757206],[-64.2994355,-10.7601655],[-64.252992,-10.7531134],[-64.2215437,-10.7602329],[-64.1796979,-10.8162006],[-64.1551255,-10.831016],[-64.1408831,-10.8553654],[-64.127712,-10.8617012],[-64.0936255,-10.8595447],[-64.0706024,-10.8653725],[-64.058548,-10.8670848],[-64.0336748,-10.8671238],[-64.0208251,-10.8664531],[-64.0086039,-10.8382773],[-63.9938188,-10.8391406],[-63.9812985,-10.8376339],[-63.9696256,-10.8505148],[-63.9308269,-10.8733082],[-63.7060516,-10.839886],[-63.6845682,-10.8329117],[-63.6244455,-10.8417262],[-63.6090943,-10.8263908],[-63.577073,-10.8315764]],[[-63.577073,-10.8315764],[-63.5772324,-10.8190799],[-63.5667102,-10.8013448],[-63.5745079,-10.7889602],[-63.5801231,-10.762445],[-63.5550426,-10.7307647],[-63.5501247,-10.7004368],[-63.5606597,-10.6636784],[-63.5554053,-10.6394022],[-63.5317417,-10.5963055],[-63.5465727,-10.5818607],[-63.5574253,-10.5578865],[-63.5364908,-10.5304759],[-63.540788,-10.5064039]],[[-63.540788,-10.5064039],[-63.5291279,-10.491324]],[[-65.3814996,-10.4290742],[-65.4029682,-10.4627815],[-65.4296351,-10.482896],[-65.4105791,-10.5129499],[-65.4198535,-10.5280705],[-65.4046946,-10.5537526],[-65.3978282,-10.589466],[-65.4164689,-10.6207745],[-65.403468,-10.6429834],[-65.3719659,-10.6481824],[-65.3496676,-10.6705476],[-65.3436059,-10.6995816],[-65.3495797,-10.7434563],[-65.3447432,-10.7695869],[-65.3669649,-10.7962563],[-65.3203903,-10.8223343],[-65.2765513,-10.8693553],[-65.2666125,-10.9218079],[-65.2858299,-10.9276718],[-65.2505519,-10.9856321],[-65.2948608,-11.0236146],[-65.2834712,-11.0577945],[-65.2888895,-11.0942523],[-65.3205793,-11.1021881],[-65.3564715,-11.1270703],[-65.3634955,-11.1472658],[-65.3497207,-11.1878909],[-65.3256212,-11.1866205],[-65.3246918,-11.2114823],[-65.3606984,-11.2233183],[-65.3613319,-11.251356],[-65.3377137,-11.3132578],[-65.2986139,-11.3160857],[-65.3354111,-11.3549453],[-65.3091383,-11.49364],[-65.2573346,-11.5144926],[-65.2250032,-11.5164466],[-65.2140254,-11.5480437],[-65.2345274,-11.5704471],[-65.229999,-11.6231694],[-65.2179133,-11.6520886],[-65.2593918,-11.6997627],[-65.2481714,-11.7234767],[-65.2047824,-11.7494622],[-65.1750045,-11.7541196],[-65.1829733,-11.7217035],[-65.1282465,-11.7205104],[-65.0999142,-11.7059015],[-65.0797455,-11.7361551],[-65.0597243,-11.7906782],[-65.0706948,-11.8691097],[-65.0599476,-11.8828006],[-65.0260515,-11.8884484],[-65.0149985,-11.9041545],[-65.0303604,-11.9502463],[-65.0226087,-11.9991513],[-65.0005559,-11.9933727],[-64.9841679,-12.0143712],[-64.9483889,-11.9934266],[-64.9170257,-12.0283831],[-64.8822808,-12.0133457],[-64.8395868,-12.0106793],[-64.809637,-12.0543546],[-64.8430024,-12.1055989],[-64.8219195,-12.1188428],[-64.8108361,-12.0961337],[-64.7884731,-12.0857891],[-64.7365522,-12.138513],[-64.7385545,-12.1000836],[-64.7091954,-12.0871034],[-64.6974754,-12.1006015],[-64.7177993,-12.1424671],[-64.712301,-12.1744408],[-64.6162191,-12.2147173],[-64.568609,-12.2198129],[-64.5522433,-12.2419466],[-64.5127895,-12.2228731],[-64.503277,-12.2351522],[-64.4928593,-12.2942597],[-64.5130783,-12.3438249],[-64.499413,-12.3672952],[-64.4600271,-12.3871505],[-64.4476696,-12.4091617],[-64.4061676,-12.4470481],[-64.3491631,-12.4599362],[-64.294721,-12.4578168],[-64.2988243,-12.4907931],[-64.2844442,-12.5031752],[-64.2355565,-12.456125],[-64.1967732,-12.4728443],[-64.1728845,-12.4665134],[-64.1711812,-12.5103698],[-64.1574457,-12.5138771],[-64.1338805,-12.4764538],[-64.1146305,-12.5033505],[-64.0988867,-12.4855432],[-64.0757786,-12.5011421],[-64.0509126,-12.4974126],[-64.0401616,-12.5151395],[-64.0005519,-12.5030243],[-63.9529725,-12.5317711],[-63.8978016,-12.499692],[-63.8893042,-12.4495064],[-63.873104,-12.4470829],[-63.8339707,-12.4634295],[-63.7863035,-12.427945],[-63.7642959,-12.4420757],[-63.7337167,-12.4386224],[-63.6915479,-12.4494206],[-63.6753964,-12.4622833],[-63.6221145,-12.4728773],[-63.613976,-12.4852736],[-63.5504909,-12.508437],[-63.5272856,-12.5456518],[-63.5017385,-12.5673236],[-63.4739971,-12.5615702],[-63.4346872,-12.5658407],[-63.4373021,-12.584658],[-63.4099309,-12.6110825],[-63.4009479,-12.6362102],[-63.3693525,-12.6595861],[-63.3502986,-12.6567012],[-63.2955445,-12.6818567],[-63.2397053,-12.6774259],[-63.1974907,-12.630317],[-63.164479,-12.6157206],[-63.1476334,-12.636679],[-63.1123223,-12.6590658],[-63.0828512,-12.7119784],[-63.0545785,-12.7311315],[-63.033826,-12.7807152],[-63.0103267,-12.8083057],[-63.0122087,-12.8341095],[-62.9429915,-12.8546105],[-62.9213543,-12.8408615],[-62.8811825,-12.863168]],[[-62.8811825,-12.863168],[-62.8658237,-12.8792519],[-62.8426272,-12.8635442],[-62.7884407,-12.8613478],[-62.7739016,-12.8820706],[-62.7520441,-12.8731508],[-62.7343555,-12.8916881],[-62.7288766,-12.9258899],[-62.7034384,-12.9208786],[-62.6940767,-12.9022845],[-62.6652633,-12.9061811],[-62.622824,-12.8718954],[-62.5780692,-12.809876],[-62.5476257,-12.7967238],[-62.5219353,-12.8095931],[-62.5177698,-12.7828762],[-62.4995169,-12.7544784],[-62.4627881,-12.7466674],[-62.4268227,-12.7101888],[-62.4017927,-12.6613417],[-62.3677685,-12.621123],[-62.3617378,-12.6000451],[-62.3266272,-12.5736327],[-62.2693724,-12.5141469],[-62.2683171,-12.5016061],[-62.2750934,-12.473221],[-62.2588214,-12.4509135],[-62.2642355,-12.427332],[-62.250928,-12.4020329],[-62.2914299,-12.3188257],[-62.3946838,-12.3434799],[-62.4176009,-12.3241698],[-62.4682064,-12.2992599],[-62.4855149,-12.3020493],[-62.5170144,-12.2835837],[-62.5763475,-12.2676037],[-62.5929024,-12.2490697],[-62.6205679,-12.2548681],[-62.6268781,-12.252114],[-62.6414637,-12.2397694]],[[-62.6414637,-12.2397694],[-62.7313195,-12.1098177]],[[-62.7313195,-12.1098177],[-62.7574363,-12.1425431],[-62.7663033,-12.1748831],[-62.7988534,-12.1859706],[-62.8139357,-12.2021565],[-62.8556265,-12.1946031],[-62.9152421,-12.1970941],[-62.9538831,-12.2064476],[-63.0302961,-12.1951137],[-63.1112462,-12.2053532],[-63.1323513,-12.2025422],[-63.1697943,-12.2373144],[-63.1919368,-12.2364334],[-63.2356303,-12.2520659],[-63.2298291,-12.2754142],[-63.2405462,-12.2969278],[-63.2760444,-12.2811266],[-63.2980738,-12.3094113],[-63.3284921,-12.3003476],[-63.3284631,-12.2859781],[-63.3293244,-12.2187651],[-63.2952134,-12.1390314],[-63.2826283,-12.0648153],[-63.2551284,-12.0240655],[-63.2703016,-11.9686395],[-63.2925168,-11.9468142],[-63.3406174,-11.9308488],[-63.3780425,-11.8856972],[-63.3855347,-11.8641037],[-63.3666415,-11.839437],[-63.5810946,-11.8390426],[-63.6068161,-11.8004376],[-63.5851569,-11.7736422],[-63.549922,-11.7577907],[-63.5467956,-11.7272703],[-63.600475,-11.7037416],[-63.6522975,-11.6898145],[-63.6799199,-11.6444148],[-63.6533111,-11.6209608],[-63.6453105,-11.6263289],[-63.6172778,-11.5998292],[-63.6030749,-11.6014251],[-63.6050144,-11.5842969],[-63.6046305,-11.5659019],[-63.6088502,-11.5568623],[-63.6155201,-11.5544685],[-63.6160755,-11.5423471],[-63.621297,-11.5421238],[-63.6134379,-11.5382222],[-63.5945174,-11.5044698],[-63.6094104,-11.4826939],[-63.5939039,-11.4161808],[-63.5655213,-11.4124269],[-63.5488528,-11.4134901],[-63.5380448,-11.3780801],[-63.5220447,-11.3700655],[-63.5293108,-11.3380603],[-63.5940087,-11.2607621],[-63.5770785,-11.2251431],[-63.6028173,-11.1416673],[-63.5822721,-11.0691762],[-63.5805634,-11.0311518],[-63.6301321,-11.0055387]],[[-63.6301321,-11.0055387],[-63.6144209,-11.0011408]],[[-63.6144209,-11.0011408],[-63.5870985,-11.0034526],[-63.582811,-10.9726665],[-63.6073793,-10.9301883],[-63.6049839,-10.8867954],[-63.5727925,-10.8779331],[-63.577073,-10.8315764]],[[-64.8828236,-10.5289762],[-64.9010505,-10.5428147],[-64.9063111,-10.5432357],[-64.9263749,-10.5397491]],[[-63.5291279,-10.491324],[-63.5299589,-10.492606]],[[-63.5299589,-10.492606],[-62.9999058,-10.4914647],[-62.7884109,-10.4911098],[-62.6175265,-10.1952443],[-62.5988687,-10.1919743],[-62.5800324,-10.1293298],[-62.5839404,-10.1056774],[-62.5600005,-10.053973],[-62.5342272,-10.0521618],[-62.5042293,-9.9649734],[-62.4683644,-9.9381769],[-62.4533689,-9.9061564],[-62.4530314,-9.8567908],[-62.4455577,-9.8195337],[-62.4212725,-9.8333772],[-62.4052504,-9.8645142],[-62.3995672,-9.9117176],[-62.3576781,-9.9058254],[-62.2920593,-9.93003],[-62.2496406,-9.9723354],[-62.2442259,-10.0004388],[-62.2095082,-10.0332223],[-62.1638905,-10.0546102],[-62.1478625,-10.0519456],[-62.1203983,-10.0382277],[-62.1013351,-10.0392143],[-62.0787299,-9.9987529],[-62.0278643,-9.9724518],[-62.0159815,-9.9487792],[-61.9371435,-9.9478465],[-61.909055,-9.9891699],[-61.8743009,-9.9880948],[-61.8582938,-9.9720756],[-61.8766433,-9.9048142],[-61.8430808,-9.8674496],[-61.8393106,-9.8115151],[-61.8066673,-9.7998357],[-61.794116,-9.7589975],[-61.7921657,-9.719684],[-61.7603604,-9.7286646],[-61.7115542,-9.7313276],[-61.6446675,-9.7066721],[-61.6084294,-9.6842304],[-61.5746373,-9.7177933]],[[-61.5746373,-9.7177933],[-61.5296106,-9.7100983],[-61.505272,-9.6913819],[-61.4769655,-9.629855],[-61.5030326,-9.615345],[-61.4949271,-9.5849287],[-61.5103714,-9.5650911],[-61.5080429,-9.540463],[-61.5495654,-9.5152171],[-61.5817187,-9.4591265],[-61.55672,-9.435615],[-61.5505387,-9.4147035],[-61.5633169,-9.3781567],[-61.5803064,-9.3682219],[-61.6259281,-9.3630117],[-61.6113336,-9.3157281],[-61.6119925,-9.2807016],[-61.5996169,-9.2560351],[-61.5683872,-9.237088],[-61.5280945,-9.2311652],[-61.5236433,-9.1790181],[-61.5553819,-9.1314969],[-61.555755,-9.0924026],[-61.5110619,-8.9761931],[-61.4895398,-8.9372717],[-61.469214,-8.9201143],[-61.5115045,-8.8636406],[-61.5137215,-8.8369518],[-61.5683676,-8.8010824],[-61.6060278,-8.794714],[-61.6295527,-8.7529562],[-61.6264691,-8.7288535],[-61.6735812,-8.7050168],[-61.7053617,-8.7075264],[-61.7132742,-8.6878528],[-61.741854,-8.6951929],[-61.7488815,-8.7237702],[-61.7746056,-8.7482289],[-61.8412499,-8.7394106],[-61.8433013,-8.7794091],[-61.8610249,-8.8036155],[-61.8597486,-8.8529733],[-61.9058859,-8.8745104],[-61.9381066,-8.8814117],[-61.97914,-8.8732446],[-62.0039716,-8.8300839],[-62.031061,-8.7997101],[-62.0743019,-8.7985702],[-62.0980029,-8.8089214],[-62.1249717,-8.8016711],[-62.1550309,-8.7396423],[-62.1488018,-8.7183088],[-62.1717727,-8.6950749],[-62.165087,-8.6793938],[-62.2005306,-8.6442928],[-62.1746915,-8.628203],[-62.1837005,-8.5989665],[-62.2688885,-8.5757586]],[[-63.5299589,-10.492606],[-63.540788,-10.5064039]],[[-63.6144209,-11.0011408],[-63.6099277,-11.0092022]],[[-63.6099277,-11.0092022],[-63.5824908,-11.010637],[-63.5665679,-11.0339021],[-63.5267905,-11.0460699],[-63.4811018,-11.027198],[-63.433098,-11.029952],[-63.4138728,-11.0490935],[-63.3841758,-11.0572659],[-63.3353989,-11.0891058],[-63.2887149,-11.1532322],[-63.2540399,-11.1519079],[-63.2332725,-11.1272696],[-63.1911574,-11.0974981],[-63.1537696,-11.0886751],[-63.1192452,-11.160934],[-63.1123853,-11.1946406],[-63.0513778,-11.1810339],[-63.0185444,-11.1837386],[-63.0004286,-11.2013112],[-62.9389526,-11.2081615],[-62.8415379,-11.1971075],[-62.8141737,-11.1873618],[-62.7965389,-11.1966753],[-62.7558152,-11.179802],[-62.7364835,-11.1833551],[-62.7225405,-11.1412726],[-62.6913172,-11.1298141],[-62.5841521,-11.2247696],[-62.4453394,-11.1765851],[-62.2648446,-11.1723414],[-62.2389508,-11.1079383],[-62.2176462,-11.0765642],[-62.1858711,-11.0632333],[-62.1642309,-11.068649],[-62.1640625,-11.0983951],[-62.1460683,-11.1150098],[-62.1497881,-11.1514162],[-62.1209529,-11.1979166],[-62.1647041,-11.2385883],[-62.1827058,-11.2831031],[-62.1574513,-11.2778882],[-62.1400891,-11.2939989],[-62.1105074,-11.2825492],[-62.0565286,-11.3062398],[-62.0195633,-11.3048349],[-62.0013408,-11.2888825],[-61.9681499,-11.2999616],[-61.9524831,-11.290408]],[[-61.9524831,-11.290408],[-61.9432327,-11.2935291]],[[-61.9432327,-11.2935291],[-61.9179762,-11.2924532],[-61.8601967,-11.368748],[-61.834896,-11.3842596],[-61.7830374,-11.4019834],[-61.7781311,-11.3964679],[-61.7551152,-11.3783326],[-61.7550604,-11.3743003],[-61.7526727,-11.3721028],[-61.7495047,-11.3559955],[-61.7443608,-11.323499],[-61.7071771,-11.2952172],[-61.7010837,-11.2678948],[-61.6662116,-11.2588481],[-61.667068,-11.1184154],[-61.6323577,-11.1181627],[-61.6320009,-10.9862943],[-61.5502579,-10.9860947]],[[-61.5502579,-10.9860947],[-61.5300873,-10.9790195],[-61.5208534,-10.9205225],[-61.5251489,-10.8558039],[-61.5088653,-10.8344311],[-61.5108965,-10.7936807],[-61.4764168,-10.7677946],[-61.4763671,-10.722504],[-61.4993935,-10.6986176],[-61.4844843,-10.6737666],[-61.4762363,-10.6076634],[-61.4799609,-10.5691537],[-61.4663218,-10.5412113],[-61.4790698,-10.529872],[-61.4808157,-10.4877483],[-61.4617928,-10.4199046],[-61.5031111,-10.3759259],[-61.5161645,-10.3344363],[-61.5481076,-10.3163893],[-61.5440872,-10.3009945],[-61.5767244,-10.2485762],[-61.5740051,-10.2089593],[-61.5577505,-10.1823138],[-61.6012364,-10.1500901],[-61.5787102,-10.0792444],[-61.5843749,-10.0596093],[-61.5558735,-10.0389514],[-61.5312021,-9.9898503],[-61.5233429,-9.9484856],[-61.5249818,-9.9065757],[-61.5110765,-9.8955614],[-61.5079136,-9.8610818],[-61.5249134,-9.7957304],[-61.547356,-9.7875415],[-61.5315013,-9.7399119],[-61.5746373,-9.7177933]],[[-62.7313195,-12.1098177],[-62.6425289,-12.23547]],[[-62.6425289,-12.23547],[-62.6402104,-12.230109],[-62.6402306,-12.2272063],[-62.6060731,-12.185565],[-62.6028936,-12.1501576],[-62.6149529,-12.1197685],[-62.6115348,-12.0940198],[-62.6129064,-12.0854194],[-62.5960133,-12.0739716],[-62.5891491,-12.0694345],[-62.5835417,-12.0697452],[-62.5802114,-12.0688663],[-62.554824,-12.0554767],[-62.5455402,-12.0346025],[-62.5130334,-12.0096242],[-62.4793411,-11.9966582],[-62.4353439,-11.9404719],[-62.3963488,-11.911522],[-62.3890126,-11.9083358],[-62.3860111,-11.9077609],[-62.3749582,-11.9060469],[-62.2969523,-11.8925275],[-62.2784842,-11.9042477],[-62.2324861,-11.9087762],[-62.205591,-11.8286841],[-62.1881534,-11.8123358],[-62.1898973,-11.7757385],[-62.2129197,-11.7167259],[-62.1940912,-11.6792976],[-62.1907292,-11.651826],[-62.1715913,-11.6134582],[-62.1727059,-11.5473927],[-62.1403992,-11.5228201],[-62.1202028,-11.5271833],[-62.0849836,-11.4986059],[-62.0796434,-11.4601338],[-62.0266973,-11.4138725],[-62.0206134,-11.3725764],[-61.958011,-11.2968188]],[[-61.958011,-11.2968188],[-61.9524831,-11.290408]],[[-63.6099277,-11.0092022],[-63.6301321,-11.0055387]],[[-61.9432327,-11.2935291],[-61.958011,-11.2968188]],[[-62.6425289,-12.23547],[-62.6414637,-12.2397694]],[[-62.8811825,-12.863168],[-62.8940789,-12.8730016],[-62.8702099,-12.9106179],[-62.8033008,-12.9450797],[-62.8089019,-12.9621374],[-62.7811841,-13.0083848],[-62.7340206,-13.0218668],[-62.7251595,-13.0012549],[-62.6985773,-13.0028162],[-62.6606879,-12.9694718],[-62.6291779,-12.9958121],[-62.6330238,-13.0106374],[-62.6125725,-13.0412954],[-62.5471599,-13.0739935],[-62.5238183,-13.0655029],[-62.5026304,-13.0831629],[-62.4655476,-13.0771978],[-62.4139913,-13.1283821],[-62.3519615,-13.1432941],[-62.3167712,-13.1344681],[-62.2993497,-13.1505528],[-62.2459304,-13.1451627],[-62.2450118,-13.1208414],[-62.2147888,-13.1113449],[-62.1909339,-13.1538296],[-62.1695715,-13.1342045],[-62.1429045,-13.1611636],[-62.1152086,-13.1636806]],[[-62.1152086,-13.1636806],[-62.1101803,-13.1788177],[-62.0556259,-13.1402817],[-62.039264,-13.140816],[-62.0350702,-13.1356069],[-61.9886838,-13.0405488],[-61.9562877,-12.9945343],[-61.9156262,-12.9692816],[-61.9151803,-12.9409751],[-61.9001,-12.9307617],[-61.9016217,-12.9173161],[-61.8967106,-12.8829406],[-61.89551,-12.8769871],[-61.8813985,-12.8594127],[-61.8555919,-12.8622145],[-61.8167599,-12.8336764],[-61.7667036,-12.8105023],[-61.7545116,-12.7958329],[-61.6807611,-12.7442834],[-61.6334826,-12.7286534],[-61.6044946,-12.7057649],[-61.5624799,-12.6934552],[-61.5454644,-12.6727506],[-61.5415625,-12.650167],[-61.5252887,-12.6125485],[-61.5340693,-12.5682009],[-61.5277301,-12.53747],[-61.549398,-12.5069275],[-61.5537912,-12.4805468],[-61.5661451,-12.4674033]],[[-61.5661451,-12.4674033],[-61.5716505,-12.4731871]],[[-61.5716505,-12.4731871],[-61.6315327,-12.4616691],[-61.6757846,-12.4292215],[-61.6786196,-12.0897025],[-61.5305097,-12.0889944],[-61.5306878,-11.85617],[-61.5537047,-11.845975],[-61.5213895,-11.7593081],[-61.5351151,-11.7460596],[-61.5372856,-11.7381376],[-61.5500036,-11.6984779],[-61.5742863,-11.6650563],[-61.5592217,-11.6566332],[-61.5489765,-11.6191079],[-61.352695,-11.6174511],[-61.3701921,-11.5738264],[-61.366661,-11.5062785],[-61.3153388,-11.5079819],[-61.2935013,-11.4981961],[-61.2403955,-11.5284812],[-61.2125287,-11.5284885],[-60.9252137,-11.7473751],[-60.9185833,-11.7261186],[-60.8417271,-11.7250798],[-60.8219198,-11.6980475],[-60.7571654,-11.7072166],[-60.7337464,-11.6950243],[-60.681252,-11.6974219],[-60.6398938,-11.6498859],[-60.5905311,-11.6207418],[-60.5925685,-11.5890485],[-60.5428013,-11.550208],[-60.5224458,-11.4944963],[-60.4912719,-11.4828313],[-60.4738588,-11.4637663],[-60.4380257,-11.4468648],[-60.4426869,-11.4071372],[-60.4624153,-11.3701098],[-60.4967748,-11.3444523],[-60.4837988,-11.2928896],[-60.5280499,-11.2545137],[-60.5331607,-11.1851252],[-60.5198902,-11.1688246],[-60.5192193,-11.1289838],[-60.5069963,-11.0981696],[-60.5128263,-11.0663473],[-60.475248,-11.0460569],[-60.4600501,-10.9898562]],[[-60.4600501,-10.9898562],[-61.0005934,-10.988351],[-61.0005949,-10.9922393],[-61.5502579,-10.9860947]],[[-61.5716505,-12.4731871],[-61.5633382,-12.4649056]],[[-61.5633382,-12.4649056],[-61.5265908,-12.4692522],[-61.4791245,-12.4634674],[-61.4379551,-12.5003623],[-61.4199561,-12.5076502],[-61.3860616,-12.4873063],[-61.3817282,-12.5231325],[-61.3673636,-12.5358165],[-61.3478394,-12.6216591],[-61.3370849,-12.6269054],[-61.3381963,-12.6598531],[-61.3442821,-12.6943007],[-61.2993428,-12.7199122],[-61.282149,-12.7200397],[-61.2316463,-12.7449995],[-61.1990672,-12.7490389],[-61.1879237,-12.787117],[-61.1676223,-12.7531188],[-61.1674218,-12.7321018],[-61.1249205,-12.7276088],[-61.078867,-12.7021209],[-61.0584526,-12.7042677],[-61.0297032,-12.7703272],[-60.9967306,-12.7592985],[-60.9665573,-12.7840111],[-60.9672306,-12.823404],[-60.9805074,-12.8890979],[-60.9705056,-12.9383356],[-60.937336,-12.9164291],[-60.9315059,-12.8912629],[-60.8994756,-12.8463189],[-60.8470898,-12.8229892],[-60.7908098,-12.8156012],[-60.7821956,-12.8519669],[-60.7607496,-12.826487],[-60.7305258,-12.8127551],[-60.7206661,-12.8102754],[-60.6534445,-12.866873],[-60.6429792,-12.9434767],[-60.6290634,-12.972178],[-60.6043992,-12.9881748],[-60.5919039,-12.9681553],[-60.5047545,-12.9678828],[-60.473256,-12.9988029],[-60.4369617,-13.0028534],[-60.4206077,-13.014855],[-60.4061091,-13.0633723],[-60.4058905,-13.0706367],[-60.3460285,-13.1228396],[-60.3566377,-13.1977048],[-60.3331703,-13.2579792]],[[-60.3331703,-13.2579792],[-60.3297838,-13.2354686],[-60.3038368,-13.1783698],[-60.2786128,-13.1596137],[-60.2829916,-13.0805523],[-60.2562022,-13.063813],[-60.2413314,-13.0384575],[-60.2152922,-13.0269807],[-60.2136568,-13.0070527],[-60.1833444,-12.967629],[-60.1171653,-12.9595556],[-60.1015281,-12.9134155],[-60.0791127,-12.8811425],[-60.0828176,-12.852636],[-60.0656385,-12.8107048],[-60.0621632,-12.7581709],[-60.0750583,-12.7332327],[-60.0557303,-12.7036176],[-60.059073,-12.6635501],[-60.028942,-12.6185671],[-60.0033205,-12.5923372],[-59.9774152,-12.6065176],[-59.9476548,-12.5992652],[-59.8960537,-12.5364446],[-59.8989333,-12.5030734],[-59.84416,-12.4671729],[-59.8425487,-12.424849],[-59.8192559,-12.3787482],[-59.7929413,-12.3457819],[-59.7743574,-12.3409559],[-59.8867969,-12.245087],[-59.9017147,-12.2238791],[-59.9108107,-12.1864566],[-59.9026053,-12.1750357],[-59.8998038,-12.1172227],[-59.9292763,-12.0784547],[-59.9619968,-12.0563674],[-59.9695798,-12.0324752],[-59.9713581,-11.9699456],[-59.9857972,-11.9120801],[-60.0068898,-11.894683],[-60.0503863,-11.8978671],[-60.0766345,-11.8852893],[-60.1033601,-11.8191718],[-60.1073891,-11.7489734],[-60.1216618,-11.7121038],[-60.1187981,-11.6540707],[-60.1099085,-11.6155403],[-60.1148844,-11.591462],[-60.0866925,-11.5609447],[-60.0574695,-11.542096],[-60.0328028,-11.4995521],[-59.9854077,-11.4693409],[-59.9762413,-11.4392225],[-59.9344129,-11.4236675],[-59.9206343,-11.3980076],[-59.925437,-11.3617763],[-59.9171931,-11.3384346],[-59.9277738,-11.3104346],[-59.9594679,-11.2947339],[-59.9679112,-11.2529339],[-59.9796883,-11.2395295],[-59.9811296,-11.2037619],[-59.9950224,-11.148203],[-59.9767766,-11.1223889],[-60.032028,-11.127778],[-60.0663542,-11.1209934],[-60.0750227,-11.1050246],[-60.1776041,-11.0992539],[-60.1914692,-11.1141134],[-60.2412468,-11.0968881],[-60.2808334,-11.0915305],[-60.2823584,-11.0640172],[-60.301248,-11.0571521],[-60.3419726,-11.0826337],[-60.3479707,-11.1090363],[-60.3915541,-11.0937926],[-60.4114906,-11.0467759],[-60.4296987,-11.0374942],[-60.4600501,-10.9898562]],[[-61.5633382,-12.4649056],[-61.5661451,-12.4674033]],[[-62.1152086,-13.1636806],[-62.1090708,-13.2190394],[-62.1156843,-13.2584652],[-62.0690121,-13.2958589],[-62.0032061,-13.3654125],[-61.9804882,-13.3654943],[-61.9623452,-13.3911454],[-61.9143466,-13.4337319],[-61.887426,-13.4407745],[-61.8832099,-13.4972993],[-61.8688527,-13.5282221],[-61.8336515,-13.5392924],[-61.817124,-13.5274366],[-61.7573476,-13.5405747],[-61.6938441,-13.5080797],[-61.6687948,-13.5050571],[-61.6514522,-13.5187113],[-61.585621,-13.5006257],[-61.5082567,-13.5479382],[-61.4699239,-13.5552502],[-61.4295679,-13.5454079],[-61.3897886,-13.5197691],[-61.3505155,-13.5211574],[-61.3135097,-13.5044738],[-61.2883166,-13.4828576],[-61.2752088,-13.5060564],[-61.2483441,-13.4962741],[-61.2217305,-13.530155],[-61.1712922,-13.5106087],[-61.1532007,-13.5273067],[-61.1034016,-13.5157539],[-61.0877584,-13.4920938],[-61.0411515,-13.5077103],[-61.0149244,-13.4875362],[-61.0056227,-13.5502805],[-60.9674203,-13.5368945],[-60.9338909,-13.5407095],[-60.9089256,-13.5848178],[-60.8798406,-13.6175279],[-60.8285899,-13.629501],[-60.8100666,-13.6552746],[-60.7705337,-13.6651065],[-60.7695385,-13.6842053],[-60.7139468,-13.6759978],[-60.6860379,-13.6252274],[-60.6455062,-13.5928216],[-60.6347881,-13.5745178],[-60.5776508,-13.5652277],[-60.5357855,-13.537301],[-60.5316656,-13.5180899],[-60.4864221,-13.4941821],[-60.4320021,-13.4884356],[-60.4115299,-13.4616583],[-60.3879196,-13.4546951],[-60.3793059,-13.4153231],[-60.3795864,-13.3752343],[-60.3518141,-13.2917301],[-60.3331703,-13.2579792]]],"bbox":[-66.8102531,-13.6842053,-59.7743574,-7.9758683]}
