{"type":"Topology","objects":{"geometrias":{"type":"GeometryCollection","geometries":[{"type":"Polygon","arcs":[[0,1,2]],"properties":{"code_muni":2800100,"abbrev_state":"SE","name_state":"Sergipe","name_region":"Nordeste","name_muni":"Amparo do São Francisco","code_state":28,"code_region":2,"year":2020}},{"type":"Polygon","arcs":[[3,4,5,6,7,8,9,10,11,12,13,14]],"properties":{"code_muni":2800209,"abbrev_state":"SE","name_state":"Sergipe","name_region":"Nordeste","name_muni":"Aquidabã","code_state":28,"code_region":2,"year":2020}},{"type":"Polygon","arcs":[[15,16,17,18,19,20,21,22,23,24,25,26,27]],"properties":{"code_muni":2800308,"abbrev_state":"SE","name_state":"Sergipe","name_region":"Nordeste","name_muni":"Aracaju","code_state":28,"code_region":2,"year":2020}},{"type":"MultiPolygon","arcs":[[[28,29]],[[30,31,32,33]],[[34,35,36,37,38,39,40,41]]],"properties":{"code_muni":2800407,"abbrev_state":"SE","name_state":"Sergipe","name_region":"Nordeste","name_muni":"Arauá","code_state":28,"code_region":2,"year":2020}},{"type":"Polygon","arcs":[[42,43,44,45,46,47,48,49,50]],"properties":{"code_muni":2800506,"abbrev_state":"SE","name_state":"Sergipe","name_region":"Nordeste","name_muni":"Areia Branca","code_state":28,"code_region":2,"year":2020}},{"type":"Polygon","arcs":[[51,52,53,-27,54,55]],"properties":{"code_muni":2800605,"abbrev_state":"SE","name_state":"Sergipe","name_region":"Nordeste","name_muni":"Barra dos Coqueiros","code_state":28,"code_region":2,"year":2020}},{"type":"Polygon","arcs":[[56,57,58,59,60,61,62,63,64,-35]],"properties":{"code_muni":2800670,"abbrev_state":"SE","name_state":"Sergipe","name_region":"Nordeste","name_muni":"Boquim","code_state":28,"code_region":2,"year":2020}},{"type":"Polygon","arcs":[[65,66,67,68]],"properties":{"code_muni":2800704,"abbrev_state":"SE","name_state":"Sergipe","name_region":"Nordeste","name_muni":"Brejo Grande","code_state":28,"code_region":2,"year":2020}},{"type":"Polygon","arcs":[[69,70,71,72,73,74,75,76,77,78]],"properties":{"code_muni":2801009,"abbrev_state":"SE","name_state":"Sergipe","name_region":"Nordeste","name_muni":"Campo do Brito","code_state":28,"code_region":2,"year":2020}},{"type":"Polygon","arcs":[[79,80,81,82,-15,-3]],"properties":{"code_muni":2801108,"abbrev_state":"SE","name_state":"Sergipe","name_region":"Nordeste","name_muni":"Canhoba","code_state":28,"code_region":2,"year":2020}},{"type":"Polygon","arcs":[[83,84]],"properties":{"code_muni":2801207,"abbrev_state":"SE","name_state":"Sergipe","name_region":"Nordeste","name_muni":"Canindé de São Francisco","code_state":28,"code_region":2,"year":2020}},{"type":"Polygon","arcs":[[-9,85,86,87,88,89,90,91,92,93,94,95,96]],"properties":{"code_muni":2801306,"abbrev_state":"SE","name_state":"Sergipe","name_region":"Nordeste","name_muni":"Capela","code_state":28,"code_region":2,"year":2020}},{"type":"Polygon","arcs":[[97,98,99,100,101,102,103]],"properties":{"code_muni":2801405,"abbrev_state":"SE","name_state":"Sergipe","name_region":"Nordeste","name_muni":"Carira","code_state":28,"code_region":2,"year":2020}},{"type":"Polygon","arcs":[[104,105,106,107,108,109]],"properties":{"code_muni":2801504,"abbrev_state":"SE","name_state":"Sergipe","name_region":"Nordeste","name_muni":"Carmópolis","code_state":28,"code_region":2,"year":2020}},{"type":"Polygon","arcs":[[110,111,112,-13,113,114]],"properties":{"code_muni":2801603,"abbrev_state":"SE","name_state":"Sergipe","name_region":"Nordeste","name_muni":"Cedro de São João","code_state":28,"code_region":2,"year":2020}},{"type":"Polygon","arcs":[[115,116,117,118,119,120,121]],"properties":{"code_muni":2801702,"abbrev_state":"SE","name_state":"Sergipe","name_region":"Nordeste","name_muni":"Cristinápolis","code_state":28,"code_region":2,"year":2020}},{"type":"Polygon","arcs":[[122,123,124,125,126,-87,127,-7,128,129]],"properties":{"code_muni":2801900,"abbrev_state":"SE","name_state":"Sergipe","name_region":"Nordeste","name_muni":"Cumbe","code_state":28,"code_region":2,"year":2020}},{"type":"Polygon","arcs":[[130,131,132,133,134,135,136,137,138]],"properties":{"code_muni":2802007,"abbrev_state":"SE","name_state":"Sergipe","name_region":"Nordeste","name_muni":"Divina Pastora","code_state":28,"code_region":2,"year":2020}},{"type":"Polygon","arcs":[[139,140,-42,141,142,143,144,145,146,147,148]],"properties":{"code_muni":2802106,"abbrev_state":"SE","name_state":"Sergipe","name_region":"Nordeste","name_muni":"Estância","code_state":28,"code_region":2,"year":2020}},{"type":"Polygon","arcs":[[-124,149,150,151,152,153,154,155]],"properties":{"code_muni":2802205,"abbrev_state":"SE","name_state":"Sergipe","name_region":"Nordeste","name_muni":"Feira Nova","code_state":28,"code_region":2,"year":2020}},{"type":"Polygon","arcs":[[156,157,158,159,-100,160,161,162]],"properties":{"code_muni":2802304,"abbrev_state":"SE","name_state":"Sergipe","name_region":"Nordeste","name_muni":"Frei Paulo","code_state":28,"code_region":2,"year":2020}},{"type":"Polygon","arcs":[[163,164,165,166,167,168,169]],"properties":{"code_muni":2802403,"abbrev_state":"SE","name_state":"Sergipe","name_region":"Nordeste","name_muni":"Gararu","code_state":28,"code_region":2,"year":2020}},{"type":"Polygon","arcs":[[170,171,172,173,-106]],"properties":{"code_muni":2802502,"abbrev_state":"SE","name_state":"Sergipe","name_region":"Nordeste","name_muni":"General Maynard","code_state":28,"code_region":2,"year":2020}},{"type":"Polygon","arcs":[[174,-167,175,176,-130,177,-5,178,179]],"properties":{"code_muni":2802601,"abbrev_state":"SE","name_state":"Sergipe","name_region":"Nordeste","name_muni":"Gracho Cardoso","code_state":28,"code_region":2,"year":2020}},{"type":"Polygon","arcs":[[180,181,182,-67]],"properties":{"code_muni":2802700,"abbrev_state":"SE","name_state":"Sergipe","name_region":"Nordeste","name_muni":"Ilha das Flores","code_state":28,"code_region":2,"year":2020}},{"type":"Polygon","arcs":[[183,-121,184,-145,185]],"properties":{"code_muni":2802809,"abbrev_state":"SE","name_state":"Sergipe","name_region":"Nordeste","name_muni":"Indiaroba","code_state":28,"code_region":2,"year":2020}},{"type":"Polygon","arcs":[[-157,186,187,188,-77,189,190,191,192,193,194,195]],"properties":{"code_muni":2802908,"abbrev_state":"SE","name_state":"Sergipe","name_region":"Nordeste","name_muni":"Itabaiana","code_state":28,"code_region":2,"year":2020}},{"type":"Polygon","arcs":[[196,197,198,199,-117,200,201,202,-39,203,204,205,-62,206,207]],"properties":{"code_muni":2803005,"abbrev_state":"SE","name_state":"Sergipe","name_region":"Nordeste","name_muni":"Itabaianinha","code_state":28,"code_region":2,"year":2020}},{"type":"Polygon","arcs":[[208,-180,209,210,211,-169]],"properties":{"code_muni":2803104,"abbrev_state":"SE","name_state":"Sergipe","name_region":"Nordeste","name_muni":"Itabi","code_state":28,"code_region":2,"year":2020}},{"type":"Polygon","arcs":[[212,213,214,215,-149,216,-147,217,-25,218,219,220,-47]],"properties":{"code_muni":2803203,"abbrev_state":"SE","name_state":"Sergipe","name_region":"Nordeste","name_muni":"Itaporanga d'Ajuda","code_state":28,"code_region":2,"year":2020}},{"type":"Polygon","arcs":[[221,222,223,-95,-110,224,225,226]],"properties":{"code_muni":2803302,"abbrev_state":"SE","name_state":"Sergipe","name_region":"Nordeste","name_muni":"Japaratuba","code_state":28,"code_region":2,"year":2020}},{"type":"Polygon","arcs":[[227,228,229,230,231,232,233,234,-227,235,236,237,238,239]],"properties":{"code_muni":2803401,"abbrev_state":"SE","name_state":"Sergipe","name_region":"Nordeste","name_muni":"Japoatã","code_state":28,"code_region":2,"year":2020}},{"type":"Polygon","arcs":[[240,241,242,243,244,245,246,-58,247,-214,248,-75,249,250,251,252]],"properties":{"code_muni":2803500,"abbrev_state":"SE","name_state":"Sergipe","name_region":"Nordeste","name_muni":"Lagarto","code_state":28,"code_region":2,"year":2020}},{"type":"Polygon","arcs":[[253,254,255,256,257,258,259]],"properties":{"code_muni":2803609,"abbrev_state":"SE","name_state":"Sergipe","name_region":"Nordeste","name_muni":"Laranjeiras","code_state":28,"code_region":2,"year":2020}},{"type":"Polygon","arcs":[[260,261,-253,262,263,264,-79,265,-188,266,267]],"properties":{"code_muni":2803708,"abbrev_state":"SE","name_state":"Sergipe","name_region":"Nordeste","name_muni":"Macambira","code_state":28,"code_region":2,"year":2020}},{"type":"Polygon","arcs":[[268,-114,-12,269,270]],"properties":{"code_muni":2803807,"abbrev_state":"SE","name_state":"Sergipe","name_region":"Nordeste","name_muni":"Malhada dos Bois","code_state":28,"code_region":2,"year":2020}},{"type":"Polygon","arcs":[[271,272,-192,273,-44,274,275,276,277]],"properties":{"code_muni":2803906,"abbrev_state":"SE","name_state":"Sergipe","name_region":"Nordeste","name_muni":"Malhador","code_state":28,"code_region":2,"year":2020}},{"type":"Polygon","arcs":[[278,-136,-260,279,280,281]],"properties":{"code_muni":2804003,"abbrev_state":"SE","name_state":"Sergipe","name_region":"Nordeste","name_muni":"Maruim","code_state":28,"code_region":2,"year":2020}},{"type":"Polygon","arcs":[[282,-194,283,-272,284,285,286,287,288,289,290]],"properties":{"code_muni":2804102,"abbrev_state":"SE","name_state":"Sergipe","name_region":"Nordeste","name_muni":"Moita Bonita","code_state":28,"code_region":2,"year":2020}},{"type":"Polygon","arcs":[[291,292,293,294,295]],"properties":{"code_muni":2804201,"abbrev_state":"SE","name_state":"Sergipe","name_region":"Nordeste","name_muni":"Monte Alegre de Sergipe","code_state":28,"code_region":2,"year":2020}},{"type":"Polygon","arcs":[[-11,296,-96,-224,297,298,-270]],"properties":{"code_muni":2804300,"abbrev_state":"SE","name_state":"Sergipe","name_region":"Nordeste","name_muni":"Muribeca","code_state":28,"code_region":2,"year":2020}},{"type":"Polygon","arcs":[[299,-240,300,301,-182,302,303,304,305]],"properties":{"code_muni":2804409,"abbrev_state":"SE","name_state":"Sergipe","name_region":"Nordeste","name_muni":"Neópolis","code_state":28,"code_region":2,"year":2020}},{"type":"Polygon","arcs":[[306,-102,307,-159,308,309,310,311]],"properties":{"code_muni":2804458,"abbrev_state":"SE","name_state":"Sergipe","name_region":"Nordeste","name_muni":"Nossa Senhora Aparecida","code_state":28,"code_region":2,"year":2020}},{"type":"Polygon","arcs":[[-166,-295,312,-104,313,-312,314,315,316,-151,-176]],"properties":{"code_muni":2804508,"abbrev_state":"SE","name_state":"Sergipe","name_region":"Nordeste","name_muni":"Nossa Senhora da Glória","code_state":28,"code_region":2,"year":2020}},{"type":"Polygon","arcs":[[-155,317,318,319,320,321,322,-289,323,324,325,-131,326,327,-89,328,-126,329]],"properties":{"code_muni":2804607,"abbrev_state":"SE","name_state":"Sergipe","name_region":"Nordeste","name_muni":"Nossa Senhora das Dores","code_state":28,"code_region":2,"year":2020}},{"type":"Polygon","arcs":[[330,-170,-212,331,-81]],"properties":{"code_muni":2804706,"abbrev_state":"SE","name_state":"Sergipe","name_region":"Nordeste","name_muni":"Nossa Senhora de Lourdes","code_state":28,"code_region":2,"year":2020}},{"type":"Polygon","arcs":[[332,333,334,335,-20,336,-18,337,338,339,340,-257]],"properties":{"code_muni":2804805,"abbrev_state":"SE","name_state":"Sergipe","name_region":"Nordeste","name_muni":"Nossa Senhora do Socorro","code_state":28,"code_region":2,"year":2020}},{"type":"Polygon","arcs":[[341,-238,342,343,344,-69,345,-302]],"properties":{"code_muni":2804904,"abbrev_state":"SE","name_state":"Sergipe","name_region":"Nordeste","name_muni":"Pacatuba","code_state":28,"code_region":2,"year":2020}},{"type":"Polygon","arcs":[[346,347,348,349,350,-242,351,-261]],"properties":{"code_muni":2805000,"abbrev_state":"SE","name_state":"Sergipe","name_region":"Nordeste","name_muni":"Pedra Mole","code_state":28,"code_region":2,"year":2020}},{"type":"Polygon","arcs":[[-64,352,-205,353,-37,354]],"properties":{"code_muni":2805109,"abbrev_state":"SE","name_state":"Sergipe","name_region":"Nordeste","name_muni":"Pedrinhas","code_state":28,"code_region":2,"year":2020}},{"type":"Polygon","arcs":[[355,356,357,-348,-161,-99]],"properties":{"code_muni":2805208,"abbrev_state":"SE","name_state":"Sergipe","name_region":"Nordeste","name_muni":"Pinhão","code_state":28,"code_region":2,"year":2020}},{"type":"Polygon","arcs":[[358,-225,-109,359,360,361,362,-56,363,-344,364]],"properties":{"code_muni":2805307,"abbrev_state":"SE","name_state":"Sergipe","name_region":"Nordeste","name_muni":"Pirambu","code_state":28,"code_region":2,"year":2020}},{"type":"Polygon","arcs":[[365,-85,366,-293,367,368]],"properties":{"code_muni":2805406,"abbrev_state":"SE","name_state":"Sergipe","name_region":"Nordeste","name_muni":"Poço Redondo","code_state":28,"code_region":2,"year":2020}},{"type":"Polygon","arcs":[[369,370,371,372]],"properties":{"code_muni":2805505,"abbrev_state":"SE","name_state":"Sergipe","name_region":"Nordeste","name_muni":"Poço Verde","code_state":28,"code_region":2,"year":2020}},{"type":"Polygon","arcs":[[373,-369,374,-296,-165]],"properties":{"code_muni":2805604,"abbrev_state":"SE","name_state":"Sergipe","name_region":"Nordeste","name_muni":"Porto da Folha","code_state":28,"code_region":2,"year":2020}},{"type":"Polygon","arcs":[[375,-112,376,377,378,-229,379,-306,380]],"properties":{"code_muni":2805703,"abbrev_state":"SE","name_state":"Sergipe","name_region":"Nordeste","name_muni":"Propriá","code_state":28,"code_region":2,"year":2020}},{"type":"Polygon","arcs":[[381,382,383,-208,384,-60,385,-246]],"properties":{"code_muni":2805802,"abbrev_state":"SE","name_state":"Sergipe","name_region":"Nordeste","name_muni":"Riachão do Dantas","code_state":28,"code_region":2,"year":2020}},{"type":"Polygon","arcs":[[386,387,388,-276,389,-51,390,-254,-135]],"properties":{"code_muni":2805901,"abbrev_state":"SE","name_state":"Sergipe","name_region":"Nordeste","name_muni":"Riachuelo","code_state":28,"code_region":2,"year":2020}},{"type":"Polygon","arcs":[[391,-322,392,-309,-158,-196,393,-291]],"properties":{"code_muni":2806008,"abbrev_state":"SE","name_state":"Sergipe","name_region":"Nordeste","name_muni":"Ribeirópolis","code_state":28,"code_region":2,"year":2020}},{"type":"Polygon","arcs":[[-94,394,395,396,397,-282,398,399,400,-172,401]],"properties":{"code_muni":2806107,"abbrev_state":"SE","name_state":"Sergipe","name_region":"Nordeste","name_muni":"Rosário do Catete","code_state":28,"code_region":2,"year":2020}},{"type":"Polygon","arcs":[[-248,-57,-141,402,-215]],"properties":{"code_muni":2806206,"abbrev_state":"SE","name_state":"Sergipe","name_region":"Nordeste","name_muni":"Salgado","code_state":28,"code_region":2,"year":2020}},{"type":"Polygon","arcs":[[-203,403,-33,404,405,-186,406,-143,407,-40]],"properties":{"code_muni":2806305,"abbrev_state":"SE","name_state":"Sergipe","name_region":"Nordeste","name_muni":"Santa Luzia do Itanhy","code_state":28,"code_region":2,"year":2020}},{"type":"Polygon","arcs":[[408,-304]],"properties":{"code_muni":2806404,"abbrev_state":"SE","name_state":"Sergipe","name_region":"Nordeste","name_muni":"Santana do São Francisco","code_state":28,"code_region":2,"year":2020}},{"type":"Polygon","arcs":[[409,-285,-278,410,-388,411,-133,412,-325,413,-287]],"properties":{"code_muni":2806503,"abbrev_state":"SE","name_state":"Sergipe","name_region":"Nordeste","name_muni":"Santa Rosa de Lima","code_state":28,"code_region":2,"year":2020}},{"type":"Polygon","arcs":[[-174,414,-400,415,-280,-259,416,-340,417,418,-53,419,420,-361,421,-107]],"properties":{"code_muni":2806602,"abbrev_state":"SE","name_state":"Sergipe","name_region":"Nordeste","name_muni":"Santo Amaro das Brotas","code_state":28,"code_region":2,"year":2020}},{"type":"Polygon","arcs":[[422,-219,-24,423,-22,424,-335]],"properties":{"code_muni":2806701,"abbrev_state":"SE","name_state":"Sergipe","name_region":"Nordeste","name_muni":"São Cristóvão","code_state":28,"code_region":2,"year":2020}},{"type":"Polygon","arcs":[[425,-251,426,-73,427,-71,428,-264]],"properties":{"code_muni":2806800,"abbrev_state":"SE","name_state":"Sergipe","name_region":"Nordeste","name_muni":"São Domingos","code_state":28,"code_region":2,"year":2020}},{"type":"Polygon","arcs":[[429,-115,-269,430,-233,431,-231,432,-378]],"properties":{"code_muni":2806909,"abbrev_state":"SE","name_state":"Sergipe","name_region":"Nordeste","name_muni":"São Francisco","code_state":28,"code_region":2,"year":2020}},{"type":"Polygon","arcs":[[433,-316,434,-310,-393,-321,435,-319,436,-153]],"properties":{"code_muni":2807006,"abbrev_state":"SE","name_state":"Sergipe","name_region":"Nordeste","name_muni":"São Miguel do Aleixo","code_state":28,"code_region":2,"year":2020}},{"type":"Polygon","arcs":[[437,-373,438,-383,439,-244,440,-350,441,-357]],"properties":{"code_muni":2807105,"abbrev_state":"SE","name_state":"Sergipe","name_region":"Nordeste","name_muni":"Simão Dias","code_state":28,"code_region":2,"year":2020}},{"type":"Polygon","arcs":[[442,-327,-139,443,-396,444,-92,445]],"properties":{"code_muni":2807204,"abbrev_state":"SE","name_state":"Sergipe","name_region":"Nordeste","name_muni":"Siriri","code_state":28,"code_region":2,"year":2020}},{"type":"Polygon","arcs":[[446,-1,-14,-113,-376]],"properties":{"code_muni":2807303,"abbrev_state":"SE","name_state":"Sergipe","name_region":"Nordeste","name_muni":"Telha","code_state":28,"code_region":2,"year":2020}},{"type":"Polygon","arcs":[[447,448,449,-197,-384,450,-371]],"properties":{"code_muni":2807402,"abbrev_state":"SE","name_state":"Sergipe","name_region":"Nordeste","name_muni":"Tobias Barreto","code_state":28,"code_region":2,"year":2020}},{"type":"Polygon","arcs":[[451,-449,452,-119,453,-199]],"properties":{"code_muni":2807501,"abbrev_state":"SE","name_state":"Sergipe","name_region":"Nordeste","name_muni":"Tomar do Geru","code_state":28,"code_region":2,"year":2020}},{"type":"Polygon","arcs":[[-31,454,-202,455,-122,-184,456,-30,457,458]],"properties":{"code_muni":2807600,"abbrev_state":"SE","name_state":"Sergipe","name_region":"Nordeste","name_muni":"Umbaúba","code_state":28,"code_region":2,"year":2020}}]}},"arcs":[[[-36.9434241,-10.2275439],[-36.8825718,-10.1474604]],[[-36.8825718,-10.1474604],[-36.8943792,-10.1395267],[-36.9114192,-10.1387824],[-36.9179656,-10.1247048]],[[-36.9179656,-10.1247048],[-36.9263106,-10.1265504],[-36.9346917,-10.1206594],[-36.9399494,-10.1553446],[-36.9434241,-10.2275439]],[[-37.0169026,-10.1910129],[-37.0573992,-10.1810895],[-37.1504675,-10.1631679]],[[-37.1504675,-10.1631679],[-37.154725,-10.1843631],[-37.1377575,-10.1934431],[-37.136522,-10.2002961],[-37.1484434,-10.2169716],[-37.150998,-10.2358117],[-37.1434513,-10.2553968],[-37.1398855,-10.2651256],[-37.1378525,-10.2742795],[-37.1448457,-10.2840721],[-37.1505216,-10.2948275],[-37.1492711,-10.3225567],[-37.1641115,-10.3397513]],[[-37.1641115,-10.3397513],[-37.1606096,-10.3432]],[[-37.1606096,-10.3432],[-37.1568948,-10.3446051],[-37.1547127,-10.3448818],[-37.1537122,-10.3559517],[-37.1561816,-10.3581976],[-37.1570438,-10.3628597],[-37.1544679,-10.3632216],[-37.1533397,-10.3673621],[-37.1462081,-10.3623168],[-37.1384166,-10.3603157],[-37.1354682,-10.3623168],[-37.1289114,-10.3731312]],[[-37.1289114,-10.3731312],[-37.1236463,-10.373813]],[[-37.1236463,-10.373813],[-37.1149992,-10.3706941],[-37.1128328,-10.3728979],[-37.1111706,-10.3728232],[-37.1077715,-10.3698723],[-37.0899171,-10.3576207],[-37.0663657,-10.3302105],[-37.0471746,-10.334651],[-37.033882,-10.3287093],[-37.0261214,-10.330342]],[[-37.0261214,-10.330342],[-37.018091,-10.3321046]],[[-37.018091,-10.3321046],[-37.0093454,-10.3023146]],[[-37.0093454,-10.3023146],[-36.9561462,-10.2899791],[-36.9337251,-10.2761459]],[[-36.9337251,-10.2761459],[-36.9523737,-10.2665204],[-36.9290282,-10.2228287]],[[-36.9290282,-10.2228287],[-36.9434241,-10.2275439]],[[-36.9434241,-10.2275439],[-36.9611888,-10.2356638],[-36.9715941,-10.2045478],[-36.9835222,-10.1956461],[-36.9947943,-10.1776004],[-37.0169026,-10.1910129]],[[-37.0352839,-10.875191],[-37.033909,-10.8700838]],[[-37.033909,-10.8700838],[-37.0373343,-10.8665085],[-37.0507573,-10.8624992],[-37.058636,-10.8659569],[-37.0660589,-10.8763176]],[[-37.0660589,-10.8763176],[-37.0677388,-10.876753]],[[-37.0677388,-10.876753],[-37.0704552,-10.8738594],[-37.0723273,-10.8657177],[-37.0774302,-10.8628571],[-37.0818128,-10.8625048],[-37.09252,-10.8742505]],[[-37.09252,-10.8742505],[-37.1034334,-10.8766412],[-37.1021439,-10.8925518],[-37.1075174,-10.9047974]],[[-37.1075174,-10.9047974],[-37.0913904,-10.9409634]],[[-37.0913904,-10.9409634],[-37.1391436,-11.0628592],[-37.1491445,-11.0557974]],[[-37.1491445,-11.0557974],[-37.1555754,-11.0546978],[-37.1584154,-11.0556552],[-37.1700588,-11.0713828],[-37.1734825,-11.0786082],[-37.1734366,-11.081582],[-37.1705349,-11.0860752],[-37.1621307,-11.0938163]],[[-37.1621307,-11.0938163],[-37.1663878,-11.1053588]],[[-37.1663878,-11.1053588],[-37.1655371,-11.1433202],[-37.154509,-11.1616028]],[[-37.154509,-11.1616028],[-37.1439824,-11.1338714],[-37.1257321,-11.1030674],[-37.0633185,-11.0128537],[-37.0344921,-10.9778364],[-37.0346202,-10.9572985]],[[-37.0346202,-10.9572985],[-37.0398453,-10.9257943],[-37.0434926,-10.8897514]],[[-37.0434926,-10.8897514],[-37.0352839,-10.875191]],[[-37.6658784,-11.3458372],[-37.664869,-11.3326605]],[[-37.664869,-11.3326605],[-37.6751311,-11.3441546],[-37.6658784,-11.3458372]],[[-37.6805628,-11.3185331],[-37.6762707,-11.3239784]],[[-37.6762707,-11.3239784],[-37.6738433,-11.3221708]],[[-37.6738433,-11.3221708],[-37.6705363,-11.3087478],[-37.6762566,-11.3005367],[-37.6824756,-11.3125394],[-37.6830953,-11.3162533]],[[-37.6830953,-11.3162533],[-37.6805628,-11.3185331]],[[-37.5461599,-11.1658542],[-37.5965344,-11.2035365]],[[-37.5965344,-11.2035365],[-37.602861,-11.213632]],[[-37.602861,-11.213632],[-37.6342391,-11.2198925],[-37.6606953,-11.2188828]],[[-37.6606953,-11.2188828],[-37.6633394,-11.2254464],[-37.6682715,-11.2300784],[-37.6712493,-11.2356688],[-37.6686497,-11.2440769],[-37.664,-11.2460824]],[[-37.664,-11.2460824],[-37.6634408,-11.289966]],[[-37.6634408,-11.289966],[-37.6032655,-11.3430164],[-37.5947969,-11.3294231],[-37.5877975,-11.3241619],[-37.5720227,-11.3229727],[-37.5483383,-11.303859],[-37.540127,-11.3029291]],[[-37.540127,-11.3029291],[-37.5232591,-11.2992933]],[[-37.5232591,-11.2992933],[-37.5084687,-11.2753023],[-37.52626,-11.2524864],[-37.536466,-11.222879],[-37.5348593,-11.2006075],[-37.5361894,-11.1948614],[-37.5415205,-11.1860613],[-37.5455428,-11.1856995],[-37.547671,-11.1856038],[-37.5536937,-11.1751118],[-37.5461599,-11.1658542]],[[-37.2781043,-10.7256028],[-37.2849513,-10.7206752]],[[-37.2849513,-10.7206752],[-37.2982158,-10.7314472],[-37.3112797,-10.7326122],[-37.3317637,-10.7259179],[-37.3345522,-10.7220599],[-37.3363221,-10.7217955]],[[-37.3363221,-10.7217955],[-37.3617157,-10.7385046]],[[-37.3617157,-10.7385046],[-37.3960523,-10.8098415],[-37.4041994,-10.8300324]],[[-37.4041994,-10.8300324],[-37.4027143,-10.8398249],[-37.3877338,-10.8510634],[-37.3635956,-10.8471434],[-37.3393789,-10.8472685],[-37.3291011,-10.8334353]],[[-37.3291011,-10.8334353],[-37.3227453,-10.832124],[-37.3183708,-10.8345427]],[[-37.3183708,-10.8345427],[-37.3183587,-10.8321481]],[[-37.3183587,-10.8321481],[-37.2445086,-10.7783836]],[[-37.2445086,-10.7783836],[-37.2725273,-10.7528384],[-37.2830605,-10.7317337],[-37.2781043,-10.7256028]],[[-36.8650479,-10.7411118],[-36.8685278,-10.743917],[-36.871684,-10.742703],[-36.8762419,-10.738185]],[[-36.8762419,-10.738185],[-36.8860332,-10.7545227],[-36.899418,-10.7725715],[-36.9591754,-10.8072664],[-36.9684384,-10.832886],[-36.9840592,-10.8318861],[-36.9832695,-10.8489565],[-37.0280467,-10.8852105],[-37.0398173,-10.8840954]],[[-37.0398173,-10.8840954],[-37.0434926,-10.8897514]],[[-37.0346202,-10.9572985],[-37.0260538,-10.9514307],[-37.0079139,-10.9211953],[-36.9530599,-10.8515135],[-36.9316021,-10.8320046],[-36.9137943,-10.8083553],[-36.8527467,-10.7442257]],[[-36.8527467,-10.7442257],[-36.8650479,-10.7411118]],[[-37.5461599,-11.1658542],[-37.5429996,-11.1516591],[-37.5530872,-11.1401137],[-37.5380677,-11.092648],[-37.5287229,-11.0538879],[-37.531008,-10.9962223]],[[-37.531008,-10.9962223],[-37.5685133,-11.0254575],[-37.5651514,-11.0400518],[-37.622419,-11.0674753]],[[-37.622419,-11.0674753],[-37.6147544,-11.0696008]],[[-37.6147544,-11.0696008],[-37.6237338,-11.0881261],[-37.6330279,-11.0814545],[-37.6495457,-11.1088792],[-37.6467198,-11.1261992],[-37.7067905,-11.1743166]],[[-37.7067905,-11.1743166],[-37.702839,-11.1845073]],[[-37.702839,-11.1845073],[-37.7055724,-11.191311]],[[-37.7055724,-11.191311],[-37.7045474,-11.1918161]],[[-37.7045474,-11.1918161],[-37.6914622,-11.1712376],[-37.6798542,-11.1897078],[-37.6704119,-11.1830264],[-37.6383792,-11.1987046],[-37.6070508,-11.1997581]],[[-37.6070508,-11.1997581],[-37.5965344,-11.2035365]],[[-36.4861898,-10.5363835],[-36.4330304,-10.5159456],[-36.4087988,-10.5126924],[-36.3959408,-10.4968722],[-36.403575,-10.486978],[-36.4276286,-10.4335147],[-36.4515099,-10.4136702],[-36.4630962,-10.4084796],[-36.4894107,-10.4245273]],[[-36.4894107,-10.4245273],[-36.4840973,-10.4371604],[-36.5113225,-10.4455713],[-36.5285121,-10.4663984]],[[-36.5285121,-10.4663984],[-36.5855626,-10.4997831],[-36.4994128,-10.512986]],[[-36.4994128,-10.512986],[-36.4846403,-10.5286229],[-36.4861898,-10.5363835]],[[-37.5944319,-10.6936613],[-37.5853413,-10.7143676]],[[-37.5853413,-10.7143676],[-37.5879724,-10.7222198],[-37.5600188,-10.7573246]],[[-37.5600188,-10.7573246],[-37.5662945,-10.7663856],[-37.5649723,-10.7707414],[-37.557882,-10.7815553]],[[-37.557882,-10.7815553],[-37.5325049,-10.7845132],[-37.5277757,-10.7897164],[-37.5171858,-10.8036176],[-37.5245675,-10.8195577],[-37.5041847,-10.8277803]],[[-37.5041847,-10.8277803],[-37.4885362,-10.8368264]],[[-37.4885362,-10.8368264],[-37.4793157,-10.8406723],[-37.4570197,-10.8707181],[-37.4588441,-10.8795797],[-37.4557697,-10.881748]],[[-37.4557697,-10.881748],[-37.4021619,-10.8249727]],[[-37.4021619,-10.8249727],[-37.431412,-10.831316],[-37.4491399,-10.7897237],[-37.451835,-10.7692211],[-37.4485977,-10.7479357],[-37.4545514,-10.7267486],[-37.4686919,-10.7094855],[-37.4798232,-10.7005519],[-37.4847873,-10.6975536]],[[-37.4847873,-10.6975536],[-37.5007974,-10.688531]],[[-37.5007974,-10.688531],[-37.5325904,-10.6886938],[-37.5486375,-10.6978415],[-37.5680543,-10.6896572],[-37.5864892,-10.6808928],[-37.5944319,-10.6936613]],[[-36.9179656,-10.1247048],[-36.9309567,-10.098076],[-36.9456955,-10.0873628],[-36.9483778,-10.0695783]],[[-36.9483778,-10.0695783],[-36.9908867,-10.0851292],[-37.0082161,-10.104067],[-37.0335647,-10.1292303],[-37.0471992,-10.124569],[-37.0616461,-10.1352656]],[[-37.0616461,-10.1352656],[-37.1503834,-10.1631198]],[[-37.1503834,-10.1631198],[-37.0575196,-10.1810599],[-37.0169026,-10.1910129]],[[-37.6659305,-9.6659176],[-37.6782654,-9.6487809],[-37.7052049,-9.634498],[-37.7469947,-9.6249209],[-37.7861268,-9.6389131],[-37.7915152,-9.6228227],[-37.807068,-9.6101047],[-37.8182483,-9.5928939],[-37.8331106,-9.5948864],[-37.8375369,-9.5832826],[-37.8861699,-9.5501668],[-37.8924655,-9.5397968],[-37.9171436,-9.5489542],[-37.9562952,-9.5340827],[-37.990888,-9.5262324],[-38.0032899,-9.5150299],[-38.0226164,-9.5406648],[-38.0209014,-9.560914],[-38.0420267,-9.5735107],[-38.037948,-9.5819728],[-38.0617083,-9.5911381],[-38.0525472,-9.605277],[-38.0558708,-9.6142418],[-38.0488721,-9.6323926],[-38.0166551,-9.6388738],[-38.0089614,-9.6490583],[-38.0207572,-9.660197],[-38.0322192,-9.6606865],[-38.0343001,-9.6867161],[-38.0450383,-9.6974549],[-38.038619,-9.7500946],[-38.0246019,-9.777445],[-38.020426,-9.797863],[-37.9999705,-9.8143261],[-37.9954442,-9.8460787],[-38.007183,-9.8687177],[-37.9951654,-9.8784874],[-37.9921235,-9.8943078],[-38.0000359,-9.9087148],[-37.9754164,-9.9367318],[-37.9554324,-9.9429999],[-37.9306244,-9.9351035],[-37.9079333,-9.9107439],[-37.902057,-9.9189257]],[[-37.902057,-9.9189257],[-37.8771254,-9.9085491],[-37.8713699,-9.8895559],[-37.8709562,-9.8680266],[-37.8536357,-9.778636],[-37.8440311,-9.7751647],[-37.8439952,-9.7491929],[-37.8347503,-9.7212965],[-37.8310902,-9.7032745],[-37.6659305,-9.6659176]],[[-37.1236463,-10.373813],[-37.12517,-10.3778572]],[[-37.12517,-10.3778572],[-37.1294809,-10.3799541],[-37.1320142,-10.3819233],[-37.1293212,-10.3857552],[-37.1098745,-10.4000821],[-37.1099703,-10.4022854],[-37.1108963,-10.4027325],[-37.1157181,-10.4068624],[-37.1149304,-10.4088741]],[[-37.1149304,-10.4088741],[-37.1118064,-10.4121312]],[[-37.1118064,-10.4121312],[-37.1115509,-10.416176],[-37.1112529,-10.4195182],[-37.113222,-10.4333012],[-37.1267326,-10.4453399],[-37.1371291,-10.4537536]],[[-37.1371291,-10.4537536],[-37.1386694,-10.4701314]],[[-37.1386694,-10.4701314],[-37.1334324,-10.4726778],[-37.1305336,-10.4724696],[-37.1268021,-10.4752883],[-37.122478,-10.4757527]],[[-37.122478,-10.4757527],[-37.1027153,-10.5061496],[-37.102427,-10.5305887],[-37.0803737,-10.5273737],[-37.0650315,-10.5304766],[-37.0732313,-10.5566935],[-37.0754094,-10.5882274],[-37.0684428,-10.5907097],[-37.0653358,-10.5927917],[-37.0657682,-10.6000306],[-37.0666971,-10.6093674]],[[-37.0666971,-10.6093674],[-37.071822,-10.6150688]],[[-37.071822,-10.6150688],[-37.0361927,-10.6255813],[-37.0112606,-10.6413017]],[[-37.0112606,-10.6413017],[-36.9755294,-10.5416351],[-36.9777728,-10.5301938],[-36.9563501,-10.5237373],[-36.9350043,-10.4494959]],[[-36.9350043,-10.4494959],[-36.9466153,-10.4445472],[-36.9490816,-10.4423531],[-36.9612852,-10.442273],[-36.9675471,-10.4242399],[-36.9841869,-10.3978469],[-36.978998,-10.3713898],[-36.9953335,-10.3584015],[-37.0033411,-10.3290777],[-37.0151282,-10.3307112]],[[-37.0151282,-10.3307112],[-37.0160731,-10.332553],[-37.0261214,-10.330342]],[[-37.7656072,-10.1962121],[-37.7470908,-10.2380727],[-37.7591633,-10.2535116],[-37.7488597,-10.2643236],[-37.7503827,-10.2894991],[-37.768662,-10.2891961],[-37.7451248,-10.3135839],[-37.7433128,-10.3383907],[-37.7786833,-10.3431919],[-37.8076254,-10.3675035],[-37.839048,-10.3788204],[-37.8432688,-10.403109],[-37.853109,-10.4062775],[-37.8527055,-10.4387027],[-37.820987,-10.4836401],[-37.8109991,-10.5163822]],[[-37.8109991,-10.5163822],[-37.8052624,-10.5127298],[-37.7959512,-10.5103144],[-37.7891139,-10.5122039],[-37.7846142,-10.5122039],[-37.7794131,-10.5108695],[-37.7558235,-10.5099345],[-37.7397724,-10.5139278],[-37.7263705,-10.5108695],[-37.7226499,-10.5100709]],[[-37.7226499,-10.5100709],[-37.6810774,-10.4808625],[-37.6246926,-10.4121594],[-37.5755312,-10.3705491]],[[-37.5755312,-10.3705491],[-37.5770116,-10.3669454]],[[-37.5770116,-10.3669454],[-37.5778493,-10.3291163],[-37.6114311,-10.2774942],[-37.5966075,-10.250481]],[[-37.5966075,-10.250481],[-37.6045362,-10.2432585]],[[-37.6045362,-10.2432585],[-37.6037497,-10.2411079],[-37.6087252,-10.2419906],[-37.61025,-10.2455055],[-37.6126575,-10.2458747],[-37.6156427,-10.2442857],[-37.6232183,-10.2443981],[-37.641098,-10.2335002],[-37.6539659,-10.2179889],[-37.6742447,-10.2061305],[-37.6933445,-10.2080734],[-37.6961778,-10.2051923],[-37.7001571,-10.1949893],[-37.721184,-10.1878265],[-37.732393,-10.19439],[-37.7420198,-10.1954509],[-37.7499307,-10.1976634],[-37.7656072,-10.1962121]],[[-37.0112606,-10.6413017],[-37.0113155,-10.6757627]],[[-37.0113155,-10.6757627],[-36.9745622,-10.6852006],[-36.9166333,-10.6855687]],[[-36.9166333,-10.6855687],[-36.9189915,-10.6916811],[-36.9196329,-10.6969635],[-36.9121621,-10.7050192],[-36.9048365,-10.6968708],[-36.9030402,-10.6923],[-36.8997862,-10.6926433]],[[-36.8997862,-10.6926433],[-36.9011031,-10.69185]],[[-36.9011031,-10.69185],[-36.9094352,-10.6767976],[-36.9235489,-10.6768659]],[[-36.9235489,-10.6768659],[-36.9247305,-10.6735643],[-36.9292869,-10.6645317],[-36.9313048,-10.657421],[-36.9485211,-10.6504544],[-36.9638156,-10.6465787],[-36.9659776,-10.6409253],[-36.9688893,-10.6309563],[-36.9919471,-10.631629],[-37.0112606,-10.6413017]],[[-36.8513584,-10.2739351],[-36.8444497,-10.2619036]],[[-36.8444497,-10.2619036],[-36.848501,-10.2402758],[-36.8677089,-10.2281986]],[[-36.8677089,-10.2281986],[-36.9290282,-10.2228287]],[[-36.9337251,-10.2761459],[-36.9358844,-10.3066811],[-36.9026627,-10.3242115]],[[-36.9026627,-10.3242115],[-36.880912,-10.2968449],[-36.8676388,-10.2872755],[-36.8513584,-10.2739351]],[[-37.7283626,-11.4020826],[-37.733426,-11.4024859]],[[-37.733426,-11.4024859],[-37.7404971,-11.4076407],[-37.7473008,-11.4114882],[-37.7496925,-11.4002725],[-37.7522773,-11.4018026],[-37.7575212,-11.4055016]],[[-37.7575212,-11.4055016],[-37.7630495,-11.404597]],[[-37.7630495,-11.404597],[-37.7664094,-11.4083949],[-37.7750116,-11.4155679],[-37.7775429,-11.4170485],[-37.78983,-11.4185655],[-37.8005766,-11.4276366],[-37.8079199,-11.4545796],[-37.8152005,-11.462523],[-37.8203669,-11.4717484],[-37.825689,-11.4750735],[-37.8311395,-11.4806868]],[[-37.8311395,-11.4806868],[-37.8122886,-11.51702],[-37.7896669,-11.5249333],[-37.7589745,-11.5253783],[-37.749361,-11.5386277],[-37.7304166,-11.5380154],[-37.7285327,-11.5482051],[-37.7116031,-11.5529477],[-37.6984173,-11.5634142],[-37.6819641,-11.5625182],[-37.6613297,-11.5461672],[-37.6642002,-11.5319608],[-37.643399,-11.5244019],[-37.6325572,-11.5146392]],[[-37.6325572,-11.5146392],[-37.647605,-11.4920702],[-37.6486149,-11.4841136],[-37.6527085,-11.4825757]],[[-37.6527085,-11.4825757],[-37.6530273,-11.4787156],[-37.6639843,-11.4826089],[-37.6675326,-11.4788635],[-37.67274,-11.4775657],[-37.6735449,-11.4687279],[-37.6742645,-11.4609399],[-37.676239,-11.4489331],[-37.6823171,-11.4434299],[-37.6852247,-11.4377625],[-37.6909578,-11.4326044],[-37.6923705,-11.4241608],[-37.7283626,-11.4020826]],[[-37.2513612,-10.2552265],[-37.2612835,-10.2383829]],[[-37.2612835,-10.2383829],[-37.2873605,-10.2556291],[-37.2581841,-10.2682336],[-37.2560872,-10.2802189],[-37.2425479,-10.2936943]],[[-37.2425479,-10.2936943],[-37.2395249,-10.2971856],[-37.2385563,-10.3015922]],[[-37.2385563,-10.3015922],[-37.2373855,-10.3087131],[-37.2471377,-10.3278107],[-37.2397034,-10.341485],[-37.2397293,-10.3596467],[-37.2282914,-10.3778984],[-37.2115842,-10.3914285],[-37.2069753,-10.4037437],[-37.1903705,-10.4057767],[-37.1823661,-10.4156864],[-37.1747716,-10.4141536],[-37.1609129,-10.4103962],[-37.1511629,-10.416506],[-37.1485871,-10.4154203],[-37.1441804,-10.4167082],[-37.1329615,-10.4055958],[-37.1214872,-10.4049678]],[[-37.1214872,-10.4049678],[-37.1149304,-10.4088741]],[[-37.12517,-10.3778572],[-37.1289114,-10.3731312]],[[-37.1606096,-10.3432],[-37.1693697,-10.3392937]],[[-37.1693697,-10.3392937],[-37.1716475,-10.3376225],[-37.1722436,-10.334557],[-37.1688162,-10.333333],[-37.1723926,-10.3155467],[-37.2099237,-10.2958657],[-37.2288915,-10.2925022],[-37.2426543,-10.2624113],[-37.2513612,-10.2552265]],[[-37.2072713,-10.6075933],[-37.2024293,-10.6157609]],[[-37.2024293,-10.6157609],[-37.1948696,-10.6253698]],[[-37.1948696,-10.6253698],[-37.1802556,-10.6408381],[-37.1790459,-10.6525481],[-37.1936329,-10.668028],[-37.1928695,-10.6780331]],[[-37.1928695,-10.6780331],[-37.1969228,-10.681385]],[[-37.1969228,-10.681385],[-37.1989231,-10.6890458],[-37.202285,-10.6972541],[-37.202823,-10.7156862],[-37.2034989,-10.720472],[-37.2001177,-10.723967],[-37.1918289,-10.7283001],[-37.1791464,-10.7174614],[-37.1598596,-10.7354975],[-37.1613708,-10.751421]],[[-37.1613708,-10.751421],[-37.1510609,-10.7385457],[-37.1425671,-10.7004704],[-37.1215582,-10.7027312],[-37.1154998,-10.6849315]],[[-37.1154998,-10.6849315],[-37.0901522,-10.65454],[-37.0891155,-10.6482602]],[[-37.0891155,-10.6482602],[-37.0943087,-10.6386121]],[[-37.0943087,-10.6386121],[-37.0999885,-10.6446277],[-37.1270804,-10.648041],[-37.142365,-10.6445467],[-37.1433828,-10.6252299],[-37.1504959,-10.6208492],[-37.1779014,-10.6254765],[-37.2072713,-10.6075933]],[[-37.3892485,-11.0549116],[-37.3888122,-11.0529643]],[[-37.3888122,-11.0529643],[-37.4382073,-11.0870033],[-37.4372886,-11.1268314],[-37.458977,-11.14633],[-37.5461599,-11.1658542]],[[-37.5232591,-11.2992933],[-37.5106749,-11.3001441]],[[-37.5106749,-11.3001441],[-37.4890286,-11.3022613],[-37.4617827,-11.3111652],[-37.450445,-11.3011038],[-37.4411256,-11.2951876],[-37.4352886,-11.3003519],[-37.4344774,-11.3035969],[-37.4278292,-11.3042498],[-37.4136559,-11.3004396],[-37.3977934,-11.3159436],[-37.3872976,-11.3197874],[-37.3790556,-11.3437633],[-37.3886661,-11.3549629],[-37.3894039,-11.3719985],[-37.4042196,-11.387539]],[[-37.4042196,-11.387539],[-37.4087064,-11.4238657]],[[-37.4087064,-11.4238657],[-37.3996098,-11.436576],[-37.3676918,-11.4586261]],[[-37.3676918,-11.4586261],[-37.3552553,-11.4436993],[-37.3379097,-11.4428246],[-37.3122179,-11.4229911],[-37.3095169,-11.394398],[-37.2996847,-11.3636844],[-37.2820944,-11.326694],[-37.2601649,-11.2895829]],[[-37.2601649,-11.2895829],[-37.3117078,-11.2506732],[-37.3157833,-11.2450441]],[[-37.3157833,-11.2450441],[-37.3291696,-11.2366697],[-37.3304465,-11.2291678],[-37.3275522,-11.2207295]],[[-37.3275522,-11.2207295],[-37.3496641,-11.1968725],[-37.3423857,-11.176527],[-37.3327131,-11.1350273],[-37.3355648,-11.1162354],[-37.3512278,-11.090579],[-37.3677324,-11.0726075],[-37.376724,-11.0718626],[-37.3843536,-11.0562098],[-37.3892485,-11.0549116]],[[-37.2612835,-10.2383829],[-37.3323127,-10.2108491]],[[-37.3323127,-10.2108491],[-37.3836728,-10.2182579],[-37.3935798,-10.2454603],[-37.3927981,-10.2487318],[-37.3971216,-10.2569206]],[[-37.3971216,-10.2569206],[-37.3898493,-10.2762569]],[[-37.3898493,-10.2762569],[-37.3941728,-10.2907417],[-37.3848683,-10.308255],[-37.3874983,-10.3194523],[-37.3782933,-10.3159058],[-37.3684356,-10.3303113],[-37.3594452,-10.3349731],[-37.3607266,-10.336717],[-37.3495628,-10.346549],[-37.3502551,-10.3557818],[-37.3514357,-10.3640822],[-37.3540657,-10.3628469],[-37.3510571,-10.368864],[-37.3491046,-10.371474]],[[-37.3491046,-10.371474],[-37.3436136,-10.3825832]],[[-37.3436136,-10.3825832],[-37.3394411,-10.3780701],[-37.3315858,-10.377176],[-37.3013736,-10.3333886],[-37.2958003,-10.3201236],[-37.2740238,-10.3064939],[-37.2546557,-10.3051779],[-37.2506381,-10.3015694],[-37.2395782,-10.2979945]],[[-37.2395782,-10.2979945],[-37.2425479,-10.2936943]],[[-37.5304611,-10.6457986],[-37.50946,-10.626232],[-37.4745009,-10.5664591]],[[-37.4745009,-10.5664591],[-37.5022592,-10.5279043],[-37.5110176,-10.5060162],[-37.5475392,-10.4618202]],[[-37.5475392,-10.4618202],[-37.558318,-10.4440547]],[[-37.558318,-10.4440547],[-37.5755312,-10.3705491]],[[-37.7226499,-10.5100709],[-37.6885609,-10.5319171]],[[-37.6885609,-10.5319171],[-37.6412101,-10.604553],[-37.5585747,-10.6194508]],[[-37.5585747,-10.6194508],[-37.5304611,-10.6457986]],[[-36.9534541,-10.0228196],[-36.9682085,-9.9869158],[-36.9847058,-9.9831541],[-36.9963712,-9.9723746],[-37.0330877,-9.9875786],[-37.0624048,-9.9825197],[-37.0859392,-9.9516958],[-37.1063049,-9.9394263],[-37.1138859,-9.9256234],[-37.137983,-9.9125261],[-37.1651869,-9.8933632],[-37.1806734,-9.8994168],[-37.193585,-9.896118],[-37.2262513,-9.8977169]],[[-37.2262513,-9.8977169],[-37.2312854,-9.9127161],[-37.2340625,-9.9584728],[-37.2667985,-9.9603085],[-37.2722667,-9.969505],[-37.2652139,-9.9934596],[-37.2809661,-9.9875875],[-37.2853469,-10.0081244],[-37.3006331,-10.003495],[-37.3163232,-10.0088079],[-37.3337532,-10.0046135],[-37.3494122,-10.0126916],[-37.3716268,-10.0075962],[-37.3751998,-10.0250883],[-37.3847264,-10.0303766],[-37.3945406,-10.0496487],[-37.4094228,-10.0514197],[-37.4201057,-10.0622368]],[[-37.4201057,-10.0622368],[-37.4107586,-10.0648633],[-37.3316983,-10.12861],[-37.3463291,-10.1563567],[-37.3141448,-10.1537691]],[[-37.3141448,-10.1537691],[-37.2853698,-10.1558455],[-37.2828041,-10.1641951],[-37.2743061,-10.1684664],[-37.2556491,-10.152123],[-37.2438438,-10.1504174],[-37.2306297,-10.1589599],[-37.2230215,-10.1415635],[-37.2210787,-10.1384935]],[[-37.2210787,-10.1384935],[-37.2222977,-10.1353605]],[[-37.2222977,-10.1353605],[-37.2210596,-10.1333647],[-37.2222986,-10.1251959],[-37.2237768,-10.1183214],[-37.2294886,-10.1149304],[-37.2330118,-10.1131507],[-37.2298253,-10.1048536],[-37.2259653,-10.101631],[-37.2205902,-10.1023044],[-37.2136479,-10.0993535],[-37.2194839,-10.0922636],[-37.2155157,-10.0903637],[-37.2121728,-10.0923238],[-37.2108621,-10.0802148],[-37.2102849,-10.076932],[-37.1994626,-10.0811166],[-37.1871252,-10.0390058],[-37.1940898,-10.0278966],[-37.192588,-10.0262792],[-37.1803291,-10.0345387],[-37.1731218,-10.0493795],[-37.1310834,-10.0541013],[-37.1026797,-10.0510124],[-37.062024,-10.0615473]],[[-37.062024,-10.0615473],[-37.0297839,-10.0569375],[-37.0069411,-10.0377451],[-36.9534541,-10.0228196]],[[-37.0113155,-10.6757627],[-37.0124804,-10.6794513]],[[-37.0124804,-10.6794513],[-37.0056818,-10.6964743],[-36.9888133,-10.7036608],[-36.96126,-10.7040099],[-36.949884,-10.7127352]],[[-36.949884,-10.7127352],[-36.9428094,-10.7061511]],[[-36.9428094,-10.7061511],[-36.9350367,-10.6954731],[-36.9166333,-10.6855687]],[[-37.2201814,-10.1359918],[-37.2210787,-10.1384935]],[[-37.3141448,-10.1537691],[-37.3323127,-10.2108491]],[[-37.3323127,-10.2108491],[-37.2612124,-10.2383751],[-37.2513612,-10.2552265]],[[-37.1693697,-10.3392937],[-37.1641115,-10.3397513]],[[-37.1504675,-10.1631679],[-37.173958,-10.169505]],[[-37.173958,-10.169505],[-37.1764471,-10.1742187],[-37.1818703,-10.1711644],[-37.2047656,-10.1577567],[-37.2201814,-10.1359918]],[[-36.4894107,-10.4245273],[-36.5019299,-10.4311324],[-36.5294169,-10.4308933],[-36.5497289,-10.4259079],[-36.5660077,-10.4322805]],[[-36.5660077,-10.4322805],[-36.5833029,-10.4402391],[-36.5941203,-10.4590874],[-36.5919237,-10.4821032],[-36.6001494,-10.4968425]],[[-36.6001494,-10.4968425],[-36.5831104,-10.4992323],[-36.5285121,-10.4663984]],[[-37.6023638,-11.3888636],[-37.6527085,-11.4825757]],[[-37.6325572,-11.5146392],[-37.6286042,-11.5293432],[-37.6045037,-11.5402862],[-37.590269,-11.5284951],[-37.5785501,-11.5521789],[-37.5627166,-11.5426752],[-37.5357778,-11.5497206],[-37.5170038,-11.5469251],[-37.5164465,-11.5363318],[-37.5032893,-11.5242985],[-37.4554887,-11.5231383],[-37.4108864,-11.4954325],[-37.3676918,-11.4586261]],[[-37.4087064,-11.4238657],[-37.4211413,-11.4302299],[-37.4415665,-11.4263473],[-37.4473188,-11.4422997],[-37.469994,-11.4493634],[-37.4781955,-11.4498037],[-37.4948952,-11.4422255],[-37.5071628,-11.4140298],[-37.5226951,-11.4221423],[-37.5344285,-11.4155534],[-37.5647467,-11.411556],[-37.6023638,-11.3888636]],[[-37.5304611,-10.6457986],[-37.5214587,-10.6550168]],[[-37.5214587,-10.6550168],[-37.5180585,-10.6565709],[-37.5127346,-10.6709092],[-37.5051626,-10.6788632],[-37.5022355,-10.6833487]],[[-37.5022355,-10.6833487],[-37.4847873,-10.6975536]],[[-37.4021619,-10.8249727],[-37.3617157,-10.7385046]],[[-37.3617157,-10.7385046],[-37.3309527,-10.7182635]],[[-37.3309527,-10.7182635],[-37.3204733,-10.6921595]],[[-37.3204733,-10.6921595],[-37.3289039,-10.6536764]],[[-37.3289039,-10.6536764],[-37.3374871,-10.6531671],[-37.3458731,-10.6574136],[-37.3548336,-10.6569072],[-37.3613203,-10.6504108],[-37.3693166,-10.6295872],[-37.3883675,-10.6288372],[-37.3870137,-10.5974071],[-37.3918738,-10.5842585]],[[-37.3918738,-10.5842585],[-37.4226444,-10.5762908]],[[-37.4226444,-10.5762908],[-37.4597452,-10.5943099],[-37.4745009,-10.5664591]],[[-37.7934412,-11.1329744],[-37.8464968,-11.1607612],[-37.87638,-11.1865902],[-37.869359,-11.1989689],[-37.8674576,-11.2213261],[-37.8724489,-11.2173894],[-37.88619,-11.21271],[-37.9047926,-11.2219551],[-37.9221231,-11.2414585],[-37.9361931,-11.2697816]],[[-37.9361931,-11.2697816],[-37.9317027,-11.2795314]],[[-37.9317027,-11.2795314],[-37.914047,-11.2891354],[-37.8996146,-11.275293],[-37.8631424,-11.299791],[-37.8495695,-11.2979486],[-37.8291451,-11.3201962],[-37.7916286,-11.3473244],[-37.7859618,-11.3701103],[-37.7638814,-11.3930247],[-37.7619529,-11.4036211]],[[-37.7619529,-11.4036211],[-37.7575212,-11.4055016]],[[-37.733426,-11.4024859],[-37.7301281,-11.4016243]],[[-37.7301281,-11.4016243],[-37.6922092,-11.3658342],[-37.6921173,-11.308129]],[[-37.6921173,-11.308129],[-37.6634408,-11.289966]],[[-37.664,-11.2460824],[-37.6697638,-11.2393232]],[[-37.6697638,-11.2393232],[-37.6774068,-11.2347032],[-37.6849384,-11.2108605],[-37.6975209,-11.2021108],[-37.7019774,-11.196347]],[[-37.7019774,-11.196347],[-37.7055724,-11.191311]],[[-37.702839,-11.1845073],[-37.7112917,-11.1698303]],[[-37.7112917,-11.1698303],[-37.7179914,-11.161957],[-37.7269937,-11.1649132],[-37.7314948,-11.1556436],[-37.7388927,-11.1532519],[-37.7655282,-11.1420064],[-37.7695986,-11.1352027],[-37.7821215,-11.133019],[-37.790084,-11.1340292],[-37.7934412,-11.1329744]],[[-37.2222977,-10.1353605],[-37.2201814,-10.1359918]],[[-37.173958,-10.169505],[-37.1503834,-10.1631198]],[[-37.1503834,-10.1631198],[-37.0664591,-10.1364347]],[[-37.0664591,-10.1364347],[-37.0679654,-10.0922995],[-37.062024,-10.0615473]],[[-37.4041994,-10.8300324],[-37.4031663,-10.8257562],[-37.4583661,-10.8840157],[-37.4640063,-10.8925316]],[[-37.4640063,-10.8925316],[-37.4855933,-10.9008349],[-37.5036059,-10.9011008],[-37.4556426,-10.9775498]],[[-37.4556426,-10.9775498],[-37.4338447,-10.9871606],[-37.4204158,-11.0035903],[-37.4039436,-11.0299905],[-37.3957926,-11.0456859],[-37.3944519,-11.0476864]],[[-37.3944519,-11.0476864],[-37.391366,-11.0506658],[-37.3913341,-11.0528472],[-37.3888015,-11.0524642],[-37.3892485,-11.0549116]],[[-37.3275522,-11.2207295],[-37.3306168,-11.2308491],[-37.3282119,-11.2379253],[-37.3157833,-11.2450441]],[[-37.2601649,-11.2895829],[-37.2070498,-11.2229464],[-37.1661092,-11.1824984],[-37.154509,-11.1616028]],[[-37.1663878,-11.1053588],[-37.183452,-11.0936954],[-37.2192182,-11.0765138],[-37.2247031,-11.0661306],[-37.2271831,-11.0406083],[-37.259104,-11.0355299],[-37.2820236,-11.0264561],[-37.2991171,-11.0095492],[-37.3028845,-10.9868043],[-37.3251545,-10.9766331],[-37.3350999,-10.9439583],[-37.3303917,-10.9304966]],[[-37.3303917,-10.9304966],[-37.3183708,-10.8345427]],[[-37.3183708,-10.8345427],[-37.3195399,-10.8329739],[-37.3235121,-10.8321212],[-37.3291011,-10.8334353]],[[-36.8770145,-10.411793],[-36.8844444,-10.3962485],[-36.9029969,-10.4025956]],[[-36.9029969,-10.4025956],[-36.9044954,-10.4146148],[-36.9059207,-10.4168729],[-36.9134318,-10.4202681],[-36.9174837,-10.4193873]],[[-36.9174837,-10.4193873],[-36.9350203,-10.4330002],[-36.9332907,-10.4419047],[-36.9350043,-10.4494959]],[[-36.9235489,-10.6768659],[-36.9031984,-10.6621683],[-36.8940856,-10.6610078]],[[-36.8940856,-10.6610078],[-36.7848349,-10.5747912]],[[-36.7848349,-10.5747912],[-36.7940315,-10.5737351],[-36.8107544,-10.5713318],[-36.8080018,-10.5489134],[-36.8323185,-10.5308539],[-36.8374869,-10.5078204],[-36.8459844,-10.4964359],[-36.8621159,-10.4944071],[-36.8691944,-10.4817824],[-36.8698419,-10.4540924],[-36.8753111,-10.4378425],[-36.8578375,-10.4277022],[-36.8601633,-10.4170873],[-36.8642823,-10.4189203],[-36.8770145,-10.411793]],[[-36.7794116,-10.3062259],[-36.8007694,-10.2947798]],[[-36.8007694,-10.2947798],[-36.8117977,-10.2980634]],[[-36.8117977,-10.2980634],[-36.8219115,-10.3000276]],[[-36.8219115,-10.3000276],[-36.807406,-10.3288751]],[[-36.807406,-10.3288751],[-36.8127993,-10.3266258],[-36.8160356,-10.3283253],[-36.821572,-10.327414],[-36.8241209,-10.3292909],[-36.8267359,-10.3290594],[-36.8379878,-10.3350232],[-36.8409327,-10.3404129]],[[-36.8409327,-10.3404129],[-36.8450073,-10.3418112],[-36.845551,-10.3551691],[-36.845936,-10.3703531],[-36.85648,-10.3825651],[-36.891604,-10.3859811],[-36.89687,-10.3920621],[-36.903133,-10.3987621]],[[-36.903133,-10.3987621],[-36.9029969,-10.4025956]],[[-36.9029969,-10.4025956],[-36.8862748,-10.3959525],[-36.8838934,-10.3962304],[-36.8823883,-10.4004675],[-36.8769058,-10.4059155],[-36.8770145,-10.411793]],[[-36.7848349,-10.5747912],[-36.7817502,-10.5744071],[-36.7786017,-10.5772888]],[[-36.7786017,-10.5772888],[-36.7504625,-10.5786215]],[[-36.7504625,-10.5786215],[-36.7512197,-10.5579833],[-36.7514592,-10.5494637],[-36.7514176,-10.5414491],[-36.7344402,-10.5300441],[-36.720612,-10.5271071],[-36.7168761,-10.5135754],[-36.7206837,-10.4873286],[-36.7117423,-10.4475919],[-36.7041292,-10.4256571],[-36.70447,-10.4104111]],[[-36.70447,-10.4104111],[-36.7169253,-10.3847645]],[[-36.7169253,-10.3847645],[-36.7336168,-10.3634443],[-36.7350285,-10.33139],[-36.7491525,-10.3144564],[-36.7682142,-10.314574],[-36.7794116,-10.3062259]],[[-37.6477075,-10.6973414],[-37.6615124,-10.717268],[-37.6637812,-10.7176749],[-37.666847,-10.7107349]],[[-37.666847,-10.7107349],[-37.6698117,-10.7078176]],[[-37.6698117,-10.7078176],[-37.6792385,-10.7167519]],[[-37.6792385,-10.7167519],[-37.678581,-10.7265889],[-37.7075004,-10.7381666],[-37.7095127,-10.754576],[-37.7180014,-10.7697322],[-37.7241773,-10.7858761],[-37.7327519,-10.7973945],[-37.7469481,-10.8038906],[-37.766571,-10.8192182],[-37.8045658,-10.8378814],[-37.8138269,-10.8698319],[-37.8283798,-10.8589943],[-37.8608151,-10.8693198]],[[-37.8608151,-10.8693198],[-37.8733997,-10.8765847]],[[-37.8733997,-10.8765847],[-37.8665827,-10.9004386],[-37.8751513,-10.9202586],[-37.8515493,-10.9345262],[-37.8396088,-10.9551832],[-37.8385194,-10.9748731],[-37.8089928,-11.0105782],[-37.7899533,-11.0122367],[-37.7763931,-11.0058793],[-37.7416961,-11.0106107],[-37.743761,-10.9891812],[-37.7244613,-10.9940462],[-37.709329,-11.0035869],[-37.6922682,-11.0263171],[-37.6753099,-11.0213743],[-37.6681721,-11.0306908],[-37.6426778,-11.0466898],[-37.6358977,-11.0624612],[-37.6252479,-11.066965]],[[-37.6252479,-11.066965],[-37.622419,-11.0674753]],[[-37.531008,-10.9962223],[-37.5196612,-10.9603419],[-37.4556426,-10.9775498]],[[-37.4640063,-10.8925316],[-37.4557697,-10.881748]],[[-37.4885362,-10.8368264],[-37.5091625,-10.8348596]],[[-37.5091625,-10.8348596],[-37.5108716,-10.8424559],[-37.5304185,-10.8399474],[-37.5639025,-10.834852],[-37.5742729,-10.8393889],[-37.6102239,-10.8122765],[-37.6142821,-10.7962813],[-37.6040296,-10.7880116],[-37.6080017,-10.7654644],[-37.6267117,-10.7475753],[-37.6310431,-10.7265038]],[[-37.6310431,-10.7265038],[-37.6182369,-10.7124267]],[[-37.6182369,-10.7124267],[-37.636902,-10.7132416],[-37.6459255,-10.6964149],[-37.6477075,-10.6973414]],[[-37.1613708,-10.751421],[-37.2160125,-10.7652624]],[[-37.2160125,-10.7652624],[-37.2195077,-10.759017],[-37.2213985,-10.7583103],[-37.2250751,-10.7595613],[-37.235064,-10.7667808],[-37.2445086,-10.7783836]],[[-37.2445086,-10.7783836],[-37.3176723,-10.8316402],[-37.2421227,-10.8338717]],[[-37.2421227,-10.8338717],[-37.1877754,-10.8528283],[-37.1770187,-10.8517306],[-37.1737431,-10.8420749],[-37.158584,-10.8338134],[-37.1526072,-10.8323418],[-37.1429592,-10.8319746],[-37.117922,-10.8320264],[-37.1073431,-10.8211981],[-37.1014778,-10.8181255],[-37.0843054,-10.8218746]],[[-37.0843054,-10.8218746],[-37.0648794,-10.8230342]],[[-37.0648794,-10.8230342],[-37.075291,-10.8075479],[-37.0873308,-10.7984015],[-37.0881783,-10.7831768]],[[-37.0881783,-10.7831768],[-37.1029549,-10.7747855],[-37.1223546,-10.7862644],[-37.1381898,-10.7655459],[-37.1529107,-10.7674814],[-37.1613708,-10.751421]],[[-37.6402816,-10.6047205],[-37.6514587,-10.62142],[-37.6551511,-10.6489324],[-37.6663055,-10.6704588],[-37.6639671,-10.6812897],[-37.6604591,-10.7013856],[-37.6663532,-10.7079893],[-37.662941,-10.712018],[-37.6628578,-10.7172813]],[[-37.6628578,-10.7172813],[-37.6477075,-10.6973414]],[[-37.6182369,-10.7124267],[-37.6139302,-10.7140029]],[[-37.6139302,-10.7140029],[-37.6113972,-10.7114863],[-37.605213,-10.7093346],[-37.5986424,-10.6952997],[-37.5953666,-10.6975931]],[[-37.5953666,-10.6975931],[-37.5944319,-10.6936613]],[[-37.5007974,-10.688531],[-37.5022355,-10.6833487]],[[-37.5214587,-10.6550168],[-37.5585747,-10.6194508]],[[-37.5585747,-10.6194508],[-37.6402816,-10.6047205]],[[-36.9157572,-10.3934145],[-36.9125589,-10.3695496],[-36.9007488,-10.3501212],[-36.9026627,-10.3242115]],[[-37.0093454,-10.3023146],[-36.9692866,-10.3374369]],[[-36.9692866,-10.3374369],[-36.9157572,-10.3934145]],[[-37.2963995,-10.6010278],[-37.3261513,-10.6231868],[-37.3323471,-10.6396081]],[[-37.3323471,-10.6396081],[-37.3204733,-10.6921595]],[[-37.3309527,-10.7182635],[-37.3363221,-10.7217955]],[[-37.2849513,-10.7206752],[-37.2826016,-10.7178382]],[[-37.2826016,-10.7178382],[-37.2692149,-10.7151765],[-37.2589259,-10.701732],[-37.2384961,-10.7083608],[-37.2299322,-10.7014095],[-37.2250231,-10.7048202],[-37.2231053,-10.7025397],[-37.2304499,-10.6949608],[-37.2286663,-10.6779448]],[[-37.2286663,-10.6779448],[-37.2341679,-10.6713709]],[[-37.2341679,-10.6713709],[-37.2464671,-10.6477082],[-37.2588999,-10.6492917],[-37.2788819,-10.6264698],[-37.2888478,-10.6147327],[-37.2954602,-10.6108607],[-37.2963995,-10.6010278]],[[-37.0906621,-10.6551354],[-37.1154998,-10.6849315]],[[-37.0881783,-10.7831768],[-37.0704923,-10.7697378],[-37.0705677,-10.7603239]],[[-37.0705677,-10.7603239],[-37.0618424,-10.7144897]],[[-37.0618424,-10.7144897],[-37.0511644,-10.7032081],[-37.0586352,-10.6910963],[-37.0891221,-10.6787393],[-37.0918765,-10.6751737],[-37.0905559,-10.6704384],[-37.0896692,-10.6634581],[-37.0888203,-10.6576475],[-37.0906621,-10.6551354]],[[-37.3945425,-10.5823203],[-37.3918738,-10.5842585]],[[-37.3289039,-10.6536764],[-37.3323471,-10.6396081]],[[-37.2963995,-10.6010278],[-37.2932421,-10.5945323]],[[-37.2932421,-10.5945323],[-37.2645932,-10.586763]],[[-37.2645932,-10.586763],[-37.253663,-10.5957696]],[[-37.253663,-10.5957696],[-37.2480033,-10.594364]],[[-37.2480033,-10.594364],[-37.263165,-10.5773283],[-37.2962275,-10.5765596],[-37.3107157,-10.5656476],[-37.312971,-10.5458791],[-37.3179346,-10.5421828]],[[-37.3179346,-10.5421828],[-37.3213727,-10.5421828]],[[-37.3213727,-10.5421828],[-37.324694,-10.5415692],[-37.3300509,-10.5416763],[-37.3428391,-10.5410043],[-37.3504653,-10.5440333],[-37.3570689,-10.5472377],[-37.3638575,-10.5589838],[-37.3945425,-10.5823203]],[[-37.6622662,-10.0127848],[-37.6688766,-10.0189778]],[[-37.6688766,-10.0189778],[-37.6845657,-10.0283791],[-37.7020584,-10.0137528],[-37.7239739,-10.0283826],[-37.7324491,-10.0207638],[-37.7442221,-10.029937],[-37.7575666,-10.0280365],[-37.7598195,-10.0285184],[-37.7645679,-10.0310171],[-37.769571,-10.031869],[-37.7754131,-10.0332164],[-37.7776153,-10.0319367]],[[-37.7776153,-10.0319367],[-37.7883725,-10.0714104],[-37.8004816,-10.091709],[-37.8018857,-10.1127693],[-37.7915057,-10.1205425],[-37.7855427,-10.1293963],[-37.7779303,-10.1341413],[-37.7728266,-10.1437571]],[[-37.7728266,-10.1437571],[-37.7771522,-10.1337977],[-37.7811966,-10.1281706],[-37.7853441,-10.0949952],[-37.7519482,-10.1074224],[-37.731054,-10.1113216],[-37.7231934,-10.1196016],[-37.6954017,-10.1288137],[-37.6876499,-10.121792],[-37.6615671,-10.1291244],[-37.6457993,-10.1108866],[-37.6300005,-10.1023425],[-37.6224662,-10.1064748],[-37.6106753,-10.0960044],[-37.6025506,-10.101193],[-37.590185,-10.0944198],[-37.5837225,-10.0909711],[-37.5715433,-10.1028086],[-37.5623934,-10.1070962],[-37.5328618,-10.1142266],[-37.5118744,-10.1014726],[-37.4816127,-10.0891691],[-37.4647576,-10.0917479],[-37.4594913,-10.103461],[-37.4447488,-10.1013017],[-37.4360494,-10.0956005],[-37.4326162,-10.0859689],[-37.4293384,-10.0774248],[-37.4185573,-10.0730285],[-37.4148755,-10.077518],[-37.4125298,-10.0685545],[-37.4201057,-10.0622368]],[[-37.4201057,-10.0622368],[-37.4700656,-10.0225294],[-37.5631991,-9.9990073],[-37.5755823,-9.9978715],[-37.5882587,-10.0047689],[-37.5962435,-10.0224163],[-37.6027992,-10.0190608],[-37.6146056,-10.0264554],[-37.6370688,-10.0181598],[-37.6512365,-10.0180666],[-37.6622662,-10.0127848]],[[-37.018091,-10.3321046],[-37.0151282,-10.3307112]],[[-36.9174837,-10.4193873],[-36.9126311,-10.420092],[-36.9055524,-10.4166327],[-36.9029969,-10.4025956]],[[-36.9029969,-10.4025956],[-36.9120156,-10.3972128],[-36.9692866,-10.3374369]],[[-36.8054489,-10.2833318],[-36.7952726,-10.2826024],[-36.7891864,-10.300703],[-36.7794116,-10.3062259]],[[-36.7169253,-10.3847645],[-36.7019122,-10.4057143]],[[-36.7019122,-10.4057143],[-36.6544983,-10.402161],[-36.6326493,-10.4028223],[-36.6077119,-10.4205842],[-36.6001494,-10.4968425]],[[-36.5660077,-10.4322805],[-36.5567435,-10.3770811],[-36.5644881,-10.3583108],[-36.5639456,-10.342966],[-36.5718256,-10.3161472],[-36.5872923,-10.301272]],[[-36.5872923,-10.301272],[-36.6536409,-10.3210714],[-36.6836708,-10.270751]],[[-36.6836708,-10.270751],[-36.7016177,-10.2704043]],[[-36.7016177,-10.2704043],[-36.7130756,-10.2838472],[-36.7324704,-10.2791703],[-36.7380444,-10.2800293],[-36.7406215,-10.2712864],[-36.7575919,-10.2621808],[-36.7868082,-10.2625912],[-36.8054489,-10.2833318]],[[-37.5933654,-10.2518774],[-37.5966075,-10.250481]],[[-37.5770116,-10.3669454],[-37.558318,-10.4440547]],[[-37.5475392,-10.4618202],[-37.4745128,-10.4599091],[-37.421059,-10.4017796],[-37.4103647,-10.4167983]],[[-37.4103647,-10.4167983],[-37.4098331,-10.3554551],[-37.4129778,-10.3462045],[-37.4062723,-10.309552]],[[-37.4062723,-10.309552],[-37.4080001,-10.289865]],[[-37.4080001,-10.289865],[-37.4096738,-10.3046487],[-37.4290202,-10.3035597],[-37.4359536,-10.3033736],[-37.4395354,-10.2971917],[-37.4684808,-10.2862223],[-37.4894741,-10.2831246],[-37.4972744,-10.2945361],[-37.5368856,-10.2785042],[-37.5433698,-10.2660655],[-37.5573654,-10.2648618],[-37.5790007,-10.24695],[-37.58197,-10.2402091],[-37.5933654,-10.2518774]],[[-37.7728266,-10.1437571],[-37.7827599,-10.1764563],[-37.7822309,-10.1855917],[-37.7656072,-10.1962121]],[[-37.6045362,-10.2432585],[-37.5933654,-10.2518774]],[[-37.4080001,-10.289865],[-37.4027973,-10.2897153]],[[-37.4027973,-10.2897153],[-37.4083986,-10.2456535]],[[-37.4083986,-10.2456535],[-37.3971216,-10.2569206]],[[-37.3436136,-10.3825832],[-37.3473584,-10.395814]],[[-37.3473584,-10.395814],[-37.3345993,-10.3999339],[-37.3203403,-10.4343055],[-37.3041042,-10.4285688],[-37.2877707,-10.4538726],[-37.2745684,-10.465872]],[[-37.2745684,-10.465872],[-37.3495206,-10.4916482],[-37.3517607,-10.4906742],[-37.3530464,-10.4867393]],[[-37.3530464,-10.4867393],[-37.3597863,-10.4835447]],[[-37.3597863,-10.4835447],[-37.3468073,-10.5068304]],[[-37.3468073,-10.5068304],[-37.3179346,-10.5421828]],[[-37.2480033,-10.594364],[-37.2449784,-10.5936385]],[[-37.2449784,-10.5936385],[-37.217563,-10.6112645],[-37.2041251,-10.6242142]],[[-37.2041251,-10.6242142],[-37.2024293,-10.6157609]],[[-37.2072713,-10.6075933],[-37.2059652,-10.606773],[-37.2010004,-10.601584],[-37.1876118,-10.5900851],[-37.1707958,-10.5706427],[-37.1808145,-10.5628024],[-37.1396678,-10.5070334]],[[-37.1396678,-10.5070334],[-37.1371291,-10.4537536]],[[-37.1118064,-10.4121312],[-37.1214872,-10.4049678]],[[-37.2385563,-10.3015922],[-37.2395782,-10.2979945]],[[-36.9483778,-10.0695783],[-36.9565986,-10.053734],[-36.9534541,-10.0228196]],[[-37.0664591,-10.1364347],[-37.0616461,-10.1352656]],[[-37.2421227,-10.8338717],[-37.3183587,-10.8321481]],[[-37.3183587,-10.8321481],[-37.3072959,-10.8328739]],[[-37.3072959,-10.8328739],[-37.2978394,-10.8478543],[-37.2718567,-10.8513096],[-37.2670021,-10.8470279],[-37.2443282,-10.8651988],[-37.2195276,-10.8771104],[-37.2058543,-10.8752009],[-37.1973866,-10.8890674],[-37.1738906,-10.8995896],[-37.1629832,-10.9191723],[-37.15446,-10.9220128],[-37.1460463,-10.9286865],[-37.1073824,-10.9148621],[-37.1020624,-10.9171321]],[[-37.1020624,-10.9171321],[-37.1075174,-10.9047974]],[[-37.09252,-10.8742505],[-37.0827801,-10.8628182],[-37.0782456,-10.8626181],[-37.0731829,-10.8649186],[-37.0716166,-10.8667437],[-37.0677388,-10.876753]],[[-37.0660589,-10.8763176],[-37.0591999,-10.8664305],[-37.0524571,-10.8626817],[-37.0394169,-10.8654732],[-37.033909,-10.8700838]],[[-37.033909,-10.8700838],[-37.0283527,-10.8473746]],[[-37.0283527,-10.8473746],[-37.0457813,-10.8258827],[-37.0572626,-10.8229906]],[[-37.0572626,-10.8229906],[-37.0755607,-10.8234059],[-37.0843054,-10.8218746]],[[-36.7019122,-10.4057143],[-36.70447,-10.4104111]],[[-36.7504625,-10.5786215],[-36.7559216,-10.5942452]],[[-36.7559216,-10.5942452],[-36.750104,-10.5949212],[-36.6736517,-10.6287726],[-36.6729468,-10.6307931]],[[-36.6729468,-10.6307931],[-36.6127009,-10.5884047],[-36.5848087,-10.572549],[-36.5762312,-10.5718108],[-36.527295,-10.5512561],[-36.4861898,-10.5363835]],[[-36.4994128,-10.512986],[-36.6001494,-10.4968425]],[[-37.6402816,-10.6047205],[-37.6885609,-10.5319171]],[[-37.6885609,-10.5319171],[-37.695372,-10.5820106],[-37.7049127,-10.592065],[-37.7049459,-10.6068531],[-37.7180808,-10.6167758],[-37.7159819,-10.6337946]],[[-37.7159819,-10.6337946],[-37.7053403,-10.6333905],[-37.7031375,-10.6411456]],[[-37.7031375,-10.6411456],[-37.7003084,-10.6414058],[-37.6936536,-10.6394474],[-37.7068052,-10.6563165],[-37.7088064,-10.6721059],[-37.6967694,-10.6806659],[-37.6926991,-10.6846226],[-37.6829111,-10.6875818],[-37.6739125,-10.7026263],[-37.6832741,-10.7112416],[-37.677443,-10.7154116]],[[-37.677443,-10.7154116],[-37.6698117,-10.7078176]],[[-37.666847,-10.7107349],[-37.6628578,-10.7172813]],[[-37.7045474,-11.1918161],[-37.7019774,-11.196347]],[[-37.6697638,-11.2393232],[-37.6712939,-11.2362036],[-37.6706997,-11.2339159],[-37.6640333,-11.226534],[-37.6606953,-11.2188828]],[[-37.602861,-11.213632],[-37.6070508,-11.1997581]],[[-37.8109991,-10.5163822],[-37.8297061,-10.5456738],[-37.8411986,-10.5550589],[-37.8306984,-10.5734957],[-37.8045784,-10.5990832]],[[-37.8045784,-10.5990832],[-37.8050824,-10.5944981],[-37.7963513,-10.5945794],[-37.7852879,-10.600947],[-37.7685318,-10.611684],[-37.7315585,-10.6301382],[-37.7245183,-10.6407229],[-37.7154294,-10.6451616],[-37.7066001,-10.6330613]],[[-37.7066001,-10.6330613],[-37.7159819,-10.6337946]],[[-36.7786017,-10.5772888],[-36.7810738,-10.5751225],[-36.8940856,-10.6610078]],[[-36.9011031,-10.69185],[-36.8995221,-10.6934356],[-36.901371,-10.6971144]],[[-36.901371,-10.6971144],[-36.8993146,-10.699001],[-36.8971828,-10.7022082],[-36.8918061,-10.7000764],[-36.8838636,-10.6992651],[-36.8809772,-10.6983407],[-36.8788642,-10.6979634],[-36.8731458,-10.7061264],[-36.8713723,-10.7099944],[-36.8687832,-10.7127394],[-36.8701184,-10.7275811],[-36.8690896,-10.733004],[-36.8730169,-10.7355275]],[[-36.8730169,-10.7355275],[-36.8682476,-10.7368557],[-36.8728124,-10.7412349]],[[-36.8728124,-10.7412349],[-36.8650479,-10.7411118]],[[-36.8527467,-10.7442257],[-36.8278915,-10.721452],[-36.7844259,-10.6882294],[-36.7346858,-10.6580667],[-36.6729468,-10.6307931]],[[-36.7559216,-10.5942452],[-36.7647818,-10.5796281],[-36.7786017,-10.5772888]],[[-37.4659557,-9.7480263],[-37.515373,-9.7458745],[-37.5335529,-9.7414619],[-37.5755148,-9.7376698],[-37.5941126,-9.7231758],[-37.6540515,-9.6863334],[-37.6659305,-9.6659176]],[[-37.902057,-9.9189257],[-37.9094492,-9.9398139],[-37.8950483,-9.9428308],[-37.8960726,-9.9542834],[-37.8625558,-9.9885966],[-37.8520777,-9.9904569],[-37.8330471,-10.019417],[-37.8136027,-10.0322597],[-37.7776153,-10.0319367]],[[-37.6688766,-10.0189778],[-37.6650156,-9.9994815]],[[-37.6650156,-9.9994815],[-37.6433822,-9.9848175],[-37.6411997,-9.9789775],[-37.6195568,-9.9740052],[-37.6076194,-9.9685111],[-37.5090324,-9.8182073],[-37.4659557,-9.7480263]],[[-37.9724525,-10.7571364],[-37.9768025,-10.7579327],[-38.0250319,-10.7255192],[-38.0318754,-10.7079966],[-38.0485734,-10.7034538],[-38.067792,-10.7156658],[-38.0983533,-10.7124371],[-38.1435605,-10.7190129],[-38.1833944,-10.7053632],[-38.2098023,-10.7152557],[-38.21464,-10.7472407],[-38.2093598,-10.7604353],[-38.2185886,-10.7832972],[-38.238345,-10.8001848],[-38.2344044,-10.8121278],[-38.2392662,-10.8263759],[-38.2313983,-10.8429341],[-38.2374631,-10.8526815],[-38.2374459,-10.8761491],[-38.2295819,-10.894456],[-38.2281683,-10.9141839],[-38.1990803,-10.9280744],[-38.199445,-10.9397612],[-38.1746581,-10.9403876]],[[-38.1746581,-10.9403876],[-38.1669871,-10.9398276],[-38.1704025,-10.9267574],[-38.1549935,-10.8996475],[-38.1307313,-10.8934139],[-38.123239,-10.8755782],[-38.1266044,-10.8511516],[-38.1179819,-10.8368321],[-38.1081057,-10.8362712],[-38.1024417,-10.8298923],[-38.0605061,-10.8199061],[-38.0322521,-10.8159798],[-38.0278529,-10.814913],[-38.0200553,-10.8152429],[-37.9834868,-10.8210389],[-37.9702121,-10.8248222]],[[-37.9702121,-10.8248222],[-37.9693707,-10.807651]],[[-37.9693707,-10.807651],[-37.9724525,-10.7571364]],[[-37.2262513,-9.8977169],[-37.2384834,-9.896493],[-37.2608778,-9.8507022],[-37.2852199,-9.8306289],[-37.3005087,-9.8315612],[-37.3227763,-9.8197357],[-37.3491033,-9.7898084],[-37.3936189,-9.7792353],[-37.4099011,-9.7626496],[-37.4659557,-9.7480263]],[[-37.6650156,-9.9994815],[-37.6622662,-10.0127848]],[[-36.844931,-10.1887573],[-36.8575582,-10.1765096],[-36.8672375,-10.2057719],[-36.8677089,-10.2281986]],[[-36.8444497,-10.2619036],[-36.8386042,-10.2709763]],[[-36.8386042,-10.2709763],[-36.8397104,-10.280981],[-36.8361992,-10.2864402],[-36.8282147,-10.2942804],[-36.8241263,-10.2941842]],[[-36.8241263,-10.2941842],[-36.8117977,-10.2980634]],[[-36.8007694,-10.2947798],[-36.8054489,-10.2833318]],[[-36.7016177,-10.2704043],[-36.7212114,-10.2645986],[-36.7352144,-10.2419349],[-36.7488807,-10.2281882],[-36.7914666,-10.2272161],[-36.8014388,-10.2131064],[-36.8263467,-10.2111873],[-36.844931,-10.1887573]],[[-37.8733997,-10.8765847],[-37.8790263,-10.8667856]],[[-37.8790263,-10.8667856],[-37.9371254,-10.8810227],[-37.9391105,-10.8898482],[-37.9728905,-10.8803692]],[[-37.9728905,-10.8803692],[-37.9554445,-10.9350077],[-37.9433362,-10.9462809],[-37.9331884,-10.9719136],[-37.9461137,-10.9961484],[-37.9058312,-11.0307488],[-37.8435385,-11.1089518],[-37.7934412,-11.1329744]],[[-37.7112917,-11.1698303],[-37.7067905,-11.1743166]],[[-37.6147544,-11.0696008],[-37.6252479,-11.066965]],[[-37.1969228,-10.681385],[-37.1990237,-10.6772243]],[[-37.1990237,-10.6772243],[-37.2304494,-10.6743089]],[[-37.2304494,-10.6743089],[-37.2286663,-10.6779448]],[[-37.2826016,-10.7178382],[-37.2781043,-10.7256028]],[[-37.2445086,-10.7783836],[-37.235341,-10.7702283],[-37.2356657,-10.767688],[-37.2326957,-10.7646895],[-37.2215895,-10.7583485],[-37.2183808,-10.7598478],[-37.2160125,-10.7652624]],[[-37.3213727,-10.5421828],[-37.3468073,-10.5068304]],[[-37.3597863,-10.4835447],[-37.3606921,-10.4773989],[-37.3668476,-10.4651658],[-37.3688442,-10.4508484],[-37.4103647,-10.4167983]],[[-37.4226444,-10.5762908],[-37.3945425,-10.5823203]],[[-37.071822,-10.6150688],[-37.0758552,-10.632245]],[[-37.0758552,-10.632245],[-37.0928407,-10.6413062]],[[-37.0928407,-10.6413062],[-37.0891155,-10.6482602]],[[-37.0891155,-10.6482602],[-37.0906621,-10.6551354]],[[-37.0618424,-10.7144897],[-37.059446,-10.7418393]],[[-37.059446,-10.7418393],[-37.0159224,-10.7216083],[-36.999863,-10.7321382],[-36.9829933,-10.7361664],[-36.9667122,-10.7298275]],[[-36.9667122,-10.7298275],[-36.949884,-10.7127352]],[[-37.0124804,-10.6794513],[-37.0112606,-10.6413017]],[[-37.3888122,-11.0529643],[-37.3915895,-11.0525919],[-37.3909829,-11.051581],[-37.3944519,-11.0476864]],[[-37.6921173,-11.308129],[-37.6830953,-11.3162533]],[[-37.6738433,-11.3221708],[-37.6753485,-11.3232272]],[[-37.6753485,-11.3232272],[-37.6023638,-11.3888636]],[[-37.4087064,-11.4238657],[-37.4101692,-11.410841],[-37.4042196,-11.387539]],[[-37.5106749,-11.3001441],[-37.540127,-11.3029291]],[[-36.5872923,-10.301272],[-36.6004501,-10.2900603],[-36.6226392,-10.2552517],[-36.6385707,-10.251963],[-36.6577102,-10.2679123],[-36.6836708,-10.270751]],[[-37.2645932,-10.586763],[-37.281343,-10.5872924],[-37.2932421,-10.5945323]],[[-37.2341679,-10.6713709],[-37.2304494,-10.6743089]],[[-37.1990237,-10.6772243],[-37.1928695,-10.6780331]],[[-37.1948696,-10.6253698],[-37.2041251,-10.6242142]],[[-37.2449784,-10.5936385],[-37.253663,-10.5957696]],[[-36.9428094,-10.7061511],[-36.9667122,-10.7298275]],[[-37.059446,-10.7418393],[-37.0705677,-10.7603239]],[[-37.0648794,-10.8230342],[-37.0572626,-10.8229906]],[[-37.0283527,-10.8473746],[-37.0295366,-10.8552385],[-37.0352839,-10.875191]],[[-37.0352839,-10.875191],[-37.0398173,-10.8840954]],[[-36.8762419,-10.738185],[-36.8728124,-10.7412349]],[[-36.8728124,-10.7412349],[-36.8683985,-10.7371877],[-36.8730169,-10.7355275]],[[-36.901371,-10.6971144],[-36.8997485,-10.6956052],[-36.8997862,-10.6926433]],[[-37.3072959,-10.8328739],[-37.3180827,-10.8322024],[-37.3303917,-10.9304966]],[[-37.1621307,-11.0938163],[-37.1722888,-11.0836632],[-37.1736913,-11.0803451],[-37.1728727,-11.0765796],[-37.1610524,-11.0583651],[-37.1570738,-11.0550775],[-37.1491445,-11.0557974]],[[-37.0913904,-10.9409634],[-37.1020624,-10.9171321]],[[-37.6139302,-10.7140029],[-37.6310431,-10.7265038]],[[-37.5091625,-10.8348596],[-37.5041847,-10.8277803]],[[-37.557882,-10.7815553],[-37.5662086,-10.7678289],[-37.5600188,-10.7573246]],[[-37.5853413,-10.7143676],[-37.5953666,-10.6975931]],[[-36.8386042,-10.2709763],[-36.8513584,-10.2739351]],[[-36.9157572,-10.3934145],[-36.9094423,-10.3992329],[-36.9045362,-10.4008202],[-36.903133,-10.3987621]],[[-36.8409327,-10.3404129],[-36.8392658,-10.3359863],[-36.8216288,-10.3274248],[-36.818876,-10.3286672],[-36.8127013,-10.3266273],[-36.807406,-10.3288751]],[[-36.8219115,-10.3000276],[-36.8241263,-10.2941842]],[[-37.3898493,-10.2762569],[-37.3944119,-10.2592019],[-37.4083986,-10.2456535]],[[-37.4027973,-10.2897153],[-37.4062723,-10.309552]],[[-37.3530464,-10.4867393],[-37.3506894,-10.4912781],[-37.2745684,-10.465872]],[[-37.3473584,-10.395814],[-37.3491046,-10.371474]],[[-37.8045784,-10.5990832],[-37.8113881,-10.6255361],[-37.8029907,-10.6521623],[-37.8140471,-10.6698198],[-37.8151346,-10.6848568],[-37.8374288,-10.6854657],[-37.8475103,-10.6992649],[-37.9096224,-10.7155103],[-37.9454812,-10.7565173],[-37.9528941,-10.7501022],[-37.9724525,-10.7571364]],[[-37.9693707,-10.807651],[-37.9728905,-10.8803692]],[[-37.8790263,-10.8667856],[-37.8608151,-10.8693198]],[[-37.6792385,-10.7167519],[-37.677443,-10.7154116]],[[-37.7031375,-10.6411456],[-37.7040961,-10.6348256],[-37.7066001,-10.6330613]],[[-37.1386694,-10.4701314],[-37.1396678,-10.5070334]],[[-37.0943087,-10.6386121],[-37.0928407,-10.6413062]],[[-37.0758552,-10.632245],[-37.0721743,-10.6136275],[-37.0666971,-10.6093674]],[[-37.122478,-10.4757527],[-37.1386694,-10.4701314]],[[-36.844931,-10.1887573],[-36.855749,-10.1648566],[-36.8699454,-10.1471254],[-36.8825718,-10.1474604]],[[-38.1746581,-10.9403876],[-38.1865421,-10.9642065],[-38.1699499,-10.9890633],[-38.1441782,-11.0016573],[-38.128184,-11.0194507],[-38.1205468,-11.0071072],[-38.1019991,-11.0158945],[-38.1024196,-11.0439829],[-38.0809638,-11.0640434],[-38.0804864,-11.0821886],[-38.0884012,-11.1162559],[-38.0656188,-11.1229761],[-38.0712201,-11.143546],[-38.0571807,-11.1720853],[-38.0409465,-11.1785724],[-38.0233545,-11.177767],[-38.0029487,-11.193824],[-37.9822963,-11.1911066],[-37.9764057,-11.2155386],[-37.990642,-11.2279944],[-37.9836406,-11.248288],[-37.9958538,-11.259476],[-37.9922089,-11.2788293],[-38.0022534,-11.2854099],[-38.0013459,-11.3033025],[-37.9801414,-11.3465885]],[[-37.9801414,-11.3465885],[-37.966753,-11.323118],[-37.9566019,-11.3065827],[-37.9503708,-11.3065471],[-37.951238,-11.294978],[-37.938173,-11.285313]],[[-37.938173,-11.285313],[-37.9361931,-11.2697816]],[[-37.9728905,-10.8803692],[-37.9702121,-10.8248222]],[[-37.9317027,-11.2795314],[-37.938173,-11.285313]],[[-37.9801414,-11.3465885],[-37.9786506,-11.3656903],[-37.9528039,-11.3944876],[-37.952243,-11.4053902],[-37.9363691,-11.4216614],[-37.9275578,-11.4013024],[-37.9044605,-11.411759],[-37.907166,-11.4267156],[-37.8991544,-11.4382534],[-37.8823804,-11.4247047],[-37.867592,-11.4424563],[-37.8641796,-11.4668812],[-37.8534577,-11.4674974],[-37.8311395,-11.4806868]],[[-37.7630495,-11.404597],[-37.7619529,-11.4036211]],[[-37.6805628,-11.3185331],[-37.6921173,-11.308129]],[[-37.7301281,-11.4016243],[-37.7283626,-11.4020826]],[[-37.6023638,-11.3888636],[-37.6562475,-11.3404188],[-37.6658784,-11.3458372]],[[-37.664869,-11.3326605],[-37.6753485,-11.3232272]],[[-37.6753485,-11.3232272],[-37.6762707,-11.3239784]]],"bbox":[-38.2392662,-11.5634142,-36.3959408,-9.5150299]}
