{"type":"Topology","objects":{"geometrias":{"type":"GeometryCollection","geometries":[{"type":"Polygon","arcs":[[0,1,2,3,4,5]],"properties":{"code_muni":1400027,"abbrev_state":"RR","name_state":"Roraima","name_region":"Norte","name_muni":"Amajari","code_state":14,"code_region":1,"year":2020}},{"type":"Polygon","arcs":[[6,7,8,9,10,11,12,13,14,-2]],"properties":{"code_muni":1400050,"abbrev_state":"RR","name_state":"Roraima","name_region":"Norte","name_muni":"Alto Alegre","code_state":14,"code_region":1,"year":2020}},{"type":"Polygon","arcs":[[15,-4,16,-14,17,18,19,20,21,22,23,24,25,26,27,28]],"properties":{"code_muni":1400100,"abbrev_state":"RR","name_state":"Roraima","name_region":"Norte","name_muni":"Boa Vista","code_state":14,"code_region":1,"year":2020}},{"type":"Polygon","arcs":[[29,30,-25,31,-23,32,33,34,35]],"properties":{"code_muni":1400159,"abbrev_state":"RR","name_state":"Roraima","name_region":"Norte","name_muni":"Bonfim","code_state":14,"code_region":1,"year":2020}},{"type":"Polygon","arcs":[[-22,36,37,38,39,-33]],"properties":{"code_muni":1400175,"abbrev_state":"RR","name_state":"Roraima","name_region":"Norte","name_muni":"Cantá","code_state":14,"code_region":1,"year":2020}},{"type":"Polygon","arcs":[[40,41,42,43,44,45,46,47,-35,48,-39]],"properties":{"code_muni":1400209,"abbrev_state":"RR","name_state":"Roraima","name_region":"Norte","name_muni":"Caracaraí","code_state":14,"code_region":1,"year":2020}},{"type":"Polygon","arcs":[[49,50,-47]],"properties":{"code_muni":1400233,"abbrev_state":"RR","name_state":"Roraima","name_region":"Norte","name_muni":"Caroebe","code_state":14,"code_region":1,"year":2020}},{"type":"Polygon","arcs":[[51,-41,-38,52,53,-8]],"properties":{"code_muni":1400282,"abbrev_state":"RR","name_state":"Roraima","name_region":"Norte","name_muni":"Iracema","code_state":14,"code_region":1,"year":2020}},{"type":"Polygon","arcs":[[54,-53,-37,-21,55,-19,56,-12,57,-10]],"properties":{"code_muni":1400308,"abbrev_state":"RR","name_state":"Roraima","name_region":"Norte","name_muni":"Mucajaí","code_state":14,"code_region":1,"year":2020}},{"type":"Polygon","arcs":[[58,59,60,-27,61,-30,62,63]],"properties":{"code_muni":1400407,"abbrev_state":"RR","name_state":"Roraima","name_region":"Norte","name_muni":"Normandia","code_state":14,"code_region":1,"year":2020}},{"type":"Polygon","arcs":[[64,-6,65,-29,66,-60,67,68]],"properties":{"code_muni":1400456,"abbrev_state":"RR","name_state":"Roraima","name_region":"Norte","name_muni":"Pacaraima","code_state":14,"code_region":1,"year":2020}},{"type":"Polygon","arcs":[[-43,69,70,71,72,73]],"properties":{"code_muni":1400472,"abbrev_state":"RR","name_state":"Roraima","name_region":"Norte","name_muni":"Rorainópolis","code_state":14,"code_region":1,"year":2020}},{"type":"Polygon","arcs":[[-50,-46,74,75,-71,76]],"properties":{"code_muni":1400506,"abbrev_state":"RR","name_state":"Roraima","name_region":"Norte","name_muni":"São João da Baliza","code_state":14,"code_region":1,"year":2020}},{"type":"Polygon","arcs":[[-45,77,-73,78,-75]],"properties":{"code_muni":1400605,"abbrev_state":"RR","name_state":"Roraima","name_region":"Norte","name_muni":"São Luiz","code_state":14,"code_region":1,"year":2020}},{"type":"Polygon","arcs":[[79,-69,80,-64]],"properties":{"code_muni":1400704,"abbrev_state":"RR","name_state":"Roraima","name_region":"Norte","name_muni":"Uiramutã","code_state":14,"code_region":1,"year":2020}}]}},"arcs":[[[-61.508294,4.3218458],[-61.5130182,4.309344],[-61.560233,4.2518381],[-61.5907936,4.2440633],[-61.6082915,4.2610047],[-61.6319018,4.2410077],[-61.6563455,4.2604507],[-61.703572,4.2546241],[-61.7205174,4.2448921],[-61.7391227,4.2560081],[-61.7755111,4.2465677],[-61.7857875,4.2240709],[-61.8024589,4.2282326],[-61.8188506,4.1676728],[-61.8369094,4.1601752],[-61.8513496,4.1740639],[-61.9230211,4.1557205],[-61.930794,4.1032257],[-61.9932943,4.1748994],[-62.0116301,4.156004],[-62.048292,4.1501791],[-62.0710688,4.1304531],[-62.1071799,4.1148932],[-62.1144089,4.087957],[-62.1480215,4.079067],[-62.1938505,4.0982295],[-62.2527433,4.1293434],[-62.2894047,4.1401718],[-62.3274602,4.134342],[-62.3535752,4.1651765],[-62.3896861,4.1779587],[-62.4377406,4.182952],[-62.464128,4.1726755],[-62.4607982,4.1426772],[-62.5082995,4.1265635],[-62.5424667,4.1093394],[-62.5566338,4.0782324],[-62.5344069,4.0510145],[-62.5624636,4.0343421],[-62.5727387,4.0146226],[-62.6096854,4.0440611],[-62.6463535,4.0462845],[-62.6591264,4.0346255],[-62.6894063,4.0324],[-62.7360743,4.0398967],[-62.766632,4.0123949],[-62.7624645,3.9840665],[-62.7502282,3.9660263],[-62.7619074,3.9415626],[-62.7866308,3.9293446],[-62.788853,3.8932343],[-62.7538558,3.8496323],[-62.7713485,3.8340685],[-62.7433013,3.8082293],[-62.7310745,3.7076765],[-62.7485729,3.672674],[-62.7849625,3.6996214],[-62.7899665,3.7176723],[-62.8102383,3.7326761],[-62.838297,3.7360074],[-62.8530142,3.7118462],[-62.9088508,3.6710069],[-62.9363558,3.627952],[-62.9602431,3.6076781],[-62.9849621,3.6096251],[-63.0032931,3.6246219],[-63.0324655,3.6657298],[-63.0730231,3.6854559],[-63.0635709,3.7048993],[-63.0607966,3.7518393],[-63.0869064,3.778512],[-63.1233002,3.8046204],[-63.2044149,3.8115611],[-63.226632,3.8354512],[-63.2335791,3.8815615],[-63.2052478,3.9487902],[-63.2769102,3.9554548],[-63.2866314,3.9726741],[-63.3385744,3.9568414],[-63.3932972,3.9804495],[-63.4288561,3.9771201],[-63.4521907,3.9554506],[-63.411912,3.9132311],[-63.4527513,3.8582333],[-63.4808048,3.8732317],[-63.4991349,3.8698963],[-63.5124696,3.847403],[-63.5810788,3.8862894],[-63.5930218,3.9040639],[-63.5921946,3.9282267],[-63.6174652,3.9596169],[-63.6435753,3.9785087],[-63.6608031,4.0099055],[-63.6855227,4.0090628],[-63.7005276,3.9443406],[-63.6744156,3.9221172],[-63.6969141,3.9132281],[-63.7388542,3.9151713],[-63.755246,3.9401777],[-63.7966359,3.9326727],[-63.8352416,3.9398981],[-63.8502475,3.9499012],[-63.8910768,3.9304584],[-63.9260804,3.9260098],[-63.9380226,3.9012869],[-63.9685837,3.8785051],[-63.9788572,3.9004528],[-63.9971909,3.9035096],[-64.0019115,3.9329572],[-64.0356965,3.9342612],[-64.0999757,4.0346167],[-64.0963574,4.0535148],[-64.1088643,4.0854566],[-64.1719139,4.128789],[-64.2130234,4.1148963],[-64.276356,4.1437875],[-64.306359,4.1312811],[-64.335516,4.129066],[-64.3863665,4.1371235],[-64.4316372,4.1346238],[-64.4577538,4.1212874],[-64.500253,4.1126755],[-64.5444182,4.1137828],[-64.5605044,4.1015668],[-64.5930328,4.1140617],[-64.6274693,4.1385081],[-64.6585876,4.2115662],[-64.6996964,4.25017],[-64.7805303,4.2865645],[-64.7996932,4.284068],[-64.8216381,4.2585087],[-64.8252507,4.2387848],[-64.8105273,4.1746166],[-64.7321922,4.1201757],[-64.7085843,4.0665584],[-64.6838633,4.0401763],[-64.6738667,4.0046216],[-64.6507269,3.9919033],[-64.6244752,3.9564668],[-64.5802514,3.9282949],[-64.5683615,3.8817554],[-64.5244729,3.8419069],[-64.5091402,3.8149735],[-64.4785826,3.78323],[-64.428583,3.7799007],[-64.3360848,3.730728],[-64.2891404,3.699622],[-64.281083,3.6693447],[-64.246911,3.6276721],[-64.1962509,3.5788961],[-64.187457,3.5554473],[-64.1844002,3.4893145]],[[-64.1844002,3.4893145],[-64.1410819,3.4735115],[-64.0724714,3.4807296],[-64.0005283,3.433506],[-63.9699683,3.4337871],[-63.9552463,3.4476765],[-63.8874693,3.4190661],[-63.8521873,3.4474007],[-63.8230252,3.5185132],[-63.8058009,3.5237907],[-63.7674707,3.5598996],[-63.7616097,3.5632316],[-63.7407983,3.5698977],[-63.7424653,3.5851786],[-63.7310821,3.6257322],[-63.7160755,3.6721179],[-63.7130204,3.6979547],[-63.6977485,3.7132332],[-63.6507977,3.7251825],[-63.6410852,3.7382276],[-63.5910763,3.7385103],[-63.5799651,3.7318422],[-63.5680219,3.7171213],[-63.5555258,3.6904504],[-63.5449636,3.6810096],[-63.5374686,3.6837908],[-63.5102449,3.68712],[-63.487743,3.6671236],[-63.4574701,3.6629549],[-63.448856,3.6476791],[-63.3946929,3.6157296],[-63.3421894,3.609895],[-63.3471912,3.5885122],[-63.3230253,3.5746197],[-63.3052441,3.5812857],[-63.2752447,3.6104582],[-63.2758026,3.685457],[-63.2496853,3.6798985],[-63.1991288,3.6815666],[-63.1863579,3.6732318],[-63.1824671,3.6432347],[-63.155803,3.6226775],[-63.1532995,3.6057346],[-63.1760794,3.5407336],[-63.1744057,3.5235081],[-63.1288553,3.465455],[-63.1035726,3.4426818],[-63.0555211,3.4199021],[-63.0294114,3.3954548],[-63.000512,3.3443561],[-62.9755198,3.3423998],[-62.9596831,3.3168477],[-62.9194065,3.3079519],[-62.8605178,3.27101],[-62.8385772,3.2646253],[-62.8215908,3.2465722],[-62.7935753,3.2373964],[-62.7371902,3.2387931],[-62.6946814,3.2196222],[-62.64136,3.2434917],[-62.5694066,3.229072],[-62.554131,3.2326798],[-62.5241291,3.2157375],[-62.4721802,3.2010117],[-62.456904,3.1860094],[-62.4474629,3.1323978],[-62.4105424,3.1257483],[-62.3502369,3.1551783],[-62.3102341,3.1454592],[-62.2880171,3.152119],[-62.2494035,3.1374038],[-62.2327406,3.1601804],[-62.21468,3.1621227],[-62.1305144,3.2346263],[-62.0721826,3.2515677],[-62.060797,3.2635152],[-62.0171868,3.2490662],[-61.969963,3.2612886],[-61.9571786,3.251017],[-61.9130172,3.2899005],[-61.893575,3.29129],[-61.8685676,3.2682355],[-61.8449618,3.2699003],[-61.8377346,3.3007336],[-61.8238473,3.3221239],[-61.7980143,3.3301756],[-61.7591249,3.3201756],[-61.718567,3.3221227],[-61.7119014,3.3351797],[-61.6818982,3.3221213],[-61.6313416,3.3518422],[-61.5980145,3.3115703],[-61.5513434,3.3129574],[-61.519678,3.3071245],[-61.4863499,3.340456],[-61.4605106,3.3471172],[-61.4391211,3.3482306],[-61.4057866,3.3501779],[-61.3791227,3.3654562],[-61.3494018,3.3537941],[-61.3302311,3.3593453],[-61.3091199,3.3690672],[-61.2677341,3.4001757],[-61.2360647,3.4429593],[-61.2188459,3.449622],[-61.1535635,3.4496206],[-61.1357871,3.434902],[-61.0155087,3.4396216]],[[-61.0155087,3.4396216],[-61.0068986,3.4435086],[-60.9917073,3.4522194]],[[-60.9917073,3.4522194],[-60.9461214,3.48008],[-60.9093303,3.4635118],[-60.8928468,3.4769124],[-60.8010344,3.4848701],[-60.7881719,3.4956314],[-60.7431478,3.4983233],[-60.7238692,3.4787206],[-60.6958695,3.4733512],[-60.666595,3.4544139],[-60.6541783,3.436632],[-60.6243699,3.4259149],[-60.6040655,3.4453357]],[[-60.6040655,3.4453357],[-60.6099287,3.4523392]],[[-60.6099287,3.4523392],[-60.6123993,3.4581884],[-60.6218704,3.4842841],[-60.6091225,3.5017666],[-60.6322497,3.5298749],[-60.7118726,3.5526866],[-60.740398,3.574437],[-60.7687338,3.5665335],[-60.7980939,3.5800054],[-60.8045101,3.6138786],[-60.8243952,3.6187396],[-60.867399,3.6455702],[-60.8739297,3.7010753],[-60.8894239,3.7383098],[-60.878511,3.7597457],[-60.8707608,3.8065184],[-60.8780663,3.8441999],[-60.8983451,3.8665484],[-60.9092622,3.9090166],[-60.9339586,3.939269],[-60.9268399,3.9742618],[-60.9692342,4.0323886],[-61.0053963,4.0423126],[-61.0480659,4.0216394],[-61.0582339,4.0050372],[-61.0583985,4.0021825],[-61.1592365,4.0286014],[-61.1743947,4.03606],[-61.1843929,4.0476648],[-61.203064,4.0607363],[-61.2291194,4.0709115],[-61.2502135,4.0958742],[-61.2490394,4.1026746],[-61.242512,4.1237562],[-61.240456,4.1392873],[-61.2434583,4.1474979],[-61.248313,4.1582906],[-61.2576553,4.1750206],[-61.2473189,4.2115256],[-61.2805971,4.258021],[-61.300628,4.2737825],[-61.3026757,4.2976817],[-61.337296,4.3115942],[-61.3482122,4.3253855],[-61.508294,4.3218458]],[[-64.1844002,3.4893145],[-64.1613243,3.4650144],[-64.1486018,3.4399133],[-64.1470633,3.3713242],[-64.1179405,3.3374253],[-64.1217169,3.2786525],[-64.1369887,3.2724749],[-64.1585604,3.2436811],[-64.154009,3.227871],[-64.1814137,3.1704944],[-64.2202928,3.1511038],[-64.2259345,3.1278415],[-64.2138766,3.0904817],[-64.1579073,3.0465045],[-64.1445778,3.0257303],[-64.1608975,2.9871728],[-64.1188802,2.9856429],[-64.0936071,2.9399107],[-64.0705064,2.9175433],[-64.0781338,2.8799086],[-64.0526367,2.8555536],[-64.0413417,2.8315975],[-64.0146932,2.8121699],[-64.0162406,2.7776129],[-63.9870992,2.7155907],[-64.0069566,2.7094874],[-63.9861536,2.6486687],[-64.0077303,2.6277797],[-64.0101372,2.6046557],[-64.0488205,2.5673909],[-64.0430234,2.4959988],[-64.022951,2.4647513],[-64.0078646,2.4807404],[-63.9766171,2.4649662],[-63.9578394,2.4704371]],[[-63.9578394,2.4704371],[-63.6698678,2.5974163],[-63.6431,2.6212],[-63.6108,2.5905],[-63.5714,2.5915],[-63.5249,2.5729],[-63.4944,2.5915],[-63.4733,2.6155],[-63.4828,2.657],[-63.4665,2.668],[-63.4746,2.7051],[-63.4592,2.7364],[-63.461,2.7614],[-63.4395,2.7803],[-63.3883,2.7569],[-63.3829,2.7569],[-63.3487,2.7768],[-63.3359,2.7746],[-63.3312,2.7751],[-63.3071,2.7727],[-63.3016,2.7756],[-63.2998,2.7745],[-63.2978,2.7753],[-63.2936,2.7777],[-63.2914,2.7786],[-63.2884,2.7815],[-63.2794,2.7895],[-63.278,2.7906],[-63.2685,2.8032],[-63.2642,2.8057],[-63.2614,2.8041],[-63.2579,2.8053],[-63.2393,2.8149],[-63.2324,2.8206],[-63.222,2.8148],[-63.2175,2.8109],[-63.2118,2.8133],[-63.2071,2.8147],[-63.1804,2.8128],[-63.144,2.791],[-63.0978,2.7908],[-63.0741,2.7801],[-63.0586,2.7927],[-63.023,2.7907],[-62.9915,2.7971],[-62.9784,2.7866],[-62.9659,2.7761],[-62.9491,2.7722],[-62.9425,2.7664],[-62.9177,2.7622]],[[-62.9177,2.7622],[-62.9091,2.7628],[-62.9064,2.7592]],[[-62.9064,2.7592],[-62.8944,2.7617],[-62.886,2.7608],[-62.8818,2.762],[-62.867,2.7533],[-62.8677,2.7561],[-62.856374,2.7808824],[-62.8408274,2.754003],[-62.8194447,2.7437345],[-62.8130737,2.7414294],[-62.7944454,2.7235096],[-62.7649249,2.7298023],[-62.6897231,2.7054991],[-62.6642322,2.703004],[-62.6079362,2.7384537],[-62.5877219,2.731262],[-62.5226064,2.7455925],[-62.4857228,2.7698037],[-62.4669032,2.7687943],[-62.4073199,2.7825655],[-62.3760478,2.7744182],[-62.3461202,2.7751022],[-62.2936219,2.7585415],[-62.2225051,2.7551943],[-62.1899581,2.7490737],[-62.0833844,2.7457347],[-62.0348332,2.7292912],[-62.0099584,2.7340712],[-61.9787448,2.6970958],[-61.9504135,2.6862921],[-61.9460721,2.6837925],[-61.937885,2.691268],[-61.8870958,2.6966197],[-61.8769276,2.6934367],[-61.8738292,2.6854288],[-61.8477448,2.6892375],[-61.7953544,2.7046485],[-61.786446,2.7125711],[-61.7743444,2.7151557],[-61.7399767,2.7147969],[-61.7342239,2.7185115],[-61.7335175,2.735456],[-61.7482371,2.7426227],[-61.7407097,2.767122],[-61.7090696,2.7997212],[-61.7224573,2.8134109],[-61.7041943,2.852274],[-61.6279608,2.9335544],[-61.5796764,2.9484051],[-61.5485711,2.9254624],[-61.5232867,2.8957387],[-61.4968984,2.886567],[-61.4715189,2.8930796],[-61.435516,2.868233],[-61.406068,2.8612943],[-61.3802374,2.8376809],[-61.3696747,2.8285115],[-61.3557927,2.7690736],[-61.3357892,2.7612947],[-61.3255111,2.7282378],[-61.2980153,2.7079587],[-61.2929096,2.6731642],[-61.2532927,2.6674062],[-61.2230112,2.6562951],[-61.2136945,2.6820946],[-61.1838507,2.6771307],[-61.1370809,2.7005888],[-61.1330132,2.7203523],[-61.1296798,2.7195204],[-61.1278143,2.6993431]],[[-61.1278143,2.6993431],[-61.1086948,2.6940979],[-61.1024579,2.6946247],[-61.0999519,2.698238],[-61.0981375,2.7052304],[-61.0949065,2.7084845]],[[-61.0949065,2.7084845],[-61.0800058,2.7026518],[-61.0746497,2.6910108],[-61.0346811,2.6779623],[-61.0298806,2.6980295],[-61.0191224,2.6824055],[-61.0074296,2.68477]],[[-61.0074296,2.68477],[-61.0005115,2.6816681]],[[-61.0005115,2.6816681],[-61.0005369,3.4479384]],[[-61.0005369,3.4479384],[-61.0155087,3.4396216]],[[-60.6064009,3.4484557],[-60.6040655,3.4453357]],[[-60.9917073,3.4522194],[-61.0005369,3.4479384]],[[-61.0005115,2.6816681],[-60.984951,2.6735145]],[[-60.984951,2.6735145],[-60.9577314,2.6451832],[-60.9402308,2.6499044],[-60.9196725,2.6318462],[-60.9149573,2.6199037],[-60.9174659,2.5638011],[-60.9443922,2.5212903],[-60.8935636,2.5076784]],[[-60.8935636,2.5076784],[-60.8930079,2.4996278],[-60.8943954,2.491575],[-60.9146791,2.4721312]],[[-60.9146791,2.4721312],[-60.9068957,2.4660198],[-60.8921729,2.4757388],[-60.8699563,2.4621244],[-60.8682861,2.4346299],[-60.836617,2.4376819]],[[-60.836617,2.4376819],[-60.8280055,2.4554585],[-60.8221729,2.5190718],[-60.8243961,2.5468522],[-60.7688438,2.6526833],[-60.7202255,2.7079638],[-60.6946717,2.7282338],[-60.674123,2.7765682],[-60.6710656,2.7990714],[-60.6493964,2.8349031],[-60.6038385,2.8565725],[-60.5682859,2.8849078]],[[-60.5682859,2.8849078],[-60.5410621,2.9151825],[-60.5260597,2.9462879],[-60.5043962,2.9732397],[-60.49717,3.0018475],[-60.4785651,3.0273979],[-60.4527271,3.04185],[-60.4399469,3.0743456],[-60.4177661,3.1012432],[-60.3935605,3.1462918],[-60.3738346,3.1649002],[-60.3860593,3.1862893],[-60.3846718,3.210737],[-60.4088409,3.2551841],[-60.4116187,3.2690687],[-60.3960648,3.3004565]],[[-60.3960648,3.3004565],[-60.3549476,3.3110111],[-60.345785,3.3176752],[-60.3432867,3.3224028]],[[-60.3432867,3.3224028],[-60.3455086,3.3362935],[-60.3282802,3.3590654]],[[-60.3282802,3.3590654],[-60.3213439,3.3690707]],[[-60.3213439,3.3690707],[-60.321614,3.4146264],[-60.3024526,3.4240647],[-60.2993934,3.4390705],[-60.2857838,3.4496245],[-60.3018925,3.4754525],[-60.322454,3.5296215],[-60.3377275,3.5454533],[-60.357177,3.5415632],[-60.3727288,3.5479548],[-60.3816145,3.5574027],[-60.3766204,3.5626788],[-60.3907811,3.5685118],[-60.3957884,3.5726742]],[[-60.3957884,3.5726742],[-60.4102347,3.5801724]],[[-60.4102347,3.5801724],[-60.4506201,3.5801027],[-60.4719815,3.6047443],[-60.4834275,3.6056614],[-60.4904792,3.5832547],[-60.5082895,3.5728753],[-60.5138637,3.5616662],[-60.5281757,3.5542953],[-60.5521726,3.4801791],[-60.5785066,3.4789343],[-60.5985612,3.4572495],[-60.6064009,3.4484557]],[[-59.876335,3.5660106],[-59.9055005,3.5862893],[-59.9435613,3.5604605],[-59.9560637,3.5732335],[-59.9721679,3.5582332],[-60.0157864,3.5432362],[-60.0368896,3.5276744],[-60.0560593,3.5248961],[-60.0832812,3.4935141],[-60.1296687,3.4662884],[-60.1496723,3.463234],[-60.1641141,3.4529548],[-60.1857884,3.417128],[-60.1971694,3.4068501],[-60.2268956,3.4004528],[-60.2952291,3.3871198],[-60.3149538,3.3760163]],[[-60.3149538,3.3760163],[-60.3282802,3.3590654]],[[-60.3432867,3.3224028],[-60.3482804,3.3151784],[-60.3593929,3.3096245],[-60.3960648,3.3004565]],[[-60.5682859,2.8849078],[-60.5619814,2.875797],[-60.5599549,2.8706156],[-60.5385086,2.8494872],[-60.4849535,2.8347194],[-60.4475298,2.8249252],[-60.4172013,2.8068852],[-60.3684499,2.7945953],[-60.3571703,2.792706],[-60.3291717,2.7538448],[-60.338204,2.743666],[-60.3466417,2.7048334],[-60.3569777,2.6884399],[-60.3634463,2.687201],[-60.3757254,2.6807907],[-60.3939762,2.6590099],[-60.3769788,2.6431238],[-60.312446,2.6467306],[-60.2606481,2.6017045],[-60.2317808,2.597586],[-60.2268403,2.5950013],[-60.2250351,2.5954777],[-60.2198712,2.5895254],[-60.2231979,2.5617459],[-60.1951676,2.5410094],[-60.2008957,2.4879267],[-60.1947508,2.446514],[-60.2015046,2.4370102],[-60.1991148,2.3975642],[-60.1813915,2.3873577],[-60.1677495,2.3566417],[-60.205284,2.2944628],[-60.2036426,2.2428238],[-60.1657832,2.2401695],[-60.1507602,2.1923038],[-60.1497849,2.1780022],[-60.1766988,2.144695],[-60.2181754,2.1506658],[-60.2703101,2.0717633],[-60.291531,2.0575204],[-60.2438951,2.0265553],[-60.2379834,2.0368763],[-60.204033,2.0505734],[-60.1654805,2.0367741],[-60.1607034,2.0096266],[-60.1568629,2.0066209]],[[-60.1568629,2.0066209],[-60.156639,1.9996416]],[[-60.156639,1.9996416],[-59.7344442,1.9996341]],[[-59.7344442,1.9996341],[-59.7323643,2.0364962],[-59.7422491,2.0739135],[-59.7217863,2.1035319],[-59.725256,2.1318849],[-59.7395124,2.1466399],[-59.7367199,2.1889136],[-59.7198717,2.2371735],[-59.7403833,2.2928529],[-59.7799175,2.2858909],[-59.8322018,2.3289215],[-59.85415,2.3315042],[-59.8695937,2.3501596],[-59.8989042,2.3628823],[-59.9092359,2.3894709],[-59.892156,2.4279824],[-59.897091,2.4814364],[-59.9205085,2.5078595],[-59.9183798,2.5261456],[-59.9381664,2.5552148],[-59.9422392,2.5841285],[-59.9725051,2.598906],[-59.9644065,2.616958],[-59.97761,2.6431937],[-59.9717548,2.6562624],[-59.9876032,2.6789331],[-59.9929794,2.7339374],[-59.9878145,2.7506605],[-59.9934682,2.7860597],[-59.9870503,2.8029148],[-59.9915128,2.838549],[-59.9788256,2.8945568],[-59.9844012,2.9288344],[-59.9482522,3.0036764],[-59.9623846,3.0168937],[-59.9521582,3.0399082],[-59.9567601,3.0753684],[-59.9388462,3.0999233],[-59.9078985,3.113275],[-59.9194699,3.1320797],[-59.9008141,3.1592082],[-59.9124615,3.190621],[-59.9082813,3.2119422],[-59.8745333,3.2284461],[-59.8814824,3.2579154],[-59.8277937,3.3342234],[-59.810182,3.3767517],[-59.8401305,3.443241],[-59.823652,3.4713776],[-59.8021629,3.4915378],[-59.805161,3.5098028],[-59.8339612,3.5229483],[-59.8450751,3.5448553],[-59.876335,3.5660106]],[[-60.836617,2.4376819],[-60.8468946,2.3985135],[-60.8363516,2.3515543],[-60.8457843,2.3135159],[-60.8907844,2.2837945],[-60.9096827,2.2356488],[-60.9382662,2.2152771]],[[-60.9382662,2.2152771],[-60.9571211,2.1943421],[-61.0159233,2.1450013],[-61.0412325,2.0997489],[-61.0529923,2.0629358],[-61.0325412,2.0082249],[-61.0221179,1.9996312]],[[-61.0221179,1.9996312],[-61.018565,1.9781112],[-60.9781256,1.9457938],[-60.9267823,1.9844944],[-60.8985923,1.9795385],[-60.830843,1.9833143],[-60.7887609,1.9992379],[-60.7424001,1.999479],[-60.7604475,1.9577096],[-60.760369,1.9356224],[-60.7396181,1.8973076],[-60.7070102,1.9022305],[-60.6548339,1.8977658],[-60.6385876,1.8702898],[-60.5918932,1.8529542],[-60.5775325,1.833503],[-60.5751485,1.7904766],[-60.5453947,1.7533925],[-60.5715072,1.7109735],[-60.5369536,1.7086935],[-60.522064,1.7199135],[-60.4930638,1.7097759],[-60.4848654,1.7301115],[-60.4056458,1.7465225],[-60.3891197,1.7369181],[-60.3583027,1.7762539],[-60.3328374,1.7885585],[-60.3021179,1.8274913],[-60.280224,1.837584],[-60.2563519,1.8662984],[-60.2300375,1.8836648],[-60.2233696,1.8915732],[-60.2228645,1.9038657],[-60.211315,1.9086849],[-60.1780586,1.946153],[-60.1670615,1.9667941],[-60.1621167,1.9864055]],[[-60.1621167,1.9864055],[-60.1568629,2.0066209]],[[-61.0221179,1.9996312],[-61.0682094,1.9948457],[-61.098626,1.9843603],[-61.2318219,1.9707287],[-61.2821475,1.9770137],[-61.3325129,1.9938003],[-61.3660637,1.9969443],[-61.4148084,2.0256347],[-61.4486462,2.0097634],[-61.4790075,2.0131042],[-61.5341,1.9889],[-61.5533,1.9682],[-61.5864,1.9603],[-61.6151,1.9384],[-61.6394,1.9413],[-61.7241,1.9373],[-61.7636,1.9502],[-61.8148,1.9323],[-61.874,1.9341],[-61.8956,1.9227],[-61.9584,1.9141],[-62.0142,1.8874],[-62.0385,1.8826],[-62.1063,1.8451],[-62.1429,1.8308],[-62.2426,1.7755],[-62.2882,1.7572],[-62.3603,1.7145],[-62.3988,1.684],[-62.4897,1.6352],[-62.5288,1.6205],[-62.595,1.5868],[-62.6723,1.5346],[-62.7363493,1.5296296]],[[-62.7363493,1.5296296],[-62.7308005,1.499632],[-62.6769036,1.4546309],[-62.6399648,1.4382383],[-62.6202536,1.4037833],[-62.6205211,1.3626934],[-62.6021975,1.3257722],[-62.5869072,1.2554775],[-62.5546935,1.1749041],[-62.5452401,1.1207622],[-62.5210879,1.0838159],[-62.4716209,1.0862816],[-62.4791091,1.0479361],[-62.4746958,1.0162997],[-62.4458079,0.9768413],[-62.4427354,0.9585339],[-62.4671893,0.9237996],[-62.4846856,0.8760203],[-62.4810502,0.8426722],[-62.4660739,0.8290772],[-62.4585786,0.7996711],[-62.4630261,0.7768688],[-62.5004942,0.7479483],[-62.5333109,0.7013007],[-62.5382905,0.6751955],[-62.5188492,0.5937719],[-62.5330086,0.5088084],[-62.5229646,0.485566],[-62.5186613,0.4437009],[-62.485246,0.4540804],[-62.4585682,0.4176914],[-62.4463713,0.3791138],[-62.4668891,0.3329678],[-62.4585849,0.3134941],[-62.4666294,0.2679859],[-62.4544158,0.2435529],[-62.4527436,0.2074142],[-62.4385598,0.1948955],[-62.4241258,0.1532502],[-62.4281258,0.1281387],[-62.4092644,0.0750728],[-62.3658734,0.0557716],[-62.336604,0.021567],[-62.326538,-0.0016922],[-62.3197948,-0.0963412],[-62.2940436,-0.1195515],[-62.2778209,-0.1498469],[-62.241564,-0.1704673],[-62.2530225,-0.2129053],[-62.253389,-0.2700021],[-62.2421259,-0.2992467],[-62.2193096,-0.3056569],[-62.1871572,-0.3278407],[-62.1967345,-0.3628754],[-62.2081686,-0.367615],[-62.2174527,-0.4040666],[-62.232796,-0.4244911],[-62.2804137,-0.4507057],[-62.2927274,-0.5036722],[-62.3072399,-0.5081186],[-62.3123217,-0.5759385],[-62.2906262,-0.5984635],[-62.2867171,-0.632373],[-62.3080217,-0.6577317],[-62.3301081,-0.6581714],[-62.3558105,-0.671608],[-62.3674645,-0.6944991],[-62.4050896,-0.7222027],[-62.4271271,-0.6897596],[-62.4866273,-0.6814673],[-62.5082918,-0.7142492],[-62.4949568,-0.7506342],[-62.5102377,-0.7589685],[-62.5010732,-0.7814661],[-62.4616298,-0.8017453],[-62.4332906,-0.8039684],[-62.3957973,-0.8203567],[-62.3760672,-0.8364693],[-62.3649621,-0.8773045],[-62.3127423,-0.930355],[-62.2721852,-0.9520217],[-62.2591241,-0.9759149],[-62.2274549,-0.9734411],[-62.2038518,-0.9828517],[-62.1999604,-1.0003542],[-62.1719075,-1.0059124],[-62.1430091,-1.0373036],[-62.1255177,-1.0373019],[-62.1113467,-1.0603609],[-62.1182904,-1.0764676],[-62.0996815,-1.0967433],[-62.062179,-1.0997992],[-62.0174603,-1.141744],[-61.9894005,-1.2017426],[-61.9880169,-1.216741],[-61.966905,-1.2428579],[-61.9499562,-1.2970205],[-61.9274584,-1.3206319],[-61.906898,-1.3561901],[-61.8966239,-1.3953553],[-61.8399376,-1.4010596]],[[-61.8399376,-1.4010596],[-61.869123,-1.3561883],[-61.8724544,-1.3303587],[-61.8399587,-1.265358],[-61.8455104,-1.216743],[-61.8807881,-1.1175736],[-61.8619058,-1.0811866],[-61.8588429,-1.0573011],[-61.8827329,-1.0100793],[-61.8878776,-0.9872572],[-61.8696857,-0.9317457],[-61.8832915,-0.8964713],[-61.8749571,-0.8603576],[-61.8549545,-0.8403556],[-61.8485734,-0.7978547],[-61.86162,-0.7656381],[-61.8677365,-0.7239672],[-61.8516286,-0.686195],[-61.8185684,-0.6289666],[-61.8091268,-0.5989711],[-61.811899,-0.5631357],[-61.823465,-0.5395653],[-61.8188486,-0.5042484],[-61.8021771,-0.4742493],[-61.8055091,-0.441192],[-61.8446788,-0.3886914],[-61.8463439,-0.3631356],[-61.829959,-0.3175809],[-61.8380109,-0.2717443],[-61.8182879,-0.2009176],[-61.8060647,-0.1392481],[-61.7913461,-0.091197],[-61.809127,-0.0645266],[-61.8160687,-0.0384149],[-61.8027359,-0.0003456],[-61.7737882,0.0584338],[-61.7699596,0.0974164],[-61.7777333,0.1676971],[-61.7721764,0.2340848],[-61.7588508,0.3096353],[-61.7294018,0.3651956],[-61.7113506,0.4357475],[-61.6838478,0.4896344],[-61.6502348,0.5154701],[-61.6327382,0.5465788],[-61.6152376,0.6065819],[-61.5930151,0.6282462],[-61.559403,0.6793542],[-61.5005149,0.7235273],[-61.45384,0.785476],[-61.4368962,0.8196354],[-61.4291218,0.841856],[-61.4243965,0.8699095],[-61.3757871,0.9254712],[-61.3630077,0.9615834],[-61.3174588,0.9951863],[-61.2885649,0.9785289],[-61.2643954,0.9788064],[-61.2630145,0.9671352],[-61.2563469,0.9665771],[-61.233008,1.0010246],[-61.2188462,0.9996391],[-61.1977341,0.958526],[-61.1768984,0.9624118],[-61.1280124,0.943802],[-61.1146782,0.9824098],[-61.0888457,0.9974082],[-61.046894,1.0457437],[-61.0402327,1.0874069],[-61.0207842,1.1004672],[-60.991623,1.0826904],[-60.9609804,1.0884774],[-60.9435672,1.0721348],[-60.9243978,1.0735266],[-60.9007854,1.1243552],[-60.8852292,1.1301902],[-60.8521716,1.1026926],[-60.8407822,1.0760207],[-60.8196734,1.0626881],[-60.8163445,1.0307437],[-60.8232828,1.0063034],[-60.8085652,0.979635],[-60.7796729,0.9585267],[-60.7752267,0.9407433],[-60.7299502,0.9343544],[-60.7341159,0.898248],[-60.7316174,0.8829673],[-60.7138443,0.8671369],[-60.7155075,0.8768611],[-60.6857858,0.8763044],[-60.6843981,0.8840765],[-60.6691146,0.8788034],[-60.6507863,0.9029648],[-60.6168979,0.8982484],[-60.561059,0.9551881],[-60.5391166,0.9726875],[-60.5338374,0.9929686],[-60.5138422,0.9901867],[-60.5055114,1.0335245],[-60.4527251,1.0804709],[-60.4413424,1.102416],[-60.43023,1.1074097],[-60.4238439,1.099631],[-60.4149494,1.1040808],[-60.3999488,1.1315791],[-60.3785574,1.136023],[-60.3543914,1.1412993],[-60.3510635,1.1438054],[-60.3457817,1.1329664],[-60.3418918,1.1332437],[-60.3177253,1.142412],[-60.2916125,1.115465],[-60.2721681,1.127966]],[[-60.2721681,1.127966],[-60.260783,1.1274143]],[[-60.260783,1.1274143],[-60.2457834,1.1210205],[-60.24384,1.1201868],[-60.2146858,1.1290792],[-60.1318821,1.102963],[-60.0905006,1.1007432],[-60.0277288,1.1249127],[-59.9970323,1.1225026],[-59.9824494,1.1354682]],[[-59.9824494,1.1354682],[-59.9613331,1.1779696],[-59.9266123,1.1940824],[-59.8902231,1.1968585],[-59.875499,1.2110257],[-59.8568935,1.1896321],[-59.8346858,1.2157393],[-59.8241127,1.2563032],[-59.8055001,1.254915],[-59.7793925,1.2760274]],[[-59.7793925,1.2760274],[-59.7793947,1.3051906],[-59.7902263,1.3413012],[-59.7721697,1.3662956],[-59.7924501,1.4318516],[-59.8177234,1.451303],[-59.8210587,1.4796367],[-59.8035593,1.5090784],[-59.8157799,1.5285253],[-59.8082777,1.5324144],[-59.7871722,1.5604647],[-59.7674479,1.5635242],[-59.7760619,1.5915742],[-59.7457824,1.60963],[-59.7085527,1.6043535],[-59.6707749,1.6249151],[-59.6449483,1.608248],[-59.6199423,1.6263003],[-59.6118927,1.6207407],[-59.5957752,1.6090757],[-59.519112,1.5899115],[-59.4799431,1.5910252],[-59.4477253,1.545744],[-59.4127199,1.551576]],[[-59.4127199,1.551576],[-59.4310542,1.5662956],[-59.427171,1.5863033],[-59.4479988,1.6193534],[-59.4830048,1.6265776],[-59.5263387,1.6913029],[-59.5335541,1.7162965],[-59.5666119,1.7357424],[-59.6174465,1.7151866],[-59.6329989,1.7410184],[-59.6663388,1.7546344],[-59.6902225,1.7562986],[-59.678838,1.8071276],[-59.6543876,1.8168515],[-59.6502277,1.8401845],[-59.673836,1.8399106],[-59.691892,1.8535252],[-59.7460566,1.8518555],[-59.7468876,1.878517],[-59.7593915,1.9004668],[-59.7380084,1.955461],[-59.7344442,1.9996341]],[[-60.156639,1.9996416],[-60.1621167,1.9864055]],[[-59.7793925,1.2760274],[-59.7527799,1.1894673],[-59.7390322,1.0758846],[-59.7522206,1.0009651],[-59.7604254,0.9051136],[-59.771151,0.8514869],[-59.7628182,0.8381348],[-59.779533,0.8201275],[-59.8146111,0.6183251],[-59.7843071,0.591164],[-59.7435277,0.5421779],[-59.7007798,0.5474459],[-59.6868775,0.5404542],[-59.6503969,0.5705625],[-59.5942525,0.5635908],[-59.5885255,0.5445942],[-59.5661687,0.5254537],[-59.5456387,0.5215177],[-59.5227201,0.4900313],[-59.5048916,0.4369052],[-59.4643889,0.4281214],[-59.4538327,0.3843832],[-59.4710824,0.345524],[-59.4374467,0.290334],[-59.4335537,0.2635403]],[[-59.4335537,0.2635403],[-58.8954648,0.2635103],[-58.8954979,1.2276938],[-58.9046663,1.251024],[-58.8988351,1.2793569],[-58.9238301,1.2935199],[-58.9185494,1.3165785],[-58.9660576,1.3124126],[-58.9816123,1.3046316],[-58.9938326,1.3271332],[-59.0210587,1.3310229],[-59.0529979,1.3243534],[-59.1027169,1.3482417],[-59.1527243,1.3488017],[-59.1885555,1.3751884],[-59.2266115,1.3774098],[-59.2693901,1.40047],[-59.2885589,1.4446364],[-59.3216084,1.4821371],[-59.3396677,1.5182487],[-59.3582765,1.5101872],[-59.3788354,1.5207427],[-59.4127199,1.551576]],[[-63.9578394,2.4704371],[-63.9343736,2.4572606],[-63.9204834,2.4736055],[-63.882144,2.4690924],[-63.8465017,2.493248],[-63.7982228,2.4798593],[-63.7819973,2.4569287],[-63.750449,2.4417992],[-63.7039861,2.4578098],[-63.6891575,2.4470644],[-63.6333676,2.440037],[-63.6035815,2.4571651],[-63.5548233,2.4474208],[-63.5534437,2.430162],[-63.5200257,2.4218666],[-63.4805258,2.4335575],[-63.4656972,2.4017083],[-63.4414557,2.4181702],[-63.4217702,2.4452915],[-63.3984313,2.4283568],[-63.3719118,2.4263796],[-63.3570832,2.3789282],[-63.3754381,2.3617522],[-63.375952,2.3396862],[-63.3605217,2.3273935],[-63.3679667,2.2897242],[-63.3604392,2.2691503],[-63.3781226,2.2263227],[-63.3597912,2.1971016],[-63.3107885,2.165004],[-63.2763514,2.1543897],[-63.1941336,2.1812129],[-63.1463394,2.1732586],[-63.1198323,2.0964525],[-63.0772673,2.0460662],[-63.0237762,2.0146794],[-62.9804347,2.0179276],[-62.9484827,2.0310414],[-62.8385715,2.0163864],[-62.8132455,1.9916842],[-62.7295838,1.9605494],[-62.7033106,1.9338206],[-62.6987291,1.9119576],[-62.7041791,1.8739468],[-62.7310733,1.8182323],[-62.7223724,1.7224945],[-62.7286068,1.7],[-62.7929928,1.6353122],[-62.8052823,1.5913457],[-62.7363493,1.5296296]],[[-60.9382662,2.2152771],[-60.9540175,2.2372209],[-60.983035,2.2497234],[-61.0510602,2.2980496],[-61.1992506,2.2545393],[-61.2270099,2.2794598],[-61.2521768,2.2795121],[-61.2769466,2.2683639],[-61.3055288,2.2785515],[-61.3387128,2.2636722],[-61.3962897,2.3871828],[-61.4115492,2.4090864],[-61.5078919,2.4501656],[-61.5774036,2.4468953],[-61.6236172,2.4530036],[-61.7210236,2.4368321],[-61.776449,2.4029648],[-61.8110602,2.3539468],[-61.8306217,2.3464583],[-61.8707056,2.3012509],[-61.8952971,2.2954361],[-61.9314899,2.2604066],[-62.0310729,2.2216194],[-62.0731566,2.2216465],[-62.1393957,2.2382161],[-62.1739,2.2248],[-62.2525,2.2158],[-62.3004,2.1915],[-62.3404465,2.1928571],[-62.4096,2.1182],[-62.4237,2.1104],[-62.4909,2.1086],[-62.5166,2.1164],[-62.5455,2.1043],[-62.5854,2.1543],[-62.599,2.1937],[-62.5985,2.2248],[-62.6347,2.2495],[-62.6675,2.2558],[-62.7469,2.2495],[-62.7731,2.2594],[-62.7932,2.262],[-62.8083,2.2683],[-62.8223,2.2761],[-62.832,2.2983],[-62.838,2.3029],[-62.8937,2.3409],[-62.9152,2.3311],[-62.9197,2.3354],[-62.9251,2.3378],[-62.9297,2.3381],[-62.9376,2.3502],[-62.9414,2.3525],[-62.9447,2.3551],[-62.9517,2.3723],[-62.9761,2.3667],[-63.019,2.3702],[-63.0271,2.3711],[-63.0342,2.3756],[-63.0377,2.3789],[-63.0386,2.3766],[-63.0455,2.3902],[-63.0439,2.4423],[-63.0613,2.4612],[-63.082,2.4613],[-63.0495,2.5249],[-63.0725,2.5513],[-63.0683,2.5812],[-63.066,2.5937],[-63.0332,2.6299],[-63.0295,2.6638],[-63.0007,2.6768],[-62.9963,2.6768],[-62.9687,2.6909],[-62.9643,2.6927],[-62.937,2.7005],[-62.9346,2.7026],[-62.91,2.7216],[-62.9073,2.7509],[-62.9113,2.7585],[-62.9125,2.7617]],[[-62.9125,2.7617],[-62.9177,2.7622]],[[-62.9064,2.7592],[-62.9125,2.7617]],[[-60.9146791,2.4721312],[-60.9138431,2.4740748],[-60.8935604,2.4935187],[-60.8935636,2.5076784]],[[-60.984951,2.6735145],[-61.0074296,2.68477]],[[-61.0949065,2.7084845],[-61.1007869,2.6962955],[-61.1055117,2.6937902],[-61.1278143,2.6993431]],[[-60.5397113,4.2104804],[-60.541877,4.2068674]],[[-60.541877,4.2068674],[-60.5363469,4.1821096],[-60.5202351,4.1693474],[-60.5102323,4.1548995],[-60.4721772,4.128233],[-60.4743815,4.1146345],[-60.4474501,4.084063],[-60.4474524,4.0629527],[-60.4393953,4.0360108],[-60.4407886,4.0221234],[-60.4605099,3.9912869],[-60.4602278,3.9621194],[-60.4610594,3.9521184],[-60.4846722,3.9546217],[-60.5005109,3.9154529],[-60.5013406,3.9107281],[-60.4885626,3.9026775],[-60.4999546,3.8735132],[-60.4774528,3.8437858],[-60.4860631,3.8273995],[-60.4802332,3.7812879],[-60.4924488,3.7460096],[-60.469951,3.7151787],[-60.4255528,3.6210197],[-60.4182829,3.5948972]],[[-60.4182829,3.5948972],[-60.3957884,3.5726742]],[[-60.3213439,3.3690707],[-60.3149538,3.3760163]],[[-59.876335,3.5660106],[-59.8587978,3.5716242],[-59.850777,3.6045945],[-59.8172748,3.6181552],[-59.7886492,3.6166511],[-59.7596359,3.6331848],[-59.752221,3.652856],[-59.7240068,3.6638315],[-59.7046953,3.6891395],[-59.6687527,3.7028412],[-59.6732427,3.7610179],[-59.665113,3.7818875],[-59.6356271,3.7933228],[-59.5956467,3.7955032],[-59.5781961,3.832564],[-59.5936983,3.8605074],[-59.5935482,3.8848972],[-59.5684187,3.8973874],[-59.515886,3.945011],[-59.5266792,3.9684979],[-59.5567991,3.978984],[-59.6016522,4.0288799],[-59.619755,4.0378255],[-59.6421506,4.0672209],[-59.6544551,4.0695843],[-59.6203961,4.132864],[-59.6501643,4.145696],[-59.6844961,4.146464],[-59.7258041,4.1660293]],[[-59.7258041,4.1660293],[-59.774781,4.1726926],[-59.7953935,4.1796222],[-59.7785343,4.1971837],[-59.7650903,4.2087397],[-59.7790554,4.2128466],[-59.8143951,4.213223],[-59.8672881,4.2224902],[-59.9210872,4.2364948],[-59.949867,4.2540317],[-59.9505618,4.2562841],[-59.9825305,4.2807189],[-60.0164898,4.2922305],[-60.0450913,4.3035413],[-60.0800366,4.260186],[-60.1198922,4.2606087],[-60.1437292,4.2325343],[-60.1400869,4.2218718],[-60.2015036,4.181338],[-60.2081499,4.179946],[-60.2384115,4.188439],[-60.2714793,4.167551],[-60.2803099,4.1701507],[-60.2998685,4.1741469],[-60.3182572,4.1672501],[-60.3224757,4.1616865],[-60.3405492,4.1715424],[-60.3628411,4.1780015],[-60.3906505,4.1972894],[-60.4066736,4.1949488],[-60.4695885,4.2055757],[-60.4867022,4.2142672],[-60.5166211,4.2006562],[-60.5397113,4.2104804]],[[-60.652449,4.8846233],[-60.6591214,4.8490644],[-60.6960657,4.8104519],[-60.7196789,4.7996234],[-60.7256978,4.7733697],[-60.7570811,4.7537983],[-60.7851139,4.7538903],[-60.8109736,4.7433058],[-60.8510711,4.7029406],[-60.8994042,4.7181942],[-60.9132911,4.6971539],[-60.919587,4.663349],[-60.947579,4.655541],[-60.9507361,4.6375392],[-60.9333706,4.6161972],[-60.934884,4.584395],[-60.957358,4.577763],[-60.957908,4.545161],[-60.994064,4.532854],[-60.9978797,4.5156047],[-61.0498661,4.5240242],[-61.0940019,4.5228269],[-61.126095,4.5052981],[-61.1451556,4.4833461],[-61.1763519,4.5114819],[-61.2209614,4.5216228],[-61.2697937,4.5396569],[-61.323211,4.5348887],[-61.3231494,4.5045858],[-61.2788449,4.4779504],[-61.2882924,4.4573924],[-61.3060691,4.4590661],[-61.3193977,4.4301727],[-61.351623,4.4187867],[-61.3921854,4.4235086],[-61.4482895,4.4390659],[-61.4621835,4.4362821],[-61.48635,4.4104537],[-61.5135722,4.4054458],[-61.5274597,4.3421189],[-61.508294,4.3218458]],[[-60.6099287,3.4523392],[-60.6064009,3.4484557]],[[-60.4102347,3.5801724],[-60.4182829,3.5948972]],[[-60.541877,4.2068674],[-60.5371781,4.2137847]],[[-60.5371781,4.2137847],[-60.5099516,4.2390643],[-60.532453,4.2548959],[-60.5602341,4.2623994],[-60.5677305,4.280726],[-60.5554841,4.3083253],[-60.5907266,4.3790189],[-60.6100923,4.3904919],[-60.6440072,4.3987184],[-60.6564304,4.4187217],[-60.6546772,4.4222586],[-60.6537642,4.4278551],[-60.6365395,4.4763414],[-60.639735,4.493457],[-60.6115616,4.5457891],[-60.6402293,4.6168402],[-60.625203,4.6282899],[-60.6454838,4.7019906],[-60.6369559,4.7761079],[-60.6386793,4.8052069],[-60.613921,4.8429384],[-60.6380052,4.8773264],[-60.652449,4.8846233]],[[-61.8399376,-1.4010596],[-61.8171838,-1.3995172],[-61.7980094,-1.38063],[-61.7407891,-1.3920181],[-61.7180136,-1.4097932],[-61.6049547,-1.4481315],[-61.5596818,-1.4950728],[-61.5446819,-1.5256267],[-61.4827365,-1.5806331],[-61.4746776,-1.5789673],[-61.473291,-1.5278497],[-61.5098399,-1.5069631],[-61.5235688,-1.4906328],[-61.548014,-1.429518],[-61.5738424,-1.4286891],[-61.5819057,-1.409522],[-61.6191215,-1.3947977],[-61.5821752,-1.3534073],[-61.5855081,-1.3386858],[-61.6269031,-1.29397],[-61.6070712,-1.2744238],[-61.6083416,-1.2524404],[-61.5871347,-1.1944035],[-61.5727688,-1.1788682],[-61.5811734,-1.1565909],[-61.5661233,-1.129135],[-61.5786325,-1.1137947],[-61.5674915,-1.0950345],[-61.5727688,-1.0757856],[-61.5428642,-1.0622039],[-61.5438415,-1.0035769],[-61.5509756,-0.9831549],[-61.5807825,-0.9779761],[-61.582737,-0.9369363],[-61.5764824,-0.9111396],[-61.5523438,-0.8894467],[-61.5567415,-0.86492],[-61.5484347,-0.8335529],[-61.5473596,-0.7951499],[-61.5356323,-0.7544012],[-61.5105164,-0.7415023],[-61.4846186,-0.716877],[-61.4737708,-0.6796456],[-61.4581344,-0.6547267],[-61.4287185,-0.6495475],[-61.4071207,-0.6284885],[-61.3595274,-0.5969244],[-61.3289387,-0.5972175],[-61.3091977,-0.5790412],[-61.277534,-0.5756209],[-61.2340453,-0.5619397],[-61.2210475,-0.5289093],[-61.2230998,-0.4998854],[-61.168861,-0.516303],[-61.1616292,-0.5017422],[-61.1334836,-0.4969537],[-61.117945,-0.5066283],[-61.0790494,-0.5061397],[-61.0568653,-0.543861],[-61.0096629,-0.5520697],[-60.9948083,-0.5610602],[-60.9336309,-0.5478676],[-60.9213172,-0.5790412],[-60.9276695,-0.6055239],[-60.8915103,-0.6452966],[-60.8714762,-0.6382607],[-60.8576966,-0.6554596],[-60.8551557,-0.6863394],[-60.8185079,-0.6891733],[-60.7926101,-0.7417466],[-60.7712078,-0.7560625],[-60.7779021,-0.7888959],[-60.7631941,-0.8126414],[-60.7659183,-0.8571149],[-60.7285131,-0.8530352],[-60.6842669,-0.8654697],[-60.6634998,-0.881202],[-60.6328134,-0.8614633],[-60.5959213,-0.8662514],[-60.5880053,-0.843288],[-60.5581984,-0.8507633],[-60.5362098,-0.869476],[-60.5028602,-0.8406985],[-60.4932341,-0.8114321],[-60.4978273,-0.7806509],[-60.4748613,-0.7615958],[-60.4263396,-0.7711722],[-60.4056702,-0.7515796],[-60.3851963,-0.7535829],[-60.3735668,-0.7318403],[-60.3466917,-0.739609],[-60.3076495,-0.7108794],[-60.3152723,-0.6364651],[-60.3536303,-0.6173605],[-60.3603247,-0.5984024],[-60.3815315,-0.5884836],[-60.3827531,-0.5538409],[-60.3951157,-0.5496877],[-60.4000998,-0.5174879],[-60.3826554,-0.4592444],[-60.3464962,-0.4379405],[-60.3514803,-0.4056424],[-60.3267553,-0.3809179],[-60.3191325,-0.3485219],[-60.3263644,-0.3389936],[-60.2925506,-0.294626],[-60.3034961,-0.2585161],[-60.2688029,-0.1765234],[-60.2211607,-0.1419768],[-60.2360275,-0.1037044],[-60.2108138,-0.0638805],[-60.2042172,-0.0299202],[-60.1797365,-0.0023121],[-60.169133,-0.003778],[-60.1351238,0.0316482],[-60.1213931,0.0880369],[-60.1336091,0.1034778],[-60.1149431,0.1220949],[-60.0590829,0.1629969],[-60.0379686,0.2635455]],[[-60.0379686,0.2635455],[-60.0403888,0.2692695],[-60.0180596,0.2895607],[-60.003841,0.3094486],[-60.0366952,0.3149591],[-60.0586134,0.3283848],[-60.0998398,0.3444741],[-60.1048684,0.3578424],[-60.0825038,0.4005664],[-60.0955832,0.4348207],[-60.1190046,0.4573638],[-60.1171123,0.4725262],[-60.1320103,0.5047966],[-60.1386422,0.5445537],[-60.1530069,0.5635211]],[[-60.1530069,0.5635211],[-60.1538421,0.561578]],[[-60.1538421,0.561578],[-60.1892089,0.5709901],[-60.2093753,0.5659228],[-60.2269765,0.5672668],[-60.2386681,0.6047617],[-60.2234161,0.6289776],[-60.2550851,0.6687339],[-60.2531396,0.6926772],[-60.2639782,0.7423432],[-60.2959468,0.7758648],[-60.2016438,0.8797076],[-60.2736127,0.9550493],[-60.2778378,0.9758979],[-60.4026728,1.0025101],[-60.3065227,1.0410219],[-60.2791223,1.0948592],[-60.2798375,1.1144654],[-60.2669942,1.1143417],[-60.2670911,1.1281396]],[[-60.2670911,1.1281396],[-60.2721681,1.127966]],[[-59.9824494,1.1354682],[-59.9810637,0.9996387],[-59.9835592,0.9687997],[-60.018842,0.9585283],[-60.0218959,0.9529639],[-60.0291164,0.9160209],[-60.0502296,0.8993576],[-60.062217,0.8373945],[-60.0485577,0.8004748],[-60.0555059,0.740196],[-60.0663336,0.6949186],[-60.0807804,0.6735198],[-60.0691911,0.6119866],[-60.0727255,0.6074124],[-60.0932845,0.60408],[-60.1210257,0.5825613],[-60.1505644,0.5746687]],[[-60.1505644,0.5746687],[-60.1530069,0.5635211]],[[-60.0379686,0.2635455],[-59.4335537,0.2635403]],[[-60.260783,1.1274143],[-60.2670911,1.1281396]],[[-60.1538421,0.561578],[-60.1505644,0.5746687]],[[-59.7258041,4.1660293],[-59.7385606,4.2109852],[-59.7326494,4.2853967],[-59.6761961,4.348164],[-59.6942267,4.3801641],[-59.7364019,4.4241358],[-59.7486154,4.420847],[-59.8040345,4.4670814],[-59.8126114,4.446356],[-59.8325961,4.458064],[-59.8621961,4.452464],[-59.8630144,4.4714326],[-59.9114267,4.4777639],[-59.9258135,4.4900065],[-59.9719961,4.509264],[-59.9751604,4.4888547],[-60.0639662,4.495636],[-60.0672961,4.523464],[-60.0890961,4.533464],[-60.1216961,4.501464],[-60.1614961,4.517764],[-60.1537961,4.547364],[-60.1310961,4.595164],[-60.0891961,4.605764],[-60.0703961,4.616964],[-60.0754961,4.655364],[-60.0584961,4.678264],[-60.0255041,4.7062],[-60.0360961,4.718964],[-60.0253961,4.743064],[-60.0216961,4.781964],[-60.0354961,4.789464],[-60.0254961,4.831564],[-60.0132961,4.843764],[-60.0101961,4.873064],[-59.9935049,4.9341069],[-59.9896962,5.0011077],[-59.9751051,5.0305507],[-59.9719777,5.074879],[-60.0087875,5.0855575],[-60.057925,5.1251611],[-60.0641693,5.1378686],[-60.0957826,5.1407268],[-60.1068942,5.1940657],[-60.1327301,5.2248938],[-60.1360617,5.2490623],[-60.1724471,5.2265585],[-60.2124535,5.2718411],[-60.2710608,5.2343422],[-60.3043956,5.2265666],[-60.3135614,5.2104549],[-60.3630098,5.2048987],[-60.381067,5.2207253],[-60.4052341,5.2110063],[-60.4344018,5.1812876],[-60.4496755,5.2001775],[-60.5271792,5.207947],[-60.545789,5.1940612],[-60.5771747,5.1979516],[-60.5921717,5.2173913],[-60.6249579,5.2151713],[-60.6521821,5.2304551],[-60.6971772,5.2287837],[-60.7232879,5.2198936],[-60.7281539,5.2009948],[-60.694675,5.197093],[-60.6612287,5.1637293],[-60.6556509,5.1252864],[-60.6426493,5.1171983],[-60.6444005,5.0568386],[-60.5991233,4.999339],[-60.5841242,4.955732],[-60.5918987,4.9268413],[-60.6088415,4.92406],[-60.6288417,4.8887893],[-60.652449,4.8846233]],[[-60.5371781,4.2137847],[-60.5397113,4.2104804]]],"bbox":[-64.8252507,-1.5806331,-58.8954648,5.2718411]}
