{"type":"Topology","objects":{"geometrias":{"type":"GeometryCollection","geometries":[{"type":"Polygon","arcs":[[0,1,2,3,4,5,6,7]],"properties":{"code_muni":1600055,"abbrev_state":"AP","name_state":"Amapá","name_region":"Norte","name_muni":"Serra do Navio","code_state":16,"code_region":1,"year":2020}},{"type":"MultiPolygon","arcs":[[[8,9,10,11,12,13,14,15,16,17]],[[18]],[[19]]],"properties":{"code_muni":1600105,"abbrev_state":"AP","name_state":"Amapá","name_region":"Norte","name_muni":"Amapá","code_state":16,"code_region":1,"year":2020}},{"type":"Polygon","arcs":[[20,21,22,23,24,25,26,27,28,29,-3]],"properties":{"code_muni":1600154,"abbrev_state":"AP","name_state":"Amapá","name_region":"Norte","name_muni":"Pedra Branca do Amapari","code_state":16,"code_region":1,"year":2020}},{"type":"Polygon","arcs":[[30,31,32,-7,33,34,-18]],"properties":{"code_muni":1600204,"abbrev_state":"AP","name_state":"Amapá","name_region":"Norte","name_muni":"Calçoene","code_state":16,"code_region":1,"year":2020}},{"type":"Polygon","arcs":[[35,36,37,38,39,40,41,42,43,44,45,46,-14,47,-12]],"properties":{"code_muni":1600212,"abbrev_state":"AP","name_state":"Amapá","name_region":"Norte","name_muni":"Cutias","code_state":16,"code_region":1,"year":2020}},{"type":"Polygon","arcs":[[48,49,50,-5,51,-29,52,53,54,55,56,57,58,-41,59,60]],"properties":{"code_muni":1600238,"abbrev_state":"AP","name_state":"Amapá","name_region":"Norte","name_muni":"Ferreira Gomes","code_state":16,"code_region":1,"year":2020}},{"type":"Polygon","arcs":[[61,62]],"properties":{"code_muni":1600253,"abbrev_state":"AP","name_state":"Amapá","name_region":"Norte","name_muni":"Itaubal","code_state":16,"code_region":1,"year":2020}},{"type":"Polygon","arcs":[[63,64,65,66,67,-24,68,69,70,71]],"properties":{"code_muni":1600279,"abbrev_state":"AP","name_state":"Amapá","name_region":"Norte","name_muni":"Laranjal do Jari","code_state":16,"code_region":1,"year":2020}},{"type":"Polygon","arcs":[[-16,72,-46,73,-44,74,-57,75,76,77,78,79,-63,80]],"properties":{"code_muni":1600303,"abbrev_state":"AP","name_state":"Amapá","name_region":"Norte","name_muni":"Macapá","code_state":16,"code_region":1,"year":2020}},{"type":"Polygon","arcs":[[81,-67,82,83,84,85,86,87,88,-26]],"properties":{"code_muni":1600402,"abbrev_state":"AP","name_state":"Amapá","name_region":"Norte","name_muni":"Mazagão","code_state":16,"code_region":1,"year":2020}},{"type":"Polygon","arcs":[[89,-72,90,-70,91,-22,92,-1,93,-32]],"properties":{"code_muni":1600501,"abbrev_state":"AP","name_state":"Amapá","name_region":"Norte","name_muni":"Oiapoque","code_state":16,"code_region":1,"year":2020}},{"type":"Polygon","arcs":[[-28,94,-88,95,96,97,-77,98,-55,99,-53]],"properties":{"code_muni":1600535,"abbrev_state":"AP","name_state":"Amapá","name_region":"Norte","name_muni":"Porto Grande","code_state":16,"code_region":1,"year":2020}},{"type":"Polygon","arcs":[[-35,-50,100,101,-9]],"properties":{"code_muni":1600550,"abbrev_state":"AP","name_state":"Amapá","name_region":"Norte","name_muni":"Pracuúba","code_state":16,"code_region":1,"year":2020}},{"type":"Polygon","arcs":[[102,-97,103,-86,104,-79]],"properties":{"code_muni":1600600,"abbrev_state":"AP","name_state":"Amapá","name_region":"Norte","name_muni":"Santana","code_state":16,"code_region":1,"year":2020}},{"type":"Polygon","arcs":[[105,-61,106,-39,107,-37,108,-10,-102]],"properties":{"code_muni":1600709,"abbrev_state":"AP","name_state":"Amapá","name_region":"Norte","name_muni":"Tartarugalzinho","code_state":16,"code_region":1,"year":2020}},{"type":"Polygon","arcs":[[109,-84,110,-65]],"properties":{"code_muni":1600808,"abbrev_state":"AP","name_state":"Amapá","name_region":"Norte","name_muni":"Vitória do Jari","code_state":16,"code_region":1,"year":2020}}]}},"arcs":[[[-52.0215643,2.4342881],[-52.0461799,2.4359791],[-52.0599009,2.391382],[-52.1062631,2.4016897],[-52.1132581,2.4010378],[-52.1124053,2.3869182],[-52.1185947,2.3569346],[-52.1498426,2.3056243],[-52.1549017,2.299836],[-52.1642356,2.2984209],[-52.1759263,2.3029383],[-52.1837863,2.2939347],[-52.1937353,2.2612692],[-52.2313189,2.2640185],[-52.2487947,2.241549],[-52.2435095,2.2264199],[-52.2524055,2.1687657],[-52.2811301,2.1567093],[-52.3191539,2.1583619],[-52.3554347,2.1415687],[-52.3677678,2.1181044],[-52.3995977,2.0998407],[-52.4160399,2.080103],[-52.4071016,2.0388594],[-52.4394294,2.0450377],[-52.485296,2.0374255],[-52.5524044,2.0095861],[-52.5581555,2.0216986],[-52.5995697,2.0085688],[-52.6345413,2.0330202],[-52.6984335,2.0667185],[-52.7289625,2.0728183],[-52.7572639,2.0677053],[-52.7602144,2.0777355],[-52.7966509,2.0713723],[-52.8055429,2.0808719],[-52.829354,2.0834306],[-52.8372068,2.0363823],[-52.8679378,2.0247666]],[[-52.8679378,2.0247666],[-52.858406,2.0185825]],[[-52.858406,2.0185825],[-52.8119068,1.9804818],[-52.7956599,1.9770261],[-52.7830462,1.9561118],[-52.7871305,1.9258227],[-52.7719067,1.8872315],[-52.7572294,1.8679021],[-52.7246292,1.8629004],[-52.7067355,1.8439641],[-52.6801875,1.8402236],[-52.6584345,1.8169621],[-52.6583175,1.8113512],[-52.6454529,1.7925313],[-52.6148172,1.7766911],[-52.6045487,1.7610281],[-52.5768852,1.7429301],[-52.5690834,1.7337324],[-52.5596103,1.7292903],[-52.5566865,1.7222764],[-52.5480321,1.6791402],[-52.5195553,1.6581535],[-52.5205484,1.6412638],[-52.4814866,1.5833956],[-52.5049939,1.5631706],[-52.4810188,1.5396719],[-52.4913105,1.5229538],[-52.4849414,1.4863568],[-52.4578623,1.4402966],[-52.4717796,1.4238116],[-52.4738847,1.3978562],[-52.4494418,1.3723681],[-52.4948191,1.289121],[-52.4468689,1.2858472],[-52.4324838,1.2548626],[-52.4103799,1.2451579],[-52.3696808,1.1858768],[-52.3506176,1.143549],[-52.3329579,1.1485769],[-52.3095676,1.1377026],[-52.2828097,1.0770112],[-52.2477422,1.0603153],[-52.2030265,1.0560486],[-52.1931927,1.0107836],[-52.1627638,1.0180186],[-52.104318,0.9890785],[-52.0729613,1.008743],[-52.0490264,0.9981687],[-52.0299894,1.0030797],[-52.0183432,0.9857317],[-52.024324,0.9583938],[-52.0479275,0.9357172],[-52.0576471,0.8790402],[-52.0488021,0.8670257],[-52.0248053,0.8551021],[-52.0209074,0.8582391],[-52.005991,0.8722061],[-51.9923054,0.8592731],[-51.9570041,0.848516],[-51.9398399,0.8633512],[-51.9386762,0.8653551],[-51.9092589,0.9375615],[-51.8452974,0.9568369],[-51.8290621,0.9740292],[-51.8151088,0.9758256]],[[-51.8151088,0.9758256],[-51.8127791,0.9856743]],[[-51.8127791,0.9856743],[-51.8158689,1.00326],[-51.8348833,1.0170432],[-51.9189029,1.0558974],[-51.9386302,1.0404508],[-51.9509896,1.0586303],[-51.9828386,1.0530457],[-51.9855719,1.0595808],[-51.9776096,1.0911866],[-51.9789169,1.1295646],[-51.9946037,1.1459612],[-51.9821255,1.1599814],[-51.9956733,1.1668727],[-51.9872357,1.1732887],[-52.0023283,1.1787542],[-52.0088645,1.1882593],[-51.9987631,1.2311509],[-52.0029225,1.2656062],[-52.0005457,1.2734477],[-52.0006645,1.2799822],[-51.9859284,1.2930513],[-51.9823632,1.3024372]],[[-51.9823632,1.3024372],[-52.0077949,1.3202585]],[[-52.0077949,1.3202585],[-52.0089371,1.3388442],[-52.0091021,1.3701574],[-52.0350092,1.4005714],[-52.0331644,1.4227974],[-52.0443074,1.4493929],[-52.0239715,1.473621],[-52.0184696,1.508988],[-52.0339305,1.5270194],[-52.0318412,1.5617589],[-52.0397109,1.5755432],[-52.0221607,1.6132755],[-52.0209768,1.6441848],[-52.0457003,1.675372],[-52.0533611,1.710666],[-52.0461182,1.7268856],[-52.0522468,1.7711584],[-52.0454914,1.7866118],[-52.0491825,1.885455],[-52.0307269,1.8961047],[-52.013017,1.932727],[-52.0202804,1.9627855],[-51.9993176,2.0335004],[-52.0080231,2.0417132],[-52.0104606,2.0840987],[-52.0266876,2.113399],[-52.0396127,2.1587384],[-52.0370531,2.2328164],[-52.0638979,2.2625101],[-52.0651218,2.2885821],[-52.0380415,2.341908],[-52.0410366,2.423741],[-52.0158435,2.4365365]],[[-52.0158435,2.4365365],[-52.0215643,2.4342881]],[[-51.6470664,1.8763231],[-51.5939017,1.8847638],[-51.5561249,1.8523806],[-51.5321742,1.8502881],[-51.4828133,1.8107866],[-51.4458617,1.7721587],[-51.4210613,1.7661487],[-51.3824571,1.7944464],[-51.36853,1.8162977],[-51.3640884,1.8475688],[-51.3520876,1.8495474],[-51.3328386,1.8541266],[-51.2972835,1.8653372],[-51.2964721,1.8821952],[-51.2625025,1.8938509],[-51.2358109,1.8731822],[-51.2080045,1.8892272],[-51.1963954,1.8825224],[-51.1677913,1.8918454],[-51.1507286,1.8756295],[-51.1082195,1.8500411],[-51.0553366,1.8669612],[-51.028725,1.8659417],[-50.9910286,1.8383469],[-50.967288,1.8389956],[-50.945086,1.8275318],[-50.9016415,1.8230972],[-50.868449,1.8317263],[-50.8307037,1.8103687],[-50.8153875,1.8127506],[-50.7980229,1.7863773],[-50.7634229,1.8346604],[-50.722611,1.8144606],[-50.6927478,1.8301102],[-50.6406703,1.8295056],[-50.6328631,1.7942439],[-50.616616,1.7683193],[-50.609809,1.7352725],[-50.5829226,1.7287782],[-50.5673377,1.7087354],[-50.5735021,1.6939226],[-50.5795341,1.6780801],[-50.5542499,1.6313087],[-50.538998,1.592215],[-50.5432222,1.5686053],[-50.5384977,1.5233103],[-50.5405258,1.5081209],[-50.5351692,1.4978116],[-50.5442817,1.485439],[-50.5605847,1.4724751]],[[-50.5605847,1.4724751],[-50.4997795,1.3634653],[-50.4342533,1.2371956],[-50.4166956,1.216645],[-50.4229971,1.1873416]],[[-50.4229971,1.1873416],[-50.4010815,1.1915331]],[[-50.4010815,1.1915331],[-50.3643006,1.1673543],[-50.3163488,1.172404],[-50.3001866,1.1904637],[-50.2799839,1.2196918],[-50.2970968,1.2491572],[-50.3047025,1.2838499],[-50.2852128,1.3126017],[-50.256929,1.322344],[-50.2141467,1.3349376],[-50.1606689,1.3275715],[-50.1319097,1.3289972]],[[-50.1319097,1.3289972],[-50.1259677,1.3185421],[-50.1233533,1.3102255],[-50.124304,1.280048]],[[-50.124304,1.280048],[-50.1354749,1.2622264],[-50.1466458,1.2306226],[-50.1347619,1.2066224],[-50.1202634,1.2040085]],[[-50.1202634,1.2040085],[-50.1133707,1.2051966],[-50.0703574,1.2165025],[-50.0608916,1.2166987],[-50.0418293,1.2142264]],[[-50.0418293,1.2142264],[-49.9878761,1.2218304],[-49.901625,1.2402934]],[[-49.901625,1.2402934],[-49.9042695,1.2955915],[-49.8836418,1.3399816],[-49.8758387,1.4231385],[-49.8826094,1.50477],[-49.9029365,1.5799307],[-49.9002953,1.6023258],[-49.9206183,1.6879296],[-49.9581288,1.7196719],[-50.0322127,1.7597013],[-50.176901,1.8135554],[-50.2896941,1.8078737],[-50.3246141,1.815381],[-50.3735471,1.8011223],[-50.4237254,1.8044642],[-50.4749649,1.8385951],[-50.5073752,1.8845103],[-50.5256164,1.9299361],[-50.5579809,1.9558429],[-50.5826601,1.9896326],[-50.5981108,2.0309046],[-50.5980613,2.0638278],[-50.6178322,2.0912696],[-50.6430821,2.1134295],[-50.6818668,2.1334028],[-50.683965,2.1436794]],[[-50.683965,2.1436794],[-50.7091623,2.134973],[-50.7287062,2.1476233],[-50.7505422,2.1178873],[-50.7873713,2.1693724],[-50.8155542,2.1767192],[-50.8429018,2.1398736],[-50.8606693,2.1418773],[-50.8721709,2.1644467],[-50.8999083,2.1532038],[-50.9474184,2.1637232],[-50.9636821,2.1736859],[-50.9984931,2.1508661],[-51.0651632,2.1753556],[-51.0735178,2.1782498],[-51.0755229,2.1808101],[-51.083432,2.1777489],[-51.0909512,2.1759679],[-51.0906727,2.1673966],[-51.0962981,2.1640015],[-51.1143442,2.1636675],[-51.1262635,2.1577121],[-51.1585681,2.1533151],[-51.1984476,2.1215896],[-51.2214847,2.1274206],[-51.2523577,2.0916158],[-51.3064783,2.0666518],[-51.3373535,2.0348627],[-51.374703,2.0183029],[-51.3942575,2.0214061],[-51.4106164,2.0438105],[-51.4419837,2.0631968],[-51.4650358,2.0536028],[-51.4757348,2.0303444],[-51.4946472,2.0239501],[-51.5259492,2.0396039],[-51.5709224,2.1142179],[-51.5836441,2.0954982],[-51.5834532,2.0792412],[-51.6019271,2.0483567],[-51.589289,2.0233804],[-51.6308672,1.9948417],[-51.6590337,1.9532604],[-51.6459308,1.926295],[-51.6470664,1.8763231]],[[-50.442522,2.1097664],[-50.4684307,2.1000039],[-50.5042092,2.0940301],[-50.5212302,2.0054291],[-50.4986396,1.9945379],[-50.4905843,1.9647474],[-50.4658355,1.9232472],[-50.4489823,1.879636],[-50.4255082,1.8670172],[-50.3863515,1.8775815],[-50.3669897,1.8894511],[-50.3182368,1.9457136],[-50.3267404,1.9828288],[-50.3461028,1.9966003],[-50.3624547,2.0220263],[-50.3606161,2.0548669],[-50.394823,2.0920047],[-50.4054105,2.1112592],[-50.442522,2.1097664]],[[-50.5136684,2.1853071],[-50.550145,2.1516709],[-50.529473,2.1382537],[-50.5113326,2.1033826],[-50.4953975,2.0962017],[-50.4712717,2.1022984],[-50.4583402,2.1152468],[-50.4226335,2.1184624],[-50.4219261,2.1423122],[-50.4384035,2.1595927],[-50.4800964,2.1807611],[-50.5136684,2.1853071]],[[-52.858406,2.0185825],[-52.8805998,2.0306617]],[[-52.8805998,2.0306617],[-52.8954879,2.0281475],[-52.9087144,2.008653],[-52.9004852,1.9625688],[-52.9233816,1.9423821],[-52.9989912,1.9547986],[-53.0086039,1.9783513],[-53.0419341,1.9768429],[-53.0527996,1.963754]],[[-53.0527996,1.963754],[-53.059126,1.9339267]],[[-53.059126,1.9339267],[-53.027108,1.874704],[-53.026313,1.8542543],[-52.9949943,1.8197677],[-53.0123519,1.7837629],[-52.9887985,1.7535815],[-52.9737819,1.7177988],[-52.9889738,1.6676759],[-52.9942957,1.626729],[-52.9769872,1.5740259],[-52.9521259,1.5542537],[-52.9061776,1.5586708],[-52.8671204,1.5333535],[-52.8631057,1.5068533],[-52.8712093,1.4648254],[-52.8693599,1.4414792],[-52.890387,1.3889142],[-52.9148703,1.3577016],[-52.9280849,1.3177605],[-52.9323536,1.2648643],[-52.9534491,1.2655204],[-52.9649031,1.2395902],[-52.9724895,1.2061188],[-52.9680979,1.1884008],[-52.9600464,1.1267318],[-52.9304633,1.1150006],[-52.8942452,1.08842],[-52.8902386,1.0491953],[-52.8790162,1.0405037],[-52.8776215,0.9999302],[-52.8666787,0.9667561],[-52.8388762,0.9510329],[-52.8241856,0.9302417],[-52.8377072,0.9047049],[-52.8233119,0.8756227],[-52.7890302,0.8859645],[-52.7481861,0.8556626],[-52.7555986,0.8255548]],[[-52.7555986,0.8255548],[-52.7508073,0.8199973],[-52.7472292,0.8163723]],[[-52.7472292,0.8163723],[-52.7220588,0.8264672],[-52.6986558,0.8247697],[-52.6631771,0.8339212],[-52.6659033,0.808415],[-52.6616861,0.7919576],[-52.6187485,0.759534],[-52.6101584,0.7381718],[-52.5791561,0.740009],[-52.5688662,0.7249481],[-52.546547,0.7209168],[-52.5330346,0.6973813],[-52.5009979,0.6722654],[-52.5071223,0.6507461],[-52.5035026,0.6421627],[-52.4816176,0.6318519],[-52.4701785,0.6039939],[-52.4609973,0.5740684],[-52.4383714,0.5698168],[-52.4147878,0.5489446],[-52.416879,0.5106715],[-52.3958479,0.4987368],[-52.376795,0.4514436],[-52.3490188,0.432269]],[[-52.3490188,0.432269],[-52.3480961,0.4325119]],[[-52.3480961,0.4325119],[-52.3496222,0.4417592],[-52.329046,0.4519516],[-52.3208759,0.4695872],[-52.3093246,0.4999426],[-52.2707353,0.5220343],[-52.2593822,0.5585167],[-52.2413375,0.5827512],[-52.2038436,0.5889305],[-52.1900582,0.6087162],[-52.1821777,0.6169151],[-52.1663497,0.6391968],[-52.1181008,0.6279077],[-52.108706,0.6603969],[-52.0600673,0.6642194],[-52.0194318,0.6929458],[-51.9829028,0.6968085],[-51.9310819,0.6912038],[-51.8819536,0.7058055],[-51.8600396,0.6695858],[-51.80428,0.6863173],[-51.8045652,0.6532346],[-51.7936934,0.6386456],[-51.7717794,0.6575637],[-51.7531929,0.6509566],[-51.756663,0.6135006],[-51.7397878,0.6194423],[-51.7236164,0.6492059],[-51.7188543,0.6890578],[-51.7044897,0.7037116],[-51.724012,0.7357427],[-51.7270571,0.7552489],[-51.7455385,0.7630902],[-51.7445493,0.785432],[-51.7588885,0.8105547],[-51.7618577,0.8396432],[-51.7732863,0.8572775],[-51.7876935,0.8845799],[-51.803012,0.8938968],[-51.816184,0.9019941],[-51.8358443,0.9104816],[-51.8280449,0.935111],[-51.7747572,0.9729918],[-51.7832356,0.9940156]],[[-51.7832356,0.9940156],[-51.7981618,0.9949425],[-51.7982806,0.9810403]],[[-51.7982806,0.9810403],[-51.8151088,0.9758256]],[[-50.683965,2.1436794],[-50.6866313,2.1910505],[-50.7252725,2.2557221],[-50.7226278,2.2877466],[-50.7407916,2.3090093],[-50.7563937,2.3864534],[-50.7687378,2.408979],[-50.7703726,2.4534216],[-50.7942244,2.4985492],[-50.8164994,2.5029687],[-50.8443311,2.6009843],[-50.847721,2.6403442],[-50.8824485,2.6882411],[-50.8873064,2.7462342],[-50.9053534,2.7569398],[-50.9084916,2.7888666],[-50.9449973,2.8177539],[-50.9505117,2.8821705],[-50.9925025,2.9621893],[-50.9988269,3.0110367],[-51.021168,3.0513765],[-51.0142975,3.0855578],[-51.0444104,3.1340039],[-51.0328225,3.213689],[-51.0515964,3.2529362],[-51.0865365,3.350172],[-51.1093087,3.4506267],[-51.0910111,3.4804817],[-51.0817748,3.5595385],[-51.0862124,3.5915134],[-51.0911695,3.7384705],[-51.0806825,3.8848086],[-51.103175,3.9128774],[-51.1508373,3.9138192]],[[-51.1508373,3.9138192],[-51.1633467,3.867868],[-51.1798788,3.7534301],[-51.191589,3.7163119],[-51.1933111,3.6881285],[-51.1988218,3.658913],[-51.1869455,3.6243482],[-51.1825484,3.5807016],[-51.1851629,3.4721693],[-51.1915802,3.4052644],[-51.1819542,3.3996888],[-51.1737543,3.3381176],[-51.1746354,3.2933816],[-51.1858063,3.2660933],[-51.192491,3.2259306],[-51.2247439,3.2149151],[-51.2542125,3.1893393],[-51.2454065,3.1791586],[-51.2396784,3.1422794],[-51.2561407,3.1192541],[-51.2910907,3.1181827],[-51.2871172,3.0964435],[-51.309054,3.0692069],[-51.3592187,3.0521785],[-51.3843839,3.0234942],[-51.4010311,2.9801431],[-51.4407561,2.9361239],[-51.4246247,2.9135109],[-51.43633,2.883664],[-51.4659529,2.8705464],[-51.4823744,2.838216],[-51.5249155,2.8245203],[-51.5175401,2.7976987],[-51.5344753,2.7562194],[-51.5586503,2.7205405],[-51.5601703,2.7012366],[-51.5984957,2.6720271],[-51.6200288,2.6354058],[-51.6410036,2.6184091],[-51.657047,2.5854058],[-51.6392507,2.5680727],[-51.6473318,2.5444472],[-51.6435884,2.5441504],[-51.6660193,2.5329014],[-51.6683961,2.533495],[-51.6853902,2.5238783],[-51.6963596,2.469348],[-51.7537659,2.4109218],[-51.7615675,2.3899317],[-51.7722304,2.3789686],[-51.7971196,2.3881893],[-51.8214295,2.3720529],[-51.8468462,2.3954558],[-51.851819,2.3659554],[-51.8873716,2.3401081],[-51.8960134,2.356939],[-51.9151087,2.3558571],[-51.9408719,2.3782649],[-51.9554865,2.4062243],[-51.9985135,2.4213919],[-51.9940933,2.4245405],[-52.0046271,2.4332869],[-52.0106775,2.4398946]],[[-52.0106775,2.4398946],[-52.0158435,2.4365365]],[[-52.0077949,1.3202585],[-51.9906253,1.31674]],[[-51.9906253,1.31674],[-51.9688318,1.3381265],[-51.9727713,1.3641639],[-51.9538945,1.3928812],[-51.9486965,1.3950691],[-51.9236916,1.3868095],[-51.8776211,1.432319],[-51.8673893,1.4663138],[-51.8363657,1.4980928],[-51.8218661,1.5211747],[-51.7992139,1.5344659],[-51.7800088,1.5718228],[-51.7389654,1.5902257],[-51.7232962,1.6189692],[-51.7030055,1.7098714],[-51.7077876,1.7340232],[-51.6966543,1.7514298],[-51.6900574,1.7912122],[-51.6470664,1.8763231]],[[-50.4010815,1.1915331],[-50.4132031,1.187731],[-50.4269885,1.1868993],[-50.4329305,1.1846418],[-50.4506376,1.1694336]],[[-50.4506376,1.1694336],[-50.4707215,1.1245212],[-50.4675128,1.0961239],[-50.484388,1.0686768],[-50.505185,1.0570325],[-50.531092,1.0419424],[-50.540005,1.0708156],[-50.5647236,1.0920841],[-50.5902742,1.077707],[-50.6016828,1.0949357],[-50.6234304,1.0893512],[-50.6336506,1.0889948]],[[-50.6336506,1.0889948],[-50.6426824,1.0793705],[-50.6442273,1.0727167],[-50.6430389,1.0655875],[-50.63781,1.0529927],[-50.6315115,1.0439624]],[[-50.6315115,1.0439624],[-50.6534968,1.024357],[-50.69414,1.0582207],[-50.7290788,1.0390907],[-50.75047,1.0419424],[-50.7950348,1.0299416],[-50.8146434,1.0020187],[-50.8089391,0.9783731],[-50.8202288,0.9632826],[-50.8545735,0.9538956],[-50.8763211,0.9733826],[-50.8874921,0.9921565]],[[-50.8874921,0.9921565],[-50.8930386,0.9933561]],[[-50.8930386,0.9933561],[-50.894039,0.990763],[-50.8924314,0.9873929],[-50.8935712,0.9842539],[-50.8997508,0.9783128],[-50.9079507,0.9619153],[-50.9242318,0.9412401],[-50.9147246,0.9271],[-50.9137739,0.8962056],[-50.9376607,0.8925221],[-50.9512234,0.8589061],[-50.951668,0.8290315]],[[-50.951668,0.8290315],[-50.9494526,0.8254707],[-50.9341147,0.816364],[-50.9205657,0.8056966],[-50.8941358,0.798081]],[[-50.8941358,0.798081],[-50.8790368,0.7998765]],[[-50.8790368,0.7998765],[-50.8482139,0.8190117],[-50.8182483,0.8263477],[-50.804272,0.8407883],[-50.7687593,0.8224917],[-50.7170469,0.8171682],[-50.699825,0.8236562],[-50.6943487,0.8339444],[-50.6689638,0.8460432],[-50.6584788,0.8735239],[-50.6221666,0.869448],[-50.6102311,0.8867966],[-50.5774988,0.8738248],[-50.5270569,0.8801234],[-50.4957371,0.9286031],[-50.4655519,0.9175524],[-50.4421405,0.927296],[-50.4373869,0.9484466],[-50.4196798,0.9610419],[-50.4010462,0.935499],[-50.3865618,0.9310428],[-50.3683635,0.9330233],[-50.3699729,0.9389648]],[[-50.3699729,0.9389648],[-50.3660113,0.9414405],[-50.3622974,0.9414405],[-50.3575931,0.9342611],[-50.3417469,0.9255964],[-50.3392709,0.9265867],[-50.3294909,0.9437923]],[[-50.3294909,0.9437923],[-50.3072798,0.9443472],[-50.1861695,1.0504527],[-50.1885673,1.0823767],[-50.1745147,1.1004747],[-50.1487898,1.1026373],[-50.1383355,1.1313329],[-50.1114101,1.1396653],[-50.0919451,1.1574042],[-50.070621,1.1970684],[-50.0672095,1.2167556]],[[-50.0672095,1.2167556],[-50.0761271,1.2155694],[-50.0979216,1.2085234],[-50.1202634,1.2040085]],[[-50.124304,1.280048],[-50.1231156,1.2940675],[-50.1240663,1.3137898],[-50.1319097,1.3289972]],[[-51.3971731,1.3011541],[-51.3890449,1.3228085]],[[-51.3890449,1.3228085],[-51.500865,1.3237249],[-51.9906253,1.31674]],[[-51.9906253,1.31674],[-51.9823632,1.3024372]],[[-51.8127791,0.9856743],[-51.7982806,0.9810403]],[[-51.7832356,0.9940156],[-51.7726113,0.9944672],[-51.7404058,0.978545],[-51.7161625,0.9944672],[-51.7045162,0.9866249],[-51.7030188,0.9763112],[-51.6889957,0.9940394],[-51.6714788,0.9967248],[-51.6715976,0.9797332],[-51.6626846,0.9592957],[-51.637253,0.9537111],[-51.5959725,0.9238112],[-51.603085,0.8925781],[-51.6271263,0.8651294],[-51.6165614,0.8350187],[-51.5387038,0.8780365],[-51.5113261,0.8785709],[-51.4853327,0.8549525],[-51.4844058,0.8204089],[-51.4721653,0.7923655],[-51.4505365,0.7672927],[-51.39703,0.7358901],[-51.3785142,0.7404667],[-51.3536901,0.7801118],[-51.3386626,0.7360794],[-51.3591754,0.7213281],[-51.366519,0.6861824]],[[-51.366519,0.6861824],[-51.356943,0.6567144],[-51.3394439,0.6500186]],[[-51.3394439,0.6500186],[-51.2798698,0.6331195],[-51.2506414,0.6111953],[-51.2009691,0.595653],[-51.1632642,0.5688121],[-51.1504275,0.5580214],[-51.149316,0.5530536],[-51.1265226,0.5336315],[-51.1321087,0.5169917],[-51.1025673,0.4766938],[-51.0512085,0.440698],[-51.0476042,0.4279171],[-51.0482827,0.4233493]],[[-51.0482827,0.4233493],[-51.0291634,0.4284651]],[[-51.0291634,0.4284651],[-51.0331089,0.4546566],[-51.0143322,0.4572234],[-51.0018906,0.4964842],[-50.97533,0.5030201],[-50.9404505,0.4965436],[-50.9263497,0.5116261],[-50.9592537,0.5293963],[-50.9634651,0.5337],[-50.9871133,0.5501744],[-50.9984516,0.5842336],[-50.9952771,0.5991645],[-50.9908606,0.6031117],[-50.9886405,0.6168119],[-50.9872985,0.6188017],[-50.991631,0.6381921],[-50.993344,0.653141],[-50.9739544,0.6962076],[-50.9131759,0.7280937],[-50.9117855,0.7609264],[-50.908022,0.7811485],[-50.8868372,0.7980493]],[[-50.8868372,0.7980493],[-50.8941358,0.798081]],[[-50.8941358,0.798081],[-50.916255,0.8035902],[-50.9255045,0.8089894],[-50.940948,0.8209759],[-50.9482854,0.8244855],[-50.951668,0.8290315]],[[-50.8930386,0.9933561],[-50.9079325,0.9918]],[[-50.9079325,0.9918],[-50.9450104,0.9939388],[-50.9609349,0.9825319],[-50.9823261,0.9819378],[-50.9880304,0.9594803],[-51.0113697,0.9469441],[-51.0312813,0.9898925],[-51.0330877,1.0003964],[-51.042072,1.008999],[-51.0549066,1.0170313],[-51.0654596,1.0190275],[-51.070023,1.0175542],[-51.0723523,1.0179819],[-51.0941642,1.0208354],[-51.1274987,1.0093929],[-51.153168,1.0301747],[-51.1721104,1.0328505],[-51.1815938,1.0353457],[-51.1836616,1.030177],[-51.1936442,1.0185207],[-51.2044722,0.9962656],[-51.2361602,0.9558757],[-51.264935,0.9797808],[-51.2951909,0.9755498],[-51.3109536,0.9836944],[-51.3463932,0.9794634],[-51.3679744,0.9543948],[-51.4095498,0.9975508],[-51.4066983,1.0505643],[-51.4283315,1.061589],[-51.4666621,1.0675739],[-51.4828269,1.0875157],[-51.4487733,1.1263565],[-51.4452081,1.182081],[-51.4349285,1.1892693],[-51.4439009,1.2357133],[-51.4296401,1.2653686],[-51.4145475,1.2691705],[-51.4040848,1.2892833],[-51.3971731,1.3011541]],[[-50.6448219,0.2087487],[-50.5963071,0.2503658],[-50.556148,0.3067173],[-50.5238924,0.3723908],[-50.5039997,0.4350876],[-50.4859901,0.458905],[-50.4712839,0.4996793],[-50.4672645,0.5309222],[-50.4365469,0.600107],[-50.4098614,0.6233435]],[[-50.4098614,0.6233435],[-50.4471775,0.667265],[-50.4372607,0.6905029],[-50.4514501,0.7054756],[-50.4566553,0.7299308],[-50.4806134,0.7301447],[-50.4992237,0.7503933],[-50.5035375,0.7541127],[-50.5172279,0.7615989],[-50.5211496,0.7566081],[-50.565251,0.7703507],[-50.5711692,0.7662154],[-50.5672475,0.7648608],[-50.5682457,0.7521698],[-50.5810804,0.7430081],[-50.6129532,0.7530254],[-50.6207596,0.7343677],[-50.6259292,0.6880951],[-50.62514,0.6330313],[-50.6417338,0.622535],[-50.6444129,0.599927],[-50.6591015,0.5982158],[-50.6694049,0.6139374],[-50.7098375,0.624142],[-50.7124401,0.6419312],[-50.7470161,0.6430747],[-50.752245,0.6585823],[-50.802633,0.7153835],[-50.8278983,0.7500462],[-50.8501926,0.7554292],[-50.8909871,0.6747211],[-50.9072216,0.6858091],[-50.9399738,0.6693153],[-50.920294,0.637611],[-50.9067242,0.5679098],[-50.8769698,0.5792169],[-50.8214648,0.5510125],[-50.7958551,0.5248815],[-50.7796087,0.5450736],[-50.7627736,0.5347515],[-50.7456206,0.4725249],[-50.7311221,0.4744857],[-50.718154,0.4444485],[-50.7007704,0.4331307],[-50.6840825,0.3804544],[-50.6875074,0.3386479],[-50.7093597,0.3206251],[-50.7047217,0.2985176],[-50.6448219,0.2087487]],[[-53.2791849,2.185988],[-53.2763001,2.2251513],[-53.229515,2.2623791],[-53.2828219,2.3097569],[-53.3060226,2.3155035],[-53.3232962,2.3471142],[-53.3600212,2.3493119],[-53.367632,2.3206454],[-53.440381,2.2802968],[-53.4613234,2.2910155],[-53.4730772,2.256739],[-53.5202433,2.2665094],[-53.5499143,2.258324],[-53.5842436,2.2689267],[-53.59813,2.2845377],[-53.6562953,2.2845212],[-53.6533251,2.3024201],[-53.6822124,2.3011925],[-53.7485209,2.3224815],[-53.7279918,2.3510786],[-53.7416335,2.3749994],[-53.7672199,2.3789234],[-53.7996331,2.3650322],[-53.8240499,2.3176321],[-53.842076,2.3076565],[-53.859581,2.320001],[-53.8839168,2.3163369],[-53.8878011,2.2987991],[-53.9420777,2.2780862],[-53.9356883,2.2593974],[-53.9749109,2.2323926],[-54.0012416,2.22999],[-54.1890791,2.1788275],[-54.4365792,2.2098867],[-54.6016931,2.3371661],[-54.6622491,2.326987],[-54.6920868,2.3613963],[-54.6849188,2.4468238],[-54.7440324,2.4714862],[-54.7973939,2.4390171],[-54.8722509,2.4337466],[-54.8746964,2.4153254],[-54.80756,2.3416749],[-54.7961664,2.3179651],[-54.8072223,2.2978941],[-54.8114203,2.266378],[-54.7631109,2.2023191],[-54.7678915,2.1809114],[-54.8062543,2.1389277],[-54.8038049,2.0258228],[-54.7909708,2.0072571],[-54.7690252,1.9962038],[-54.7559997,1.9742069],[-54.7701983,1.9256957],[-54.7530882,1.87572],[-54.7531955,1.850985],[-54.7384599,1.8248356],[-54.7544217,1.797808],[-54.7447791,1.7758008],[-54.6952474,1.7734627],[-54.6711959,1.7656566],[-54.6436397,1.7686],[-54.6019171,1.7845734],[-54.528107,1.7649425],[-54.4959444,1.7469426],[-54.4571677,1.7583028],[-54.4346093,1.7541004],[-54.4039456,1.7597567],[-54.3516918,1.7540727],[-54.3414715,1.7398184],[-54.3093044,1.7410503],[-54.2695781,1.7048118],[-54.2627439,1.6883824],[-54.2008834,1.6455793],[-54.1857503,1.6537353],[-54.1436637,1.640612],[-54.1019449,1.5843053],[-54.1175262,1.5581747],[-54.0987782,1.5505238],[-54.06916,1.5009694],[-54.0519674,1.4944892],[-54.0202741,1.5157631],[-53.9995265,1.5047707],[-53.9974678,1.4757713],[-53.9670765,1.4843951],[-53.8959981,1.4551258],[-53.876742,1.4354522],[-53.8877512,1.4077873],[-53.8646576,1.4060099],[-53.820106,1.3891676],[-53.8074907,1.4020131],[-53.7837222,1.4028539],[-53.7323267,1.3862888],[-53.7134356,1.3964326],[-53.7014598,1.3779189],[-53.6648539,1.3752498],[-53.6552427,1.4067108],[-53.6412708,1.3991357],[-53.6435234,1.3638863],[-53.6332463,1.3473586],[-53.5952181,1.3581541],[-53.5706899,1.337302],[-53.5456272,1.3474523],[-53.5333853,1.3224288],[-53.5626334,1.3065819],[-53.5527117,1.2802892],[-53.5233275,1.2613389],[-53.5463212,1.2285074],[-53.5252098,1.2117165],[-53.4699094,1.2399701],[-53.438769,1.232134],[-53.3960801,1.1792925],[-53.4044098,1.1511736],[-53.4443579,1.1513192],[-53.4591576,1.1336804],[-53.4558237,1.0773718],[-53.4359634,1.0595801],[-53.4223294,1.0337374],[-53.4268299,0.992426],[-53.4108033,0.9820425],[-53.4114942,0.9293442],[-53.3219937,0.8720013],[-53.2874946,0.8457159],[-53.2551477,0.8092116],[-53.1902726,0.7683835],[-53.1846077,0.7475027],[-53.1574069,0.7290729],[-53.1469379,0.6997862],[-53.1241293,0.6973549],[-53.1057436,0.6794615],[-53.1227118,0.6300909],[-53.1473221,0.6003346],[-53.1548478,0.5633555],[-53.1520646,0.5318937],[-53.1697689,0.4937348],[-53.1551284,0.4801797],[-53.1677453,0.4457283],[-53.1612041,0.398538],[-53.1753105,0.3817172],[-53.136459,0.3260357],[-53.131376,0.2962017],[-53.1119333,0.2865299],[-53.0941268,0.2589577],[-53.1058506,0.2373476],[-53.0942925,0.195307],[-53.0521271,0.1573389],[-53.029266,0.1047191],[-53.0111292,0.0950459],[-53.0149667,0.0596921],[-52.9772926,0.0237963],[-52.9710222,-0.0431101],[-52.9600174,-0.0632217],[-52.9327437,-0.1423073],[-52.9040129,-0.1549377],[-52.8641028,-0.1447643],[-52.8447693,-0.1597267],[-52.8360989,-0.1861492],[-52.7604398,-0.2375744],[-52.7544268,-0.2621886],[-52.7162419,-0.292696],[-52.7009011,-0.2928425],[-52.6841716,-0.3143137],[-52.6818497,-0.3399645],[-52.6973482,-0.3929354],[-52.6810757,-0.415085],[-52.70068,-0.4529291],[-52.6910184,-0.47716],[-52.6954363,-0.4964017],[-52.640009,-0.5849061],[-52.61299,-0.5948934],[-52.5763261,-0.5764098],[-52.5351798,-0.5740876],[-52.5131837,-0.6196459],[-52.5103877,-0.679184],[-52.4971522,-0.7229462],[-52.5018249,-0.7467625],[-52.5182377,-0.7755192],[-52.5169699,-0.8090464],[-52.5418462,-0.8365449],[-52.5374751,-0.8583778],[-52.5110746,-0.8566591],[-52.4684059,-0.8410944],[-52.4555179,-0.8302661]],[[-52.4555179,-0.8302661],[-52.3704954,-0.7976091],[-52.3079903,-0.7974238],[-52.2663508,-0.8026787],[-52.2353486,-0.8132702],[-52.2187586,-0.8300784],[-52.1992099,-0.8342257],[-52.18855,-0.8401968],[-52.1727681,-0.872066],[-52.1389061,-0.9127819],[-52.0794924,-0.9103524],[-52.0659444,-0.9188242],[-52.0605252,-0.9205038],[-52.0497941,-0.9041896],[-52.0079811,-0.8902638],[-51.9763104,-0.8672116],[-51.9593757,-0.8675681],[-51.9518294,-0.8693505],[-51.9375686,-0.8722023]],[[-51.9375686,-0.8722023],[-51.9379846,-0.8703011]],[[-51.9379846,-0.8703011],[-51.9495454,-0.8575911],[-51.9514468,-0.8391016],[-51.9386597,-0.8045466],[-51.9447918,-0.7816365],[-51.9349044,-0.7686604],[-51.9466457,-0.7491725],[-51.9688395,-0.7468336],[-51.9806318,-0.6953194],[-51.993615,-0.683763],[-52.0238626,-0.6831934],[-52.0428983,-0.6543543],[-52.0437154,-0.6493309],[-52.0494352,-0.6431575],[-52.0522716,-0.6454333],[-52.0519981,-0.6332207],[-52.0484375,-0.6045019],[-52.0555651,-0.5762318],[-52.0754385,-0.5485903],[-52.0837075,-0.5164155],[-52.0645818,-0.4880093],[-52.0819234,-0.4469692],[-52.0840422,-0.3320982],[-52.1008699,-0.3284618],[-52.1258975,-0.2908139],[-52.1480017,-0.2847888],[-52.1976325,-0.2567874],[-52.2368243,-0.2593031],[-52.2867087,-0.252003],[-52.3358498,-0.1976639],[-52.3381078,-0.1706875],[-52.3524874,-0.1427603],[-52.4362365,-0.1077231],[-52.4722951,-0.1069032],[-52.4989398,-0.1145329],[-52.5216874,-0.1406681],[-52.5511426,-0.1445825],[-52.54444,-0.1108322],[-52.529395,-0.0775571],[-52.532461,-0.0639143],[-52.5221457,-0.0156417],[-52.5057459,-0.0150475],[-52.5058647,0.0215551],[-52.5168487,0.064512],[-52.5034279,0.1095832],[-52.5009094,0.1672582],[-52.490404,0.1897425],[-52.4892156,0.2226371],[-52.4948724,0.2519665],[-52.48836,0.2533925],[-52.4879321,0.2611883],[-52.4892156,0.2687465],[-52.4950625,0.2875704],[-52.5400801,0.3534363],[-52.5551014,0.357667],[-52.5733076,0.3837161],[-52.5738305,0.4059148],[-52.5727847,0.4125221],[-52.5822444,0.4397594],[-52.5922744,0.4476501],[-52.593653,0.4591059],[-52.5997376,0.4632414],[-52.6079027,0.4837169],[-52.6143201,0.4953152],[-52.6305773,0.4944596],[-52.6330967,0.5030633],[-52.6321935,0.5193199],[-52.663995,0.5464142],[-52.6864319,0.6013153],[-52.6907577,0.6498465],[-52.6837916,0.7034235],[-52.674942,0.7274095],[-52.6784248,0.7597919],[-52.7260084,0.7833532],[-52.7482908,0.8031381],[-52.7520937,0.8131791],[-52.7537574,0.8176351],[-52.752985,0.8238141]],[[-52.752985,0.8238141],[-52.7555986,0.8255548]],[[-53.059126,1.9339267],[-53.0589177,1.9465615]],[[-53.0589177,1.9465615],[-53.0782395,1.9507851],[-53.0971038,1.9782638]],[[-53.0971038,1.9782638],[-53.1104586,1.9805579],[-53.1136569,1.9854462],[-53.1162322,2.0070231]],[[-53.1162322,2.0070231],[-53.1330392,2.0189701],[-53.1391741,2.1009381],[-53.2025527,2.1336794],[-53.2469508,2.1510126],[-53.2791849,2.185988]],[[-50.0418293,1.2142264],[-50.0672095,1.2167556]],[[-50.3294909,0.9437923],[-50.3325858,0.9368606],[-50.3406327,0.9259678],[-50.3438515,0.9262153],[-50.3559837,0.9330233],[-50.3605642,0.9400789],[-50.3642782,0.941688],[-50.3699729,0.9389648]],[[-50.8790368,0.7998765],[-50.8868372,0.7980493]],[[-51.0291634,0.4284651],[-51.0402392,0.4299862],[-51.0524989,0.4214402],[-51.0542458,0.423401]],[[-51.0542458,0.423401],[-51.0536398,0.4342389],[-51.0808778,0.4374118],[-51.1033028,0.4114936],[-51.1122633,0.4036979],[-51.1167507,0.3754397],[-51.1365732,0.3368223],[-51.1298801,0.3145569],[-51.1393017,0.308981],[-51.1440754,0.3147403],[-51.168283,0.3148116],[-51.1832568,0.3099274],[-51.201261,0.3156316],[-51.2089618,0.3225836],[-51.2075357,0.37795],[-51.2173931,0.3982301],[-51.2359677,0.4043264],[-51.2619223,0.4458954],[-51.3116404,0.4749309],[-51.3307446,0.4671346],[-51.36854,0.486961],[-51.411447,0.4842761],[-51.4177462,0.4957382],[-51.4440274,0.5099368],[-51.4608598,0.5058063],[-51.4855404,0.4790097],[-51.4931304,0.467909]],[[-51.4931304,0.467909],[-51.4871723,0.4682281],[-51.4804698,0.462619],[-51.4780454,0.4566297]],[[-51.4780454,0.4566297],[-51.4768095,0.4429873],[-51.4908801,0.4332903],[-51.4876952,0.4284418],[-51.4805648,0.4300104],[-51.4615505,0.4234506],[-51.4576526,0.3930285],[-51.4461489,0.3712575],[-51.4154407,0.3673121],[-51.3898301,0.3370074],[-51.3857876,0.3131048],[-51.3674625,0.3013399],[-51.3248495,0.227435],[-51.2907425,0.2048081],[-51.2705992,0.1638918],[-51.2273416,0.1745873],[-51.1881585,0.1546588],[-51.1933145,0.0992863],[-51.2089565,0.0911459],[-51.2112525,0.0768144],[-51.2168281,0.0794402],[-51.2182343,0.066824],[-51.2433043,0.0406098],[-51.2487601,0.0327206],[-51.2423288,0.0300267],[-51.2349504,0.034337],[-51.2334818,0.0142109],[-51.2036111,0],[-51.1052498,-7e-9],[-51.1234644,-0.015225],[-51.1339638,-0.022505],[-51.1344428,-0.0271667],[-51.1412892,-0.0383358],[-51.1410153,-0.0566561],[-51.118394,-0.0975378]],[[-51.118394,-0.0975378],[-51.0656742,-0.0762263],[-51.0173382,-0.0107236],[-50.9969123,0.0034511],[-50.9809629,0.0354058],[-50.9210933,0.0761336],[-50.8035185,0.1063234],[-50.7619561,0.120978],[-50.7264617,0.1416011],[-50.6681975,0.1850345],[-50.6448219,0.2087487]],[[-50.4098614,0.6233435],[-50.35857,0.6600921],[-50.3285877,0.6743485],[-50.2260218,0.6962486],[-50.2312447,0.7301393],[-50.2203937,0.7431222],[-50.1661412,0.754426],[-50.153397,0.7497434],[-50.097362,0.7670499],[-50.0367518,0.8325227],[-50.0202612,0.85877],[-49.9861348,0.8833451],[-50.0024735,0.9064127],[-49.989014,0.9395151],[-49.9668027,0.9437079],[-49.9376914,0.9662236],[-49.9274107,0.9846554],[-49.8897824,1.013597],[-49.88467,1.0471377],[-49.8860731,1.1111501],[-49.883083,1.169077],[-49.894451,1.1821584],[-49.901625,1.2402934]],[[-52.7472292,0.8163723],[-52.752985,0.8238141]],[[-51.9379846,-0.8703011],[-51.9298441,-0.8785595]],[[-51.9298441,-0.8785595],[-51.8842691,-0.8899667],[-51.8729793,-0.8857484],[-51.839823,-0.9155735],[-51.8325738,-0.9178905],[-51.8367332,-0.911474],[-51.8233043,-0.9093352],[-51.8254435,-0.8756482],[-51.8129059,-0.8654886],[-51.8039335,-0.8713705],[-51.7470687,-0.8616268],[-51.7434441,-0.8562202],[-51.7345906,-0.8518236],[-51.7291239,-0.8496253],[-51.7393699,-0.8430316],[-51.7296251,-0.8323371],[-51.7199397,-0.8081558],[-51.6835071,-0.7955224]],[[-51.6835071,-0.7955224],[-51.6340104,-0.7105308],[-51.5955362,-0.6504378],[-51.5151162,-0.5660446],[-51.4867025,-0.5456097],[-51.4577885,-0.513234],[-51.4324792,-0.4733425],[-51.4236695,-0.4366112],[-51.3683699,-0.3762575],[-51.3459511,-0.2961077],[-51.3230321,-0.2637693],[-51.3024816,-0.2526427],[-51.2350362,-0.1436392],[-51.2080541,-0.1170073]],[[-51.2080541,-0.1170073],[-51.2179824,-0.0874011],[-51.2520538,-0.0844535],[-51.2698451,-0.091778],[-51.2875774,-0.0790903],[-51.3167555,-0.0746178],[-51.3288952,-0.082498],[-51.3634145,-0.0690971],[-51.3777451,-0.0716615],[-51.4051117,-0.0506701],[-51.4343224,-0.0343891],[-51.4495619,0.012732],[-51.4696178,0.0172586],[-51.4902959,0.0375089],[-51.5204812,0.044877],[-51.5349796,0.0630594],[-51.532484,0.0758941],[-51.5716844,0.1415334],[-51.5703463,0.1664259],[-51.5712851,0.2124998]],[[-51.5712851,0.2124998],[-51.5693243,0.2171939]],[[-51.5693243,0.2171939],[-51.5722474,0.2242968],[-51.5741132,0.2253307],[-51.5809821,0.230524],[-51.5797343,0.2321164],[-51.5911666,0.2400667],[-51.6088737,0.2452956],[-51.6245962,0.2721011],[-51.67275,0.2950368],[-51.6938441,0.3196957],[-51.6836239,0.3467313],[-51.6903858,0.3867081],[-51.7172555,0.4097149],[-51.7332394,0.4004456],[-51.7601685,0.4063399],[-51.7827361,0.4286693],[-51.7880542,0.433809],[-51.7927781,0.4431673],[-51.795244,0.4477425],[-51.8080192,0.4509511],[-51.812862,0.4486932],[-51.8557928,0.4322938],[-51.8754904,0.444118],[-51.9520885,0.4466638],[-51.9635922,0.4590082],[-52.0107002,0.4791033],[-52.0321864,0.4697034],[-52.0573448,0.490048],[-52.1052372,0.5085269],[-52.1439195,0.4876713],[-52.1644835,0.4687522],[-52.2003736,0.4577102],[-52.201927,0.4421767],[-52.238359,0.3912918],[-52.2355533,0.3655343],[-52.2807949,0.368001],[-52.2957483,0.3924346],[-52.3198605,0.3791618],[-52.3369612,0.3840602],[-52.3371627,0.4394712]],[[-52.3371627,0.4394712],[-52.3490188,0.432269]],[[-51.1508373,3.9138192],[-51.1792978,3.9194963],[-51.1756508,4.0108615],[-51.1886118,4.0778203],[-51.2143281,4.1459298],[-51.263846,4.2163122],[-51.2833624,4.2502674],[-51.3196099,4.2849169],[-51.3942265,4.3649768],[-51.4891822,4.437426],[-51.6376349,4.5088171],[-51.6693681,4.4538394],[-51.6637841,4.4235166],[-51.6791842,4.3660938],[-51.676804,4.332651],[-51.6493234,4.2672714],[-51.623141,4.225624],[-51.6218722,4.1950725],[-51.6349643,4.1763482],[-51.6375525,4.1332632],[-51.6560654,4.0539051],[-51.6757207,4.0360534],[-51.7457366,4.0014883],[-51.7776249,3.9745539],[-51.7815158,3.9241728],[-51.7986414,3.8869539],[-51.8234483,3.8585718],[-51.8564008,3.832667],[-51.8733752,3.80358],[-51.8980962,3.7838473],[-51.9171895,3.7818897],[-51.9227163,3.7231018],[-51.951969,3.7222908],[-51.9726057,3.7054668],[-51.9934118,3.6438007],[-51.9882722,3.6277233],[-52.0197729,3.5930574],[-52.0604098,3.5196807],[-52.0928151,3.4790486],[-52.1742298,3.3305014],[-52.2343395,3.2401105],[-52.2604514,3.2530006],[-52.2925133,3.2264208],[-52.3027255,3.1999565],[-52.3013258,3.1730521],[-52.3295818,3.171871],[-52.3528862,3.1269871],[-52.3385645,3.1167915],[-52.3431253,3.0932779],[-52.3259446,3.0778089],[-52.3524754,3.0229764],[-52.362108,3.0171252],[-52.3684678,2.9817722],[-52.39513,2.9278241],[-52.3771935,2.9161691],[-52.3910709,2.8975584],[-52.422241,2.8910104],[-52.4734545,2.793888],[-52.4752666,2.7639579],[-52.5071942,2.6978903],[-52.5199305,2.6838762],[-52.5293373,2.6516085],[-52.5428089,2.6537504],[-52.5414088,2.6069983],[-52.5276727,2.5810519],[-52.5612072,2.5502874],[-52.5520602,2.5200208],[-52.5880721,2.4938238],[-52.5947842,2.4763714],[-52.6168126,2.4756753],[-52.6163961,2.4455979],[-52.6357502,2.4452723],[-52.6581531,2.4013383],[-52.660581,2.3739738],[-52.7104685,2.3586243],[-52.7174186,2.3429196],[-52.779136,2.3178877],[-52.7937237,2.3044706],[-52.8418319,2.2913958],[-52.8876787,2.2383708],[-52.9042871,2.1891852],[-52.9390805,2.1899297],[-52.9565133,2.1729696],[-52.9878421,2.1680785],[-52.9976528,2.1781614],[-53.0529534,2.1901171],[-53.0845186,2.2127428],[-53.1386568,2.2118983],[-53.2206887,2.1936133],[-53.2427685,2.2075778],[-53.2791849,2.185988]],[[-53.1162322,2.0070231],[-53.1153228,1.9932155],[-53.1119786,1.9822732],[-53.1080942,1.9796813],[-53.0971038,1.9782638]],[[-53.0589177,1.9465615],[-53.0527996,1.963754]],[[-52.8805998,2.0306617],[-52.8679378,2.0247666]],[[-52.0215643,2.4342881],[-52.0106775,2.4398946]],[[-52.3480961,0.4325119],[-52.3371627,0.4394712]],[[-51.5693243,0.2171939],[-51.5650332,0.2188819]],[[-51.5650332,0.2188819],[-51.5457584,0.2358991],[-51.5477073,0.2600471],[-51.5279324,0.2975405],[-51.5360254,0.3553313],[-51.5256863,0.3994555],[-51.5369644,0.4196836],[-51.5151261,0.4295985]],[[-51.5151261,0.4295985],[-51.5109438,0.4571697],[-51.5087752,0.4606806],[-51.4931304,0.467909]],[[-51.0542458,0.423401],[-51.0516433,0.421155],[-51.0482827,0.4233493]],[[-51.3394439,0.6500186],[-51.3570628,0.6568443],[-51.366519,0.6861824]],[[-51.3890449,1.3228085],[-51.3894248,1.3326145]],[[-51.3894248,1.3326145],[-51.3792759,1.3790916],[-51.3824608,1.4037791],[-51.3682,1.4092916],[-51.3774232,1.4522805],[-51.3995737,1.4616359],[-51.4036142,1.4915736],[-51.4218914,1.5236974],[-51.4448516,1.530183],[-51.4406922,1.5602385],[-51.4459212,1.5891057],[-51.4276199,1.6395626],[-51.3802559,1.6622374],[-51.3527894,1.6774418],[-51.3145661,1.6922516],[-51.2697838,1.6798041],[-51.2561639,1.6798274],[-51.234836,1.6527196],[-51.2050098,1.6382206],[-51.1863701,1.638926],[-51.1699231,1.6332393],[-51.1554801,1.6077382],[-51.1388616,1.6098447],[-51.0895955,1.5990528],[-51.0543412,1.6162997],[-51.0283885,1.6468349],[-51.012674,1.632923],[-51.0171735,1.6091086],[-50.9788622,1.5987214],[-50.952446,1.6017165],[-50.9326085,1.6194124],[-50.9118828,1.594751],[-50.8896361,1.5835369],[-50.8650125,1.5939432],[-50.5605847,1.4724751]],[[-51.4780454,0.4566297],[-51.4816582,0.4644728],[-51.4891688,0.4683707],[-51.4945761,0.467496],[-51.5102726,0.4590284],[-51.5128542,0.441577],[-51.514713,0.4377563],[-51.5151261,0.4295985]],[[-51.5650332,0.2188819],[-51.5712851,0.2124998]],[[-51.2080541,-0.1170073],[-51.1748986,-0.1045348],[-51.118394,-0.0975378]],[[-51.3894248,1.3326145],[-51.3887118,1.3238703],[-51.3971731,1.3011541]],[[-50.9079325,0.9918],[-50.8937906,0.9934635],[-50.8874921,0.9921565]],[[-50.6315115,1.0439624],[-50.6408998,1.0595277],[-50.6436331,1.0680827],[-50.6441085,1.075093],[-50.6398303,1.0835291],[-50.6336506,1.0889948]],[[-50.4506376,1.1694336],[-50.4366145,1.1819091],[-50.4297218,1.1860676],[-50.4229971,1.1873416]],[[-52.4555179,-0.8302661],[-52.4123998,-0.8626599],[-52.4012064,-0.8819116],[-52.4047158,-0.9127377],[-52.4376793,-0.9288754],[-52.4355954,-0.9501671],[-52.4199283,-0.9659632],[-52.4167912,-1.0256118],[-52.4001787,-1.0436305],[-52.3581556,-1.0625844],[-52.3329879,-1.1158915],[-52.3127909,-1.1142085],[-52.2655945,-1.1289777],[-52.2451946,-1.1253785],[-52.2147327,-1.1349578],[-52.1789319,-1.1295951],[-52.1467312,-1.1487914],[-52.1202623,-1.146198],[-52.1067638,-1.1830679],[-52.1098719,-1.2181159],[-52.070459,-1.2359841],[-52.0475632,-1.2142842],[-52.062961,-1.1928913],[-52.0409005,-1.1701323],[-51.9911221,-1.171816],[-51.9939523,-1.1347229],[-51.974985,-1.1206175],[-51.9619572,-1.1344374],[-51.9659296,-1.1596028],[-51.9469037,-1.1660067],[-51.9229007,-1.1329634],[-51.8872859,-1.1663971],[-51.8090963,-1.1571011],[-51.7783994,-1.1404123],[-51.7554288,-1.1141725],[-51.7043365,-1.067741],[-51.6881858,-1.0392483],[-51.6856469,-1.0128623],[-51.6955895,-0.924719],[-51.6835071,-0.7955224]],[[-51.9298441,-0.8785595],[-51.9375686,-0.8722023]]],"bbox":[-54.8746964,-1.2359841,-49.8758387,4.5088171]}
