{"type":"Topology","objects":{"geometrias":{"type":"GeometryCollection","geometries":[{"type":"Polygon","arcs":[[0,1,2,3,4,5,6,7,8,9,10,11,12,13,14]],"properties":{"code_muni":1100015,"abbrev_state":"RO","name_state":"Rondônia","name_region":"Norte","name_muni":"Alta Floresta d'Oeste","code_state":11,"code_region":1,"year":2020}},{"type":"Polygon","arcs":[[15,16,17,18,19,20,21,22,23,24]],"properties":{"code_muni":1100023,"abbrev_state":"RO","name_state":"Rondônia","name_region":"Norte","name_muni":"Ariquemes","code_state":11,"code_region":1,"year":2020}},{"type":"Polygon","arcs":[[25,26]],"properties":{"code_muni":1100031,"abbrev_state":"RO","name_state":"Rondônia","name_region":"Norte","name_muni":"Cabixi","code_state":11,"code_region":1,"year":2020}},{"type":"Polygon","arcs":[[27,28,29,30,31,32,33,34,35,36,37]],"properties":{"code_muni":1100049,"abbrev_state":"RO","name_state":"Rondônia","name_region":"Norte","name_muni":"Cacoal","code_state":11,"code_region":1,"year":2020}},{"type":"Polygon","arcs":[[38,39,40,41,42,43]],"properties":{"code_muni":1100056,"abbrev_state":"RO","name_state":"Rondônia","name_region":"Norte","name_muni":"Cerejeiras","code_state":11,"code_region":1,"year":2020}},{"type":"Polygon","arcs":[[44,45,46,47,48,-42,49,50]],"properties":{"code_muni":1100064,"abbrev_state":"RO","name_state":"Rondônia","name_region":"Norte","name_muni":"Colorado do Oeste","code_state":11,"code_region":1,"year":2020}},{"type":"Polygon","arcs":[[51,52,53,-44,54,-48,55,56,57,58]],"properties":{"code_muni":1100072,"abbrev_state":"RO","name_state":"Rondônia","name_region":"Norte","name_muni":"Corumbiara","code_state":11,"code_region":1,"year":2020}},{"type":"Polygon","arcs":[[59,60,61,62,63]],"properties":{"code_muni":1100080,"abbrev_state":"RO","name_state":"Rondônia","name_region":"Norte","name_muni":"Costa Marques","code_state":11,"code_region":1,"year":2020}},{"type":"Polygon","arcs":[[64,-38,65,66,67,68]],"properties":{"code_muni":1100098,"abbrev_state":"RO","name_state":"Rondônia","name_region":"Norte","name_muni":"Espigão d'Oeste","code_state":11,"code_region":1,"year":2020}},{"type":"Polygon","arcs":[[69,-64,70,71,72,73,74,75,76,77]],"properties":{"code_muni":1100106,"abbrev_state":"RO","name_state":"Rondônia","name_region":"Norte","name_muni":"Guajará-Mirim","code_state":11,"code_region":1,"year":2020}},{"type":"Polygon","arcs":[[78,79,80,81,82,83,84,85,86,87]],"properties":{"code_muni":1100114,"abbrev_state":"RO","name_state":"Rondônia","name_region":"Norte","name_muni":"Jaru","code_state":11,"code_region":1,"year":2020}},{"type":"Polygon","arcs":[[88,89,90,91,92,93,94,95,96,97,98]],"properties":{"code_muni":1100122,"abbrev_state":"RO","name_state":"Rondônia","name_region":"Norte","name_muni":"Ji-Paraná","code_state":11,"code_region":1,"year":2020}},{"type":"Polygon","arcs":[[99,100,101,102,103,104,105,-25,106,107]],"properties":{"code_muni":1100130,"abbrev_state":"RO","name_state":"Rondônia","name_region":"Norte","name_muni":"Machadinho d'Oeste","code_state":11,"code_region":1,"year":2020}},{"type":"Polygon","arcs":[[108,109,110,111,112,-2,113,114,115,116]],"properties":{"code_muni":1100148,"abbrev_state":"RO","name_state":"Rondônia","name_region":"Norte","name_muni":"Nova Brasilândia d'Oeste","code_state":11,"code_region":1,"year":2020}},{"type":"Polygon","arcs":[[-94,117,118,119,120,121,122,123]],"properties":{"code_muni":1100155,"abbrev_state":"RO","name_state":"Rondônia","name_region":"Norte","name_muni":"Ouro Preto do Oeste","code_state":11,"code_region":1,"year":2020}},{"type":"Polygon","arcs":[[124,125,-67,126,-36,127,128,129,130,131,132,133,134,135,136]],"properties":{"code_muni":1100189,"abbrev_state":"RO","name_state":"Rondônia","name_region":"Norte","name_muni":"Pimenta Bueno","code_state":11,"code_region":1,"year":2020}},{"type":"Polygon","arcs":[[137,138,139,140,141,142,143,144,145,-101]],"properties":{"code_muni":1100205,"abbrev_state":"RO","name_state":"Rondônia","name_region":"Norte","name_muni":"Porto Velho","code_state":11,"code_region":1,"year":2020}},{"type":"Polygon","arcs":[[146,-99,147,148,-110,149,150,151,-31,152,153]],"properties":{"code_muni":1100254,"abbrev_state":"RO","name_state":"Rondônia","name_region":"Norte","name_muni":"Presidente Médici","code_state":11,"code_region":1,"year":2020}},{"type":"Polygon","arcs":[[154,155,156,-17,157,-105,158,159]],"properties":{"code_muni":1100262,"abbrev_state":"RO","name_state":"Rondônia","name_region":"Norte","name_muni":"Rio Crespo","code_state":11,"code_region":1,"year":2020}},{"type":"Polygon","arcs":[[-35,160,161,162,-13,163,164,165,166,167,-128]],"properties":{"code_muni":1100288,"abbrev_state":"RO","name_state":"Rondônia","name_region":"Norte","name_muni":"Rolim de Moura","code_state":11,"code_region":1,"year":2020}},{"type":"Polygon","arcs":[[168,-165,169,-11,170,171,172,173,174]],"properties":{"code_muni":1100296,"abbrev_state":"RO","name_state":"Rondônia","name_region":"Norte","name_muni":"Santa Luzia d'Oeste","code_state":11,"code_region":1,"year":2020}},{"type":"Polygon","arcs":[[175,-69,176,-125,177,178,179,-51]],"properties":{"code_muni":1100304,"abbrev_state":"RO","name_state":"Rondônia","name_region":"Norte","name_muni":"Vilhena","code_state":11,"code_region":1,"year":2020}},{"type":"Polygon","arcs":[[180,-73,181,182,183,184,185,-3,-113,186,187,188,189,190,191]],"properties":{"code_muni":1100320,"abbrev_state":"RO","name_state":"Rondônia","name_region":"Norte","name_muni":"São Miguel do Guaporé","code_state":11,"code_region":1,"year":2020}},{"type":"Polygon","arcs":[[192,-78,193,194,195,196,-139]],"properties":{"code_muni":1100338,"abbrev_state":"RO","name_state":"Rondônia","name_region":"Norte","name_muni":"Nova Mamoré","code_state":11,"code_region":1,"year":2020}},{"type":"Polygon","arcs":[[197,198,199,200,201,202,-188,203,-111,-149]],"properties":{"code_muni":1100346,"abbrev_state":"RO","name_state":"Rondônia","name_region":"Norte","name_muni":"Alvorada d'Oeste","code_state":11,"code_region":1,"year":2020}},{"type":"Polygon","arcs":[[204,-7,205,206,207,208,209,210,-172,211,-9]],"properties":{"code_muni":1100379,"abbrev_state":"RO","name_state":"Rondônia","name_region":"Norte","name_muni":"Alto Alegre dos Parecis","code_state":11,"code_region":1,"year":2020}},{"type":"Polygon","arcs":[[212,-142,213,-19,214,-156,215,216,217,218,219]],"properties":{"code_muni":1100403,"abbrev_state":"RO","name_state":"Rondônia","name_region":"Norte","name_muni":"Alto Paraíso","code_state":11,"code_region":1,"year":2020}},{"type":"Polygon","arcs":[[-141,220,-196,221,222,223,-214]],"properties":{"code_muni":1100452,"abbrev_state":"RO","name_state":"Rondônia","name_region":"Norte","name_muni":"Buritis","code_state":11,"code_region":1,"year":2020}},{"type":"Polygon","arcs":[[224,225,-115,226,-15,227,-162,228]],"properties":{"code_muni":1100502,"abbrev_state":"RO","name_state":"Rondônia","name_region":"Norte","name_muni":"Novo Horizonte do Oeste","code_state":11,"code_region":1,"year":2020}},{"type":"Polygon","arcs":[[229,230,231,-80,232,-21]],"properties":{"code_muni":1100601,"abbrev_state":"RO","name_state":"Rondônia","name_region":"Norte","name_muni":"Cacaulândia","code_state":11,"code_region":1,"year":2020}},{"type":"Polygon","arcs":[[-195,233,-76,234,235,236,237,-222]],"properties":{"code_muni":1100700,"abbrev_state":"RO","name_state":"Rondônia","name_region":"Norte","name_muni":"Campo Novo de Rondônia","code_state":11,"code_region":1,"year":2020}},{"type":"Polygon","arcs":[[-144,238,-220,239,240]],"properties":{"code_muni":1100809,"abbrev_state":"RO","name_state":"Rondônia","name_region":"Norte","name_muni":"Candeias do Jamari","code_state":11,"code_region":1,"year":2020}},{"type":"Polygon","arcs":[[241,-117,242,-225,243,-33,244,-151]],"properties":{"code_muni":1100908,"abbrev_state":"RO","name_state":"Rondônia","name_region":"Norte","name_muni":"Castanheiras","code_state":11,"code_region":1,"year":2020}},{"type":"Polygon","arcs":[[245,-135,246,247,248,249,-59,250,-57,251,-46,252,-179,253]],"properties":{"code_muni":1100924,"abbrev_state":"RO","name_state":"Rondônia","name_region":"Norte","name_muni":"Chupinguaia","code_state":11,"code_region":1,"year":2020}},{"type":"Polygon","arcs":[[254,255,256,-160,257,-103,258,-145]],"properties":{"code_muni":1100940,"abbrev_state":"RO","name_state":"Rondônia","name_region":"Norte","name_muni":"Cujubim","code_state":11,"code_region":1,"year":2020}},{"type":"Polygon","arcs":[[259,-235,-75,260,-192,261,-190,262,-202,263,264,265,-82,266,267]],"properties":{"code_muni":1101005,"abbrev_state":"RO","name_state":"Rondônia","name_region":"Norte","name_muni":"Governador Jorge Teixeira","code_state":11,"code_region":1,"year":2020}},{"type":"Polygon","arcs":[[-241,268,-218,269,-255]],"properties":{"code_muni":1101104,"abbrev_state":"RO","name_state":"Rondônia","name_region":"Norte","name_muni":"Itapuã do Oeste","code_state":11,"code_region":1,"year":2020}},{"type":"Polygon","arcs":[[-29,270,-154,271]],"properties":{"code_muni":1101203,"abbrev_state":"RO","name_state":"Rondônia","name_region":"Norte","name_muni":"Ministro Andreazza","code_state":11,"code_region":1,"year":2020}},{"type":"Polygon","arcs":[[272,273,-84,274,-265,275,-200,276,277,278]],"properties":{"code_muni":1101302,"abbrev_state":"RO","name_state":"Rondônia","name_region":"Norte","name_muni":"Mirante da Serra","code_state":11,"code_region":1,"year":2020}},{"type":"Polygon","arcs":[[-224,279,-237,280,281,-230,-20]],"properties":{"code_muni":1101401,"abbrev_state":"RO","name_state":"Rondônia","name_region":"Norte","name_muni":"Monte Negro","code_state":11,"code_region":1,"year":2020}},{"type":"Polygon","arcs":[[282,283,-121,284,-273,285,286]],"properties":{"code_muni":1101435,"abbrev_state":"RO","name_state":"Rondônia","name_region":"Norte","name_muni":"Nova União","code_state":11,"code_region":1,"year":2020}},{"type":"Polygon","arcs":[[287,288,289,290,291,-173,-211,292,293,294,295,-248,296,-133]],"properties":{"code_muni":1101450,"abbrev_state":"RO","name_state":"Rondônia","name_region":"Norte","name_muni":"Parecis","code_state":11,"code_region":1,"year":2020}},{"type":"Polygon","arcs":[[-294,297,-209,298,-207,299,-27,300,-40,301,-53,302]],"properties":{"code_muni":1101468,"abbrev_state":"RO","name_state":"Rondônia","name_region":"Norte","name_muni":"Pimenteiras do Oeste","code_state":11,"code_region":1,"year":2020}},{"type":"Polygon","arcs":[[303,304,305,-289,306,-131]],"properties":{"code_muni":1101476,"abbrev_state":"RO","name_state":"Rondônia","name_region":"Norte","name_muni":"Primavera de Rondônia","code_state":11,"code_region":1,"year":2020}},{"type":"Polygon","arcs":[[307,-167,308,-175,309,-291,310,-305,311]],"properties":{"code_muni":1101484,"abbrev_state":"RO","name_state":"Rondônia","name_region":"Norte","name_muni":"São Felipe d'Oeste","code_state":11,"code_region":1,"year":2020}},{"type":"Polygon","arcs":[[312,-61,313,-5,314,-185,315,316]],"properties":{"code_muni":1101492,"abbrev_state":"RO","name_state":"Rondônia","name_region":"Norte","name_muni":"São Francisco do Guaporé","code_state":11,"code_region":1,"year":2020}},{"type":"Polygon","arcs":[[317,-71,-63,318,-317,319,-183]],"properties":{"code_muni":1101500,"abbrev_state":"RO","name_state":"Rondônia","name_region":"Norte","name_muni":"Seringueiras","code_state":11,"code_region":1,"year":2020}},{"type":"Polygon","arcs":[[-96,320,-123,321,322,323,324]],"properties":{"code_muni":1101559,"abbrev_state":"RO","name_state":"Rondônia","name_region":"Norte","name_muni":"Teixeirópolis","code_state":11,"code_region":1,"year":2020}},{"type":"Polygon","arcs":[[325,-23,326,-88,327,328,-91,329,330]],"properties":{"code_muni":1101609,"abbrev_state":"RO","name_state":"Rondônia","name_region":"Norte","name_muni":"Theobroma","code_state":11,"code_region":1,"year":2020}},{"type":"Polygon","arcs":[[-324,331,-287,332,-278,333,-198,-148,-98,334]],"properties":{"code_muni":1101708,"abbrev_state":"RO","name_state":"Rondônia","name_region":"Norte","name_muni":"Urupá","code_state":11,"code_region":1,"year":2020}},{"type":"Polygon","arcs":[[-108,335,-331,336,-90,337]],"properties":{"code_muni":1101757,"abbrev_state":"RO","name_state":"Rondônia","name_region":"Norte","name_muni":"Vale do Anari","code_state":11,"code_region":1,"year":2020}},{"type":"Polygon","arcs":[[-329,338,-86,339,-119,340,-92]],"properties":{"code_muni":1101807,"abbrev_state":"RO","name_state":"Rondônia","name_region":"Norte","name_muni":"Vale do Paraíso","code_state":11,"code_region":1,"year":2020}}]}},"arcs":[[[-62.2067012,-11.8319935],[-62.2324861,-11.9087762]],[[-62.2324861,-11.9087762],[-62.2490639,-11.9003896],[-62.2784842,-11.9042477],[-62.2969523,-11.8925275],[-62.3233747,-11.9040487],[-62.3372281,-11.8954958],[-62.3749582,-11.9060469],[-62.3860111,-11.9077609],[-62.3890126,-11.9083358],[-62.3963488,-11.911522],[-62.4086228,-11.9241398],[-62.4133944,-11.9275871],[-62.420793,-11.9327494],[-62.4232295,-11.9316836],[-62.4353439,-11.9404719],[-62.4384297,-11.9528053],[-62.4530967,-11.9685102]],[[-62.4530967,-11.9685102],[-62.4939897,-12.0067534],[-62.5013932,-12.0064294],[-62.5368125,-12.0296217],[-62.543398,-12.0341547],[-62.5442815,-12.0330592],[-62.5458673,-12.0389085],[-62.5558476,-12.0540297],[-62.5616664,-12.0570208],[-62.5661478,-12.0593086],[-62.5721089,-12.0640394],[-62.5753769,-12.0650733],[-62.5890723,-12.0711111],[-62.5935607,-12.0742661],[-62.6109136,-12.0862129],[-62.6115348,-12.0940198],[-62.60794,-12.1056875],[-62.611122,-12.1163385],[-62.6028936,-12.1501576],[-62.6060731,-12.185565],[-62.6402306,-12.2272063],[-62.6402104,-12.230109],[-62.6425289,-12.23547]],[[-62.6425289,-12.23547],[-62.6414637,-12.2397694]],[[-62.6414637,-12.2397694],[-62.6268781,-12.252114],[-62.6205679,-12.2548681],[-62.5929024,-12.2490697],[-62.5763475,-12.2676037],[-62.5170144,-12.2835837],[-62.4855149,-12.3020493],[-62.4682064,-12.2992599],[-62.4176009,-12.3241698],[-62.3946838,-12.3434799],[-62.3636231,-12.3387056],[-62.3004837,-12.3163677],[-62.2914299,-12.3188257],[-62.250928,-12.4020329],[-62.2642355,-12.427332],[-62.2588214,-12.4509135],[-62.2750934,-12.473221],[-62.2693724,-12.5141469],[-62.3266272,-12.5736327],[-62.3617378,-12.6000451],[-62.3677685,-12.621123],[-62.3781003,-12.6393092],[-62.3870258,-12.6532795],[-62.4017927,-12.6613417],[-62.4200667,-12.699246],[-62.4522606,-12.727478],[-62.4583724,-12.7399769],[-62.4615945,-12.7423811],[-62.4731022,-12.7470655],[-62.4995169,-12.7544784],[-62.5177698,-12.7828762],[-62.5219353,-12.8095931],[-62.5476257,-12.7967238],[-62.5780692,-12.809876],[-62.622824,-12.8718954],[-62.6449113,-12.8823332],[-62.6652633,-12.9061811],[-62.6940767,-12.9022845],[-62.7034384,-12.9208786],[-62.7288766,-12.9258899],[-62.7343555,-12.8916881],[-62.7520441,-12.8731508],[-62.7739016,-12.8820706],[-62.7884407,-12.8613478],[-62.8176851,-12.8680951],[-62.8426272,-12.8635442],[-62.8658237,-12.8792519],[-62.8811825,-12.863168]],[[-62.8811825,-12.863168],[-62.8940789,-12.8730016],[-62.8702099,-12.9106179],[-62.8033008,-12.9450797],[-62.8089019,-12.9621374],[-62.7943513,-12.9952177],[-62.7790975,-13.0095735],[-62.7340206,-13.0218668],[-62.7251595,-13.0012549],[-62.6985773,-13.0028162],[-62.6749101,-12.9909512],[-62.6606879,-12.9694718],[-62.6291779,-12.9958121],[-62.6330238,-13.0106374],[-62.6125725,-13.0412954],[-62.5471599,-13.0739935],[-62.5238183,-13.0655029],[-62.5026304,-13.0831629],[-62.4655476,-13.0771978],[-62.4177113,-13.1189419]],[[-62.4177113,-13.1189419],[-62.3879355,-13.1068342],[-62.3566559,-13.083479],[-62.3198502,-13.0803494],[-62.3206276,-13.1019918],[-62.2518451,-13.0783983],[-62.238044,-13.0454659],[-62.1799059,-13.0204815],[-62.1718149,-13.0072463],[-62.1605975,-12.9802468],[-62.1270669,-12.9632921],[-62.1211144,-12.9611103],[-62.1041221,-12.9479451],[-62.0922634,-12.914516],[-62.0713318,-12.9071215]],[[-62.0713318,-12.9071215],[-62.0405718,-12.9077587],[-62.0317533,-12.8978127],[-62.0277354,-12.8892352],[-62.0237879,-12.8722191]],[[-62.0237879,-12.8722191],[-62.0192621,-12.8208573],[-62.0006005,-12.7921293],[-62.0005912,-12.2692871],[-62.0078428,-12.2691311],[-62.0080638,-12.1337851],[-61.9683616,-12.1340703],[-61.9682668,-12.0873475],[-61.9295898,-12.0878807],[-61.9298616,-11.9856588],[-61.9329377,-11.9751466],[-61.9274891,-11.9720537],[-61.9091249,-11.9726525],[-61.9018997,-11.9655526],[-61.8902318,-11.9647945]],[[-61.8902318,-11.9647945],[-61.8884353,-11.9657111]],[[-61.8884353,-11.9657111],[-61.886511,-11.9088302]],[[-61.886511,-11.9088302],[-61.8951737,-11.9046352]],[[-61.8951737,-11.9046352],[-61.9190104,-11.8906738],[-61.9210922,-11.8668694],[-62.0072264,-11.8681119],[-62.0155398,-11.8585889],[-62.0456764,-11.8683594]],[[-62.0456764,-11.8683594],[-62.058608,-11.8670469]],[[-62.058608,-11.8670469],[-62.0870122,-11.8707916],[-62.0923189,-11.8395039],[-62.1200371,-11.8429276],[-62.1575937,-11.8708166],[-62.189455,-11.8279458],[-62.2067012,-11.8319935]],[[-62.5547556,-9.6707694],[-62.5565658,-9.6691601]],[[-62.5565658,-9.6691601],[-62.5829724,-9.7226258],[-62.610146,-9.735995],[-62.6298393,-9.7691288],[-62.6565327,-9.7841117],[-62.66079,-9.8112681],[-62.6770891,-9.8434043],[-62.7307307,-9.8227576],[-62.7370872,-9.8138739],[-62.7945062,-9.8017216],[-62.8071431,-9.779393],[-62.8368993,-9.7510635],[-63.075979,-9.7521785]],[[-63.075979,-9.7521785],[-63.1015925,-9.7525591]],[[-63.1015925,-9.7525591],[-63.0901289,-9.7823673],[-63.2154306,-9.7868521],[-63.295675,-9.7871432],[-63.285952,-9.8134658],[-63.2919936,-9.8331076],[-63.49908,-9.8333918],[-63.4990587,-9.7149859],[-63.5735682,-9.7159602],[-63.564959,-9.7526157],[-63.5832059,-9.8138679],[-63.5889309,-9.8520522],[-63.5791477,-9.8766241],[-63.6015089,-9.9147914],[-63.6169345,-9.9289485],[-63.6161729,-9.9486575],[-63.6155421,-9.9662439],[-63.5969729,-10.0003823]],[[-63.5969729,-10.0003823],[-63.1131063,-10.0004146],[-63.1284041,-10.0520789],[-63.145817,-10.0727211],[-63.1463158,-10.0962907],[-63.1585088,-10.1118672],[-63.1753174,-10.1178393],[-63.1811761,-10.1397504],[-63.2058198,-10.1542508],[-63.2092654,-10.1670111]],[[-63.2092654,-10.1670111],[-62.8325019,-10.1674451],[-62.8307873,-10.1745602],[-62.7894774,-10.2039971],[-62.7681496,-10.2175491],[-62.699009,-10.2665692]],[[-62.699009,-10.2665692],[-62.6699813,-10.2882823],[-62.6175265,-10.1952443]],[[-62.6175265,-10.1952443],[-62.5988687,-10.1919743],[-62.5800324,-10.1293298],[-62.5839404,-10.1056774],[-62.5600005,-10.053973],[-62.5342271,-10.0521618],[-62.5210675,-10.0073467],[-62.5094757,-9.9953481],[-62.5042293,-9.9649734],[-62.4683644,-9.9381769],[-62.4533689,-9.9061564],[-62.4530314,-9.8567908],[-62.4455577,-9.8195337],[-62.4270009,-9.8066638]],[[-62.4270009,-9.8066638],[-62.4226167,-9.8046156]],[[-62.4226167,-9.8046156],[-62.4358136,-9.7805214],[-62.4894794,-9.7720405],[-62.4955932,-9.7720604],[-62.5077235,-9.7614244],[-62.5196719,-9.7434026],[-62.5364784,-9.732215],[-62.5488939,-9.6904109],[-62.5547556,-9.6707694]],[[-60.9189839,-13.548326],[-60.9225686,-13.5650883],[-60.8798406,-13.6175279],[-60.8449777,-13.6315591],[-60.8285899,-13.629501],[-60.8100666,-13.6552746],[-60.7705337,-13.6651065],[-60.7695385,-13.6842053],[-60.7396457,-13.6852929],[-60.7139468,-13.6759978],[-60.6860379,-13.6252274],[-60.6455062,-13.5928216],[-60.6347881,-13.5745178],[-60.5776508,-13.5652277],[-60.5357855,-13.537301],[-60.5316656,-13.5180899],[-60.4864221,-13.4941821],[-60.4320021,-13.4884356],[-60.4115299,-13.4616583],[-60.3879196,-13.4546951],[-60.3793059,-13.4153231],[-60.3795864,-13.3752343],[-60.3660926,-13.332232],[-60.3734795,-13.324443],[-60.3716178,-13.3185898],[-60.7051819,-13.3247382]],[[-60.7051819,-13.3247382],[-60.7187114,-13.3921377],[-60.7688271,-13.3931288],[-60.8016451,-13.4466759],[-60.8328099,-13.4831581],[-60.8468635,-13.5160659],[-60.8711172,-13.5466587],[-60.8932837,-13.5575745],[-60.9189839,-13.548326]],[[-61.001032,-11.3983612],[-61.0005949,-10.9922393],[-61.4290021,-10.9875342]],[[-61.4290021,-10.9875342],[-61.4267849,-11.1139801],[-61.500803,-11.114328],[-61.5012055,-11.3335092],[-61.7422995,-11.333475]],[[-61.7422995,-11.333475],[-61.7417797,-11.3354633]],[[-61.7417797,-11.3354633],[-61.7495047,-11.3559955],[-61.7526727,-11.3721028],[-61.7550604,-11.3743003],[-61.7551152,-11.3783326],[-61.7922223,-11.4003617]],[[-61.7922223,-11.4003617],[-61.7944183,-11.4045328]],[[-61.7944183,-11.4045328],[-61.7387546,-11.4129718],[-61.7168412,-11.5115411],[-61.6878959,-11.5324545],[-61.6834757,-11.5461898],[-61.6493049,-11.5609293],[-61.6305359,-11.5607554],[-61.615556,-11.5785101]],[[-61.615556,-11.5785101],[-61.6130026,-11.5838357]],[[-61.6130026,-11.5838357],[-61.6087551,-11.5745268],[-61.5908351,-11.5972839],[-61.5668625,-11.6028825],[-61.5489765,-11.6191079]],[[-61.5489765,-11.6191079],[-61.352695,-11.6174511],[-61.3504169,-11.6051349],[-61.3701921,-11.5738264],[-61.366661,-11.5062785],[-61.3153388,-11.5079819],[-61.2935013,-11.4981961],[-61.2403955,-11.5284812],[-61.2125287,-11.5284885]],[[-61.2125287,-11.5284885],[-61.2055016,-11.5276546]],[[-61.2055016,-11.5276546],[-61.1901119,-11.5102782],[-61.1272182,-11.493494],[-61.1099941,-11.462743],[-61.0828888,-11.4382334],[-61.0565013,-11.424736],[-61.0184675,-11.4179037],[-61.001032,-11.3983612]],[[-61.4942623,-13.0045721],[-61.5051795,-13.0151294]],[[-61.5051795,-13.0151294],[-61.5243006,-13.038098],[-61.5423711,-13.0366179],[-61.5569334,-13.0279583],[-61.5756521,-13.0231816],[-61.5911152,-13.0336281],[-61.6403407,-13.0584163],[-61.6244293,-13.094528],[-61.6360674,-13.1517771],[-61.6683329,-13.1823156],[-61.7198728,-13.2088101],[-61.7553194,-13.2092006],[-61.7858967,-13.1969741],[-61.8333984,-13.2023352],[-61.8864612,-13.2480744],[-61.8974211,-13.2740525],[-61.8883151,-13.2931775],[-61.8548202,-13.2886828],[-61.8020093,-13.2991428],[-61.7824199,-13.2933786],[-61.7543511,-13.2617313],[-61.6963166,-13.2709815],[-61.6634859,-13.2978489],[-61.6087003,-13.2934784],[-61.59185,-13.303013],[-61.5484858,-13.2833302],[-61.4960068,-13.2849009],[-61.4826238,-13.2588604],[-61.4423462,-13.2636648],[-61.4075019,-13.2324098],[-61.3614109,-13.2283727],[-61.3672872,-13.2945097],[-61.3536692,-13.3637056],[-61.0392636,-13.3617435],[-61.0384965,-13.245232],[-60.9503684,-13.2480335],[-60.9505524,-13.3263741],[-60.8384764,-13.325761],[-60.7742589,-13.3304459],[-60.7510062,-13.3211141]],[[-60.7510062,-13.3211141],[-60.7314389,-13.319018]],[[-60.7314389,-13.319018],[-60.7184215,-13.3156343],[-60.7255948,-13.2484229],[-60.7393554,-13.21428],[-60.7389178,-13.1902172],[-60.7260907,-13.1403685],[-60.7303079,-13.1334165]],[[-60.7303079,-13.1334165],[-60.7429583,-13.1223528]],[[-60.7429583,-13.1223528],[-60.7626731,-13.1312303],[-60.8040102,-13.118765],[-60.8513622,-13.0968086],[-60.8748663,-13.111265],[-60.932782,-13.1217566],[-60.9672277,-13.1330555],[-61.0016214,-13.1050491],[-61.0409796,-13.1231882],[-61.1813722,-13.1099217],[-61.2054279,-13.0876605],[-61.2545956,-13.0819769],[-61.2716242,-13.0685945],[-61.2986437,-13.0686211],[-61.3598684,-13.0411381],[-61.3785067,-13.0445065],[-61.4343743,-13.0119248],[-61.4795373,-13.0113916],[-61.4942623,-13.0045721]],[[-60.6043992,-12.9881748],[-60.6101332,-12.9923993],[-60.6144424,-12.9923784],[-60.6177595,-12.9898317]],[[-60.6177595,-12.9898317],[-60.6290634,-12.972178]],[[-60.6290634,-12.972178],[-60.6581347,-12.9839987]],[[-60.6581347,-12.9839987],[-60.6706395,-12.9939759],[-60.7123563,-13.0012818],[-60.7103136,-13.0269701],[-60.7378018,-13.043358],[-60.7415172,-13.0623074],[-60.7286349,-13.0807112],[-60.7432662,-13.1163452]],[[-60.7432662,-13.1163452],[-60.7303079,-13.1334165]],[[-60.7314389,-13.319018],[-60.7415547,-13.3249227],[-60.3716111,-13.3185902],[-60.3518141,-13.2917301],[-60.3518053,-13.2730059],[-60.3331703,-13.2579792]],[[-60.3331703,-13.2579792],[-60.3566377,-13.1977048],[-60.3460285,-13.1228396],[-60.3706933,-13.1063803],[-60.4058905,-13.0706367],[-60.4061091,-13.0633723],[-60.4206077,-13.014855],[-60.4369617,-13.0028534],[-60.466153,-13.0110263],[-60.4730655,-13.0068206],[-60.498013,-12.9793394],[-60.5046999,-12.9577292],[-60.533639,-12.9668314],[-60.5846372,-12.969145],[-60.5919039,-12.9681553],[-60.6043992,-12.9881748]],[[-61.3318427,-12.6379858],[-61.3325015,-12.6346938],[-61.3380686,-12.6265618]],[[-61.3380686,-12.6265618],[-61.3402846,-12.6295358],[-61.3487283,-12.6350482],[-61.358344,-12.6466453],[-61.3669843,-12.670706],[-61.3858707,-12.6769787],[-61.3728969,-12.7158716],[-61.4245896,-12.7297373],[-61.4303369,-12.7429187],[-61.4356937,-12.7534041],[-61.4398643,-12.7853011],[-61.4693675,-12.8437499],[-61.46056,-12.8635318],[-61.4700605,-12.896757],[-61.4886539,-12.9177221],[-61.51565,-12.9930799],[-61.5040388,-12.9997273]],[[-61.5040388,-12.9997273],[-61.4942623,-13.0045721]],[[-60.7429583,-13.1223528],[-60.7432662,-13.1163452]],[[-60.6581347,-12.9839987],[-60.652563,-12.9741337]],[[-60.652563,-12.9741337],[-60.6478371,-12.935141],[-60.6454205,-12.9011063]],[[-60.6454205,-12.9011063],[-60.6534445,-12.866873],[-60.6598366,-12.856636],[-60.665894,-12.8512086]],[[-60.665894,-12.8512086],[-60.7210642,-12.8178561],[-60.7607496,-12.826487],[-60.7821956,-12.8519669],[-60.7908098,-12.8156012],[-60.8154504,-12.8201239],[-60.8281154,-12.8067307],[-60.8470898,-12.8229892],[-60.8994756,-12.8463189],[-60.9315059,-12.8912629],[-60.937336,-12.9164291],[-60.9705056,-12.9383356],[-60.9805074,-12.8890979],[-60.9672306,-12.823404],[-60.9665573,-12.7840111],[-60.9967306,-12.7592985],[-61.0297032,-12.7703272],[-61.0454254,-12.7452927],[-61.0584526,-12.7042677],[-61.078867,-12.7021209],[-61.1249205,-12.7276088],[-61.1674218,-12.7321018],[-61.1676223,-12.7531188],[-61.1915321,-12.7629841],[-61.210948,-12.7472817],[-61.2316463,-12.7449995],[-61.282149,-12.7200397],[-61.3286772,-12.7038088],[-61.3395873,-12.6947068],[-61.3435668,-12.6874117],[-61.339724,-12.6815504],[-61.3476461,-12.666931],[-61.3427303,-12.6666171],[-61.3318427,-12.6379858]],[[-64.5945539,-12.215699],[-64.568609,-12.2198129],[-64.5540845,-12.2410945],[-64.5272715,-12.227662],[-64.5058292,-12.2285191],[-64.4928593,-12.2942597],[-64.5005381,-12.3300136],[-64.5118845,-12.3406912],[-64.5005581,-12.3662091],[-64.4600271,-12.3871505],[-64.4476696,-12.4091617],[-64.4061676,-12.4470481],[-64.3491631,-12.4599362],[-64.294721,-12.4578168],[-64.2988243,-12.4907931],[-64.2844442,-12.5031752],[-64.2355565,-12.456125],[-64.1967732,-12.4728443],[-64.1728845,-12.4665134],[-64.1711812,-12.5103698],[-64.1574457,-12.5138771],[-64.1338805,-12.4764538],[-64.1146305,-12.5033505],[-64.0988867,-12.4855432],[-64.0757786,-12.5011421],[-64.0509126,-12.4974126],[-64.0401616,-12.5151395],[-64.0005519,-12.5030243],[-63.9529725,-12.5317711],[-63.8978016,-12.499692],[-63.9007176,-12.4819207],[-63.8893042,-12.4495064],[-63.873104,-12.4470829],[-63.8339707,-12.4634295],[-63.8031321,-12.4472476],[-63.7863035,-12.427945],[-63.7642959,-12.4420757],[-63.7337167,-12.4386224],[-63.6847579,-12.4530568]],[[-63.6847579,-12.4530568],[-63.6517518,-12.4452684],[-63.642155,-12.4317996],[-63.6239612,-12.403656],[-63.6508609,-12.3564894],[-63.6482103,-12.3343929],[-63.7142494,-12.3343082],[-63.7433729,-12.2920372],[-63.7500851,-12.2398497],[-63.7682,-12.2289916],[-63.7861317,-12.1923598],[-63.7988882,-12.1985611],[-63.8475684,-12.1927695],[-63.8513522,-12.184133],[-63.905221,-12.1854986],[-63.9371978,-12.2177053],[-63.9690557,-12.2152881],[-64.0309502,-12.2247557],[-64.0515438,-12.218677],[-64.0855754,-12.1856968],[-64.0598091,-12.1751236],[-64.0346074,-12.1521765],[-63.9948238,-12.0884485],[-64.0003682,-12.0605885],[-63.9911431,-12.0262917],[-63.9644229,-12.0113804],[-63.9500028,-11.9832506],[-63.9001513,-11.9665165],[-63.8583991,-11.9207416],[-63.8632581,-11.8939058],[-63.8481892,-11.8719243],[-63.8251727,-11.8710685],[-63.8184724,-11.8333076],[-63.7880692,-11.8387373]],[[-63.7880692,-11.8387373],[-63.5810946,-11.8390426]],[[-63.5810946,-11.8390426],[-63.6068161,-11.8004376],[-63.5851569,-11.7736422],[-63.549922,-11.7577907],[-63.5449651,-11.7454326],[-63.5448042,-11.7308267],[-63.575964,-11.7132661],[-63.6522975,-11.6898145],[-63.6633151,-11.6709722],[-63.6746096,-11.6560777],[-63.6799199,-11.6444148]],[[-63.6799199,-11.6444148],[-63.680165,-11.6468363],[-63.688579,-11.6509422],[-63.6905622,-11.6485334],[-63.7192413,-11.6483208],[-63.7233572,-11.6407229],[-63.7293423,-11.6421498],[-63.7393223,-11.6475335],[-63.7450144,-11.6622697],[-63.7862864,-11.6669061],[-63.8387665,-11.6804941],[-63.8796878,-11.7283251],[-63.90277,-11.7188278],[-63.9663032,-11.7354751],[-64.01416,-11.7622637],[-64.0314401,-11.7437572],[-64.0424702,-11.7461821],[-64.0439662,-11.7516664],[-64.0889649,-11.7837951],[-64.0978539,-11.7915484],[-64.121188,-11.8315399],[-64.1307986,-11.872332],[-64.1650782,-11.9169848],[-64.2001917,-11.9083481],[-64.2372716,-11.935464],[-64.2584422,-11.9604577],[-64.2441882,-11.9796549],[-64.3072481,-12.0160902],[-64.3184737,-12.007845],[-64.375827,-12.0593549],[-64.3849149,-12.1111983],[-64.411196,-12.1083407],[-64.4477728,-12.1440329],[-64.4555966,-12.1840875],[-64.4761136,-12.1866307],[-64.4712473,-12.188904],[-64.4668869,-12.1970026],[-64.4809237,-12.2035038],[-64.4934136,-12.2015001],[-64.5391673,-12.2153965],[-64.5438275,-12.2017697],[-64.5530117,-12.180997],[-64.5632777,-12.1784903],[-64.5784959,-12.1787542],[-64.5907734,-12.205597],[-64.5945539,-12.215699]],[[-60.4600501,-10.9898562],[-61.0005934,-10.988351],[-61.001032,-11.3983612]],[[-61.2055016,-11.5276546],[-61.2117219,-11.5291025],[-60.9252137,-11.7473751]],[[-60.9252137,-11.7473751],[-60.9185833,-11.7261186],[-60.8943606,-11.7213895],[-60.8417271,-11.7250798],[-60.8219198,-11.6980475],[-60.7571654,-11.7072166],[-60.7337464,-11.6950243],[-60.681252,-11.6974219],[-60.6555296,-11.6742959],[-60.6398938,-11.6498859],[-60.5905311,-11.6207418],[-60.5925685,-11.5890485],[-60.5771956,-11.5845604],[-60.564,-11.5606963],[-60.5428013,-11.550208],[-60.5224458,-11.4944963],[-60.5116089,-11.4790147],[-60.4912719,-11.4828313],[-60.4738588,-11.4637663],[-60.4633339,-11.4648822]],[[-60.4633339,-11.4648822],[-60.4636367,-11.4613229]],[[-60.4636367,-11.4613229],[-60.4380257,-11.4468648],[-60.4426869,-11.4071372],[-60.4624153,-11.3701099],[-60.4872741,-11.3610437],[-60.4967748,-11.3444523],[-60.4837988,-11.2928896],[-60.5280499,-11.2545137],[-60.5331607,-11.1851252],[-60.5198902,-11.1688246],[-60.5192193,-11.1289838],[-60.5278827,-11.1167179],[-60.5069963,-11.0981696],[-60.5128263,-11.0663473],[-60.475248,-11.0460569],[-60.4644692,-11.0186436],[-60.4680446,-10.9956367],[-60.4600501,-10.9898562]],[[-65.3814996,-10.4290742],[-65.4029682,-10.4627815],[-65.4239987,-10.4650076],[-65.4296351,-10.482896],[-65.4105791,-10.5129499],[-65.4198535,-10.5280705],[-65.4046946,-10.5537526],[-65.3978282,-10.589466],[-65.4164689,-10.6207745],[-65.403468,-10.6429834],[-65.3719659,-10.6481824],[-65.3496676,-10.6705476],[-65.3436059,-10.6995816],[-65.3495797,-10.7434563],[-65.3447432,-10.7695869],[-65.3669649,-10.7962563],[-65.3203903,-10.8223343],[-65.2765513,-10.8693553],[-65.2666125,-10.9218079],[-65.2858299,-10.9276718],[-65.250859,-10.9845455],[-65.2948608,-11.0236146],[-65.3005503,-11.0393289],[-65.2834712,-11.0577945],[-65.2888895,-11.0942523],[-65.3205793,-11.1021881],[-65.3564715,-11.1270703],[-65.3634955,-11.1472658],[-65.3497207,-11.1878909],[-65.3256212,-11.1866205],[-65.3246918,-11.2114823],[-65.3606984,-11.2233183],[-65.3613319,-11.251356],[-65.3469184,-11.3028689],[-65.3377137,-11.3132578],[-65.2986139,-11.3160857],[-65.2976647,-11.3350798],[-65.3240242,-11.338618],[-65.3354111,-11.3549453],[-65.3098394,-11.4905595],[-65.3049193,-11.5016],[-65.2573346,-11.5144926],[-65.2250032,-11.5164466],[-65.2140254,-11.5480437],[-65.2345274,-11.5704471],[-65.2254136,-11.603998],[-65.229999,-11.6231694],[-65.2179133,-11.6520886],[-65.2569675,-11.6964013],[-65.2506098,-11.7213743],[-65.2065821,-11.7485675],[-65.1750045,-11.7541196],[-65.1829733,-11.7217035],[-65.1237309,-11.7197437],[-65.0905256,-11.7077774],[-65.0597243,-11.7906782],[-65.0706948,-11.8691097],[-65.0599476,-11.8828006],[-65.0260515,-11.8884484],[-65.0149985,-11.9041545],[-65.0303604,-11.9502463],[-65.0259769,-11.9985952],[-65.0005559,-11.9933727],[-64.9841679,-12.0143712],[-64.9483889,-11.9934266],[-64.9170257,-12.0283831],[-64.8822808,-12.0133457],[-64.8395868,-12.0106793],[-64.809637,-12.0543546],[-64.8132171,-12.0703354],[-64.8424147,-12.0945952],[-64.8234443,-12.1205898],[-64.8094972,-12.0939515],[-64.7884731,-12.0857891],[-64.7608925,-12.1004429],[-64.7685863,-12.145999],[-64.7429204,-12.1528883],[-64.7336962,-12.1181075],[-64.7385545,-12.1000836],[-64.7129712,-12.0863828],[-64.6986122,-12.0941265],[-64.7177993,-12.1424671],[-64.7129448,-12.1735799],[-64.6950556,-12.1893791],[-64.6715551,-12.1926791],[-64.6162191,-12.2147173],[-64.5945539,-12.215699]],[[-63.6799199,-11.6444148],[-63.6758791,-11.6405588],[-63.6669582,-11.630497],[-63.6533111,-11.6209608],[-63.6453105,-11.6263289],[-63.6393801,-11.6134404],[-63.6200662,-11.6058334],[-63.613431,-11.6012387]],[[-63.613431,-11.6012387],[-63.6030749,-11.6014251]],[[-63.6030749,-11.6014251],[-63.5986604,-11.5936906],[-63.6160755,-11.5423471],[-63.612708,-11.5201379],[-63.5945174,-11.5044698],[-63.6094104,-11.4826939],[-63.5939039,-11.4161808],[-63.5655213,-11.4124269],[-63.5412406,-11.3822307],[-63.5220447,-11.3700655],[-63.5293108,-11.3380603],[-63.5940087,-11.2607621],[-63.5770785,-11.2251431],[-63.5880213,-11.2093887],[-63.5878683,-11.1833542],[-63.6028173,-11.1416673],[-63.5822721,-11.0691762],[-63.5805634,-11.0311518],[-63.5949177,-11.0182168],[-63.6301321,-11.0055387]],[[-63.6301321,-11.0055387],[-63.6144209,-11.0011408]],[[-63.6144209,-11.0011408],[-63.5870985,-11.0034526],[-63.582811,-10.9726665],[-63.6073793,-10.9301883],[-63.6049839,-10.8867954],[-63.5727925,-10.8779331],[-63.577073,-10.8315764]],[[-63.577073,-10.8315764],[-63.6137558,-10.8292866],[-63.6244455,-10.8417262],[-63.658577,-10.8383215]],[[-63.658577,-10.8383215],[-63.6790998,-10.8330088],[-63.6845682,-10.8329117],[-63.7060516,-10.839886],[-63.9168751,-10.8706498]],[[-63.9168751,-10.8706498],[-63.9308269,-10.8733082],[-63.9812985,-10.8376339],[-64.0086039,-10.8382773],[-64.0208251,-10.8664531],[-64.0490214,-10.8716528],[-64.0790473,-10.8616822],[-64.1373793,-10.8604438],[-64.1551255,-10.831016],[-64.1796979,-10.8162006],[-64.2215437,-10.7602329],[-64.252992,-10.7531134],[-64.2994355,-10.7601655],[-64.3433896,-10.757206],[-64.3658766,-10.7755365],[-64.3899103,-10.7792164],[-64.4090783,-10.8066364],[-64.4099108,-10.8244246],[-64.4411312,-10.8341224],[-64.4638825,-10.827149],[-64.4942391,-10.8312441],[-64.5249083,-10.8166607],[-64.546272,-10.7927159],[-64.5668549,-10.8084434],[-64.5934346,-10.8097458],[-64.6396585,-10.7880921],[-64.6594346,-10.7615067],[-64.7439088,-10.4550571],[-64.7735293,-10.4779771],[-64.7907468,-10.4783142],[-64.8112418,-10.5109236],[-64.8418831,-10.5080536],[-64.9010505,-10.5428147],[-64.9263749,-10.5397491],[-64.9404954,-10.518492],[-64.9750773,-10.5126775],[-65.0045739,-10.5224683],[-65.0335772,-10.5209544],[-65.0624081,-10.5287272],[-65.1175266,-10.5280349],[-65.1384326,-10.539694],[-65.1823335,-10.5386579],[-65.2002148,-10.5603283],[-65.2867697,-10.5490021],[-65.3088688,-10.5260883],[-65.296701,-10.5119306],[-65.3023575,-10.505036],[-65.3291669,-10.4777202],[-65.3544689,-10.4323434],[-65.3814996,-10.4290742]],[[-62.6200341,-10.3267308],[-62.6707747,-10.2877756]],[[-62.6707747,-10.2877756],[-62.7884109,-10.4911098]],[[-62.7884109,-10.4911098],[-62.7882112,-10.4943353],[-62.787395,-10.4955853]],[[-62.787395,-10.4955853],[-62.7819832,-10.496648],[-62.7654257,-10.5089326],[-62.7560346,-10.5065518],[-62.7347826,-10.5289151],[-62.6995854,-10.5230577],[-62.6827063,-10.5324695],[-62.6540867,-10.531042],[-62.6140927,-10.5192923],[-62.588394,-10.4986263],[-62.5715637,-10.5164941],[-62.5798674,-10.5452254],[-62.5927575,-10.5482699],[-62.6138476,-10.5601209],[-62.649264,-10.6102325],[-62.6437081,-10.6302981],[-62.667541,-10.6550088],[-62.6715872,-10.6709169],[-62.7136802,-10.6716024],[-62.7361525,-10.7004698],[-62.7872893,-10.7227658],[-62.7905345,-10.7772777],[-62.8149783,-10.7945384],[-62.8378457,-10.8223624],[-62.8692064,-10.8384426],[-62.9161762,-10.8313272],[-62.9327874,-10.8715348],[-62.9773157,-10.8910883],[-63.0002599,-10.9126262],[-63.0005659,-10.9405012],[-63.0816735,-10.976236],[-63.1169068,-10.9986854],[-63.1428986,-11.0297138],[-63.1449485,-11.063643]],[[-63.1449485,-11.063643],[-63.1411277,-11.073224]],[[-63.1411277,-11.073224],[-63.1254038,-11.0714343],[-63.0925404,-11.0536983],[-63.0662887,-11.0596],[-63.0411816,-11.0376253],[-63.006874,-11.039976],[-62.9692364,-11.030693],[-62.8913964,-11.03061]],[[-62.8913964,-11.03061],[-62.122004,-10.3550008]],[[-62.122004,-10.3550008],[-62.1395555,-10.3312572],[-62.1417236,-10.2978156],[-62.1373616,-10.2351574]],[[-62.1373616,-10.2351574],[-62.1346392,-10.2247296]],[[-62.1346392,-10.2247296],[-62.1414775,-10.2236568],[-62.1579467,-10.2232489],[-62.1981163,-10.2302192],[-62.2023121,-10.2417114],[-62.2524468,-10.2469829],[-62.3108925,-10.2816693],[-62.3389462,-10.3117947],[-62.3626991,-10.3252054],[-62.422145,-10.2987857],[-62.4592153,-10.299087],[-62.4677594,-10.2819716],[-62.5581939,-10.3726305],[-62.6200341,-10.3267308]],[[-61.9421482,-10.9867742],[-61.5502579,-10.9860947],[-61.5300873,-10.9790195],[-61.5193336,-10.891992],[-61.5251489,-10.8558039],[-61.5099966,-10.8368279],[-61.5034218,-10.8084452],[-61.5108965,-10.7936807],[-61.4764168,-10.7677946],[-61.4763671,-10.722504],[-61.4993935,-10.6986176],[-61.4844843,-10.6737666],[-61.4789575,-10.6430436],[-61.489594,-10.6298033],[-61.4762363,-10.6076634],[-61.4799609,-10.5691537],[-61.4663218,-10.5412113],[-61.4790698,-10.529872],[-61.4808157,-10.4877483],[-61.4617928,-10.4199046],[-61.4769134,-10.4106314],[-61.5031111,-10.3759259],[-61.5017216,-10.3537765],[-61.5301392,-10.333314],[-61.5440872,-10.3009945],[-61.5767244,-10.2485762],[-61.5740051,-10.2089593],[-61.5577505,-10.1823138],[-61.6012364,-10.1500901],[-61.5787102,-10.0792444],[-61.5843749,-10.0596093],[-61.5558735,-10.0389514],[-61.5312021,-9.9898503],[-61.5233429,-9.9484856],[-61.5249818,-9.9065757],[-61.5110765,-9.8955614],[-61.5079136,-9.8610818],[-61.5249134,-9.7957303],[-61.547356,-9.7875415],[-61.5315013,-9.7399119],[-61.5746373,-9.7177933]],[[-61.5746373,-9.7177933],[-61.6084294,-9.6842304],[-61.6446675,-9.7066721],[-61.6902519,-9.7194505],[-61.7115542,-9.7313276],[-61.7603604,-9.7286646],[-61.7921657,-9.719684],[-61.794116,-9.7589975],[-61.8078257,-9.779838],[-61.8066673,-9.7998357],[-61.8393106,-9.8115151],[-61.8430808,-9.8674496],[-61.8766433,-9.9048142],[-61.8582938,-9.9720756],[-61.8743009,-9.9880948],[-61.909055,-9.9891699],[-61.9371435,-9.9478465],[-61.9544178,-9.9496798]],[[-61.9544178,-9.9496798],[-61.9644344,-9.9868622],[-61.9931112,-10.0096085],[-61.9933217,-10.0220012],[-61.982138,-10.0320686],[-61.9724739,-10.0497158],[-61.9726671,-10.0675279]],[[-61.9726671,-10.0675279],[-61.9685604,-10.0778975],[-61.9487505,-10.079829],[-61.9389979,-10.0830198],[-61.9163326,-10.1046009],[-61.9151728,-10.1100933]],[[-61.9151728,-10.1100933],[-61.910582,-10.1156496],[-61.9125006,-10.1338657]],[[-61.9125006,-10.1338657],[-61.9101972,-10.1551305],[-61.9161955,-10.1662778],[-61.8907794,-10.1938767],[-61.8659838,-10.2060219],[-61.8278134,-10.3031068],[-61.8560033,-10.3046063],[-61.8893595,-10.3230073],[-61.9041125,-10.3398619],[-61.898612,-10.3810925],[-61.9149534,-10.4249273],[-61.9123276,-10.4541532],[-61.9262554,-10.4844273],[-61.9604749,-10.4980376]],[[-61.9604749,-10.4980376],[-62.16375,-11.0006585]],[[-62.16375,-11.0006585],[-62.1590567,-11.0205951]],[[-62.1590567,-11.0205951],[-62.1488645,-11.0302772]],[[-62.1488645,-11.0302772],[-62.1444458,-11.0304137]],[[-62.1444458,-11.0304137],[-62.114813,-11.0005139],[-62.0928114,-11.0076077],[-62.096257,-11.0449756],[-62.0611124,-11.0962605],[-62.056398,-11.1208133],[-62.0421489,-11.1310818],[-62.0507465,-11.1658874],[-62.0382096,-11.2133269],[-62.0203133,-11.1740824],[-62.0261167,-11.1520939],[-62.0147864,-11.1280031],[-61.951173,-11.0864857],[-61.9445051,-11.0580557],[-61.958006,-11.01611],[-61.9421482,-10.9867742]],[[-61.6162106,-9.3268258],[-61.6124735,-9.2797958],[-61.5996169,-9.2560351],[-61.574108,-9.2369586],[-61.5519857,-9.2438516],[-61.5280945,-9.2311652],[-61.5196316,-9.1951977],[-61.5236433,-9.1790181],[-61.5553819,-9.1314969],[-61.555755,-9.0924026],[-61.5110619,-8.9761931],[-61.4895398,-8.9372717],[-61.469214,-8.9201143],[-61.5115045,-8.8636406],[-61.5137215,-8.8369518],[-61.5271948,-8.816858],[-61.5430783,-8.8190978],[-61.5683676,-8.8010824],[-61.6060278,-8.794714],[-61.6295527,-8.7529562],[-61.6264691,-8.7288535],[-61.6735812,-8.7050168],[-61.7053617,-8.7075264],[-61.7132742,-8.6878527],[-61.741854,-8.6951929],[-61.7488815,-8.7237702],[-61.7746056,-8.7482289],[-61.8062463,-8.7477818],[-61.828108,-8.7326255],[-61.8412499,-8.7394106],[-61.8433013,-8.7794091],[-61.8610249,-8.8036155],[-61.8597486,-8.8529733],[-61.9058859,-8.8745104],[-61.9381066,-8.8814117],[-61.97914,-8.8732446],[-62.0039716,-8.8300839],[-62.0213332,-8.8235979],[-62.031061,-8.7997101],[-62.0743019,-8.7985702],[-62.0980029,-8.8089214],[-62.1249717,-8.8016711],[-62.1550309,-8.7396423],[-62.1488018,-8.7183089],[-62.1717727,-8.6950749],[-62.165087,-8.6793938],[-62.2005306,-8.6442928],[-62.1746915,-8.628203],[-62.1837005,-8.5989665],[-62.2286045,-8.5905684],[-62.2688885,-8.5757586]],[[-62.2688885,-8.5757586],[-62.2456118,-8.5937474],[-62.2385029,-8.621979],[-62.2452548,-8.6779207],[-62.274466,-8.7019763],[-62.3307845,-8.709301],[-62.3647508,-8.6926679],[-62.3751931,-8.7320437],[-62.3709176,-8.7407218]],[[-62.3709176,-8.7407218],[-62.3670271,-8.7455405]],[[-62.3670271,-8.7455405],[-62.3573062,-8.7535315],[-62.3440043,-8.7577164],[-62.343033,-8.7858065],[-62.311726,-8.8037416],[-62.2984464,-8.8282107],[-62.2964724,-8.8548427],[-62.3337494,-8.8811169],[-62.3288908,-8.9053406],[-62.3451419,-8.9327181],[-62.3240871,-8.9442246],[-62.330117,-8.9775239],[-62.3479117,-8.9901904],[-62.3376945,-9.0194438],[-62.3375858,-9.0677564],[-62.3278916,-9.1124643],[-62.3280039,-9.154247],[-62.3358645,-9.2164774],[-62.3155329,-9.2979599],[-62.3084687,-9.312362],[-62.3342013,-9.3504214],[-62.3619158,-9.3492009],[-62.3881463,-9.3698392],[-62.3855868,-9.3934912],[-62.4080061,-9.4149289],[-62.4267509,-9.4927764],[-62.428193,-9.5130404]],[[-62.428193,-9.5130404],[-62.4227241,-9.5209827],[-62.4231408,-9.5326953],[-62.4255326,-9.5402216]],[[-62.4255326,-9.5402216],[-62.4443115,-9.5632111],[-62.4592781,-9.5976594],[-62.502593,-9.6310192],[-62.5194841,-9.6726168],[-62.5482889,-9.6731026]],[[-62.5482889,-9.6731026],[-62.5547556,-9.6707694]],[[-62.4226167,-9.8046156],[-62.4172164,-9.8038077]],[[-62.4172164,-9.8038077],[-62.3674497,-9.7599316],[-62.3493658,-9.7596278],[-62.3170031,-9.7360513],[-62.2916689,-9.7357203],[-62.2534436,-9.7530765],[-62.2025735,-9.7400068],[-62.1799187,-9.7068959],[-62.1536167,-9.7045564],[-62.124611,-9.680293],[-62.1165282,-9.6444791],[-62.0995802,-9.6198559],[-62.0672477,-9.603891],[-62.0485309,-9.5652999],[-62.0476106,-9.5450312],[-62.0217545,-9.5307643],[-62.0062738,-9.5741952],[-62.0059134,-9.6016983],[-61.9831107,-9.6227576],[-61.9816994,-9.6585875],[-61.9948956,-9.67692],[-62.0174919,-9.6716757],[-62.0236469,-9.6995532],[-61.9880297,-9.7239337],[-62.0077291,-9.7448163],[-62.0146764,-9.7762145],[-61.9748334,-9.7865158],[-61.9209456,-9.6902948],[-61.9463838,-9.6602125],[-61.9183351,-9.5519865],[-61.8598733,-9.5675189],[-61.8301308,-9.5005667],[-61.7423126,-9.5014394],[-61.7325548,-9.5004461],[-61.718859,-9.481767],[-61.7013878,-9.469454],[-61.7134223,-9.4402725],[-61.7101908,-9.428574],[-61.6866325,-9.453465],[-61.6835566,-9.4369581],[-61.6835998,-9.386229],[-61.6587577,-9.3903607],[-61.6331437,-9.3293611],[-61.6162106,-9.3268258]],[[-61.958011,-11.2968188],[-61.9524831,-11.290408]],[[-61.9524831,-11.290408],[-61.9681499,-11.2999616],[-62.0013408,-11.2888825],[-62.0195633,-11.3048349],[-62.054064,-11.3062525],[-62.0610907,-11.301998],[-62.0685292,-11.2983468],[-62.0714233,-11.2943892],[-62.0932895,-11.2958148]],[[-62.0932895,-11.2958148],[-62.1079227,-11.3255612],[-62.1068979,-11.3288476],[-62.1200634,-11.3686459],[-62.1732021,-11.4184011],[-62.2174589,-11.4350682],[-62.2400349,-11.4289521],[-62.2906476,-11.4480515],[-62.3217012,-11.4978344],[-62.3462589,-11.5240966],[-62.3696752,-11.537504],[-62.3810332,-11.5609476],[-62.4109285,-11.5662389],[-62.4258411,-11.5975861],[-62.4619842,-11.6036284],[-62.4755145,-11.5754559]],[[-62.4755145,-11.5754559],[-62.4778026,-11.5749287]],[[-62.4778026,-11.5749287],[-62.4766087,-11.5775685],[-62.4767617,-11.7067253],[-62.4799077,-11.7423486],[-62.4786213,-11.8598697],[-62.4654752,-11.8644746],[-62.464905,-11.958839],[-62.4530967,-11.9685102]],[[-62.2324861,-11.9087762],[-62.205591,-11.8286841]],[[-62.205591,-11.8286841],[-62.1881534,-11.8123358],[-62.1898973,-11.7757385],[-62.2129197,-11.7167259],[-62.1940911,-11.6792976],[-62.1907292,-11.651826],[-62.1715913,-11.6134582],[-62.1759799,-11.5860015],[-62.1637591,-11.5654464],[-62.1727059,-11.5473927],[-62.1403992,-11.5228201],[-62.1202028,-11.5271833],[-62.099725,-11.5102836]],[[-62.099725,-11.5102836],[-62.0823435,-11.4945123]],[[-62.0823435,-11.4945123],[-62.0848199,-11.4928704],[-62.0843093,-11.4872815],[-62.0796434,-11.4601338],[-62.0266973,-11.4138725],[-62.0206134,-11.3725764],[-61.958011,-11.2968188]],[[-61.9125006,-10.1338657],[-61.910569,-10.117045]],[[-61.910569,-10.117045],[-61.9574129,-10.1638532],[-62.1006294,-10.6595223],[-62.2400916,-10.6152646],[-62.2144369,-10.5217969],[-62.2596611,-10.4768484]],[[-62.2596611,-10.4768484],[-62.5252588,-10.7094727]],[[-62.5252588,-10.7094727],[-62.3524353,-10.8939344]],[[-62.3524353,-10.8939344],[-62.3053547,-10.8347007]],[[-62.3053547,-10.8347007],[-62.1225803,-10.8993878]],[[-62.1225803,-10.8993878],[-61.9604749,-10.4980376]],[[-60.3022432,-12.2584274],[-60.3090196,-12.2238115],[-60.305949,-12.1973761],[-60.3351067,-12.0984721],[-60.3649701,-12.0713465],[-60.3746082,-12.0504885],[-60.3775534,-12.0087549],[-60.3872173,-11.9885913],[-60.354472,-11.9611396],[-60.3746931,-11.9329351],[-60.3749684,-11.8901863],[-60.3878288,-11.8539599],[-60.4037993,-11.8479559],[-60.4601402,-11.7846051],[-60.4583793,-11.7551685],[-60.4324933,-11.7104285],[-60.4500505,-11.6912794],[-60.4609138,-11.6632902],[-60.4547487,-11.6285114],[-60.437247,-11.6109414],[-60.4359107,-11.5915291],[-60.4487218,-11.5599406],[-60.4390236,-11.4959642],[-60.4660869,-11.4750013]],[[-60.4660869,-11.4750013],[-60.4633339,-11.4648822]],[[-60.9252137,-11.7473751],[-61.2125287,-11.5284885]],[[-61.5489765,-11.6191079],[-61.5592217,-11.6566332],[-61.5742863,-11.6650563],[-61.5628096,-11.6967441],[-61.5500036,-11.6984779],[-61.5372856,-11.7381376]],[[-61.5372856,-11.7381376],[-61.5345846,-11.7431695]],[[-61.5345846,-11.7431695],[-61.4148365,-11.7439933]],[[-61.4148365,-11.7439933],[-61.417278,-11.7378259],[-61.4248277,-11.7299393],[-61.2644196,-11.7298992],[-61.2697037,-11.7471902],[-61.1933333,-11.7466803],[-61.1945834,-11.7714702],[-61.2082295,-11.780525],[-61.2201207,-11.8145272],[-61.2383952,-11.8413202],[-61.2443966,-11.8858314],[-61.2260312,-11.9079017],[-61.2203951,-11.954624],[-61.2029777,-11.9927107]],[[-61.2029777,-11.9927107],[-61.1971973,-11.9990498],[-61.1788119,-12.0017613],[-61.1754794,-12.0114683]],[[-61.1754794,-12.0114683],[-61.1647221,-12.0251996],[-61.1620291,-12.0321935],[-61.1474508,-12.0532467],[-61.1430304,-12.0997302],[-61.1538867,-12.1233007],[-61.1618952,-12.1371177],[-61.1820339,-12.1457455],[-61.1837017,-12.1632486]],[[-61.1837017,-12.1632486],[-61.1806735,-12.1671429]],[[-61.1806735,-12.1671429],[-60.7123924,-12.1660733],[-60.7081504,-12.1855956],[-60.6727266,-12.2531521]],[[-60.6727266,-12.2531521],[-60.6499853,-12.2613712]],[[-60.6499853,-12.2613712],[-60.3022432,-12.2584274]],[[-62.2688885,-8.5757586],[-62.2943077,-8.6054408],[-62.2793343,-8.6291699],[-62.2895023,-8.6390966],[-62.3357776,-8.6094846],[-62.3390795,-8.5868942],[-62.3258047,-8.5637074],[-62.3373587,-8.5166389],[-62.3660512,-8.4935617],[-62.3692809,-8.4461191],[-62.3608035,-8.3985493],[-62.3840279,-8.3775558],[-62.4245582,-8.374985],[-62.4654746,-8.33974],[-62.4789156,-8.3456734],[-62.5184725,-8.3847382],[-62.539557,-8.3581095],[-62.5611623,-8.3138318],[-62.5559412,-8.3067587],[-62.5853879,-8.2718806],[-62.6000575,-8.2722387],[-62.6550016,-8.2290564],[-62.6598885,-8.1996336],[-62.6866642,-8.1737744],[-62.6730277,-8.1453106],[-62.6922801,-8.0929083],[-62.7128298,-8.0805834],[-62.7439725,-8.0452861],[-62.7862003,-8.026343],[-62.8099965,-8.0253396],[-62.8328333,-7.9943716],[-62.8666166,-7.9758683],[-63.1183827,-7.9771072],[-63.6212491,-7.9765317],[-63.621779,-8.0296108],[-63.6670003,-8.0816033],[-63.6624486,-8.1011713],[-63.6934211,-8.1583487],[-63.7415348,-8.1900741],[-63.7485628,-8.2078652],[-63.7227614,-8.249499],[-63.7465624,-8.2701692],[-63.7735083,-8.3207328],[-63.7912313,-8.3332153],[-63.8253386,-8.3061526],[-63.8707594,-8.2888196],[-63.8949267,-8.3020287],[-63.9108358,-8.3285248],[-63.9317883,-8.3246916],[-63.9456197,-8.338933],[-63.9453732,-8.3878261],[-63.9769546,-8.4097397],[-63.953727,-8.4279648],[-63.9408384,-8.452264],[-63.9731772,-8.4784472],[-63.9708971,-8.4993333],[-63.9437881,-8.5266044],[-63.9456204,-8.550498],[-63.9231714,-8.5592935],[-63.9245687,-8.5755254],[-63.9459539,-8.6094853],[-63.9862097,-8.5856339],[-63.9910948,-8.6174138],[-64.0048419,-8.6259109],[-64.0164261,-8.667682],[-64.0431747,-8.7119098],[-64.0751521,-8.7131075],[-64.0947671,-8.7283635],[-64.1245948,-8.7167138],[-64.1430671,-8.7430315],[-64.1447623,-8.7764473],[-64.129459,-8.8051627],[-64.1582033,-8.8431675],[-64.1487937,-8.8730907],[-64.1517023,-8.8972333],[-64.1417669,-8.9450507],[-64.1494522,-8.9589372],[-64.1750139,-8.9605714],[-64.2332051,-8.9923081],[-64.2650711,-8.9883824],[-64.3113185,-8.9964708],[-64.326072,-8.9798321],[-64.3095688,-8.9344929],[-64.3233996,-8.9288606],[-64.3799237,-8.9467351],[-64.446574,-8.9768705],[-64.5501239,-8.9782709],[-64.587961,-9.0095099],[-64.611074,-9.0164518],[-64.641538,-9.006646],[-64.6713762,-9.0147962],[-64.6833507,-8.9936169],[-64.7136811,-8.9938629],[-64.730541,-9.0125097],[-64.7611805,-9.0205834],[-64.7839641,-8.9892699],[-64.8164156,-8.98662],[-64.8705663,-9.0121936],[-64.8940991,-9.0437018],[-64.9172668,-9.0431411],[-64.9156801,-9.0746143],[-64.9399298,-9.1245658],[-64.9196828,-9.2202803],[-64.9360779,-9.2558112],[-64.9628795,-9.2927766],[-64.9861829,-9.291931],[-65.0005153,-9.3046138],[-65.0356802,-9.3748168],[-65.053546,-9.4021423],[-65.0779285,-9.4009814],[-65.0889104,-9.4250804],[-65.1428806,-9.4468123],[-65.1854632,-9.4270317],[-65.1735439,-9.3854485],[-65.1961582,-9.3752629],[-65.1883246,-9.3448525],[-65.2089565,-9.3096433],[-65.2117718,-9.2789934],[-65.2466614,-9.2576636],[-65.2703819,-9.2636117],[-65.3073529,-9.291487],[-65.3426895,-9.3094609],[-65.3512411,-9.3231093],[-65.3775134,-9.3244261],[-65.3935223,-9.339597],[-65.4097979,-9.3224557],[-65.4402184,-9.3117453],[-65.4461298,-9.3706882],[-65.4566002,-9.4012087],[-65.4433302,-9.4201472],[-65.4320983,-9.458635],[-65.4566578,-9.4705194],[-65.5031633,-9.4699754],[-65.5224118,-9.4469045],[-65.5556338,-9.4224552],[-65.5881079,-9.4137738],[-65.6416338,-9.4334674],[-65.6498843,-9.4472713],[-65.6794352,-9.4513929],[-65.6809976,-9.5004075],[-65.6960809,-9.5076713],[-65.7141083,-9.5449248],[-65.7299672,-9.5630727],[-65.8000217,-9.5850225],[-65.8180266,-9.5622559],[-65.8250771,-9.5300912],[-65.8482485,-9.5323243],[-65.8809081,-9.4874649],[-65.9126344,-9.4837503],[-65.9318805,-9.4475944],[-65.9703006,-9.4131601],[-66.0025757,-9.4042574],[-66.0424116,-9.4023724],[-66.0597396,-9.4182176],[-66.1238908,-9.4087794],[-66.1736328,-9.4344187],[-66.2047463,-9.4259737],[-66.2434147,-9.4293871],[-66.2596688,-9.4109965],[-66.2904394,-9.4124947],[-66.2841858,-9.4321636],[-66.3074975,-9.4368453],[-66.3189162,-9.4199636],[-66.3747764,-9.4263661],[-66.4088584,-9.4069466],[-66.4147219,-9.4219488],[-66.3961089,-9.4375201],[-66.3890009,-9.4642796],[-66.3924143,-9.5004801],[-66.4235776,-9.5257876],[-66.4389348,-9.55439],[-66.4949168,-9.6015832],[-66.5006134,-9.6335642],[-66.5368884,-9.6435496],[-66.5517207,-9.65806],[-66.5863066,-9.6735589],[-66.6094487,-9.6648985],[-66.6241659,-9.6808192],[-66.6849453,-9.7146456],[-66.691803,-9.7338899],[-66.7253897,-9.7560725],[-66.7584708,-9.7603598],[-66.7753636,-9.7530913],[-66.7805792,-9.7913933],[-66.8102531,-9.8180459],[-66.6267197,-9.8981012],[-66.5875826,-9.9003015],[-66.5588611,-9.8809502],[-66.5280014,-9.887032],[-66.5133329,-9.8764175],[-66.4358032,-9.8660127],[-66.4120831,-9.8820268],[-66.3951909,-9.864176],[-66.3596118,-9.8661512],[-66.3559711,-9.8487645],[-66.313389,-9.8325715],[-66.2550757,-9.8333063],[-66.2376611,-9.8145963],[-66.2133083,-9.8342554],[-66.1950561,-9.8063093],[-66.1529391,-9.785746],[-66.1014448,-9.8033588],[-66.0711099,-9.7842972],[-66.0332195,-9.7889338],[-66.02814,-9.8066732],[-65.9741334,-9.7979149],[-65.9735213,-9.7773322],[-65.9225231,-9.7563988],[-65.9030823,-9.7668253],[-65.8713618,-9.7533886],[-65.8686112,-9.7930308],[-65.8535809,-9.7943418],[-65.8204949,-9.7664367],[-65.80572,-9.788088],[-65.7837427,-9.7863433],[-65.7726588,-9.7581878],[-65.750691,-9.7774574],[-65.7188849,-9.7559534],[-65.6849694,-9.7490081],[-65.6892185,-9.7688335],[-65.7098507,-9.7725702],[-65.6893809,-9.7998461],[-65.6725794,-9.7821248],[-65.6473594,-9.815839],[-65.6236948,-9.8359798],[-65.5969534,-9.8419106],[-65.5541007,-9.8320442],[-65.5656275,-9.8130935],[-65.5135248,-9.79317],[-65.5042198,-9.7676961],[-65.5010191,-9.7298391],[-65.4470743,-9.6971036],[-65.4434368,-9.6693231],[-65.3949379,-9.6857732],[-65.3546006,-9.7236823],[-65.3280707,-9.7800172],[-65.3205208,-9.814532],[-65.2873772,-9.8398634],[-65.2886592,-9.8657267],[-65.3122688,-9.8931208],[-65.3330094,-9.944282]],[[-65.3330094,-9.944282],[-65.3219288,-9.9371447],[-65.3114988,-9.9431988],[-65.2844302,-9.9547273],[-65.2572426,-9.9628688],[-65.2277307,-9.9690662],[-65.1944103,-9.9621538],[-65.1667444,-10.0002319]],[[-65.1667444,-10.0002319],[-64.3411699,-10.0003818]],[[-64.3411699,-10.0003818],[-64.343922,-9.9755177],[-64.3418917,-9.9567545],[-64.3234882,-9.9259923],[-64.3271135,-9.8837038],[-64.3121851,-9.8511698],[-64.2602432,-9.8318824],[-64.2261062,-9.8478394],[-64.2020271,-9.8339282],[-64.1874215,-9.841936],[-64.1588607,-9.8225288],[-64.1357946,-9.8335388],[-63.6852927,-9.8329856]],[[-63.6852927,-9.8329856],[-63.6792873,-9.8114162],[-63.6746866,-9.7642234],[-63.6625943,-9.7559223],[-63.6718691,-9.747811],[-63.662374,-9.7169154],[-63.6405072,-9.6893533],[-63.6414413,-9.6700871],[-63.6237024,-9.6516717],[-63.6251506,-9.6245548],[-63.5731777,-9.5790081],[-63.5508456,-9.5337658],[-63.5478135,-9.5059409],[-63.56159,-9.4565509],[-63.5763943,-9.4381775],[-63.582676,-9.4105974],[-63.6234554,-9.4243468],[-63.623928,-9.4362888],[-63.6670115,-9.4285952],[-63.6861233,-9.4188078],[-63.7114413,-9.4487228],[-63.7242406,-9.4430822],[-63.733941,-9.4477407],[-63.7358087,-9.4315157],[-63.7504477,-9.3964991]],[[-63.7504477,-9.3964991],[-63.7617638,-9.3944815],[-63.7630395,-9.3932437]],[[-63.7630395,-9.3932437],[-63.7677652,-9.3628533],[-63.7848206,-9.3340673],[-63.7791244,-9.2857903],[-63.7853393,-9.2577205],[-63.7708399,-9.2294395],[-63.7859577,-9.1794841],[-63.7701498,-9.1528749],[-63.7879282,-9.1354319],[-63.7925403,-9.1062909],[-63.7747322,-9.0694052],[-63.7968689,-9.047065],[-63.7872027,-9.0125684],[-63.7711302,-9.0153804],[-63.7449297,-8.9463807],[-63.7429825,-8.9108565],[-63.726927,-8.8897598],[-63.7501493,-8.8532925],[-63.7350059,-8.8298868],[-63.7066716,-8.820594],[-63.6994017,-8.8059121],[-63.7045657,-8.7768196],[-63.7206538,-8.7766441],[-63.7228238,-8.7618817],[-63.7006491,-8.7400972],[-63.7085919,-8.7180101],[-63.7077334,-8.7118868],[-63.6801151,-8.701021],[-63.6689287,-8.6976453],[-63.672366,-8.7130881],[-63.6679234,-8.7152877],[-63.6655945,-8.709262],[-63.650558,-8.706365],[-63.6403413,-8.715845],[-63.6127589,-8.7027415],[-63.5606192,-8.6586094],[-63.5646174,-8.6271734],[-63.5335355,-8.6454799],[-63.5120358,-8.6088518],[-63.4591611,-8.5959619],[-63.452283,-8.5702643],[-63.4821703,-8.5585299],[-63.4520547,-8.5148045],[-63.4505326,-8.5004318],[-62.8223334,-8.5003569],[-62.843562,-8.5078493],[-62.8204643,-8.5394057],[-62.8134173,-8.5636403],[-62.7448377,-8.6128879],[-62.7317733,-8.6560139],[-62.7356936,-8.6750635],[-62.755647,-8.6845472],[-62.752589,-8.7038067],[-62.7804483,-8.7142408],[-62.7593369,-8.7345453],[-62.7559508,-8.7802889],[-62.7641358,-8.798063]],[[-62.7641358,-8.798063],[-62.7265602,-8.8000025],[-62.7186447,-8.8093595],[-62.6923617,-8.8086904],[-62.6646962,-8.7979063],[-62.6550318,-8.7762141],[-62.6312284,-8.7773586],[-62.6258682,-8.7577639],[-62.5595318,-8.7407405],[-62.5363615,-8.7515216],[-62.4885061,-8.7300767],[-62.4862716,-8.7552362],[-62.4719423,-8.7717466],[-62.4481417,-8.7683056],[-62.4352211,-8.7369413],[-62.4086613,-8.7472439],[-62.3758841,-8.7461164],[-62.3691269,-8.7435569]],[[-62.3691269,-8.7435569],[-62.3709176,-8.7407218]],[[-61.6320009,-10.9862943],[-61.9421482,-10.9867742]],[[-62.1444458,-11.0304137],[-62.1665644,-11.0366842],[-62.1596445,-11.0551931],[-62.1592252,-11.067753]],[[-62.1592252,-11.067753],[-62.153616,-11.0721758],[-62.158511,-11.0779673],[-62.1640625,-11.0983951],[-62.1460683,-11.1150098],[-62.1497881,-11.1514162],[-62.1209529,-11.1979166],[-62.1395921,-11.2077417],[-62.1647041,-11.2385883],[-62.1827058,-11.2831031],[-62.1574513,-11.2778882],[-62.1400891,-11.2939989],[-62.0932895,-11.2958148]],[[-61.9524831,-11.290408],[-61.9432327,-11.2935291]],[[-61.9432327,-11.2935291],[-61.9179762,-11.2924532],[-61.8993056,-11.3241055],[-61.8831717,-11.3328377],[-61.8601967,-11.368748],[-61.834896,-11.3842596],[-61.7969513,-11.39061]],[[-61.7969513,-11.39061],[-61.7922223,-11.4003617]],[[-61.7417797,-11.3354633],[-61.7425036,-11.3266578]],[[-61.7425036,-11.3266578],[-61.7071771,-11.2952172],[-61.7010837,-11.2678948],[-61.6662116,-11.2588481],[-61.667068,-11.1184154],[-61.6323577,-11.1181627],[-61.6320009,-10.9862943]],[[-63.0768103,-9.5249728],[-63.0716496,-9.6147876],[-63.0749863,-9.6475923],[-63.0774736,-9.6541115]],[[-63.0774736,-9.6541115],[-63.0987314,-9.6682735],[-63.1151204,-9.7107894],[-63.1200989,-9.7228448],[-63.1136182,-9.7302278],[-63.111629,-9.7410376]],[[-63.111629,-9.7410376],[-63.075979,-9.7521785]],[[-62.5565658,-9.6691601],[-62.5482889,-9.6731026]],[[-62.4255326,-9.5402216],[-62.4224639,-9.5250188]],[[-62.4224639,-9.5250188],[-63.0005883,-9.5263449],[-63.0768103,-9.5249728]],[[-61.6130026,-11.5838357],[-61.9137781,-11.5850238]],[[-61.9137781,-11.5850238],[-61.9269219,-11.6160333],[-61.9624493,-11.6313724],[-61.9693372,-11.6675],[-61.9758164,-11.6869456],[-61.972784,-11.7292739],[-61.9951799,-11.7706965],[-62.0185887,-11.7962795],[-62.0487345,-11.8666679]],[[-62.0487345,-11.8666679],[-62.0456764,-11.8683594]],[[-61.8951737,-11.9046352],[-61.890527,-11.9068118]],[[-61.890527,-11.9068118],[-61.8835054,-11.8851014],[-61.8390062,-11.868445],[-61.8320674,-11.8569894]],[[-61.8320674,-11.8569894],[-61.5642977,-11.8563655]],[[-61.5642977,-11.8563655],[-61.5619257,-11.8488173],[-61.5537047,-11.845975],[-61.5213895,-11.7593081],[-61.5351151,-11.7460596]],[[-61.5351151,-11.7460596],[-61.5372856,-11.7381376]],[[-61.5306878,-11.85617],[-61.8320674,-11.8569894]],[[-61.890527,-11.9068118],[-61.886511,-11.9088302]],[[-61.8884353,-11.9657111],[-61.8818395,-11.9711921]],[[-61.8818395,-11.9711921],[-61.8435682,-11.9865353],[-61.8324523,-12.021361],[-61.8357878,-12.0703492],[-61.8049049,-12.0977435],[-61.8000025,-12.119689],[-61.7743169,-12.1505858],[-61.7475348,-12.1991788],[-61.7405129,-12.251703],[-61.7533701,-12.2749673],[-61.7259788,-12.3316859],[-61.7266222,-12.351008],[-61.7262066,-12.3599229],[-61.7169257,-12.3811902],[-61.6908954,-12.3993691],[-61.6757846,-12.4292215]],[[-61.6757846,-12.4292215],[-61.6786196,-12.0897025]],[[-61.6786196,-12.0897025],[-61.5305097,-12.0889944]],[[-61.5305097,-12.0889944],[-61.5306878,-11.85617]],[[-60.3331703,-13.2579792],[-60.3297838,-13.2354686],[-60.3082236,-13.1994875],[-60.3038368,-13.1783698],[-60.2786128,-13.1596137],[-60.2771203,-13.1126783],[-60.2829916,-13.0805523],[-60.2562022,-13.063813],[-60.2413314,-13.0384575],[-60.2152922,-13.0269807],[-60.2136568,-13.0070527],[-60.1833444,-12.967629],[-60.1171653,-12.9595556],[-60.1015281,-12.9134155],[-60.0791127,-12.8811425],[-60.0828176,-12.852636],[-60.0656385,-12.8107048],[-60.0621632,-12.7581709],[-60.0750583,-12.7332327],[-60.0557303,-12.7036176],[-60.0658458,-12.6938228],[-60.059073,-12.6635501],[-60.028942,-12.6185671],[-60.0033205,-12.5923372],[-59.9774152,-12.6065175],[-59.9476548,-12.5992652],[-59.8960537,-12.5364446],[-59.8989333,-12.5030734],[-59.84416,-12.4671729],[-59.8425487,-12.424849],[-59.8192559,-12.3787482],[-59.7929413,-12.3457819],[-59.7743574,-12.3409559],[-59.8867969,-12.245087],[-59.9017147,-12.2238791],[-59.9108107,-12.1864566],[-59.9026053,-12.1750357],[-59.8998038,-12.1172227],[-59.9292763,-12.0784547],[-59.9619968,-12.0563674],[-59.9695798,-12.0324752],[-59.9713581,-11.9699456],[-59.9857972,-11.9120801],[-60.0068898,-11.894683],[-60.0503863,-11.8978671],[-60.0766345,-11.8852893],[-60.1033601,-11.8191718],[-60.0986646,-11.7943321],[-60.109156,-11.7805548],[-60.1073891,-11.7489734],[-60.1216618,-11.7121038],[-60.1187981,-11.6540707],[-60.1099085,-11.6155403],[-60.1148844,-11.591462],[-60.0866925,-11.5609447],[-60.0574695,-11.542096],[-60.0328028,-11.4995521],[-59.9854077,-11.4693409],[-59.9762413,-11.4392225],[-59.9344129,-11.4236675],[-59.9206343,-11.3980076],[-59.925437,-11.3617763],[-59.9171931,-11.3384346],[-59.9277738,-11.3104346],[-59.9594679,-11.2947339],[-59.9679112,-11.2529339],[-59.9796883,-11.2395295],[-59.9811296,-11.2037619],[-59.9640257,-11.1891151],[-59.9875818,-11.1711082],[-59.9950224,-11.148203],[-59.9767766,-11.1223889],[-60.032028,-11.127778],[-60.0663542,-11.1209934],[-60.0750227,-11.1050246],[-60.1776041,-11.0992539],[-60.1914692,-11.1141134],[-60.2412468,-11.0968881],[-60.2808334,-11.0915305],[-60.2823584,-11.0640172],[-60.301248,-11.0571521],[-60.3419726,-11.0826337],[-60.3479707,-11.1090363],[-60.3915541,-11.0937926],[-60.4114906,-11.0467759],[-60.4296987,-11.0374942],[-60.4600501,-10.9898562]],[[-60.4636367,-11.4613229],[-60.4631907,-11.4665623],[-60.4660869,-11.4750013]],[[-60.3022432,-12.2584274],[-60.6853858,-12.2615422]],[[-60.6853858,-12.2615422],[-60.6843353,-12.2956281],[-60.7056712,-12.3239655],[-60.755408,-12.3431608],[-60.7886113,-12.3701529],[-60.8091701,-12.3754815],[-60.8100012,-12.4479006],[-60.628698,-12.4441838],[-60.6399484,-12.53852],[-60.446474,-12.5360677],[-60.4436384,-12.8403668],[-60.4654716,-12.8306467],[-60.5005831,-12.7990955],[-60.5349778,-12.7934612],[-60.56259,-12.7739975],[-60.5769443,-12.805497],[-60.5815822,-12.8653184],[-60.5969465,-12.9147155],[-60.5898345,-12.9352393],[-60.6108352,-12.9811656],[-60.6126556,-12.9923868]],[[-60.6126556,-12.9923868],[-60.6043992,-12.9881748]],[[-63.6099277,-11.0092022],[-63.6301321,-11.0055387]],[[-63.6030749,-11.6014251],[-63.5995153,-11.604991]],[[-63.5995153,-11.604991],[-63.5447486,-11.598569],[-63.5402526,-11.5919392],[-63.5197727,-11.5773356],[-63.4926911,-11.5405545],[-63.4636833,-11.5561309],[-63.4227629,-11.5555947],[-63.3717752,-11.5319261],[-63.3300817,-11.5323133],[-63.2841674,-11.5169424],[-63.2726706,-11.4986792],[-63.2359951,-11.4880968],[-63.1702882,-11.4822977],[-63.134598,-11.4980722],[-63.1167906,-11.5305429],[-63.0902067,-11.5426098],[-63.0699632,-11.5286405],[-63.0548462,-11.5362584],[-63.0473718,-11.5609909],[-63.0035416,-11.5528055],[-62.9790978,-11.5954052],[-62.9709558,-11.6213636],[-62.9886565,-11.635982],[-62.998378,-11.6672246],[-62.9904632,-11.7173123],[-62.9907591,-11.7508326],[-62.9636568,-11.7531143],[-62.9378504,-11.7716531],[-62.9172358,-11.8061277],[-62.8869558,-11.8181537],[-62.8729048,-11.8110411],[-62.8599326,-11.8169698],[-62.8538466,-11.8554726],[-62.8376292,-11.8850652],[-62.8487595,-11.8964073],[-62.8753174,-11.9474248],[-62.9047948,-11.9416036],[-62.9545164,-11.9474176],[-62.9597056,-11.95521],[-63.0087818,-11.9707294],[-63.01368,-11.9889711],[-63.0483184,-12.0270416],[-63.0766786,-12.0372038],[-63.0857952,-12.0405237],[-63.0936809,-12.0519148],[-63.1038509,-12.0559216],[-63.1000321,-12.0604192],[-63.1215118,-12.083176],[-63.1275731,-12.1114966],[-63.1164017,-12.1347095],[-63.121658,-12.187343],[-63.1303794,-12.1986912]],[[-63.1303794,-12.1986912],[-63.1143226,-12.2049747]],[[-63.1143226,-12.2049747],[-63.0302961,-12.1951137],[-62.9538831,-12.2064476],[-62.9152421,-12.1970941],[-62.8556265,-12.1946031],[-62.8139357,-12.2021565],[-62.7988534,-12.1859706],[-62.7663033,-12.1748831],[-62.7574363,-12.1425431],[-62.7333897,-12.1249783],[-62.7313195,-12.1098177]],[[-62.7313195,-12.1098177],[-62.6425289,-12.23547]],[[-62.4778026,-11.5749287],[-62.4795123,-11.5745337]],[[-62.4795123,-11.5745337],[-62.4898157,-11.5356634],[-62.5270431,-11.47708],[-62.5553401,-11.4686364],[-62.5997361,-11.4847936],[-62.6402006,-11.4434959],[-62.6945419,-11.4327888],[-62.7130696,-11.4473163],[-62.7546793,-11.4400772],[-62.7282045,-11.4125516],[-62.7326221,-11.3943185],[-62.7757631,-11.3863844],[-62.7987322,-11.3551938],[-62.8025688,-11.3372292],[-62.824542,-11.3347477],[-62.8379556,-11.3032083],[-62.9024871,-11.3202922],[-62.9400669,-11.3549764],[-62.9720712,-11.3456233],[-63.0090706,-11.3455835],[-63.0453418,-11.3378988],[-63.0799293,-11.3545521],[-63.0895419,-11.3556266],[-63.1020147,-11.3332106],[-63.0960144,-11.3079428],[-63.1183237,-11.257038],[-63.1115956,-11.2179717],[-63.1411532,-11.1968095],[-63.1497894,-11.1603217],[-63.1408165,-11.1397035],[-63.1392089,-11.1293039],[-63.1534336,-11.1132567],[-63.1737377,-11.1159835],[-63.1848197,-11.1089495],[-63.1954615,-11.1033893]],[[-63.1954615,-11.1033893],[-63.2205438,-11.1209999]],[[-63.2205438,-11.1209999],[-63.2454064,-11.1471421]],[[-63.2454064,-11.1471421],[-63.2518165,-11.1510637],[-63.2887149,-11.1532322],[-63.3061209,-11.1416807]],[[-63.3061209,-11.1416807],[-63.3029017,-11.1303641],[-63.3353989,-11.0891058],[-63.3413508,-11.0637902],[-63.3642345,-11.0747712],[-63.3841758,-11.0572659],[-63.4138728,-11.0490935],[-63.433098,-11.029952],[-63.4811018,-11.027198],[-63.5002901,-11.0426709],[-63.5267905,-11.0460699],[-63.5665679,-11.0339021],[-63.5824908,-11.010637],[-63.6099277,-11.0092022]],[[-65.3330094,-9.944282],[-65.3200511,-10.0009559],[-65.329357,-10.0431964],[-65.3197992,-10.079507],[-65.3005774,-10.1009084],[-65.300281,-10.1394395],[-65.3070251,-10.1649978],[-65.2899869,-10.2088499],[-65.2948338,-10.2391027],[-65.3067713,-10.2498286],[-65.3194156,-10.2922601],[-65.3759058,-10.3521812],[-65.3918561,-10.3769801],[-65.3803542,-10.4009425],[-65.3814996,-10.4290742]],[[-63.9168751,-10.8706498],[-63.7067393,-10.8399869]],[[-63.7067393,-10.8399869],[-63.7135425,-10.8364837],[-63.7191793,-10.8311863],[-63.7424924,-10.8263844],[-63.7493509,-10.8145224],[-63.7678475,-10.8172274],[-63.7869284,-10.7963939],[-63.8125413,-10.8015966],[-63.8562367,-10.7724014],[-63.8631574,-10.7692071],[-63.8987926,-10.7510661],[-63.8965138,-10.7290519],[-63.9058259,-10.6908305],[-63.9311001,-10.6650849],[-63.9354599,-10.6314801],[-63.9855182,-10.619974],[-64.0166797,-10.5863212],[-64.0152412,-10.565348],[-63.9847637,-10.5369531],[-63.9778977,-10.5130174],[-64.0045991,-10.4942646],[-64.0085187,-10.4745079],[-64.0314372,-10.4649026],[-64.0629017,-10.473005],[-64.0931828,-10.4622046],[-64.1008441,-10.4480561],[-64.1341253,-10.4405037],[-64.1839054,-10.3930258],[-64.2055425,-10.362356],[-64.2212388,-10.3526728],[-64.2249878,-10.3176107],[-64.2002695,-10.2930359],[-64.1911016,-10.2711465],[-64.2091817,-10.1963745]],[[-64.2091817,-10.1963745],[-64.2351567,-10.1680414],[-64.2285403,-10.1487736],[-64.2424072,-10.0972206],[-64.2318487,-10.0809956],[-64.24368,-10.0492366],[-64.2472342,-10.0430791],[-64.2647339,-10.0004134]],[[-64.2647339,-10.0004134],[-65.1667444,-10.0002319]],[[-62.1592252,-11.067753],[-62.1938986,-11.0559954],[-62.2142855,-11.0914755],[-62.2389508,-11.1079383],[-62.2648446,-11.1723414],[-62.4453394,-11.1765851],[-62.5841521,-11.2247696],[-62.6913172,-11.1298141]],[[-62.6913172,-11.1298141],[-62.6929235,-11.131405]],[[-62.6929235,-11.131405],[-62.7225405,-11.1412726],[-62.7284006,-11.1588681],[-62.7285908,-11.1666794],[-62.7965389,-11.1966753],[-62.8141737,-11.1873618],[-62.8415379,-11.1971075],[-62.9389526,-11.2081615],[-62.968264,-11.1997906],[-63.0004286,-11.2013112],[-63.0185444,-11.1837386],[-63.0513778,-11.1810339],[-63.1123853,-11.1946406],[-63.1192452,-11.160934],[-63.1537696,-11.0886751],[-63.1906752,-11.0808843]],[[-63.1906752,-11.0808843],[-63.1964175,-11.082566]],[[-63.1964175,-11.082566],[-63.1911574,-11.0974981]],[[-63.1911574,-11.0974981],[-63.1954615,-11.1033893]],[[-62.4795123,-11.5745337],[-62.4755145,-11.5754559]],[[-62.0237879,-12.8722191],[-62.0281547,-12.8903236],[-62.0329048,-12.8997666],[-62.0396211,-12.9074642],[-62.0713318,-12.9071215]],[[-62.4177113,-13.1189419],[-62.3519615,-13.1432941],[-62.3167712,-13.1344681],[-62.2993497,-13.1505528],[-62.2459304,-13.1451627],[-62.2450118,-13.1208414],[-62.2147888,-13.1113449],[-62.1909339,-13.1538296],[-62.1695715,-13.1342045],[-62.1429045,-13.1611636],[-62.1152086,-13.1636806]],[[-62.1152086,-13.1636806],[-62.1101803,-13.1788177],[-62.0997902,-13.1726922],[-62.0816543,-13.1564517],[-62.03018,-13.1266185],[-61.9886838,-13.0405488],[-61.9562877,-12.9945343],[-61.9156262,-12.9692816],[-61.9151803,-12.9409751],[-61.8993214,-12.9293789],[-61.89551,-12.8769871],[-61.8813985,-12.8594127],[-61.8555919,-12.8622145]],[[-61.8555919,-12.8622145],[-61.8285439,-12.8494905],[-61.8167599,-12.8336764]],[[-61.8167599,-12.8336764],[-61.7931755,-12.816656],[-61.7628462,-12.8082583],[-61.6807611,-12.7442834],[-61.6626464,-12.7365714],[-61.6176757,-12.7200846],[-61.6044946,-12.7057649],[-61.5624799,-12.6934552],[-61.5379557,-12.6571033],[-61.5372328,-12.6407817],[-61.5354272,-12.6316644],[-61.52584,-12.6112846],[-61.530425,-12.6112112],[-61.5287032,-12.5895367],[-61.5251736,-12.5822887],[-61.5340693,-12.5682009],[-61.5327551,-12.5257785],[-61.5403951,-12.5163634],[-61.5540863,-12.4957391],[-61.5537912,-12.4805468],[-61.5661451,-12.4674033]],[[-61.5661451,-12.4674033],[-61.5716505,-12.4731871]],[[-61.5716505,-12.4731871],[-61.6315327,-12.4616691],[-61.6394918,-12.4484156],[-61.6757846,-12.4292215]],[[-61.8818395,-11.9711921],[-61.8902318,-11.9647945]],[[-63.7568275,-9.3951652],[-63.7504477,-9.3964991]],[[-63.6852927,-9.8329856],[-63.6916279,-9.8422094],[-63.6860152,-9.8528949],[-63.701453,-9.8583796],[-63.7175946,-9.9088359],[-63.7184577,-9.9282844],[-63.7380403,-9.9654104],[-63.7591242,-9.9802504],[-63.7658373,-10.0002897],[-63.5969729,-10.0003823]],[[-63.1015925,-9.7525591],[-63.111629,-9.7410376]],[[-63.0774736,-9.6541115],[-63.0753125,-9.6495834],[-63.0723642,-9.6271616],[-63.0720416,-9.6035912],[-63.0780629,-9.5080178]],[[-63.0780629,-9.5080178],[-63.1021777,-9.4789228],[-63.1008119,-9.4738378]],[[-63.1008119,-9.4738378],[-63.1011086,-9.4527443],[-63.3267117,-9.4330698]],[[-63.3267117,-9.4330698],[-63.3259759,-9.428505]],[[-63.3259759,-9.428505],[-63.7568275,-9.3951652]],[[-64.3411699,-10.0003818],[-64.2647339,-10.0004134]],[[-64.2091817,-10.1963745],[-64.190348,-10.2044622],[-64.1372674,-10.2089788],[-64.126319,-10.2266785],[-64.1107419,-10.243318],[-64.0617682,-10.250777],[-64.0284829,-10.1535136],[-64.0166949,-10.1625153],[-64.0069336,-10.1833055],[-64.0020957,-10.1937812],[-63.9842615,-10.2048016],[-63.9639593,-10.2333156],[-63.9303745,-10.260093],[-63.9314551,-10.2775767],[-63.8948517,-10.2973768],[-63.9012113,-10.313075],[-63.9004621,-10.3613311],[-63.8235161,-10.3518057],[-63.811875,-10.3292463],[-63.7795176,-10.3306074],[-63.7609573,-10.3230099],[-63.7634061,-10.2998344],[-63.7299076,-10.278057],[-63.7290421,-10.2453405],[-63.6981213,-10.2490847],[-63.5243047,-10.2496429]],[[-63.5243047,-10.2496429],[-63.5386494,-10.2381493]],[[-63.5386494,-10.2381493],[-63.5652203,-10.2408974],[-63.5840168,-10.2143737],[-63.59018,-10.2059403],[-63.5766228,-10.1126248],[-63.5846232,-10.1070047],[-63.5896261,-10.0587464],[-63.5834001,-10.0300568],[-63.5969729,-10.0003823]],[[-62.0013039,-11.5853149],[-62.0004258,-11.5002454],[-62.0861202,-11.5005417]],[[-62.0861202,-11.5005417],[-62.099725,-11.5102836]],[[-62.205591,-11.8286841],[-62.2067012,-11.8319935]],[[-62.058608,-11.8670469],[-62.0487345,-11.8666679]],[[-61.9137781,-11.5850238],[-62.0013039,-11.5853149]],[[-63.2092654,-10.1670111],[-63.2128797,-10.1709899],[-63.2082016,-10.1949371],[-63.2295053,-10.2192732],[-63.2307345,-10.2835479],[-63.2439889,-10.337026],[-63.258459,-10.334945],[-63.2596271,-10.3611626],[-63.251261,-10.3828352],[-63.2558187,-10.4009267],[-63.2516546,-10.4255714],[-63.23157,-10.4423494],[-63.2352606,-10.483125],[-63.2174848,-10.4883154]],[[-63.2174848,-10.4883154],[-63.2136418,-10.4923243],[-62.9999058,-10.4914647],[-62.7880543,-10.4924814]],[[-62.7880543,-10.4924814],[-62.7884109,-10.4911098]],[[-62.6707747,-10.2877756],[-62.699009,-10.2665692]],[[-63.7067393,-10.8399869],[-63.685583,-10.8331417],[-63.6801335,-10.8328903],[-63.658577,-10.8383215]],[[-63.577073,-10.8315764],[-63.5772324,-10.8190799],[-63.5667102,-10.8013448],[-63.5745079,-10.7889602],[-63.5801231,-10.762445],[-63.5784845,-10.7445938],[-63.5550426,-10.7307647],[-63.5501247,-10.7004368],[-63.5606597,-10.6636784],[-63.5554053,-10.6394022],[-63.5317417,-10.5963055],[-63.5465727,-10.5818607],[-63.5574253,-10.5578865],[-63.5364908,-10.5304759],[-63.540788,-10.5064039]],[[-63.540788,-10.5064039],[-63.5291279,-10.491324]],[[-63.5291279,-10.491324],[-63.5329287,-10.4649295],[-63.497329,-10.4445558],[-63.4942872,-10.4149215],[-63.4590965,-10.3975856],[-63.459629,-10.3756302],[-63.4771227,-10.3373821],[-63.4609356,-10.307938],[-63.473121,-10.2819561],[-63.5005421,-10.2611875]],[[-63.5005421,-10.2611875],[-63.5243047,-10.2496429]],[[-63.7630395,-9.3932437],[-63.7568275,-9.3951652]],[[-63.3259759,-9.428505],[-63.323727,-9.423829]],[[-63.323727,-9.423829],[-63.3068384,-9.4028838],[-63.3086755,-9.3179617],[-63.320815,-9.2900382],[-63.3546206,-9.2726754],[-63.3834475,-9.2802604],[-63.4021431,-9.2677872],[-63.4030942,-9.2187082],[-63.3946629,-9.1974923],[-63.4134247,-9.1872343],[-63.4581989,-9.1916946],[-63.4511778,-9.1561334],[-63.4862249,-9.1363488],[-63.5122637,-9.1495318],[-63.5151446,-9.0973672],[-63.5270869,-9.0772833],[-63.5314527,-9.0721221],[-63.5278138,-9.0701347],[-63.533983,-9.062543],[-63.5124514,-9.0690035],[-63.4786869,-9.0189922],[-63.4503043,-9.0051919],[-63.4271723,-9.0581961],[-63.4298372,-9.086442],[-63.3957553,-9.0946026],[-63.3558072,-9.0644056],[-63.3612344,-9.0452861],[-63.3420912,-8.9983414],[-63.3246431,-8.9909646],[-63.3319754,-8.9698067],[-63.3309234,-8.9363257],[-63.3025582,-8.9104732],[-63.3180924,-8.8955084],[-63.3189457,-8.8568972],[-63.3155373,-8.8530248],[-63.3038088,-8.851286],[-63.2827537,-8.8852089],[-63.268891,-8.8929877],[-63.2656455,-8.9267259],[-63.2319014,-8.9574738],[-63.2120083,-8.9675097],[-63.2095646,-9.0005012],[-62.9907797,-9.0002579],[-62.9349768,-8.9488751],[-62.929007,-8.9198426],[-62.9015587,-8.9310325],[-62.888609,-8.9214238],[-62.8644733,-8.9312484],[-62.8086121,-8.8656784],[-62.7929493,-8.7939497],[-62.7641358,-8.798063]],[[-61.9432327,-11.2935291],[-61.958011,-11.2968188]],[[-62.0823435,-11.4945123],[-62.0861202,-11.5005417]],[[-62.0013039,-11.5853149],[-61.6142186,-11.5838291],[-61.615556,-11.5785101]],[[-61.7944183,-11.4045328],[-61.7969513,-11.39061]],[[-60.6499853,-12.2613712],[-60.6534425,-12.2592602],[-60.6569477,-12.2592737],[-60.6727266,-12.2531521]],[[-61.1806735,-12.1671429],[-61.1792526,-12.1697375]],[[-61.1792526,-12.1697375],[-61.1885613,-12.19347],[-61.193945,-12.2508574],[-61.1810098,-12.3136601],[-61.1930906,-12.3441042],[-61.2148391,-12.3589509],[-61.2531701,-12.441779],[-61.2780315,-12.4772451],[-61.2940634,-12.5203477],[-61.3047619,-12.5263218],[-61.3101187,-12.5432096],[-61.3289843,-12.5805561],[-61.3331177,-12.6093271]],[[-61.3331177,-12.6093271],[-61.3385383,-12.6142856],[-61.3418692,-12.6206369],[-61.3420101,-12.6260963]],[[-61.3420101,-12.6260963],[-61.3370849,-12.6269054],[-61.3318427,-12.6379858]],[[-60.665894,-12.8512086],[-60.6551943,-12.8630321],[-60.6484025,-12.8846678],[-60.6454205,-12.9011063]],[[-60.652563,-12.9741337],[-60.6290634,-12.972178]],[[-60.6177595,-12.9898317],[-60.6126556,-12.9923868]],[[-60.6853858,-12.2615422],[-60.6499853,-12.2613712]],[[-62.7641358,-8.798063],[-62.7534058,-8.817179],[-62.7291943,-8.8254242],[-62.7054765,-8.8458857],[-62.6986939,-8.8489587],[-62.6850542,-8.8601903],[-62.681522,-8.8857164],[-62.661292,-8.9155595],[-62.6551056,-8.9266644],[-62.6377989,-8.9340403],[-62.6415945,-8.9621321],[-62.6278777,-9.0004991],[-62.7358855,-9.0005233],[-62.7331157,-9.389631],[-63.0995577,-9.4807759]],[[-63.0995577,-9.4807759],[-63.0780629,-9.5080178]],[[-63.0780629,-9.5080178],[-63.0768103,-9.5249728]],[[-62.4224639,-9.5250188],[-62.4232274,-9.5196301],[-62.428193,-9.5130404]],[[-62.3670271,-8.7455405],[-62.3691269,-8.7435569]],[[-63.5299589,-10.492606],[-63.540788,-10.5064039]],[[-63.6144209,-11.0011408],[-63.6099277,-11.0092022]],[[-63.3061209,-11.1416807],[-63.2873191,-11.1534097],[-63.2540399,-11.1519079],[-63.2472048,-11.1484191],[-63.2454064,-11.1471421]],[[-63.2205438,-11.1209999],[-63.1911574,-11.0974981]],[[-63.1964175,-11.082566],[-63.1876499,-11.073759]],[[-63.1876499,-11.073759],[-63.148714,-11.0746231]],[[-63.148714,-11.0746231],[-63.1449485,-11.063643]],[[-62.787395,-10.4955853],[-62.7880543,-10.4924814]],[[-62.7880543,-10.4924814],[-63.5299589,-10.492606]],[[-63.323727,-9.423829],[-63.3267117,-9.4330698]],[[-63.1008119,-9.4738378],[-63.0995577,-9.4807759]],[[-61.4290021,-10.9875342],[-61.6320009,-10.9862943]],[[-61.7425036,-11.3266578],[-61.7422995,-11.333475]],[[-62.60284,-11.000512],[-62.7171485,-10.8782451]],[[-62.7171485,-10.8782451],[-62.8913964,-11.03061]],[[-63.1411277,-11.073224],[-63.148714,-11.0746231]],[[-63.1876499,-11.073759],[-63.1906752,-11.0808843]],[[-62.6929235,-11.131405],[-62.6881016,-11.1260045]],[[-62.6881016,-11.1260045],[-62.6621247,-11.1090293],[-62.6674275,-11.0877209],[-62.6435888,-11.0752469],[-62.6180657,-11.0891014],[-62.5875938,-11.0626293],[-62.5727313,-11.0847235]],[[-62.5727313,-11.0847235],[-62.5488671,-11.0658254],[-62.60284,-11.000512]],[[-63.5386494,-10.2381493],[-63.5005421,-10.2611875]],[[-63.5291279,-10.491324],[-63.5299589,-10.492606]],[[-63.5299589,-10.492606],[-63.2136534,-10.492466],[-63.2174848,-10.4883154]],[[-62.4952761,-11.0263729],[-62.3900207,-10.9416301]],[[-62.3900207,-10.9416301],[-62.3524353,-10.8939344]],[[-62.5252588,-10.7094727],[-62.7171485,-10.8782451]],[[-62.60284,-11.000512],[-62.5430885,-11.073436]],[[-62.5430885,-11.073436],[-62.4952761,-11.0263729]],[[-61.1754794,-12.0114683],[-61.1778687,-12.0028372],[-61.1820026,-12.0005052],[-61.3326695,-12.0005675]],[[-61.3326695,-12.0005675],[-61.3648173,-12.0354577],[-61.3981951,-12.0521921],[-61.4112257,-12.071615]],[[-61.4112257,-12.071615],[-61.4143556,-12.0842483],[-61.4178942,-12.0864727],[-61.4253345,-12.0857473]],[[-61.4253345,-12.0857473],[-61.4262543,-12.0899553],[-61.4366738,-12.0884051],[-61.4520092,-12.0778005],[-61.472697,-12.0878692]],[[-61.472697,-12.0878692],[-61.6786196,-12.0897025]],[[-61.5716505,-12.4731871],[-61.5633382,-12.4649056]],[[-61.5633382,-12.4649056],[-61.5265908,-12.4692522],[-61.4791245,-12.4634674],[-61.4379551,-12.5003623],[-61.4199561,-12.5076502],[-61.3860616,-12.4873063],[-61.3817282,-12.5231325],[-61.3673636,-12.5358165],[-61.3682031,-12.5690252],[-61.3552586,-12.5747182],[-61.3511994,-12.6069311]],[[-61.3511994,-12.6069311],[-61.3471429,-12.6234439],[-61.3420101,-12.6260963]],[[-61.3420101,-12.6260963],[-61.3407774,-12.6173029],[-61.3331177,-12.6093271]],[[-61.1792526,-12.1697375],[-61.1837017,-12.1632486]],[[-61.5633382,-12.4649056],[-61.5661451,-12.4674033]],[[-61.8167599,-12.8336764],[-61.8555919,-12.8622145]],[[-62.1152086,-13.1636806],[-62.1090708,-13.2190394],[-62.1156843,-13.2584652],[-62.0842936,-13.2903075],[-62.0690121,-13.2958589],[-62.0032061,-13.3654125],[-61.9804882,-13.3654943],[-61.9623452,-13.3911454],[-61.9143466,-13.4337319],[-61.887426,-13.4407745],[-61.8832099,-13.4972993],[-61.8688527,-13.5282221],[-61.8336515,-13.5392924],[-61.817124,-13.5274366],[-61.7573476,-13.5405747],[-61.6938441,-13.5080797],[-61.6687947,-13.5050571],[-61.6514522,-13.5187113],[-61.608014,-13.5116917],[-61.585621,-13.5006257],[-61.5082567,-13.5479382],[-61.4699239,-13.5552502],[-61.4295679,-13.5454079],[-61.3897886,-13.5197691],[-61.3505155,-13.5211574],[-61.3394883,-13.5081161],[-61.3135097,-13.5044738],[-61.2883166,-13.4828576],[-61.2752088,-13.5060564],[-61.2483441,-13.4962741],[-61.2217305,-13.530155],[-61.1712922,-13.5106087],[-61.1532007,-13.5273067],[-61.1034016,-13.5157539],[-61.0877584,-13.4920938],[-61.0411515,-13.5077103],[-61.0149244,-13.4875362],[-61.0056227,-13.5502805],[-60.9674203,-13.5368945],[-60.9510375,-13.5518841],[-60.9189839,-13.548326]],[[-60.7051819,-13.3247382],[-60.7437802,-13.3255296],[-60.7510062,-13.3211141]],[[-61.5051795,-13.0151294],[-61.5040388,-12.9997273]],[[-61.3380686,-12.6265618],[-61.3449824,-12.6255503],[-61.3478394,-12.6216591],[-61.3511994,-12.6069311]],[[-61.4148365,-11.7439933],[-61.3918611,-11.7440781]],[[-61.3918611,-11.7440781],[-61.3913677,-11.8888748],[-61.3777278,-11.9032411],[-61.4173982,-11.9416114],[-61.4171473,-12.0863463]],[[-61.4171473,-12.0863463],[-61.4135851,-12.0828711],[-61.4112257,-12.071615]],[[-61.3326695,-12.0005675],[-61.1899489,-12.0008044],[-61.1983677,-11.9983298],[-61.2029777,-11.9927107]],[[-61.5345846,-11.7431695],[-61.5351151,-11.7460596]],[[-61.5642977,-11.8563655],[-61.5306878,-11.85617]],[[-61.5305097,-12.0889944],[-61.472697,-12.0878692]],[[-61.4253345,-12.0857473],[-61.4171473,-12.0863463]],[[-61.3918611,-11.7440781],[-61.5345846,-11.7431695]],[[-63.3666415,-11.839437],[-63.7880692,-11.8387373]],[[-63.6847579,-12.4530568],[-63.6221145,-12.4728773],[-63.613976,-12.4852736],[-63.5504909,-12.508437],[-63.5272856,-12.5456518],[-63.5017385,-12.5673236],[-63.4739971,-12.5615702],[-63.4346872,-12.5658407],[-63.4373021,-12.584658],[-63.4099309,-12.6110825],[-63.4009479,-12.6362102],[-63.367828,-12.6597373],[-63.3502986,-12.6567012],[-63.2955445,-12.6818567],[-63.2397053,-12.6774259],[-63.2182395,-12.6557374],[-63.1898484,-12.6470119],[-63.1974907,-12.630317],[-63.164479,-12.6157206],[-63.1476334,-12.636679],[-63.1123223,-12.6590658],[-63.0957388,-12.6836657],[-63.0782459,-12.7287496],[-63.0602672,-12.7278924],[-63.041906,-12.7500991],[-63.033826,-12.7807152],[-63.0103267,-12.8083057],[-63.0122087,-12.8341095],[-62.9429915,-12.8546105],[-62.9213543,-12.8408615],[-62.8811825,-12.863168]],[[-62.6414637,-12.2397694],[-62.7313195,-12.1098177]],[[-63.1143226,-12.2049747],[-63.1345128,-12.2044283]],[[-63.1345128,-12.2044283],[-63.1352116,-12.2129666],[-63.1437944,-12.2247058],[-63.1539078,-12.2238132],[-63.1860721,-12.2375814],[-63.1944623,-12.2302979],[-63.1990415,-12.2360887],[-63.2087697,-12.232899],[-63.2356303,-12.2520659],[-63.2298291,-12.2754142],[-63.2405462,-12.2969278],[-63.24902,-12.2985306],[-63.2760444,-12.2811266],[-63.2980738,-12.3094113],[-63.3284921,-12.3003476],[-63.3343786,-12.2948307],[-63.3293244,-12.2187651],[-63.3184756,-12.2028141],[-63.2952134,-12.1390314],[-63.2882456,-12.0746636],[-63.2826283,-12.0648153],[-63.2741857,-12.0561529],[-63.2720185,-12.0562223],[-63.2646241,-12.0446583],[-63.2627156,-12.0429603],[-63.262905,-12.034746],[-63.2555176,-12.0176302],[-63.2639586,-12.005949],[-63.2703016,-11.9686395],[-63.2925168,-11.9468142],[-63.3110505,-11.9465273],[-63.3406174,-11.9308488],[-63.3646509,-11.8974735],[-63.3788552,-11.8796046],[-63.3770197,-11.851188],[-63.3694017,-11.841307],[-63.3666415,-11.839437]],[[-63.5995153,-11.604991],[-63.613431,-11.6012387]],[[-63.5810946,-11.8390426],[-63.3666415,-11.839437]],[[-63.1345128,-12.2044283],[-63.1303794,-12.1986912]],[[-62.16375,-11.0006585],[-62.1225803,-10.8993878]],[[-62.3053547,-10.8347007],[-62.3900207,-10.9416301]],[[-62.3900207,-10.9416301],[-62.4944682,-11.0265806],[-62.4902743,-11.0303756]],[[-62.4902743,-11.0303756],[-62.4087179,-11.0157731],[-62.2116339,-11.0049775],[-62.1650783,-11.0248139]],[[-62.1650783,-11.0248139],[-62.1590567,-11.0205951]],[[-62.4307275,-9.8272752],[-62.4270009,-9.8066638]],[[-62.6175265,-10.1952443],[-62.6699436,-10.2882064],[-62.6200341,-10.3267308]],[[-62.1346392,-10.2247296],[-62.1324491,-10.2191049]],[[-62.1324491,-10.2191049],[-62.1208323,-10.2072384],[-62.1227535,-10.1915432],[-62.1057299,-10.1784109],[-62.0631736,-10.1744246],[-62.0522783,-10.1564808],[-62.0301629,-10.1470219],[-62.0263033,-10.1267434],[-61.9898956,-10.1300585],[-61.9971116,-10.1111945],[-61.9726671,-10.0675279]],[[-61.9544178,-9.9496798],[-62.0163657,-9.9489008],[-62.02142,-9.958209]],[[-62.02142,-9.958209],[-62.0278643,-9.9724518],[-62.0787299,-9.9987529],[-62.1013351,-10.0392143],[-62.1638905,-10.0546102],[-62.2095082,-10.0332223],[-62.2442259,-10.0004388],[-62.2496406,-9.9723354],[-62.2920593,-9.93003],[-62.3314313,-9.9124611],[-62.378752,-9.9079165],[-62.3860869,-9.9201959],[-62.4028637,-9.8988716],[-62.4052504,-9.8645142],[-62.4307275,-9.8272752]],[[-62.4902743,-11.0303756],[-62.4952761,-11.0263729]],[[-62.5430885,-11.073436],[-62.5727313,-11.0847235]],[[-62.6881016,-11.1260045],[-62.6913172,-11.1298141]],[[-62.1488645,-11.0302772],[-62.1650783,-11.0248139]],[[-62.4172164,-9.8038077],[-62.4307275,-9.8272752]],[[-62.02142,-9.958209],[-62.0159815,-9.9487792],[-61.9544178,-9.9496798]],[[-61.5746373,-9.7177933],[-61.5530502,-9.7071921],[-61.5296106,-9.7100983],[-61.505272,-9.6913819],[-61.4769655,-9.629855],[-61.5030326,-9.615345],[-61.4949271,-9.5849287],[-61.5103714,-9.5650911],[-61.5080429,-9.540463],[-61.5495654,-9.5152171],[-61.5258126,-9.5017971],[-61.5627368,-9.4857714],[-61.5817187,-9.4591265],[-61.55672,-9.435615],[-61.5505387,-9.4147035],[-61.5633169,-9.3781567],[-61.5803064,-9.3682219],[-61.6259281,-9.3630117],[-61.6162106,-9.3268258]],[[-62.1324491,-10.2191049],[-62.1373616,-10.2351574]],[[-62.122004,-10.3550008],[-62.2596611,-10.4768484]],[[-61.910569,-10.117045],[-61.9151728,-10.1100933]]],"bbox":[-66.8102531,-13.6852929,-59.7743574,-7.9758683]}
