{"type":"Topology","objects":{"geometrias":{"type":"GeometryCollection","geometries":[{"type":"Polygon","arcs":[[0,1,2,3]],"properties":{"code_muni":1200013,"abbrev_state":"AC","name_state":"Acre","name_region":"Norte","name_muni":"Acrelândia","code_state":12,"code_region":1,"year":2020}},{"type":"Polygon","arcs":[[4,5,6]],"properties":{"code_muni":1200054,"abbrev_state":"AC","name_state":"Acre","name_region":"Norte","name_muni":"Assis Brasil","code_state":12,"code_region":1,"year":2020}},{"type":"Polygon","arcs":[[7,8,9,-6,10,11,12,13,14,15,16,17,18,19]],"properties":{"code_muni":1200104,"abbrev_state":"AC","name_state":"Acre","name_region":"Norte","name_muni":"Brasiléia","code_state":12,"code_region":1,"year":2020}},{"type":"Polygon","arcs":[[20,21,22,23,24,25,26]],"properties":{"code_muni":1200138,"abbrev_state":"AC","name_state":"Acre","name_region":"Norte","name_muni":"Bujari","code_state":12,"code_region":1,"year":2020}},{"type":"Polygon","arcs":[[27,28,29,30,31,32,33,34]],"properties":{"code_muni":1200179,"abbrev_state":"AC","name_state":"Acre","name_region":"Norte","name_muni":"Capixaba","code_state":12,"code_region":1,"year":2020}},{"type":"Polygon","arcs":[[35,36,37,38,39,40]],"properties":{"code_muni":1200203,"abbrev_state":"AC","name_state":"Acre","name_region":"Norte","name_muni":"Cruzeiro do Sul","code_state":12,"code_region":1,"year":2020}},{"type":"Polygon","arcs":[[41,-12,42,43]],"properties":{"code_muni":1200252,"abbrev_state":"AC","name_state":"Acre","name_region":"Norte","name_muni":"Epitaciolândia","code_state":12,"code_region":1,"year":2020}},{"type":"Polygon","arcs":[[44,45,46,47,48,49,50]],"properties":{"code_muni":1200302,"abbrev_state":"AC","name_state":"Acre","name_region":"Norte","name_muni":"Feijó","code_state":12,"code_region":1,"year":2020}},{"type":"Polygon","arcs":[[51,52,53,-48,54,55]],"properties":{"code_muni":1200328,"abbrev_state":"AC","name_state":"Acre","name_region":"Norte","name_muni":"Jordão","code_state":12,"code_region":1,"year":2020}},{"type":"Polygon","arcs":[[56,57,-36]],"properties":{"code_muni":1200336,"abbrev_state":"AC","name_state":"Acre","name_region":"Norte","name_muni":"Mâncio Lima","code_state":12,"code_region":1,"year":2020}},{"type":"Polygon","arcs":[[-51,58,59,60,61]],"properties":{"code_muni":1200344,"abbrev_state":"AC","name_state":"Acre","name_region":"Norte","name_muni":"Manoel Urbano","code_state":12,"code_region":1,"year":2020}},{"type":"Polygon","arcs":[[62,-53,63,64,65]],"properties":{"code_muni":1200351,"abbrev_state":"AC","name_state":"Acre","name_region":"Norte","name_muni":"Marechal Thaumaturgo","code_state":12,"code_region":1,"year":2020}},{"type":"Polygon","arcs":[[66,67,68,69,70,-33,71,-3]],"properties":{"code_muni":1200385,"abbrev_state":"AC","name_state":"Acre","name_region":"Norte","name_muni":"Plácido de Castro","code_state":12,"code_region":1,"year":2020}},{"type":"Polygon","arcs":[[72,-66,73,-39]],"properties":{"code_muni":1200393,"abbrev_state":"AC","name_state":"Acre","name_region":"Norte","name_muni":"Porto Walter","code_state":12,"code_region":1,"year":2020}},{"type":"Polygon","arcs":[[-9,74,75,76,77,78,-29,79,80,81,82,-25,83,-23,84,85]],"properties":{"code_muni":1200401,"abbrev_state":"AC","name_state":"Acre","name_region":"Norte","name_muni":"Rio Branco","code_state":12,"code_region":1,"year":2020}},{"type":"Polygon","arcs":[[86,-37,-58]],"properties":{"code_muni":1200427,"abbrev_state":"AC","name_state":"Acre","name_region":"Norte","name_muni":"Rodrigues Alves","code_state":12,"code_region":1,"year":2020}},{"type":"Polygon","arcs":[[-50,87,-59]],"properties":{"code_muni":1200435,"abbrev_state":"AC","name_state":"Acre","name_region":"Norte","name_muni":"Santa Rosa do Purus","code_state":12,"code_region":1,"year":2020}},{"type":"Polygon","arcs":[[88,89,90,91,-81,92,-35,93,-70,94,-68,95,-1]],"properties":{"code_muni":1200450,"abbrev_state":"AC","name_state":"Acre","name_region":"Norte","name_muni":"Senador Guiomard","code_state":12,"code_region":1,"year":2020}},{"type":"Polygon","arcs":[[96,-61,97,-7,-10,-86,98,-21]],"properties":{"code_muni":1200500,"abbrev_state":"AC","name_state":"Acre","name_region":"Norte","name_muni":"Sena Madureira","code_state":12,"code_region":1,"year":2020}},{"type":"Polygon","arcs":[[99,-40,-74,-65,100,-56,101,-46]],"properties":{"code_muni":1200609,"abbrev_state":"AC","name_state":"Acre","name_region":"Norte","name_muni":"Tarauacá","code_state":12,"code_region":1,"year":2020}},{"type":"Polygon","arcs":[[-78,102,-76,103,-20,104,-18,105,-16,106,-14,107,-44,108,-31,109]],"properties":{"code_muni":1200708,"abbrev_state":"AC","name_state":"Acre","name_region":"Norte","name_muni":"Xapuri","code_state":12,"code_region":1,"year":2020}},{"type":"Polygon","arcs":[[-83,110,111,-90,112,-26]],"properties":{"code_muni":1200807,"abbrev_state":"AC","name_state":"Acre","name_region":"Norte","name_muni":"Porto Acre","code_state":12,"code_region":1,"year":2020}}]}},"arcs":[[[-67.134984,-9.6759181],[-67.1395627,-9.6841829],[-67.1457533,-9.6846165],[-67.1570507,-9.6866788],[-67.1616963,-9.6851665],[-67.1877996,-9.6924215],[-67.1851066,-9.710019],[-67.1023338,-9.9294868],[-67.0902509,-9.9572901]],[[-67.0902509,-9.9572901],[-67.1246637,-9.969853]],[[-67.1246637,-9.969853],[-67.1002758,-10.1038349],[-67.0761223,-10.0879777],[-67.0759595,-10.2024185],[-67.0023875,-10.2022532],[-67.0022819,-10.2297395]],[[-67.0022819,-10.2297395],[-66.9986046,-10.2119588],[-66.9762672,-10.193083],[-66.9511711,-10.1862575],[-66.9458066,-10.1583363],[-66.9114046,-10.1389253],[-66.8971997,-10.1141317],[-66.8731617,-10.1014199],[-66.87115,-10.0806639],[-66.8436091,-10.0861937],[-66.8322848,-10.0596477],[-66.8071794,-10.0492104],[-66.8075066,-10.0374628],[-66.7897557,-10.0218056],[-66.7416798,-9.9966068],[-66.7346632,-9.9831349],[-66.7058629,-9.9766524],[-66.6940344,-9.9663102],[-66.6749666,-9.9648731],[-66.663071,-9.9369526],[-66.6465968,-9.9456789],[-66.6264588,-9.930197],[-66.6268906,-9.8980269],[-67.134984,-9.6759181]],[[-70.6208803,-10.7054892],[-70.6210066,-10.9996411],[-70.5300779,-10.9348139],[-70.4966249,-10.9629798],[-70.4841607,-10.9658158],[-70.4700281,-10.9878814],[-70.4483532,-11.0041163],[-70.437442,-11.0266688],[-70.4064356,-11.04759],[-70.3450774,-11.0670857],[-70.3084787,-11.0705972],[-70.265039,-11.0517336],[-70.2117917,-11.0501014],[-70.1722399,-11.0430358],[-70.1308212,-11.0233963],[-70.1147011,-11.0102851],[-70.1091168,-10.9954619],[-70.0894884,-10.9851562],[-70.0631437,-10.9921127],[-70.0152341,-10.9701105],[-70.006989,-10.9610785],[-69.9691698,-10.9450099],[-69.9549327,-10.9277605],[-69.9336628,-10.9211132],[-69.9011437,-10.9200124],[-69.8737261,-10.93061],[-69.8429773,-10.9249689],[-69.8327956,-10.9337175],[-69.7999761,-10.9265174],[-69.7558055,-10.9463055],[-69.7392777,-10.9654497],[-69.7187374,-10.9755138],[-69.6589938,-10.9529785],[-69.6337811,-10.9578975],[-69.5964125,-10.9409386],[-69.5671121,-10.9439565],[-69.5506165,-10.9530733],[-69.5402954,-10.9376257],[-69.5224372,-10.9358349],[-69.4937215,-10.9510193],[-69.4351823,-10.933894],[-69.4183953,-10.9190537]],[[-69.4183953,-10.9190537],[-69.4193919,-10.9148287],[-69.3900426,-10.8262604],[-69.3927222,-10.7320833],[-69.440863,-10.7013687],[-69.4661392,-10.7105691],[-69.4780248,-10.7013132],[-69.4979272,-10.7003817],[-69.4978719,-10.7492289],[-69.4848153,-10.793835],[-69.5004979,-10.8217707],[-69.5208601,-10.8481776],[-69.5525302,-10.8735298],[-69.5668767,-10.8569392],[-69.5922836,-10.8642345],[-69.6425586,-10.8471197],[-69.6616685,-10.8460438],[-69.6808552,-10.8293486],[-69.7165139,-10.823987],[-69.7279735,-10.8285976],[-69.7436715,-10.8086765],[-69.7778895,-10.7818726],[-69.7556843,-10.74145],[-69.6705354,-10.7312739],[-69.6521234,-10.6896613],[-69.5512268,-10.6159658],[-69.5108672,-10.5564879],[-69.5078753,-10.5050009]],[[-69.5078753,-10.5050009],[-69.5293351,-10.4900557],[-69.5333615,-10.4767807],[-69.5437329,-10.4517215],[-69.5405741,-10.4288812],[-69.5417489,-10.4213315],[-69.5410354,-10.4195429],[-69.5471402,-10.4128846],[-69.5621766,-10.3885187],[-69.5833714,-10.3795961],[-69.6124436,-10.3823359],[-69.6269168,-10.4025446],[-69.663781,-10.4267616],[-69.6806468,-10.4216123],[-69.7248174,-10.4541525],[-69.7445906,-10.4472628],[-69.7592355,-10.4572861],[-69.7857679,-10.4615907],[-69.7934927,-10.4804228],[-69.8062492,-10.4853706],[-69.7989429,-10.5057624],[-69.8300565,-10.5084102],[-69.8332859,-10.541205],[-69.8671676,-10.5428821],[-69.875461,-10.5536828],[-69.8987425,-10.5584079],[-69.9302424,-10.5492634],[-69.9390186,-10.5659069],[-69.9743165,-10.584838],[-70.0055481,-10.58198],[-70.0182296,-10.5962278],[-70.0703181,-10.6162432],[-70.0935353,-10.6514094],[-70.101775,-10.6408653],[-70.1370944,-10.6630919],[-70.1745595,-10.6742468],[-70.1794089,-10.6908624],[-70.2112092,-10.7006036],[-70.2215088,-10.6865926],[-70.2517749,-10.6974726],[-70.2530087,-10.7115885],[-70.3113414,-10.7011097],[-70.3141309,-10.7140869],[-70.3421332,-10.7046729],[-70.3820337,-10.7223937],[-70.4007448,-10.725377],[-70.4176963,-10.712221],[-70.4540242,-10.7148986],[-70.464517,-10.7086262],[-70.4850198,-10.7247866],[-70.5294908,-10.7176606],[-70.5318082,-10.6963129],[-70.5545748,-10.6876469],[-70.5706037,-10.6908413],[-70.5809892,-10.7033868],[-70.5973507,-10.7004771],[-70.6046141,-10.7026699],[-70.6050111,-10.7060645],[-70.6153269,-10.7057061],[-70.6199725,-10.7109665],[-70.6208803,-10.7054892]],[[-69.1315635,-10.385028],[-69.1493981,-10.3850165]],[[-69.1493981,-10.3850165],[-69.1516357,-10.3989078],[-69.1827054,-10.3987333],[-69.1957012,-10.4123463],[-69.2211255,-10.4152556],[-69.2464916,-10.4367424],[-69.2488643,-10.4548724],[-69.2690885,-10.4586772],[-69.2903087,-10.4708076],[-69.3233093,-10.4721451],[-69.3418082,-10.485329]],[[-69.3418082,-10.485329],[-69.5078753,-10.5050009]],[[-69.4183953,-10.9190537],[-69.3841076,-10.9428741],[-69.3514008,-10.9361535],[-69.3282855,-10.9497421],[-69.3204642,-10.9444068],[-69.2911637,-10.9503425],[-69.2714978,-10.9416154],[-69.2406685,-10.9514906],[-69.2331744,-10.9397983],[-69.2156113,-10.9583531],[-69.2013446,-10.9481805],[-69.1608191,-10.9650205],[-69.1458685,-10.9623952],[-69.1074834,-10.9727279],[-69.0871925,-10.9697551],[-69.0613547,-10.9857171],[-69.0437782,-10.9811566],[-69.0144644,-10.9902643],[-69.0017131,-11.0089634],[-68.9670107,-10.9874575],[-68.9474789,-11.0122729],[-68.9320615,-11.0061226],[-68.9133156,-11.0207478],[-68.8604144,-11.0048298],[-68.8492859,-10.9925261],[-68.8117913,-10.9946351],[-68.7414184,-11.0159658]],[[-68.7414184,-11.0159658],[-68.7396803,-11.0095312],[-68.7072417,-10.9731746],[-68.687801,-10.9682664],[-68.6866931,-10.937409],[-68.7330992,-10.8990815],[-68.7844495,-10.8688089],[-68.7864383,-10.8332058],[-68.8051606,-10.8034794],[-68.8283446,-10.7518624]],[[-68.8283446,-10.7518624],[-68.8374956,-10.7393412]],[[-68.8374956,-10.7393412],[-68.8528316,-10.7578214],[-68.8799574,-10.7616199]],[[-68.8799574,-10.7616199],[-68.8809888,-10.767091],[-68.8841053,-10.7689173],[-68.8982579,-10.7745377],[-68.9065919,-10.7769289],[-68.9141257,-10.7757508]],[[-68.9141257,-10.7757508],[-68.9172577,-10.7786784],[-68.9285319,-10.7764898],[-68.9758673,-10.770989]],[[-68.9758673,-10.770989],[-68.9764672,-10.7699637],[-68.9801663,-10.7532124],[-68.9783468,-10.744321],[-68.9729311,-10.7384464],[-68.9600902,-10.7322977]],[[-68.9600902,-10.7322977],[-68.9476365,-10.7116698],[-68.949135,-10.6809526],[-68.9451329,-10.6742854],[-68.9322642,-10.6766154],[-68.9150905,-10.6399429],[-68.9260876,-10.6260292],[-68.9123708,-10.6048913],[-68.9105576,-10.5969293],[-68.904705,-10.5845641],[-68.9068088,-10.5833645],[-68.9072218,-10.5810971],[-68.9119103,-10.579784],[-68.9372894,-10.5772001],[-68.968741,-10.5839973],[-68.9797488,-10.5743895],[-69.0315194,-10.5892612],[-69.0561528,-10.5881644],[-69.0617318,-10.5881117],[-69.079489,-10.5773025],[-69.0801191,-10.5730315],[-69.0884065,-10.5575834],[-69.1028592,-10.5537513]],[[-69.1028592,-10.5537513],[-69.1066867,-10.5370884],[-69.1155428,-10.5274208],[-69.1338839,-10.5147119]],[[-69.1338839,-10.5147119],[-69.1468228,-10.5131529],[-69.16549,-10.5025597],[-69.1683501,-10.4765147],[-69.1576102,-10.467399],[-69.1439637,-10.4392108],[-69.1392749,-10.4315316],[-69.1354374,-10.4145246],[-69.1315635,-10.385028]],[[-68.2198982,-9.2427531],[-68.2463158,-9.2635587],[-68.2688803,-9.2660618],[-68.2859334,-9.2841473],[-68.3164304,-9.2954092],[-68.3476794,-9.2910619],[-68.365155,-9.2982938],[-68.400752,-9.323837],[-68.3302968,-9.4419778],[-68.3342222,-9.4541963],[-68.3328623,-9.4587151],[-68.3422991,-9.4741802],[-68.3695793,-9.4994918],[-68.3833972,-9.4964155],[-68.3980691,-9.5071582],[-68.4137344,-9.5372301],[-68.4129627,-9.5404432],[-68.413083,-9.5414672]],[[-68.413083,-9.5414672],[-68.4180073,-9.5455002]],[[-68.4180073,-9.5455002],[-68.4257171,-9.560968],[-68.4275793,-9.6003393],[-68.4412518,-9.6075066],[-68.4515782,-9.6328356],[-68.4405055,-9.6412336],[-68.4225,-9.6916666],[-68.4538355,-9.8444376],[-68.4426935,-9.8289529],[-68.4260807,-9.8264199],[-68.413725,-9.8104095],[-68.3943142,-9.8042489],[-68.3891478,-9.788216],[-68.3667959,-9.7804478],[-68.3368638,-9.7841676],[-68.300248,-9.7947317],[-68.2797921,-9.8215188],[-68.2677564,-9.8234803],[-68.1531165,-9.9610662],[-68.1457863,-9.9446767],[-68.1007184,-9.9307708],[-68.0682043,-9.8948961],[-68.0450519,-9.8916817],[-68.0289497,-9.8760231],[-68.0017407,-9.8678958],[-67.9760658,-9.8455827],[-67.9495008,-9.8535598],[-67.8995252,-9.8427362],[-67.8657614,-9.8414408],[-67.8562531,-9.8540598],[-67.8291534,-9.8694113],[-67.8252903,-9.8515241],[-67.8336731,-9.833035]],[[-67.8336731,-9.833035],[-67.8335015,-9.8162245],[-67.8298182,-9.8057728],[-67.8226649,-9.7978393]],[[-67.8226649,-9.7978393],[-67.8227455,-9.774924],[-67.7958008,-9.7619983]],[[-67.7958008,-9.7619983],[-67.8094691,-9.7514608],[-67.8278197,-9.7521756],[-67.8646226,-9.7407957],[-67.8754855,-9.7204755],[-67.9060303,-9.7119211],[-67.9217324,-9.676127],[-67.9100358,-9.6692659],[-68.0903387,-9.5578019],[-68.0740508,-9.5245299],[-68.0297844,-9.4939221],[-68.0197055,-9.4733599],[-68.0177005,-9.4602185],[-68.0263332,-9.4431697],[-68.0393035,-9.437146],[-68.0561257,-9.4122568],[-68.0595256,-9.3905067],[-68.0467334,-9.3591421],[-68.0315519,-9.3436449],[-68.0269717,-9.3437018],[-68.0237955,-9.346023],[-68.0015863,-9.358102],[-67.9768374,-9.3527319]],[[-67.9768374,-9.3527319],[-68.2198982,-9.2427531]],[[-67.8024724,-10.1970332],[-67.8158264,-10.2062662]],[[-67.8158264,-10.2062662],[-67.8195945,-10.2141385],[-67.812412,-10.2249489],[-67.8239597,-10.2440217],[-67.8351051,-10.2745787],[-67.8466319,-10.2874999],[-67.946111,-10.2875],[-67.9598849,-10.3140218],[-67.9933932,-10.317633],[-68.0091768,-10.3236014],[-68.0097042,-10.3272221],[-68.0148186,-10.3350799],[-68.0286094,-10.3405838],[-68.0353466,-10.3636279],[-68.0247052,-10.3724761],[-68.0308004,-10.3789242]],[[-68.0308004,-10.3789242],[-68.0474831,-10.4044324]],[[-68.0474831,-10.4044324],[-68.0538879,-10.4209705],[-68.0638101,-10.4251324],[-68.0430433,-10.4725511],[-68.0297625,-10.516747],[-68.0341265,-10.5267575],[-68.0179286,-10.5512588],[-68.01541,-10.5681685],[-67.9842642,-10.5937225],[-68.016347,-10.6024715],[-68.0091058,-10.6337659]],[[-68.0091058,-10.6337659],[-68.0044251,-10.6453463],[-67.9769041,-10.6632737],[-67.9615619,-10.6497223],[-67.9410966,-10.6570003],[-67.8942894,-10.648233],[-67.8860148,-10.6396605],[-67.8659244,-10.6406998],[-67.8427796,-10.6533053],[-67.8275098,-10.6514179],[-67.7914957,-10.6784541],[-67.7615891,-10.6846534],[-67.7283968,-10.7134049],[-67.7043972,-10.7000139],[-67.6756111,-10.6051611],[-67.6592208,-10.6147484],[-67.6363015,-10.5921715],[-67.6353495,-10.5803839],[-67.609802,-10.5623786],[-67.6050416,-10.5342543],[-67.5777033,-10.5167477],[-67.578351,-10.5021954]],[[-67.578351,-10.5021954],[-67.5902379,-10.5107734],[-67.6087225,-10.505975],[-67.6121128,-10.4909846],[-67.6299656,-10.4800973],[-67.6503504,-10.4827559],[-67.6815686,-10.4754882],[-67.7114726,-10.4416354],[-67.6868713,-10.4108562],[-67.6821292,-10.3925792],[-67.6686967,-10.3910701],[-67.6626134,-10.3942149],[-67.6467133,-10.3905425],[-67.641778,-10.3742801]],[[-67.641778,-10.3742801],[-67.6423038,-10.3644757]],[[-67.6423038,-10.3644757],[-67.6553607,-10.361518],[-67.6867319,-10.3572727],[-67.6959426,-10.3239915],[-67.7161557,-10.2914905],[-67.7633995,-10.2610383],[-67.7648649,-10.2506433],[-67.7840722,-10.2306188],[-67.7860299,-10.2196024],[-67.7862016,-10.2176174],[-67.7893988,-10.2119684],[-67.8024724,-10.1970332]],[[-72.900313,-7.4376812],[-72.889106,-7.5232716],[-72.8894841,-7.5440493],[-72.8709956,-7.5610146],[-72.8625627,-7.5865339],[-72.850938,-7.6019755],[-72.8236841,-7.6229106],[-72.7834218,-7.6600862],[-72.8269876,-7.6646426],[-72.8546975,-7.6582521],[-72.860058,-7.6739586]],[[-72.860058,-7.6739586],[-72.7968332,-7.6871182],[-72.7406599,-7.7252509],[-72.7333041,-7.7251928],[-72.6546669,-7.694767],[-72.6524383,-7.6779073],[-72.6429297,-7.677634],[-72.6414953,-7.6819159],[-72.6467523,-7.7270036],[-72.6418309,-7.7439856],[-72.6259421,-7.7526309],[-72.6261243,-7.7821918],[-72.6358936,-7.7935638],[-72.6386156,-7.8016812],[-72.6395737,-7.8136129],[-72.6625536,-7.8334072],[-72.68093,-7.8245437],[-72.6850912,-7.8410164],[-72.6980708,-7.8486504],[-72.7067628,-7.8434688],[-72.7362452,-7.8590402],[-72.7380744,-7.8755006],[-72.7678213,-7.8780045],[-72.7793792,-7.8952527],[-72.8238487,-7.9046543],[-72.8285224,-7.9128298],[-72.8537369,-7.910195],[-72.8927261,-7.9302048],[-72.911812,-7.9259739],[-72.9528577,-7.9482973],[-72.9704272,-7.9371343],[-72.9875318,-7.9422037],[-73.0062513,-7.9338615],[-73.0420587,-7.9354115],[-73.0491113,-7.9440605],[-73.0743989,-7.9467462],[-73.0865941,-7.9383443],[-73.1155988,-7.9340262],[-73.1123095,-7.9152948],[-73.0913317,-7.8836351],[-73.0978102,-7.8880689],[-73.1322107,-7.8973812],[-73.1444115,-7.8977377],[-73.1622411,-7.8985002],[-73.1653187,-7.8974944],[-73.2000737,-7.9059953],[-73.206699,-7.9140732],[-73.2128994,-7.9144595],[-73.2157087,-7.9152096],[-73.2172981,-7.9182914],[-73.236909,-7.9420983],[-73.2502796,-7.9405655],[-73.2886057,-7.9760367],[-73.2907838,-7.9851598],[-73.3224126,-7.9975894],[-73.3447797,-7.9851764],[-73.3611699,-7.9859814],[-73.3847981,-7.9961113],[-73.3984047,-8.0115401],[-73.3995784,-8.0303667],[-73.6322429,-8.0589606]],[[-73.6322429,-8.0589606],[-73.6155648,-8.0695963],[-73.5939507,-8.0974044],[-73.5853371,-8.1228217],[-73.5912575,-8.1423072],[-73.5864738,-8.1863764],[-73.5716423,-8.229799],[-73.5602516,-8.2352988],[-73.5532889,-8.25385],[-73.540316,-8.2627455],[-73.5401176,-8.295012],[-73.529673,-8.3121486],[-73.5369514,-8.3454823],[-73.504229,-8.3787206],[-73.4820046,-8.3917563],[-73.4479547,-8.4021676],[-73.4335194,-8.4121],[-73.4215646,-8.4069979],[-73.4067255,-8.4191677],[-73.3944472,-8.4672805],[-73.3650614,-8.4633761],[-73.3321448,-8.4753668]],[[-73.3321448,-8.4753668],[-73.2467158,-8.41281],[-73.2222976,-8.3906366],[-73.2005586,-8.3774146],[-73.1775392,-8.3738543],[-73.1277424,-8.3457271],[-73.101804,-8.3393225],[-73.0817551,-8.2968924],[-73.0376153,-8.2823841],[-73.0152806,-8.2553876],[-73.0124766,-8.235859],[-72.9939358,-8.2196889],[-72.9790388,-8.2191155],[-72.9462381,-8.2021838],[-72.9339643,-8.2042757],[-72.8994281,-8.1876991],[-72.8914566,-8.1825592],[-72.8501908,-8.1505318],[-72.8193454,-8.1314623],[-72.8136538,-8.1212023],[-72.8055669,-8.1393669],[-72.8020264,-8.1477253],[-72.8082062,-8.1680525],[-72.8010501,-8.1610539],[-72.7968122,-8.1791715],[-72.7936472,-8.2064632],[-72.7573623,-8.2006121],[-72.7376968,-8.2308819],[-72.7316943,-8.2180073],[-72.7035064,-8.2126376],[-72.6739845,-8.2231619],[-72.634021,-8.1851667],[-72.5621725,-8.1884371],[-72.5179241,-8.2173236],[-72.4966569,-8.2350936],[-72.461228,-8.2315139],[-72.4222888,-8.2491779],[-72.4150672,-8.2523124],[-72.4086326,-8.2544604],[-72.4009354,-8.2527107],[-72.3899099,-8.2493398],[-72.3733261,-8.2381303],[-72.351708,-8.2399563],[-72.3194295,-8.2292801],[-72.3032489,-8.2106069],[-72.2968713,-8.2080594],[-72.2903525,-8.2045522],[-72.2836169,-8.2098731],[-72.2692404,-8.2415996],[-72.2663,-8.2605684]],[[-72.2663,-8.2605684],[-72.2576826,-8.0714501],[-72.2569347,-8.0516856],[-72.2473251,-8.0365393],[-72.2256852,-8.0203625],[-72.216129,-7.9760666],[-72.1826849,-7.9466194],[-72.1560029,-7.937275],[-72.1470229,-7.9245501],[-72.1293203,-7.9179989],[-72.1031473,-7.8817714],[-72.0783369,-7.8564559],[-72.0551076,-7.8488846],[-72.0491531,-7.8390746],[-72.000853,-7.8083759],[-71.945425,-7.6267544]],[[-71.945425,-7.6267544],[-72.5847656,-7.5520042],[-72.900313,-7.4376812]],[[-68.8278137,-10.7286023],[-68.8283446,-10.7518624]],[[-68.7414184,-11.0159658],[-68.7519943,-11.0380353],[-68.7664924,-11.0501417],[-68.7654093,-11.0652441],[-68.7414806,-11.0966402],[-68.7209385,-11.1033739],[-68.7135056,-11.1243007],[-68.7161196,-11.1455615],[-68.5429714,-11.1113555],[-68.5352973,-11.0937719],[-68.5193597,-11.0880893],[-68.5040666,-11.0633302],[-68.4878379,-11.0513265],[-68.4442565,-11.0459125],[-68.4380452,-11.0357207],[-68.4151257,-11.0397093],[-68.4057161,-11.0538478],[-68.3882087,-11.0405802]],[[-68.3882087,-11.0405802],[-68.401493,-11.0297296],[-68.4001446,-11.0011238],[-68.4084508,-10.9943476],[-68.405152,-10.9572069],[-68.4230006,-10.9324497],[-68.4191502,-10.9073756],[-68.4018834,-10.8941038],[-68.4087241,-10.8813126],[-68.4078738,-10.8562012],[-68.4285644,-10.8290928],[-68.4587659,-10.8156147],[-68.4787108,-10.8356631],[-68.506874,-10.8088438],[-68.534541,-10.794],[-68.5521926,-10.78071],[-68.5610787,-10.765235],[-68.5436229,-10.7600915],[-68.5376684,-10.7405704],[-68.5425822,-10.7278157],[-68.6054799,-10.6577734],[-68.6436088,-10.654995],[-68.6384444,-10.6238446],[-68.6430578,-10.6193735],[-68.6447959,-10.6163787],[-68.6496024,-10.6163154],[-68.6717842,-10.623001],[-68.6743109,-10.6233173],[-68.6854581,-10.6330924],[-68.7066154,-10.6354807],[-68.7131546,-10.6463097],[-68.7138252,-10.645946],[-68.7188785,-10.649183],[-68.7287597,-10.6474801],[-68.7326543,-10.6453871],[-68.7500779,-10.6592471],[-68.7573038,-10.6742571],[-68.7838898,-10.6630494],[-68.8037167,-10.6696444],[-68.8129274,-10.6868612],[-68.8054387,-10.715768],[-68.8278137,-10.7286023]],[[-69.4443203,-8.3664854],[-70.0549793,-7.8451491],[-70.5151508,-7.7923768]],[[-70.5151508,-7.7923768],[-70.5465372,-7.8087496],[-70.5457832,-7.82111],[-70.5774803,-7.8416289],[-70.5837897,-7.8729833],[-70.6076128,-7.8746859],[-70.6004337,-7.8937895],[-70.6306196,-7.9147573],[-70.6383658,-7.9206551],[-70.6431509,-7.9064578],[-70.6472171,-7.9133121],[-70.6417239,-7.9235561],[-70.6327117,-7.9248631],[-70.6380761,-7.9271584],[-70.6324006,-7.9423644],[-70.6469408,-7.9519117],[-70.6304586,-7.9788362],[-70.630295,-7.9830782],[-70.6231818,-7.9863879],[-70.6198934,-7.9893203],[-70.6187079,-7.9899498],[-70.6192014,-7.9911132],[-70.6154088,-7.9912832],[-70.6072146,-7.9955198],[-70.6014827,-7.9931505],[-70.5948228,-7.9926113],[-70.5920199,-7.9929699],[-70.5890292,-7.9929858],[-70.5898875,-7.9981281],[-70.5765503,-8.020808],[-70.5762364,-8.0239686],[-70.5746969,-8.0332458],[-70.5700888,-8.0438931],[-70.5778914,-8.0552492],[-70.5749248,-8.086368],[-70.5769982,-8.1194175],[-70.5564042,-8.1569567],[-70.5569675,-8.1588312],[-70.5586948,-8.1667219],[-70.5692144,-8.1748993],[-70.5767997,-8.1937543],[-70.5707196,-8.2081826],[-70.5695697,-8.2226824],[-70.5858229,-8.2305488],[-70.6334782,-8.3109823],[-70.6249279,-8.3406589],[-70.6801241,-8.3826549],[-70.6760518,-8.4378875],[-70.6529541,-8.4664043],[-70.702494,-8.4771023],[-70.688416,-8.5231946],[-70.7268709,-8.5696724],[-70.7422822,-8.6091136],[-70.76778,-8.6107885],[-70.7839563,-8.6399885],[-70.8364754,-8.6461569],[-70.8579693,-8.6699296],[-70.877943,-8.6395343],[-70.8922644,-8.6400036],[-70.9204592,-8.6014824],[-70.9306729,-8.6014112],[-70.9608639,-8.6414231],[-70.9826005,-8.6498662],[-70.9774721,-8.66777],[-71.0015262,-8.6832761],[-71.0121263,-8.7016662],[-71.0603202,-8.741625],[-71.0800183,-8.7692798],[-71.0817564,-8.7772322],[-71.0889447,-8.762133],[-71.1071194,-8.7645506],[-71.1479533,-8.7834669],[-71.1613214,-8.7983108],[-71.1744106,-8.788217],[-71.1998809,-8.8120515],[-71.2214244,-8.8198334],[-71.2454141,-8.8557511],[-71.2652839,-8.839701],[-71.2786305,-8.849963],[-71.2951959,-8.8418425],[-71.3100231,-8.8642106],[-71.3302362,-8.8639774],[-71.3484753,-8.8802597],[-71.365577,-8.8830369],[-71.3753617,-8.8916654],[-71.3790095,-8.8955025],[-71.3849533,-8.885687],[-71.39197,-8.884627],[-71.4059818,-8.8773552],[-71.410209,-8.8773552],[-71.4140714,-8.8825493],[-71.4301861,-8.8736451],[-71.4425242,-8.8690233],[-71.4688743,-8.8681328],[-71.4771998,-8.8800477]],[[-71.4771998,-8.8800477],[-71.4817232,-8.889344]],[[-71.4817232,-8.889344],[-71.4873021,-8.8937112],[-71.5297883,-8.9152918],[-71.5300458,-8.9213545],[-71.5336936,-8.928053],[-71.5426629,-8.9342003],[-71.5513748,-8.9463674],[-71.5564388,-8.9423824],[-71.5622753,-8.9467489],[-71.5633911,-8.9525567],[-71.5739053,-8.9612895],[-71.5735959,-8.966239],[-71.5848058,-8.9857062],[-71.5829819,-8.9917359],[-71.5971654,-9.0378087],[-71.6006094,-9.0467513],[-71.5930885,-9.0655364],[-71.6124218,-9.0811634],[-71.6043216,-9.104841],[-71.6116494,-9.1283476],[-71.6272491,-9.1427219],[-71.6172498,-9.1906817],[-71.6386324,-9.2062609],[-71.6562491,-9.2451158],[-71.6713231,-9.2482608],[-71.691665,-9.2678294],[-71.7020183,-9.3065823],[-71.7170709,-9.3181332],[-71.7320081,-9.3751144],[-71.7213437,-9.4010189],[-71.7310077,-9.4408496],[-71.7502243,-9.4499011],[-71.7594833,-9.4687427],[-71.7756973,-9.4809231],[-71.7917771,-9.4828147],[-71.8028493,-9.5037986],[-71.7931806,-9.5202158],[-71.8073439,-9.529324],[-71.8064245,-9.5643467],[-71.839626,-9.6027341],[-71.8357184,-9.6222914],[-71.8697087,-9.6367345],[-71.8848142,-9.6529806],[-71.8843101,-9.6672891],[-71.9200517,-9.6855594],[-71.9292439,-9.7222578],[-71.9526613,-9.7139109],[-71.9916227,-9.7166582],[-72.0084309,-9.7539061],[-72.0386067,-9.7666967],[-72.0349176,-9.7431465],[-72.1105896,-9.7629372],[-72.1529431,-9.7967617]],[[-72.1529431,-9.7967617],[-72.165478,-9.8280307],[-72.1550639,-9.8421689],[-72.1550867,-9.8605166],[-72.1406748,-9.8775139],[-72.1740914,-9.9215917],[-72.1607019,-9.9395026],[-72.1558419,-9.9604768],[-72.162365,-9.9741162],[-72.1806755,-9.9847831],[-72.1804528,-10],[-71.3774167,-10],[-71.3529039,-9.976565],[-71.3388735,-9.9719978],[-71.3177325,-9.9912372],[-71.3079593,-9.9919963],[-71.2710942,-9.978271],[-71.2530537,-9.9639181],[-71.2274542,-9.9693398],[-71.210845,-9.9663901],[-71.2057029,-9.9471764],[-71.1813729,-9.9174981],[-71.163009,-9.8753209],[-71.1298706,-9.8525155],[-71.1030315,-9.8521419],[-71.0777201,-9.8277404]],[[-71.0777201,-9.8277404],[-71.1003676,-9.815937],[-71.0893152,-9.7788526],[-71.10176,-9.7505759],[-71.0887741,-9.7399986],[-71.0792381,-9.7000535],[-71.0454999,-9.6424408],[-70.9568025,-9.5862677],[-70.9510953,-9.5359571],[-70.9025943,-9.5076897],[-70.8558478,-9.4488224],[-70.7907966,-9.4488568],[-70.7704216,-9.4220468],[-70.7346482,-9.4155587],[-70.6934726,-9.3716077],[-70.6314417,-9.3768495],[-70.6395699,-9.3129807],[-70.6291823,-9.3063122],[-70.6272362,-9.2701937],[-70.5720531,-9.2131273],[-70.5276914,-9.1382566],[-70.498841,-9.1067427],[-70.4529227,-9.1037944],[-70.4371644,-9.0855626],[-70.4027833,-9.0182364],[-70.3650949,-8.9824266],[-70.3189786,-8.9636297],[-70.193502,-8.9674508],[-70.0900955,-8.9736114],[-69.8651048,-8.9574983]],[[-69.8651048,-8.9574983],[-69.8396754,-8.9442345],[-69.8263143,-8.9205578],[-69.7950748,-8.8402169],[-69.7739633,-8.8095164],[-69.7631514,-8.7849536],[-69.7258332,-8.7636214],[-69.6595354,-8.6819052],[-69.6282068,-8.6814263],[-69.6063431,-8.6607318],[-69.5911116,-8.6589986],[-69.5717012,-8.6440374],[-69.5673968,-8.612526],[-69.550813,-8.5852018],[-69.5425811,-8.5484265],[-69.5336527,-8.5389337],[-69.5116455,-8.4937244],[-69.5136712,-8.4784663],[-69.4983664,-8.4448311],[-69.4793683,-8.4214044],[-69.4499417,-8.3964007],[-69.4450951,-8.3742264],[-69.4443203,-8.3664854]],[[-72.0809238,-8.8543722],[-72.0811919,-8.8597657],[-72.0792939,-8.86638],[-72.0440076,-8.9004073]],[[-72.0440076,-8.9004073],[-72.0537962,-8.9339812],[-72.0362354,-8.9448196],[-72.0283929,-8.9708553],[-72.0294196,-9.0020325],[-72.0426914,-9.0286579],[-72.0318976,-9.0688501],[-72.0525278,-9.1425226],[-72.0691501,-9.1557493],[-72.0677817,-9.1752387],[-72.0441703,-9.197972],[-72.0976062,-9.2931986],[-72.1011212,-9.3078599],[-72.1204226,-9.3187664],[-72.160919,-9.3938393],[-72.1831533,-9.3886753],[-72.2225806,-9.415048],[-72.249293,-9.4445117],[-72.2517379,-9.4593811],[-72.2727619,-9.4873901],[-72.2939508,-9.4933005],[-72.304004,-9.5084212],[-72.3404069,-9.508674]],[[-72.3404069,-9.508674],[-72.3344256,-9.528392],[-72.3186542,-9.5436174],[-72.2904105,-9.5357403],[-72.2815753,-9.5470772],[-72.289005,-9.6023333],[-72.2691567,-9.6203533],[-72.2604556,-9.6448615],[-72.2463043,-9.6564751],[-72.2512388,-9.6930534],[-72.2639276,-9.7131304],[-72.2708932,-9.7448382],[-72.2145044,-9.7740119],[-72.1753123,-9.7818892],[-72.1529431,-9.7967617]],[[-71.4817232,-8.889344],[-71.4815515,-8.8840864]],[[-71.4815515,-8.8840864],[-71.495003,-8.8755935],[-71.5132636,-8.8735522],[-71.5245093,-8.8738547],[-71.5525899,-8.8507671],[-71.6185933,-8.8584197],[-71.618038,-8.8208192],[-71.5979475,-8.8048005],[-71.5732254,-8.7550086],[-71.5425295,-8.7393166],[-71.5445365,-8.7142188],[-71.557808,-8.688522],[-71.5563,-8.6484297],[-71.5660518,-8.6480948],[-71.6116708,-8.664726],[-71.6272491,-8.676902],[-71.6178935,-8.687423],[-71.6329139,-8.6854715],[-71.6563886,-8.7043812],[-71.6669136,-8.703257],[-71.6827172,-8.708093],[-71.7449283,-8.7603569],[-71.7470365,-8.7745762],[-71.7658174,-8.7849937],[-71.7645299,-8.7981942],[-71.7942166,-8.8174268],[-71.820395,-8.8264596],[-71.8558216,-8.8138645],[-71.8917632,-8.811744],[-71.9190627,-8.7874642],[-71.9476765,-8.7875066],[-71.9681954,-8.7774496],[-71.9933653,-8.7987031],[-72.0186478,-8.8052236],[-72.0505365,-8.8333056],[-72.0531115,-8.8370268],[-72.0684434,-8.8395007],[-72.0736228,-8.8440347],[-72.0809238,-8.8543722]],[[-72.900313,-7.4376812],[-73.8015581,-7.1118244],[-73.7942534,-7.1302174],[-73.7776748,-7.1454895],[-73.7593778,-7.1741528],[-73.7551757,-7.1978728],[-73.7239029,-7.2209364],[-73.7138092,-7.2338586],[-73.7157012,-7.2672167],[-73.7006408,-7.2906307],[-73.6998092,-7.3039087],[-73.7182056,-7.3288278],[-73.7553892,-7.3464998],[-73.7695951,-7.3315391],[-73.7941194,-7.3438],[-73.8171184,-7.3349948],[-73.8522593,-7.3469005],[-73.8598963,-7.3688202],[-73.8764986,-7.3822713],[-73.9095101,-7.3776894],[-73.9308953,-7.3519169],[-73.9507851,-7.3470813],[-73.9661735,-7.3516089],[-73.9586433,-7.3778005],[-73.9313606,-7.4228034],[-73.9274238,-7.4516558],[-73.9193138,-7.4652919],[-73.9475119,-7.5262282],[-73.99045,-7.535961],[-73.9833394,-7.5661919],[-73.96834,-7.5673473],[-73.9423696,-7.5985696],[-73.9085333,-7.6243888],[-73.8862021,-7.6357804],[-73.8851111,-7.655294],[-73.8729444,-7.6711139],[-73.8421729,-7.6777467],[-73.8216727,-7.7174972],[-73.7861504,-7.7224439],[-73.7400384,-7.7337081],[-73.6934724,-7.770908]],[[-73.6934724,-7.770908],[-73.67485,-7.7401365],[-73.5312461,-7.7172967],[-73.4978341,-7.7348166],[-73.4779784,-7.754632],[-73.4518803,-7.7701702],[-73.4234299,-7.7608948],[-73.4115152,-7.750194],[-73.3905973,-7.7459577],[-73.3773478,-7.7512806],[-73.3602744,-7.7277951],[-73.3346623,-7.709479],[-73.3418569,-7.7378572],[-73.3054357,-7.758156],[-73.3081553,-7.7776205],[-73.2515443,-7.7925701],[-73.1755405,-7.7262106],[-73.0406196,-7.6693013],[-73.0228177,-7.676053],[-72.9790257,-7.6787779],[-72.9483298,-7.6921986],[-72.9138184,-7.6643479],[-72.860058,-7.6739586]],[[-69.8651048,-8.9574983],[-69.8426305,-9.0147201],[-69.8299425,-9.027563],[-69.8208531,-9.0524444],[-69.8199071,-9.0763093],[-69.8084214,-9.0999494],[-69.7918566,-9.1104029],[-69.8033084,-9.1337544],[-69.8317827,-9.1569307],[-69.8353232,-9.1682217],[-69.856856,-9.1837701],[-69.864731,-9.1991377],[-69.9083759,-9.2287909],[-69.9134922,-9.2432698],[-69.9404055,-9.2427244],[-69.9631345,-9.2364924],[-69.9853217,-9.2622722],[-70.0121371,-9.254247],[-70.0216643,-9.2744982],[-70.0473599,-9.2881784],[-70.0634532,-9.2900314],[-70.0832157,-9.2810578],[-70.1141952,-9.285399],[-70.1247792,-9.2870773],[-70.1429538,-9.2841761],[-70.144649,-9.2849808],[-70.1493536,-9.2774736],[-70.1487796,-9.2752553],[-70.1503031,-9.2758801],[-70.1511453,-9.2714064],[-70.1570891,-9.2699134],[-70.1603238,-9.268198],[-70.1654415,-9.2707499],[-70.1791851,-9.2728676],[-70.1831709,-9.2721423],[-70.1859282,-9.2717134],[-70.1938085,-9.2750383],[-70.197113,-9.277336],[-70.2008681,-9.2805549],[-70.2049021,-9.2806872],[-70.2112536,-9.2824872],[-70.2175997,-9.2934354],[-70.2411844,-9.3085654],[-70.24307,-9.3098597],[-70.2463744,-9.3133959],[-70.2490862,-9.3169982],[-70.2553035,-9.3171306],[-70.2673815,-9.3197377],[-70.2719922,-9.3409618],[-70.2999838,-9.3395485],[-70.2964133,-9.3653441],[-70.3302163,-9.3959712],[-70.2711505,-9.4199172],[-70.2042331,-9.4377118],[-70.1551812,-9.4721466],[-70.0354181,-9.5048083],[-70.0318219,-9.5229724],[-70.0386764,-9.53515],[-70.0649123,-9.5256229],[-70.0849028,-9.5422028],[-70.1009558,-9.535172],[-70.1243071,-9.5412637],[-70.149726,-9.5565547],[-70.1635076,-9.5852199],[-70.1761354,-9.5856431],[-70.188833,-9.6051952],[-70.186014,-9.6186216],[-70.2154003,-9.6363472],[-70.2239592,-9.6611848],[-70.2436627,-9.6814068],[-70.263149,-9.6891405],[-70.2745993,-9.7171255],[-70.2901213,-9.7208399],[-70.2949144,-9.7407992],[-70.3256123,-9.7620473],[-70.3337206,-9.808126],[-70.3551058,-9.8228472],[-70.3609826,-9.8385826],[-70.4017816,-9.8878744],[-70.4276751,-9.9006186],[-70.4457176,-9.9379883],[-70.4732597,-9.9597628],[-70.5020822,-9.9646001],[-70.5287373,-10.00006],[-70.5395262,-10.0088584],[-70.555365,-10.0228685],[-70.5809186,-10.0275026],[-70.6205738,-10.0793237]],[[-70.6205738,-10.0793237],[-70.6204906,-10.4249516]],[[-70.6204906,-10.4249516],[-70.2560969,-10.425498],[-70.2549769,-10.3945082],[-70.2401623,-10.3420585],[-70.2188015,-10.311948],[-70.2270232,-10.2922264],[-70.211686,-10.2739064],[-70.187061,-10.2562758],[-70.1624028,-10.2287977],[-70.1523626,-10.2052042],[-70.1362362,-10.194251],[-70.1118431,-10.1506246],[-70.0426274,-9.9899236],[-70.0377381,-9.9522199],[-70.0436397,-9.9311968],[-70.032246,-9.8925042],[-70.0387917,-9.8655716],[-70.0211204,-9.8321487],[-69.9772228,-9.7823906],[-69.9777192,-9.7252806],[-69.9723646,-9.7069161],[-69.9460994,-9.6748248],[-69.9274209,-9.6289253],[-69.9313474,-9.6111911],[-69.878503,-9.5424029],[-69.8691768,-9.52142],[-69.8677151,-9.4669384],[-69.8606934,-9.4393846],[-69.8474133,-9.4243184],[-69.8176172,-9.4243888],[-69.783749,-9.3804827],[-69.7973606,-9.3342506],[-69.7698958,-9.3386796],[-69.6905168,-9.2295336],[-69.6678754,-9.2360985],[-69.6123873,-9.2090133],[-69.5878073,-9.1787106],[-69.5585448,-9.1794119],[-69.4584571,-9.1453954],[-69.4322178,-9.1177985],[-69.3871357,-9.0933912],[-69.3496064,-9.0465887],[-69.2561342,-9.0460747],[-69.2336415,-9.0398091],[-69.2233042,-8.9954374],[-69.2007165,-8.9556989],[-69.17648,-8.9419735],[-69.1111321,-8.9554983],[-69.0846194,-8.9307973],[-69.0811772,-8.9059614],[-69.07026,-8.8951177],[-69.0227003,-8.8863031],[-69.0008881,-8.8710886],[-68.9655154,-8.8383853],[-68.9425499,-8.8363605],[-68.9338152,-8.8262096],[-68.9302371,-8.8217515],[-68.9275012,-8.8221623]],[[-68.9275012,-8.8221623],[-68.9213301,-8.8142641],[-69.4443203,-8.3664854]],[[-73.1280258,-8.7712374],[-73.1116132,-8.7919389],[-73.1118192,-8.8155633],[-73.0942563,-8.8372193],[-73.0779829,-8.8428526],[-73.0774793,-8.8609133],[-73.0562238,-8.9069022],[-73.043231,-8.9152888],[-73.0088988,-8.9127606],[-72.9948074,-8.9198464],[-72.9705916,-8.9748771],[-72.9443695,-8.9840943],[-72.9392044,-8.9968496],[-72.9569198,-9.0106693],[-72.9483443,-9.0256468],[-72.9401503,-9.069016],[-72.9438353,-9.1022381],[-72.9643658,-9.1469826],[-73.0086575,-9.1677297],[-73.011172,-9.187591],[-72.9937007,-9.19216],[-73.0220591,-9.2259439],[-73.0449472,-9.2368663],[-73.0562005,-9.2252964],[-73.0865889,-9.2444833],[-73.0950874,-9.2660936],[-73.1104529,-9.2842916],[-73.1072561,-9.3075126],[-73.1393083,-9.3218],[-73.1566792,-9.3508962],[-73.187952,-9.3612217],[-73.1935366,-9.3928102],[-73.2118972,-9.4116694],[-72.7197435,-9.4116569],[-72.7048975,-9.4336234],[-72.6685267,-9.4373594],[-72.5903242,-9.4551659],[-72.5667208,-9.4659393],[-72.5520545,-9.4651509],[-72.504177,-9.4865433],[-72.4548713,-9.4874481],[-72.4049434,-9.4818818],[-72.3865863,-9.4930565],[-72.3693987,-9.4899031],[-72.3404069,-9.508674]],[[-72.0440076,-8.9004073],[-72.0778957,-8.8681347]],[[-72.0778957,-8.8681347],[-72.1248354,-8.8285331],[-72.1439786,-8.7118072],[-72.2139751,-8.7008226]],[[-72.2139751,-8.7008226],[-72.2572238,-8.7240059],[-72.3030637,-8.761509],[-72.360866,-8.7824132],[-72.3970447,-8.7538564],[-72.4179425,-8.7503554],[-72.4379797,-8.7629538],[-72.4460373,-8.7550219],[-72.4953124,-8.7766948],[-72.5328568,-8.7725709],[-72.5661853,-8.7648128],[-72.6037229,-8.7743207],[-72.6429774,-8.7700555],[-72.6644508,-8.7465608],[-72.6675058,-8.7185689],[-72.6886471,-8.7057013],[-72.7053539,-8.6878102],[-72.7199029,-8.6889854],[-72.7275418,-8.674186],[-72.7336106,-8.6820487],[-72.7393184,-8.7038851],[-72.7744229,-8.7267294],[-72.8113246,-8.7237258],[-72.8523649,-8.7311743],[-72.8551535,-8.7451063],[-72.8754013,-8.746556],[-72.9281074,-8.7600423],[-72.9550575,-8.7448126],[-72.9893094,-8.7558954],[-73.0146513,-8.7531318],[-73.0616084,-8.7636887],[-73.0918192,-8.7516124],[-73.1129192,-8.7570574],[-73.1280258,-8.7712374]],[[-67.1246637,-9.969853],[-67.165617,-9.984773],[-67.1844622,-9.9955505]],[[-67.1844622,-9.9955505],[-67.2504767,-10.0273295],[-67.2978874,-10.0620572],[-67.3461028,-10.0615766],[-67.428498,-10.0961023],[-67.4297368,-10.1257481],[-67.4418228,-10.1616058],[-67.4603166,-10.1780745],[-67.4716007,-10.2063292],[-67.4975913,-10.233713]],[[-67.4975913,-10.233713],[-67.5020733,-10.2436243],[-67.5006731,-10.2541344],[-67.5037711,-10.2636571],[-67.511866,-10.2696324]],[[-67.511866,-10.2696324],[-67.573699,-10.293894],[-67.6241816,-10.3202915],[-67.6258437,-10.3429214],[-67.6375677,-10.3508196]],[[-67.6375677,-10.3508196],[-67.641778,-10.3742801]],[[-67.578351,-10.5021954],[-67.5698944,-10.5058371],[-67.4781861,-10.4677768],[-67.4658792,-10.4553388],[-67.4439825,-10.4530233],[-67.4318833,-10.4309386],[-67.4132151,-10.4257261],[-67.4138159,-10.4014404],[-67.423791,-10.3913996],[-67.406755,-10.3725747],[-67.3787272,-10.3832098],[-67.3387362,-10.3760052],[-67.31984,-10.3816222],[-67.3155451,-10.3471588],[-67.3280395,-10.3352829],[-67.3218678,-10.3215879],[-67.2762809,-10.3220206],[-67.2534741,-10.3289203],[-67.2365896,-10.3162225],[-67.2190292,-10.3238117],[-67.1945299,-10.3253712],[-67.1884138,-10.3394276],[-67.1440185,-10.3267348],[-67.1370414,-10.29768],[-67.0991016,-10.286472],[-67.0791594,-10.2893882],[-67.051546,-10.2677655],[-67.0102561,-10.252695],[-67.0022819,-10.2297395]],[[-73.3321448,-8.4753668],[-73.3279826,-8.5170783],[-73.3341776,-8.5400866],[-73.3439737,-8.602084],[-73.3395334,-8.6177976],[-73.3195902,-8.6141031],[-73.2848078,-8.6663586],[-73.2478472,-8.6873417],[-73.2083462,-8.6809506],[-73.1760722,-8.6942972],[-73.1423749,-8.7227033],[-73.1382139,-8.759575],[-73.1280258,-8.7712374]],[[-72.2139751,-8.7008226],[-72.2301946,-8.5969337],[-72.2012864,-8.5519009],[-72.2283301,-8.516804],[-72.2316006,-8.4102615],[-72.2660158,-8.3908611],[-72.2256299,-8.2808912],[-72.2663,-8.2605684]],[[-69.1493981,-10.3850165],[-68.7129408,-10.3840143]],[[-68.7129408,-10.3840143],[-68.7064295,-10.3640577],[-68.6832507,-10.3554356],[-68.6851266,-10.3392808],[-68.6609859,-10.3280026],[-68.6417371,-10.3059375],[-68.6169861,-10.3066345],[-68.5914617,-10.2935941],[-68.5637539,-10.2728189],[-68.5535522,-10.2796505],[-68.5073679,-10.2595265],[-68.4911732,-10.2463913],[-68.4888313,-10.2274231],[-68.4705524,-10.2167599]],[[-68.4705524,-10.2167599],[-68.4724315,-10.2072613],[-68.4708158,-10.1927194],[-68.464664,-10.185239],[-68.4549057,-10.1830993]],[[-68.4549057,-10.1830993],[-68.4455448,-10.193571],[-68.4543414,-10.215363],[-68.4495161,-10.2535179],[-68.4334106,-10.2653126],[-68.4118307,-10.2681336],[-68.4157597,-10.3071937],[-68.3754551,-10.3115543],[-68.3508115,-10.3322071],[-68.3544866,-10.3578717],[-68.390237,-10.3733974],[-68.3875584,-10.379515],[-68.3248065,-10.3936512],[-68.3275361,-10.4091488],[-68.313783,-10.4182094],[-68.2814633,-10.40359],[-68.2730624,-10.3886609],[-68.2318649,-10.3893001],[-68.2010171,-10.3741303],[-68.1800716,-10.3768891],[-68.1506454,-10.3705275],[-68.1236662,-10.3751685],[-68.097983,-10.3640113],[-68.0720776,-10.379983],[-68.0448353,-10.3889996]],[[-68.0448353,-10.3889996],[-68.0308004,-10.3789242]],[[-67.8158264,-10.2062662],[-67.803464,-10.1878849]],[[-67.803464,-10.1878849],[-67.804159,-10.1795759],[-67.8181245,-10.1562094],[-67.8157652,-10.1308064],[-67.8294496,-10.1224195],[-67.8124231,-10.0876919],[-67.7744143,-10.108139],[-67.7586407,-10.1099799],[-67.6708438,-10.1019071],[-67.6462285,-10.0802649],[-67.6370608,-10.0595289],[-67.6101468,-10.0480521],[-67.5806979,-10.0692295],[-67.5603245,-10.0582585],[-67.5349166,-10.0347549],[-67.5294185,-10.0216028],[-67.5093594,-10.0252282],[-67.5011133,-10.0093052],[-67.4891308,-9.9868264],[-67.4965324,-9.9765061],[-67.4925239,-9.948409],[-67.4839414,-9.9324508]],[[-67.4839414,-9.9324508],[-67.4822084,-9.9266738]],[[-67.4822084,-9.9266738],[-67.5168795,-9.9063122],[-67.5142368,-9.8819298],[-67.5219553,-9.87194],[-67.5346804,-9.8521335],[-67.566798,-9.8516981],[-67.5923973,-9.8429925],[-67.602905,-9.8590467],[-67.6249766,-9.8558224],[-67.6532009,-9.8631724],[-67.672305,-9.8520482],[-67.684717,-9.8337796],[-67.7099964,-9.8364023],[-67.7070733,-9.8169919],[-67.7181666,-9.8056162],[-67.7028291,-9.7873651],[-67.7435166,-9.7397338],[-67.7939694,-9.7822647],[-67.7958008,-9.7619983]],[[-67.8226649,-9.7978393],[-67.8313453,-9.808428],[-67.8339615,-9.819947],[-67.8336731,-9.833035]],[[-68.4180073,-9.5455002],[-68.4198595,-9.5440246]],[[-68.4198595,-9.5440246],[-68.4252997,-9.5457954],[-68.4279456,-9.5447877],[-68.4352538,-9.5421795],[-68.4538413,-9.5519653],[-68.4667738,-9.5460016],[-68.4874997,-9.5707503],[-68.5102464,-9.5755387],[-68.5140717,-9.5887263],[-68.5841514,-9.539198],[-68.6012203,-9.5380189],[-68.6077687,-9.5052309],[-68.6333503,-9.5159178],[-68.6727219,-9.5601234],[-68.7000604,-9.6792667],[-68.6929184,-9.7503694],[-68.666518,-9.8409788],[-68.6943907,-9.8868387],[-68.8013562,-9.9620825],[-68.88509,-10.0627429],[-69.0372787,-10.1644308],[-69.120836,-10.2689437],[-69.1723685,-10.2865348],[-69.3108891,-10.3639175],[-69.3420149,-10.4028505],[-69.3637827,-10.4630806],[-69.3418082,-10.485329]],[[-73.6934724,-7.770908],[-73.6818949,-7.7896576],[-73.6868921,-7.8206186],[-73.6871278,-7.8540306],[-73.7039513,-7.8726048],[-73.7420295,-7.8727021],[-73.7563651,-7.8581443],[-73.7661231,-7.8702078],[-73.7530311,-7.8895578],[-73.7706702,-7.9049215],[-73.7509177,-7.9233741],[-73.7465002,-7.9525574],[-73.7227555,-7.9600556],[-73.6976112,-7.9601963],[-73.6886696,-7.9713662],[-73.6759694,-8.0078056],[-73.645945,-8.0030157],[-73.6268945,-8.0214883],[-73.623446,-8.0393573],[-73.6322429,-8.0589606]],[[-71.0777201,-9.8277404],[-71.0505177,-9.8155678],[-70.9941792,-9.8172051],[-70.990172,-9.7902831],[-70.9710559,-9.7556799],[-70.9528115,-9.741955],[-70.9244928,-9.7414686],[-70.8960949,-9.7090652],[-70.8891319,-9.6895719],[-70.8535363,-9.6554078],[-70.8351417,-9.6461212],[-70.7991947,-9.6423345],[-70.7863416,-9.614219],[-70.7582669,-9.6056215],[-70.7579879,-9.5787724],[-70.7474603,-9.563128],[-70.7255064,-9.5673678],[-70.7145817,-9.5469538],[-70.6609778,-9.5217984],[-70.6460674,-9.496821],[-70.6366931,-9.4982098],[-70.6085862,-9.4572031],[-70.5617307,-9.4287362],[-70.5489205,-9.4345044],[-70.5095108,-9.42296],[-70.5091943,-9.4453975],[-70.5154814,-9.5021727],[-70.5323256,-9.4997177],[-70.5477215,-9.5192722],[-70.5377008,-9.5342547],[-70.5642439,-9.5397036],[-70.570531,-9.554844],[-70.5907871,-9.5483795],[-70.6002714,-9.5629799],[-70.5856748,-9.5752813],[-70.5850337,-9.5906183],[-70.598485,-9.6074383],[-70.5912511,-9.6267883],[-70.5666043,-9.6679226],[-70.542164,-9.6798394],[-70.526011,-9.7244768],[-70.5362926,-9.7658027],[-70.5596386,-9.7895497],[-70.578182,-9.777613],[-70.5906986,-9.8036836],[-70.6125744,-9.8050779],[-70.6205864,-9.832251],[-70.6205738,-10.0793237]],[[-67.134984,-9.6759181],[-67.3254829,-9.5925278]],[[-67.3254829,-9.5925278],[-67.3396809,-9.6228532],[-67.3275466,-9.6420092],[-67.3257871,-9.6616982],[-67.3372025,-9.6826393],[-67.3331739,-9.7215197],[-67.3622973,-9.7648735],[-67.3680211,-9.782039],[-67.4071707,-9.8045584],[-67.4195571,-9.8246607],[-67.438177,-9.83575],[-67.4416317,-9.8697886],[-67.4375601,-9.8807707],[-67.4464596,-9.8999171]],[[-67.4464596,-9.8999171],[-67.446524,-9.9116803],[-67.4486591,-9.9170122],[-67.450424,-9.9180215],[-67.4694945,-9.91502]],[[-67.4694945,-9.91502],[-67.4839414,-9.9324508]],[[-67.803464,-10.1878849],[-67.8024724,-10.1970332]],[[-67.6423038,-10.3644757],[-67.6375677,-10.3508196]],[[-67.511866,-10.2696324],[-67.5042512,-10.2641982],[-67.5007134,-10.2545963],[-67.4975913,-10.233713]],[[-67.1844622,-9.9955505],[-67.1651985,-9.9845828],[-67.0902509,-9.9572901]],[[-68.2198982,-9.2427531],[-68.6471864,-9.0494166],[-68.9210884,-8.8144715],[-68.9275012,-8.8221623]],[[-70.6204906,-10.4249516],[-70.6208803,-10.7054892]],[[-68.4198595,-9.5440246],[-68.413083,-9.5414672]],[[-70.5151508,-7.7923768],[-71.945425,-7.6267544]],[[-72.0778957,-8.8681347],[-72.0809067,-8.8614835],[-72.0809238,-8.8543722]],[[-71.4815515,-8.8840864],[-71.4771998,-8.8800477]],[[-68.4549057,-10.1830993],[-68.4631472,-10.1844433],[-68.4701429,-10.1916583],[-68.4718134,-10.1950914],[-68.4724327,-10.2065694],[-68.4705524,-10.2167599]],[[-68.7129408,-10.3840143],[-69.1315635,-10.385028]],[[-69.1338839,-10.5147119],[-69.1182973,-10.5249693],[-69.1073142,-10.5359146],[-69.1028592,-10.5537513]],[[-68.9600902,-10.7322977],[-68.9658832,-10.7390508],[-68.9732951,-10.7386481],[-68.9764978,-10.7411391],[-68.9795475,-10.7474033],[-68.9801224,-10.7536655],[-68.9782731,-10.7649823],[-68.9758673,-10.770989]],[[-68.9141257,-10.7757508],[-68.9077782,-10.777093],[-68.8998867,-10.7753477],[-68.8945002,-10.7697748],[-68.8838144,-10.7687806],[-68.8804649,-10.7665292],[-68.8799574,-10.7616199]],[[-68.8374956,-10.7393412],[-68.8278137,-10.7286023]],[[-68.3882087,-11.0405802],[-68.3846844,-11.0181411],[-68.360532,-11.0063974],[-68.3254208,-11.0091254],[-68.3072081,-10.991933],[-68.276713,-10.9883333],[-68.2376844,-10.9563705],[-68.2242991,-10.9116152],[-68.2072081,-10.9020372],[-68.1961278,-10.8585922],[-68.1789884,-10.8531973],[-68.1538562,-10.8211475],[-68.1435618,-10.8160859],[-68.1182123,-10.7841013],[-68.0970148,-10.7493853],[-68.1088165,-10.7257972],[-68.0760667,-10.6853736],[-68.0551602,-10.6703906],[-68.033547,-10.6669402],[-68.0147259,-10.6488709],[-68.0091058,-10.6337659]],[[-68.0474831,-10.4044324],[-68.0448353,-10.3889996]],[[-67.4822084,-9.9266738],[-67.4694945,-9.91502]],[[-67.4694945,-9.91502],[-67.4509014,-9.9180479],[-67.448997,-9.917361],[-67.4462719,-9.9106235],[-67.4464596,-9.8999171]],[[-67.3254829,-9.5925278],[-67.516882,-9.5609067],[-67.9768374,-9.3527319]]],"bbox":[-73.99045,-11.1455615,-66.6264588,-7.1118244]}
