{"type":"Topology","objects":{"geometrias":{"type":"GeometryCollection","geometries":[{"type":"Polygon","arcs":[[0,1,2,3,4,5]],"properties":{"code_muni":2700102,"abbrev_state":"AL","name_state":"Alagoas","name_region":"Nordeste","name_muni":"Água Branca","code_state":27,"code_region":2,"year":2020}},{"type":"Polygon","arcs":[[6,7,8,9,10,11,12,13,14]],"properties":{"code_muni":2700201,"abbrev_state":"AL","name_state":"Alagoas","name_region":"Nordeste","name_muni":"Anadia","code_state":27,"code_region":2,"year":2020}},{"type":"Polygon","arcs":[[15,16,17,18,19,20,21,22,23,24,25,26,27,28]],"properties":{"code_muni":2700300,"abbrev_state":"AL","name_state":"Alagoas","name_region":"Nordeste","name_muni":"Arapiraca","code_state":27,"code_region":2,"year":2020}},{"type":"Polygon","arcs":[[29,30,31,32,33,34,35,36,37,38,39,40,41]],"properties":{"code_muni":2700409,"abbrev_state":"AL","name_state":"Alagoas","name_region":"Nordeste","name_muni":"Atalaia","code_state":27,"code_region":2,"year":2020}},{"type":"Polygon","arcs":[[42,43,44,45,46,47,48]],"properties":{"code_muni":2700508,"abbrev_state":"AL","name_state":"Alagoas","name_region":"Nordeste","name_muni":"Barra de Santo Antônio","code_state":27,"code_region":2,"year":2020}},{"type":"Polygon","arcs":[[49,50,51,52,53,54,55]],"properties":{"code_muni":2700607,"abbrev_state":"AL","name_state":"Alagoas","name_region":"Nordeste","name_muni":"Barra de São Miguel","code_state":27,"code_region":2,"year":2020}},{"type":"Polygon","arcs":[[56,57,58,59,60,61,62,63,64]],"properties":{"code_muni":2700706,"abbrev_state":"AL","name_state":"Alagoas","name_region":"Nordeste","name_muni":"Batalha","code_state":27,"code_region":2,"year":2020}},{"type":"Polygon","arcs":[[65,66,67,68,69,70]],"properties":{"code_muni":2700805,"abbrev_state":"AL","name_state":"Alagoas","name_region":"Nordeste","name_muni":"Belém","code_state":27,"code_region":2,"year":2020}},{"type":"Polygon","arcs":[[71,72,73,74,75,76,77,-60]],"properties":{"code_muni":2700904,"abbrev_state":"AL","name_state":"Alagoas","name_region":"Nordeste","name_muni":"Belo Monte","code_state":27,"code_region":2,"year":2020}},{"type":"Polygon","arcs":[[78,-37,79,80,-13,81,82,83,84]],"properties":{"code_muni":2701001,"abbrev_state":"AL","name_state":"Alagoas","name_region":"Nordeste","name_muni":"Boca da Mata","code_state":27,"code_region":2,"year":2020}},{"type":"Polygon","arcs":[[85,86,87,88]],"properties":{"code_muni":2701100,"abbrev_state":"AL","name_state":"Alagoas","name_region":"Nordeste","name_muni":"Branquinha","code_state":27,"code_region":2,"year":2020}},{"type":"Polygon","arcs":[[89,90,91,92,93,94,95,96,97,98]],"properties":{"code_muni":2701209,"abbrev_state":"AL","name_state":"Alagoas","name_region":"Nordeste","name_muni":"Cacimbinhas","code_state":27,"code_region":2,"year":2020}},{"type":"Polygon","arcs":[[99,100,101,102,-33]],"properties":{"code_muni":2701308,"abbrev_state":"AL","name_state":"Alagoas","name_region":"Nordeste","name_muni":"Cajueiro","code_state":27,"code_region":2,"year":2020}},{"type":"Polygon","arcs":[[103,104,105,106,107,108]],"properties":{"code_muni":2701357,"abbrev_state":"AL","name_state":"Alagoas","name_region":"Nordeste","name_muni":"Campestre","code_state":27,"code_region":2,"year":2020}},{"type":"Polygon","arcs":[[109,110,111,112,113,114,115,116,117,118,-12]],"properties":{"code_muni":2701407,"abbrev_state":"AL","name_state":"Alagoas","name_region":"Nordeste","name_muni":"Campo Alegre","code_state":27,"code_region":2,"year":2020}},{"type":"Polygon","arcs":[[119,120,121,122,123,124,125,126]],"properties":{"code_muni":2701506,"abbrev_state":"AL","name_state":"Alagoas","name_region":"Nordeste","name_muni":"Campo Grande","code_state":27,"code_region":2,"year":2020}},{"type":"Polygon","arcs":[[127,128,129,130,131,132,133]],"properties":{"code_muni":2701605,"abbrev_state":"AL","name_state":"Alagoas","name_region":"Nordeste","name_muni":"Canapi","code_state":27,"code_region":2,"year":2020}},{"type":"Polygon","arcs":[[134,-100,-32,135,136,137,-87]],"properties":{"code_muni":2701704,"abbrev_state":"AL","name_state":"Alagoas","name_region":"Nordeste","name_muni":"Capela","code_state":27,"code_region":2,"year":2020}},{"type":"Polygon","arcs":[[138,139,140,141,142,143,144]],"properties":{"code_muni":2701803,"abbrev_state":"AL","name_state":"Alagoas","name_region":"Nordeste","name_muni":"Carneiros","code_state":27,"code_region":2,"year":2020}},{"type":"Polygon","arcs":[[145,146,147,148,149]],"properties":{"code_muni":2701902,"abbrev_state":"AL","name_state":"Alagoas","name_region":"Nordeste","name_muni":"Chã Preta","code_state":27,"code_region":2,"year":2020}},{"type":"Polygon","arcs":[[150,151,152,-27,153,154,155,156]],"properties":{"code_muni":2702009,"abbrev_state":"AL","name_state":"Alagoas","name_region":"Nordeste","name_muni":"Coité do Nóia","code_state":27,"code_region":2,"year":2020}},{"type":"Polygon","arcs":[[157,158,159,160,161]],"properties":{"code_muni":2702108,"abbrev_state":"AL","name_state":"Alagoas","name_region":"Nordeste","name_muni":"Colônia Leopoldina","code_state":27,"code_region":2,"year":2020}},{"type":"Polygon","arcs":[[162,163,164,165,166,167]],"properties":{"code_muni":2702207,"abbrev_state":"AL","name_state":"Alagoas","name_region":"Nordeste","name_muni":"Coqueiro Seco","code_state":27,"code_region":2,"year":2020}},{"type":"Polygon","arcs":[[168,169,170,171,172,173,174]],"properties":{"code_muni":2702306,"abbrev_state":"AL","name_state":"Alagoas","name_region":"Nordeste","name_muni":"Coruripe","code_state":27,"code_region":2,"year":2020}},{"type":"Polygon","arcs":[[175,176,177,178,179,180,181,-17,182,183]],"properties":{"code_muni":2702355,"abbrev_state":"AL","name_state":"Alagoas","name_region":"Nordeste","name_muni":"Craíbas","code_state":27,"code_region":2,"year":2020}},{"type":"Polygon","arcs":[[184,185,186,187]],"properties":{"code_muni":2702405,"abbrev_state":"AL","name_state":"Alagoas","name_region":"Nordeste","name_muni":"Delmiro Gouveia","code_state":27,"code_region":2,"year":2020}},{"type":"Polygon","arcs":[[188,189,190,191,192,-90]],"properties":{"code_muni":2702504,"abbrev_state":"AL","name_state":"Alagoas","name_region":"Nordeste","name_muni":"Dois Riachos","code_state":27,"code_region":2,"year":2020}},{"type":"Polygon","arcs":[[193,194,195,196,197,198,-96]],"properties":{"code_muni":2702553,"abbrev_state":"AL","name_state":"Alagoas","name_region":"Nordeste","name_muni":"Estrela de Alagoas","code_state":27,"code_region":2,"year":2020}},{"type":"Polygon","arcs":[[199,200,-127,201,202,203,204,205,-21,206]],"properties":{"code_muni":2702603,"abbrev_state":"AL","name_state":"Alagoas","name_region":"Nordeste","name_muni":"Feira Grande","code_state":27,"code_region":2,"year":2020}},{"type":"Polygon","arcs":[[207,208,209,210,-174]],"properties":{"code_muni":2702702,"abbrev_state":"AL","name_state":"Alagoas","name_region":"Nordeste","name_muni":"Feliz Deserto","code_state":27,"code_region":2,"year":2020}},{"type":"Polygon","arcs":[[211,212,213,214,215,216,217,218]],"properties":{"code_muni":2702801,"abbrev_state":"AL","name_state":"Alagoas","name_region":"Nordeste","name_muni":"Flexeiras","code_state":27,"code_region":2,"year":2020}},{"type":"Polygon","arcs":[[219,220,221,222,-121,223,224,225,-180,226,227]],"properties":{"code_muni":2702900,"abbrev_state":"AL","name_state":"Alagoas","name_region":"Nordeste","name_muni":"Girau do Ponciano","code_state":27,"code_region":2,"year":2020}},{"type":"Polygon","arcs":[[228,229,230,231,232,-159]],"properties":{"code_muni":2703007,"abbrev_state":"AL","name_state":"Alagoas","name_region":"Nordeste","name_muni":"Ibateguara","code_state":27,"code_region":2,"year":2020}},{"type":"Polygon","arcs":[[233,234,235,-94,236,237,238,-184,239,-29,240,-152,241,242,243]],"properties":{"code_muni":2703106,"abbrev_state":"AL","name_state":"Alagoas","name_region":"Nordeste","name_muni":"Igaci","code_state":27,"code_region":2,"year":2020}},{"type":"Polygon","arcs":[[244,245,246,247,248]],"properties":{"code_muni":2703205,"abbrev_state":"AL","name_state":"Alagoas","name_region":"Nordeste","name_muni":"Igreja Nova","code_state":27,"code_region":2,"year":2020}},{"type":"Polygon","arcs":[[249,250,251,252,253,254,-130]],"properties":{"code_muni":2703304,"abbrev_state":"AL","name_state":"Alagoas","name_region":"Nordeste","name_muni":"Inhapi","code_state":27,"code_region":2,"year":2020}},{"type":"Polygon","arcs":[[255,256,257,258,259,260,-73,261,-58,262]],"properties":{"code_muni":2703403,"abbrev_state":"AL","name_state":"Alagoas","name_region":"Nordeste","name_muni":"Jacaré dos Homens","code_state":27,"code_region":2,"year":2020}},{"type":"Polygon","arcs":[[263,-109,264,265,266,267,268]],"properties":{"code_muni":2703502,"abbrev_state":"AL","name_state":"Alagoas","name_region":"Nordeste","name_muni":"Jacuípe","code_state":27,"code_region":2,"year":2020}},{"type":"Polygon","arcs":[[269,270,271,272,273,274,275]],"properties":{"code_muni":2703601,"abbrev_state":"AL","name_state":"Alagoas","name_region":"Nordeste","name_muni":"Japaratinga","code_state":27,"code_region":2,"year":2020}},{"type":"Polygon","arcs":[[276,277,278,-64,279,280,281,-221,282,-228,283]],"properties":{"code_muni":2703700,"abbrev_state":"AL","name_state":"Alagoas","name_region":"Nordeste","name_muni":"Jaramataia","code_state":27,"code_region":2,"year":2020}},{"type":"Polygon","arcs":[[284,-117,285,-169,286,287,288,289]],"properties":{"code_muni":2703759,"abbrev_state":"AL","name_state":"Alagoas","name_region":"Nordeste","name_muni":"Jequiá da Praia","code_state":27,"code_region":2,"year":2020}},{"type":"Polygon","arcs":[[290,-160,-233,291,-213,292,293,294,295,296]],"properties":{"code_muni":2703809,"abbrev_state":"AL","name_state":"Alagoas","name_region":"Nordeste","name_muni":"Joaquim Gomes","code_state":27,"code_region":2,"year":2020}},{"type":"Polygon","arcs":[[297,298,299,-266,300,-107]],"properties":{"code_muni":2703908,"abbrev_state":"AL","name_state":"Alagoas","name_region":"Nordeste","name_muni":"Jundiá","code_state":27,"code_region":2,"year":2020}},{"type":"Polygon","arcs":[[301,302,303,304,305,306,-113,307]],"properties":{"code_muni":2704005,"abbrev_state":"AL","name_state":"Alagoas","name_region":"Nordeste","name_muni":"Junqueiro","code_state":27,"code_region":2,"year":2020}},{"type":"Polygon","arcs":[[308,309,-225,-200,310,-19]],"properties":{"code_muni":2704104,"abbrev_state":"AL","name_state":"Alagoas","name_region":"Nordeste","name_muni":"Lagoa da Canoa","code_state":27,"code_region":2,"year":2020}},{"type":"Polygon","arcs":[[311,312,313,-155,314,-25,315,-302,316,-111,317,-10]],"properties":{"code_muni":2704203,"abbrev_state":"AL","name_state":"Alagoas","name_region":"Nordeste","name_muni":"Limoeiro de Anadia","code_state":27,"code_region":2,"year":2020}},{"type":"Polygon","arcs":[[-46,318,319,320,321,322,-168,323,324,325,326]],"properties":{"code_muni":2704302,"abbrev_state":"AL","name_state":"Alagoas","name_region":"Nordeste","name_muni":"Maceió","code_state":27,"code_region":2,"year":2020}},{"type":"Polygon","arcs":[[327,328,329,330,331,-278,332,-177,333,-238,334,-92]],"properties":{"code_muni":2704401,"abbrev_state":"AL","name_state":"Alagoas","name_region":"Nordeste","name_muni":"Major Isidoro","code_state":27,"code_region":2,"year":2020}},{"type":"Polygon","arcs":[[-269,335,336,337,-276,338,339]],"properties":{"code_muni":2704500,"abbrev_state":"AL","name_state":"Alagoas","name_region":"Nordeste","name_muni":"Maragogi","code_state":27,"code_region":2,"year":2020}},{"type":"Polygon","arcs":[[340,341,342,-132,343,344]],"properties":{"code_muni":2704609,"abbrev_state":"AL","name_state":"Alagoas","name_region":"Nordeste","name_muni":"Maravilha","code_state":27,"code_region":2,"year":2020}},{"type":"Polygon","arcs":[[345,346,347,348,349,-56,350,-325,351,-166]],"properties":{"code_muni":2704708,"abbrev_state":"AL","name_state":"Alagoas","name_region":"Nordeste","name_muni":"Marechal Deodoro","code_state":27,"code_region":2,"year":2020}},{"type":"Polygon","arcs":[[352,353,354,355,356,357,358,-15,359,-80,-36]],"properties":{"code_muni":2704807,"abbrev_state":"AL","name_state":"Alagoas","name_region":"Nordeste","name_muni":"Maribondo","code_state":27,"code_region":2,"year":2020}},{"type":"Polygon","arcs":[[360,361,362,363,-356,364,365,366]],"properties":{"code_muni":2704906,"abbrev_state":"AL","name_state":"Alagoas","name_region":"Nordeste","name_muni":"Mar Vermelho","code_state":27,"code_region":2,"year":2020}},{"type":"Polygon","arcs":[[367,368,-250,-129]],"properties":{"code_muni":2705002,"abbrev_state":"AL","name_state":"Alagoas","name_region":"Nordeste","name_muni":"Mata Grande","code_state":27,"code_region":2,"year":2020}},{"type":"Polygon","arcs":[[369,370,-297,371,372,373,374,375]],"properties":{"code_muni":2705101,"abbrev_state":"AL","name_state":"Alagoas","name_region":"Nordeste","name_muni":"Matriz de Camaragibe","code_state":27,"code_region":2,"year":2020}},{"type":"Polygon","arcs":[[376,-216,377,378,379]],"properties":{"code_muni":2705200,"abbrev_state":"AL","name_state":"Alagoas","name_region":"Nordeste","name_muni":"Messias","code_state":27,"code_region":2,"year":2020}},{"type":"Polygon","arcs":[[380,-98,381,-198]],"properties":{"code_muni":2705309,"abbrev_state":"AL","name_state":"Alagoas","name_region":"Nordeste","name_muni":"Minador do Negrão","code_state":27,"code_region":2,"year":2020}},{"type":"Polygon","arcs":[[-258,382,383,384,385,386]],"properties":{"code_muni":2705408,"abbrev_state":"AL","name_state":"Alagoas","name_region":"Nordeste","name_muni":"Monteirópolis","code_state":27,"code_region":2,"year":2020}},{"type":"Polygon","arcs":[[-214,-89,387,-137,388,-30,389,-379,390]],"properties":{"code_muni":2705507,"abbrev_state":"AL","name_state":"Alagoas","name_region":"Nordeste","name_muni":"Murici","code_state":27,"code_region":2,"year":2020}},{"type":"Polygon","arcs":[[391,-162,392,-370,393,-299,394,-105]],"properties":{"code_muni":2705606,"abbrev_state":"AL","name_state":"Alagoas","name_region":"Nordeste","name_muni":"Novo Lino","code_state":27,"code_region":2,"year":2020}},{"type":"Polygon","arcs":[[395,396,-139,397,398,-384,399,-256,400,401,402]],"properties":{"code_muni":2705705,"abbrev_state":"AL","name_state":"Alagoas","name_region":"Nordeste","name_muni":"Olho d'Água das Flores","code_state":27,"code_region":2,"year":2020}},{"type":"Polygon","arcs":[[403,-5,404,-188,405,406]],"properties":{"code_muni":2705804,"abbrev_state":"AL","name_state":"Alagoas","name_region":"Nordeste","name_muni":"Olho d'Água do Casado","code_state":27,"code_region":2,"year":2020}},{"type":"Polygon","arcs":[[407,408,409,410,411,-123]],"properties":{"code_muni":2705903,"abbrev_state":"AL","name_state":"Alagoas","name_region":"Nordeste","name_muni":"Olho d'Água Grande","code_state":27,"code_region":2,"year":2020}},{"type":"Polygon","arcs":[[412,413,414,-141,415,416,-403,417,-329,418,-192]],"properties":{"code_muni":2706000,"abbrev_state":"AL","name_state":"Alagoas","name_region":"Nordeste","name_muni":"Olivença","code_state":27,"code_region":2,"year":2020}},{"type":"Polygon","arcs":[[419,-134,420,-342]],"properties":{"code_muni":2706109,"abbrev_state":"AL","name_state":"Alagoas","name_region":"Nordeste","name_muni":"Ouro Branco","code_state":27,"code_region":2,"year":2020}},{"type":"Polygon","arcs":[[421,-260]],"properties":{"code_muni":2706208,"abbrev_state":"AL","name_state":"Alagoas","name_region":"Nordeste","name_muni":"Palestina","code_state":27,"code_region":2,"year":2020}},{"type":"Polygon","arcs":[[422,-196,423,-234,424,-66,425,426,-362,427,428,429]],"properties":{"code_muni":2706307,"abbrev_state":"AL","name_state":"Alagoas","name_region":"Nordeste","name_muni":"Palmeira dos Índios","code_state":27,"code_region":2,"year":2020}},{"type":"Polygon","arcs":[[430,431,432,433,434,-75,435,-422,436,-386,437,438]],"properties":{"code_muni":2706406,"abbrev_state":"AL","name_state":"Alagoas","name_region":"Nordeste","name_muni":"Pão de Açúcar","code_state":27,"code_region":2,"year":2020}},{"type":"Polygon","arcs":[[439,440,-2]],"properties":{"code_muni":2706422,"abbrev_state":"AL","name_state":"Alagoas","name_region":"Nordeste","name_muni":"Pariconha","code_state":27,"code_region":2,"year":2020}},{"type":"Polygon","arcs":[[-327,441,-47]],"properties":{"code_muni":2706448,"abbrev_state":"AL","name_state":"Alagoas","name_region":"Nordeste","name_muni":"Paripueira","code_state":27,"code_region":2,"year":2020}},{"type":"Polygon","arcs":[[442,443,444,-49,445,446,-373,447]],"properties":{"code_muni":2706505,"abbrev_state":"AL","name_state":"Alagoas","name_region":"Nordeste","name_muni":"Passo de Camaragibe","code_state":27,"code_region":2,"year":2020}},{"type":"Polygon","arcs":[[448,449,450,451,452,453]],"properties":{"code_muni":2706604,"abbrev_state":"AL","name_state":"Alagoas","name_region":"Nordeste","name_muni":"Paulo Jacinto","code_state":27,"code_region":2,"year":2020}},{"type":"Polygon","arcs":[[454,455,-247,456,457,458,-208,-173]],"properties":{"code_muni":2706703,"abbrev_state":"AL","name_state":"Alagoas","name_region":"Nordeste","name_muni":"Penedo","code_state":27,"code_region":2,"year":2020}},{"type":"Polygon","arcs":[[-458,459,-210,460]],"properties":{"code_muni":2706802,"abbrev_state":"AL","name_state":"Alagoas","name_region":"Nordeste","name_muni":"Piaçabuçu","code_state":27,"code_region":2,"year":2020}},{"type":"Polygon","arcs":[[461,-39,462,-85,463,464,465,-347,466,467,468]],"properties":{"code_muni":2706901,"abbrev_state":"AL","name_state":"Alagoas","name_region":"Nordeste","name_muni":"Pilar","code_state":27,"code_region":2,"year":2020}},{"type":"Polygon","arcs":[[-366,469,-354,470,471,472]],"properties":{"code_muni":2707008,"abbrev_state":"AL","name_state":"Alagoas","name_region":"Nordeste","name_muni":"Pindoba","code_state":27,"code_region":2,"year":2020}},{"type":"Polygon","arcs":[[473,474,-407,475,-434,476,-432,477,478]],"properties":{"code_muni":2707107,"abbrev_state":"AL","name_state":"Alagoas","name_region":"Nordeste","name_muni":"Piranhas","code_state":27,"code_region":2,"year":2020}},{"type":"Polygon","arcs":[[479,-345,-254,480,481,482,483,484]],"properties":{"code_muni":2707206,"abbrev_state":"AL","name_state":"Alagoas","name_region":"Nordeste","name_muni":"Poço das Trincheiras","code_state":27,"code_region":2,"year":2020}},{"type":"Polygon","arcs":[[-267,-300,-394,-376,485,486,487,-271,488,-337,489]],"properties":{"code_muni":2707305,"abbrev_state":"AL","name_state":"Alagoas","name_region":"Nordeste","name_muni":"Porto Calvo","code_state":27,"code_region":2,"year":2020}},{"type":"Polygon","arcs":[[490,-374,491,492,-273,493,-487]],"properties":{"code_muni":2707404,"abbrev_state":"AL","name_state":"Alagoas","name_region":"Nordeste","name_muni":"Porto de Pedras","code_state":27,"code_region":2,"year":2020}},{"type":"Polygon","arcs":[[494,-125,495,-411,496,497,498,-245,499,500,501,-203]],"properties":{"code_muni":2707503,"abbrev_state":"AL","name_state":"Alagoas","name_region":"Nordeste","name_muni":"Porto Real do Colégio","code_state":27,"code_region":2,"year":2020}},{"type":"Polygon","arcs":[[502,-430,503,-450,504,505,-147]],"properties":{"code_muni":2707602,"abbrev_state":"AL","name_state":"Alagoas","name_region":"Nordeste","name_muni":"Quebrangulo","code_state":27,"code_region":2,"year":2020}},{"type":"Polygon","arcs":[[506,-41,507,-469,508,509,-380]],"properties":{"code_muni":2707701,"abbrev_state":"AL","name_state":"Alagoas","name_region":"Nordeste","name_muni":"Rio Largo","code_state":27,"code_region":2,"year":2020}},{"type":"Polygon","arcs":[[510,511,512,-288,513,-54,514,-52]],"properties":{"code_muni":2707800,"abbrev_state":"AL","name_state":"Alagoas","name_region":"Nordeste","name_muni":"Roteiro","code_state":27,"code_region":2,"year":2020}},{"type":"Polygon","arcs":[[515,516,-164,517,-322]],"properties":{"code_muni":2707909,"abbrev_state":"AL","name_state":"Alagoas","name_region":"Nordeste","name_muni":"Santa Luzia do Norte","code_state":27,"code_region":2,"year":2020}},{"type":"Polygon","arcs":[[518,-485,519,520,521,-414,522,-190]],"properties":{"code_muni":2708006,"abbrev_state":"AL","name_state":"Alagoas","name_region":"Nordeste","name_muni":"Santana do Ipanema","code_state":27,"code_region":2,"year":2020}},{"type":"Polygon","arcs":[[523,-150,524,525,526]],"properties":{"code_muni":2708105,"abbrev_state":"AL","name_state":"Alagoas","name_region":"Nordeste","name_muni":"Santana do Mundaú","code_state":27,"code_region":2,"year":2020}},{"type":"Polygon","arcs":[[-409,527,528,-498,529]],"properties":{"code_muni":2708204,"abbrev_state":"AL","name_state":"Alagoas","name_region":"Nordeste","name_muni":"São Brás","code_state":27,"code_region":2,"year":2020}},{"type":"Polygon","arcs":[[530,-527,531,532,533,-230]],"properties":{"code_muni":2708303,"abbrev_state":"AL","name_state":"Alagoas","name_region":"Nordeste","name_muni":"São José da Laje","code_state":27,"code_region":2,"year":2020}},{"type":"Polygon","arcs":[[534,535,-479,536,-439,537,-398,-145]],"properties":{"code_muni":2708402,"abbrev_state":"AL","name_state":"Alagoas","name_region":"Nordeste","name_muni":"São José da Tapera","code_state":27,"code_region":2,"year":2020}},{"type":"Polygon","arcs":[[538,-219,539,-44,540,-444,541,-294]],"properties":{"code_muni":2708501,"abbrev_state":"AL","name_state":"Alagoas","name_region":"Nordeste","name_muni":"São Luís do Quitunde","code_state":27,"code_region":2,"year":2020}},{"type":"Polygon","arcs":[[542,-83,543,544,-290,545,-512,546,547,-349,548,-465]],"properties":{"code_muni":2708600,"abbrev_state":"AL","name_state":"Alagoas","name_region":"Nordeste","name_muni":"São Miguel dos Campos","code_state":27,"code_region":2,"year":2020}},{"type":"Polygon","arcs":[[-492,-447,549]],"properties":{"code_muni":2708709,"abbrev_state":"AL","name_state":"Alagoas","name_region":"Nordeste","name_muni":"São Miguel dos Milagres","code_state":27,"code_region":2,"year":2020}},{"type":"Polygon","arcs":[[550,-23,551,-205,552,-501,553,-248,-456,554,555,556,-304]],"properties":{"code_muni":2708808,"abbrev_state":"AL","name_state":"Alagoas","name_region":"Nordeste","name_muni":"São Sebastião","code_state":27,"code_region":2,"year":2020}},{"type":"Polygon","arcs":[[-509,-468,557,-517,558]],"properties":{"code_muni":2708907,"abbrev_state":"AL","name_state":"Alagoas","name_region":"Nordeste","name_muni":"Satuba","code_state":27,"code_region":2,"year":2020}},{"type":"Polygon","arcs":[[559,-481,-253,560,-535,-144,561,562,-483]],"properties":{"code_muni":2708956,"abbrev_state":"AL","name_state":"Alagoas","name_region":"Nordeste","name_muni":"Senador Rui Palmeira","code_state":27,"code_region":2,"year":2020}},{"type":"Polygon","arcs":[[563,-363,-427,564,-70,565,566,567,-8,568,-358]],"properties":{"code_muni":2709004,"abbrev_state":"AL","name_state":"Alagoas","name_region":"Nordeste","name_muni":"Tanque d'Arca","code_state":27,"code_region":2,"year":2020}},{"type":"Polygon","arcs":[[569,-243,570,-157,571,-313,572,-567,573,-68]],"properties":{"code_muni":2709103,"abbrev_state":"AL","name_state":"Alagoas","name_region":"Nordeste","name_muni":"Taquarana","code_state":27,"code_region":2,"year":2020}},{"type":"Polygon","arcs":[[574,-115,575,-306,576,-556,577,-171]],"properties":{"code_muni":2709152,"abbrev_state":"AL","name_state":"Alagoas","name_region":"Nordeste","name_muni":"Teotônio Vilela","code_state":27,"code_region":2,"year":2020}},{"type":"Polygon","arcs":[[578,-281,579,-62,580,-77,581,-528,-408,-122,-223]],"properties":{"code_muni":2709202,"abbrev_state":"AL","name_state":"Alagoas","name_region":"Nordeste","name_muni":"Traipu","code_state":27,"code_region":2,"year":2020}},{"type":"Polygon","arcs":[[582,-533,583,-525,-86,-292,-232]],"properties":{"code_muni":2709301,"abbrev_state":"AL","name_state":"Alagoas","name_region":"Nordeste","name_muni":"União dos Palmares","code_state":27,"code_region":2,"year":2020}},{"type":"Polygon","arcs":[[-135,-149,584,585,-454,586,-473,587,-101]],"properties":{"code_muni":2709400,"abbrev_state":"AL","name_state":"Alagoas","name_region":"Nordeste","name_muni":"Viçosa","code_state":27,"code_region":2,"year":2020}}]}},"arcs":[[[-37.9516408,-9.0974264],[-37.9712002,-9.1243418],[-37.9785629,-9.147662],[-38.0121072,-9.1560431]],[[-38.0121072,-9.1560431],[-38.0077641,-9.1604357],[-38.0032161,-9.1651865],[-37.9889647,-9.1768075],[-37.9832472,-9.1779417],[-37.9714528,-9.2159722],[-37.9837793,-9.2259837],[-37.9802338,-9.2406355],[-37.9760325,-9.3000155],[-37.9832568,-9.3300866],[-38.0002374,-9.3361175]],[[-38.0002374,-9.3361175],[-37.8722833,-9.4066333]],[[-37.8722833,-9.4066333],[-37.8682347,-9.406103]],[[-37.8682347,-9.406103],[-37.8605717,-9.4017127],[-37.8589903,-9.3965541],[-37.8331268,-9.3527327],[-37.8086717,-9.3295839],[-37.7742382,-9.316937],[-37.7707402,-9.2942659]],[[-37.7707402,-9.2942659],[-37.7688245,-9.288778],[-37.9516408,-9.0974264]],[[-36.3460098,-9.5945723],[-36.3921049,-9.6029049]],[[-36.3921049,-9.6029049],[-36.388607,-9.6287729],[-36.3808292,-9.6353672],[-36.3941648,-9.6483676]],[[-36.3941648,-9.6483676],[-36.3789805,-9.658632],[-36.3756321,-9.6662821]],[[-36.3756321,-9.6662821],[-36.3720834,-9.6775267],[-36.3660509,-9.70005],[-36.3445198,-9.7215718]],[[-36.3445198,-9.7215718],[-36.342486,-9.7358809]],[[-36.342486,-9.7358809],[-36.3347698,-9.727349],[-36.310176,-9.72331],[-36.2695589,-9.7310793],[-36.2532167,-9.7297194]],[[-36.2532167,-9.7297194],[-36.239443,-9.6753303],[-36.2548103,-9.6214665]],[[-36.2548103,-9.6214665],[-36.2879722,-9.6088056]],[[-36.2879722,-9.6088056],[-36.3164841,-9.6128198],[-36.3463845,-9.604735],[-36.3460098,-9.5945723]],[[-36.6860715,-9.6354476],[-36.6869856,-9.652108]],[[-36.6869856,-9.652108],[-36.7118748,-9.6633278]],[[-36.7118748,-9.6633278],[-36.7258691,-9.6763088],[-36.7544657,-9.7073736]],[[-36.7544657,-9.7073736],[-36.7199331,-9.7590835],[-36.6938487,-9.8026598]],[[-36.6938487,-9.8026598],[-36.6254081,-9.836932],[-36.6263857,-9.8435261]],[[-36.6263857,-9.8435261],[-36.5959129,-9.8609921]],[[-36.5959129,-9.8609921],[-36.5913435,-9.8714564],[-36.5911648,-9.8785187]],[[-36.5911648,-9.8785187],[-36.5847208,-9.8813163],[-36.541397,-9.8716761],[-36.5548963,-9.8403623]],[[-36.5548963,-9.8403623],[-36.5531713,-9.8390596]],[[-36.5531713,-9.8390596],[-36.5547955,-9.8379998],[-36.5531068,-9.8215144],[-36.5557885,-9.8051714],[-36.5627227,-9.7912214],[-36.5519145,-9.7714266],[-36.5729768,-9.7495164],[-36.5815848,-9.7081979],[-36.5728453,-9.7058486],[-36.5812071,-9.7007256]],[[-36.5812071,-9.7007256],[-36.5842559,-9.7004575]],[[-36.5842559,-9.7004575],[-36.5858615,-9.6946223],[-36.6100036,-9.6655619],[-36.6078758,-9.6565315]],[[-36.6078758,-9.6565315],[-36.611648,-9.6522746]],[[-36.611648,-9.6522746],[-36.6391922,-9.6359594],[-36.6531505,-9.6404372],[-36.6860715,-9.6354476]],[[-35.9288487,-9.3745494],[-36.0143784,-9.400972],[-36.0165478,-9.3973214]],[[-36.0165478,-9.3973214],[-36.0530988,-9.424012]],[[-36.0530988,-9.424012],[-36.1020848,-9.4539052],[-36.1331392,-9.4541692],[-36.1557757,-9.4728736]],[[-36.1557757,-9.4728736],[-36.2080513,-9.4554374]],[[-36.2080513,-9.4554374],[-36.2209528,-9.4842639]],[[-36.2209528,-9.4842639],[-36.2268444,-9.5144972],[-36.2185222,-9.5631917]],[[-36.2185222,-9.5631917],[-36.1916556,-9.60015]],[[-36.1916556,-9.60015],[-36.180925,-9.61225]],[[-36.180925,-9.61225],[-36.1747018,-9.6115227]],[[-36.1747018,-9.6115227],[-36.1573626,-9.6187089],[-36.128344,-9.5993489],[-36.0723545,-9.5986761],[-36.0410267,-9.5838798],[-36.0006583,-9.5744722],[-35.95975,-9.5280389]],[[-35.95975,-9.5280389],[-35.9404328,-9.4980018]],[[-35.9404328,-9.4980018],[-35.9372429,-9.4924921],[-35.933695,-9.4627802],[-35.9308944,-9.4617306]],[[-35.9308944,-9.4617306],[-35.9288487,-9.3745494]],[[-35.5144,-9.3143],[-35.5202373,-9.3237096]],[[-35.5202373,-9.3237096],[-35.5132205,-9.3461081],[-35.53605,-9.3469],[-35.5806967,-9.3592969]],[[-35.5806967,-9.3592969],[-35.69055,-9.371]],[[-35.69055,-9.371],[-35.67665,-9.3985833]],[[-35.67665,-9.3985833],[-35.6659937,-9.3988854],[-35.6548933,-9.4026797],[-35.6407227,-9.4016662],[-35.6210045,-9.4098691],[-35.5687704,-9.4013448],[-35.5495021,-9.4038487],[-35.5415167,-9.4216004],[-35.5346027,-9.4302516],[-35.5314634,-9.4318686],[-35.528029,-9.4365719],[-35.5265841,-9.4409442],[-35.5245918,-9.4426262]],[[-35.5245918,-9.4426262],[-35.4999464,-9.4215149],[-35.4961514,-9.3945298],[-35.4724912,-9.3580331]],[[-35.4724912,-9.3580331],[-35.5144,-9.3143]],[[-36.0045641,-9.7670943],[-36.0281635,-9.8089555]],[[-36.0281635,-9.8089555],[-36.0253527,-9.8122596]],[[-36.0253527,-9.8122596],[-36.0194115,-9.808297],[-36.0102411,-9.8116677],[-35.9623833,-9.8336028]],[[-35.9623833,-9.8336028],[-35.9542705,-9.8432007],[-35.9501307,-9.8452071],[-35.938265,-9.8447789],[-35.9232441,-9.8379649]],[[-35.9232441,-9.8379649],[-35.9047401,-9.855854]],[[-35.9047401,-9.855854],[-35.8871286,-9.8371459],[-35.8552545,-9.7882838]],[[-35.8552545,-9.7882838],[-35.9055892,-9.8118867],[-35.9414063,-9.7878914],[-35.9676601,-9.788194],[-35.9803225,-9.786374],[-35.9887504,-9.7814528],[-36.0007421,-9.7745285],[-36.0045641,-9.7670943]],[[-37.1044556,-9.6074443],[-37.1530041,-9.6175452],[-37.190976,-9.6903912]],[[-37.190976,-9.6903912],[-37.2146177,-9.7026152]],[[-37.2146177,-9.7026152],[-37.2197876,-9.7017007],[-37.2190168,-9.7101607]],[[-37.2190168,-9.7101607],[-37.1847006,-9.7366834],[-37.1674066,-9.7421285],[-37.1552909,-9.7605447],[-37.1030311,-9.7913046],[-37.0638083,-9.7917495],[-37.0564209,-9.8000589],[-37.0481367,-9.8015726]],[[-37.0481367,-9.8015726],[-37.0378753,-9.8072203]],[[-37.0378753,-9.8072203],[-37.0318683,-9.7875321],[-37.0194057,-9.7827652],[-37.0148554,-9.7697744]],[[-37.0148554,-9.7697744],[-37.009092,-9.7693481],[-37.0054109,-9.7645805],[-37.0016966,-9.7629548],[-36.9990309,-9.763693],[-36.9974658,-9.760975],[-36.9998963,-9.7298084],[-36.9935806,-9.7213833],[-37.0596556,-9.6826754]],[[-37.0596556,-9.6826754],[-37.0460389,-9.6201366]],[[-37.0460389,-9.6201366],[-37.1044556,-9.6074443]],[[-36.4951104,-9.4998796],[-36.5180665,-9.5063703],[-36.5247724,-9.5248335]],[[-36.5247724,-9.5248335],[-36.5264371,-9.528419],[-36.5378786,-9.532892]],[[-36.5378786,-9.532892],[-36.4952483,-9.6038833],[-36.4810713,-9.6071671],[-36.4670298,-9.6089623]],[[-36.4670298,-9.6089623],[-36.4467823,-9.6059167]],[[-36.4467823,-9.6059167],[-36.4883639,-9.5021992]],[[-36.4883639,-9.5021992],[-36.4951104,-9.4998796]],[[-37.2190168,-9.7101607],[-37.2216487,-9.720802]],[[-37.2216487,-9.720802],[-37.2360848,-9.7292329]],[[-37.2360848,-9.7292329],[-37.2392301,-9.736301],[-37.2497235,-9.7373648]],[[-37.2497235,-9.7373648],[-37.2590923,-9.7573265],[-37.282986,-9.7707714],[-37.286929,-9.7774621],[-37.3035849,-9.7895167],[-37.3101313,-9.8040406],[-37.2965215,-9.830582]],[[-37.2965215,-9.830582],[-37.2619127,-9.8491387],[-37.2411061,-9.8954489],[-37.1806734,-9.8994168],[-37.1635638,-9.8935522],[-37.1337799,-9.9137652]],[[-37.1337799,-9.9137652],[-37.1180078,-9.8900219],[-37.1183004,-9.8732775],[-37.1034931,-9.8478203],[-37.0401897,-9.807315]],[[-37.0401897,-9.807315],[-37.0481367,-9.8015726]],[[-36.1817539,-9.6127993],[-36.180925,-9.61225]],[[-36.1916556,-9.60015],[-36.2400444,-9.5934722],[-36.2499278,-9.6233306]],[[-36.2499278,-9.6233306],[-36.2548103,-9.6214665]],[[-36.2532167,-9.7297194],[-36.2471417,-9.7321248]],[[-36.2471417,-9.7321248],[-36.1795917,-9.7223194],[-36.0733889,-9.7008333],[-36.0794009,-9.6802828]],[[-36.0794009,-9.6802828],[-36.0774946,-9.6716533]],[[-36.0774946,-9.6716533],[-36.0889079,-9.6593198],[-36.0944126,-9.655922],[-36.1408839,-9.6454444],[-36.1513014,-9.6284919],[-36.1817539,-9.6127993]],[[-35.888572,-9.1383084],[-36.0590388,-9.2159571],[-36.0880348,-9.201245],[-36.1138576,-9.2081107],[-36.1274776,-9.2015243],[-36.2008278,-9.2187583]],[[-36.2008278,-9.2187583],[-36.1455778,-9.2403944],[-36.097475,-9.2636056],[-36.0814333,-9.2659056],[-36.0616556,-9.2756694],[-36.0449194,-9.2771306],[-36.04265,-9.2810139]],[[-36.04265,-9.2810139],[-36.0024389,-9.2657972]],[[-36.0024389,-9.2657972],[-35.888572,-9.1383084]],[[-36.9796404,-9.3593283],[-36.9941597,-9.3743042],[-37.0227811,-9.3695959],[-37.0279801,-9.3860994]],[[-37.0279801,-9.3860994],[-37.0397139,-9.4178333]],[[-37.0397139,-9.4178333],[-37.0206314,-9.4142787],[-37.019697,-9.4262385],[-37.0191372,-9.4356121],[-36.9796568,-9.4861268],[-36.915908,-9.5227681],[-36.8782021,-9.5337974],[-36.8592043,-9.5465718],[-36.8525559,-9.5388917],[-36.843848,-9.5317071]],[[-36.843848,-9.5317071],[-36.8367675,-9.5198431]],[[-36.8367675,-9.5198431],[-36.8380023,-9.5137329]],[[-36.8380023,-9.5137329],[-36.831145,-9.5015138]],[[-36.831145,-9.5015138],[-36.8433106,-9.4865367],[-36.8457759,-9.4422004],[-36.8293068,-9.4280618],[-36.8300574,-9.3972515]],[[-36.8300574,-9.3972515],[-36.8265364,-9.3909593]],[[-36.8265364,-9.3909593],[-36.9014221,-9.3977768],[-36.9368499,-9.3774254]],[[-36.9368499,-9.3774254],[-36.9524337,-9.3825434],[-36.9796404,-9.3593283]],[[-36.1557757,-9.4728736],[-36.1596415,-9.4675296],[-36.1230777,-9.3756443],[-36.1202238,-9.3311375],[-36.1543778,-9.3053395]],[[-36.1543778,-9.3053395],[-36.2064076,-9.4456801],[-36.2111239,-9.4529979]],[[-36.2111239,-9.4529979],[-36.207286,-9.4538444]],[[-36.207286,-9.4538444],[-36.2080513,-9.4554374]],[[-35.5482525,-8.8444724],[-35.5747579,-8.8477744]],[[-35.5747579,-8.8477744],[-35.57688,-8.8538852],[-35.5819935,-8.8614666],[-35.5851233,-8.8856531]],[[-35.5851233,-8.8856531],[-35.5769492,-8.914147]],[[-35.5769492,-8.914147],[-35.5517415,-8.9052511],[-35.527443,-8.9388468],[-35.512604,-8.9486623],[-35.5017578,-8.9479913],[-35.4976987,-8.9467724]],[[-35.4976987,-8.9467724],[-35.49653,-8.9322934]],[[-35.49653,-8.9322934],[-35.4968876,-8.9101513],[-35.5026767,-8.8875882],[-35.5368757,-8.8878832],[-35.5482525,-8.8444724]],[[-36.342486,-9.7358809],[-36.3475593,-9.7489701]],[[-36.3475593,-9.7489701],[-36.3595973,-9.7692867],[-36.3935654,-9.7741103]],[[-36.3935654,-9.7741103],[-36.3971565,-9.7899234]],[[-36.3971565,-9.7899234],[-36.3535423,-9.8341946],[-36.3131249,-9.8869123]],[[-36.3131249,-9.8869123],[-36.2778826,-9.8922952]],[[-36.2778826,-9.8922952],[-36.2772783,-9.8997067]],[[-36.2772783,-9.8997067],[-36.280899,-9.9346687],[-36.1782971,-9.8892772]],[[-36.1782971,-9.8892772],[-36.1817773,-9.8796759],[-36.2397887,-9.8717544],[-36.2196365,-9.8368597],[-36.1973268,-9.836514],[-36.1929962,-9.8011068]],[[-36.1929962,-9.8011068],[-36.1840286,-9.800427],[-36.1854852,-9.7947726],[-36.2415845,-9.7394746]],[[-36.2415845,-9.7394746],[-36.2532167,-9.7297194]],[[-36.7498147,-9.8827867],[-36.7520979,-9.8869776]],[[-36.7520979,-9.8869776],[-36.7711071,-9.9090093],[-36.7853078,-9.9231341],[-36.7981914,-9.958063]],[[-36.7981914,-9.958063],[-36.8107497,-9.9835284],[-36.8430809,-10.0101999]],[[-36.8430809,-10.0101999],[-36.809501,-10.0098051],[-36.7939425,-10.0117323],[-36.7875834,-10.0220285]],[[-36.7875834,-10.0220285],[-36.7131199,-10.0457271],[-36.7051097,-10.0195886]],[[-36.7051097,-10.0195886],[-36.7068511,-10.0110103]],[[-36.7068511,-10.0110103],[-36.7069405,-10.0005926],[-36.6867636,-9.9651647],[-36.6834862,-9.9544752],[-36.6759658,-9.9477843]],[[-36.6759658,-9.9477843],[-36.6933771,-9.9143665],[-36.7013618,-9.9099295],[-36.7272274,-9.9036858],[-36.7498147,-9.8827867]],[[-37.3937895,-9.0382883],[-37.3961404,-9.0201121],[-37.4165025,-9.0065641],[-37.4681995,-8.9985786],[-37.4923447,-8.9875552],[-37.4965078,-8.9715159],[-37.5191111,-8.9683333]],[[-37.5191111,-8.9683333],[-37.5460167,-9.0003333],[-37.5890833,-9.05975],[-37.6373889,-9.1083056],[-37.6594833,-9.1376556],[-37.6632222,-9.1593889],[-37.6824583,-9.1790389]],[[-37.6824583,-9.1790389],[-37.6218843,-9.193002],[-37.6082577,-9.2319239],[-37.6183274,-9.2466274],[-37.6097792,-9.2522289],[-37.6073181,-9.258442],[-37.6088289,-9.2731124],[-37.5971397,-9.2840891]],[[-37.5971397,-9.2840891],[-37.5802645,-9.2863299]],[[-37.5802645,-9.2863299],[-37.5317107,-9.2599682],[-37.5202002,-9.2444666],[-37.4800751,-9.2238606],[-37.4756348,-9.2110177],[-37.4443725,-9.1925813]],[[-37.4443725,-9.1925813],[-37.4333738,-9.1754978]],[[-37.4333738,-9.1754978],[-37.4288477,-9.1713931],[-37.4252468,-9.1553425],[-37.4263661,-9.1208204],[-37.4198894,-9.0893535],[-37.415205,-9.0720536],[-37.3937895,-9.0382883]],[[-36.2008278,-9.2187583],[-36.1543778,-9.3053395]],[[-36.0530988,-9.424012],[-35.9961444,-9.3836046]],[[-35.9961444,-9.3836046],[-36.0081674,-9.3668416],[-36.0009073,-9.3213978],[-36.0365736,-9.3421121],[-36.0539019,-9.3213075],[-36.0405882,-9.3082431],[-36.0576427,-9.2872729]],[[-36.0576427,-9.2872729],[-36.04265,-9.2810139]],[[-37.3730977,-9.5247824],[-37.3802929,-9.5028808],[-37.32078,-9.4684153]],[[-37.32078,-9.4684153],[-37.2701807,-9.4573419]],[[-37.2701807,-9.4573419],[-37.2689957,-9.4544578]],[[-37.2689957,-9.4544578],[-37.318562,-9.4205765]],[[-37.318562,-9.4205765],[-37.4498674,-9.4533125]],[[-37.4498674,-9.4533125],[-37.4453383,-9.4766277]],[[-37.4453383,-9.4766277],[-37.3730977,-9.5247824]],[[-36.2915064,-9.1740884],[-36.3215198,-9.1853806],[-36.3276442,-9.2007677],[-36.3559327,-9.2183859]],[[-36.3559327,-9.2183859],[-36.3405707,-9.2404287],[-36.3311264,-9.2750483],[-36.3258782,-9.2781972],[-36.3243412,-9.2804465]],[[-36.3243412,-9.2804465],[-36.3222179,-9.2893992]],[[-36.3222179,-9.2893992],[-36.2993269,-9.3123923],[-36.2367751,-9.2913085],[-36.2008278,-9.2187583]],[[-36.2008278,-9.2187583],[-36.2685278,-9.1922778],[-36.283746,-9.182768],[-36.2915064,-9.1740884]],[[-36.5721914,-9.5636337],[-36.5882449,-9.5722774]],[[-36.5882449,-9.5722774],[-36.5927907,-9.5709596],[-36.5966898,-9.5677281],[-36.5996589,-9.5692859],[-36.6015703,-9.5729963],[-36.6207672,-9.5871979],[-36.6143381,-9.6090184],[-36.6219127,-9.6304598],[-36.6086895,-9.6358453],[-36.6063982,-9.6534724]],[[-36.6063982,-9.6534724],[-36.6078758,-9.6565315]],[[-36.5842559,-9.7004575],[-36.566414,-9.6823221]],[[-36.566414,-9.6823221],[-36.5361053,-9.6630752]],[[-36.5361053,-9.6630752],[-36.5422506,-9.6446096]],[[-36.5422506,-9.6446096],[-36.5511882,-9.620715],[-36.5721914,-9.5636337]],[[-35.6519858,-8.8822565],[-35.6712041,-8.896634],[-35.7137008,-8.9047978],[-35.748399,-8.9171517],[-35.7829807,-8.8975421],[-35.7769157,-8.8692653],[-35.7962097,-8.8473997],[-35.8079002,-8.8603886],[-35.8221505,-8.8569221],[-35.8254974,-8.8638335],[-35.8244689,-8.8686524],[-35.8269523,-8.8700942],[-35.8353295,-8.9447076]],[[-35.8353295,-8.9447076],[-35.8345667,-8.984289]],[[-35.8345667,-8.984289],[-35.7568674,-9.0095169],[-35.6813327,-9.0296809]],[[-35.6813327,-9.0296809],[-35.6819498,-9.0256774],[-35.6790317,-9.0196155]],[[-35.6790317,-9.0196155],[-35.7170378,-9.0153295],[-35.7135725,-8.9755003],[-35.6782449,-8.9443884],[-35.6810954,-8.9341351],[-35.6460975,-8.8967491],[-35.6519858,-8.8822565]],[[-35.7913756,-9.6021584],[-35.7935222,-9.6001361]],[[-35.7935222,-9.6001361],[-35.8037111,-9.6064222],[-35.8125833,-9.6168667],[-35.8231889,-9.6382917],[-35.8312718,-9.6392958],[-35.8465871,-9.6383769],[-35.8676422,-9.626294]],[[-35.8676422,-9.626294],[-35.8676819,-9.6408598]],[[-35.8676819,-9.6408598],[-35.8644636,-9.654837],[-35.8257228,-9.6570643],[-35.8102313,-9.6621231],[-35.8023109,-9.6778616],[-35.7911627,-9.6805799]],[[-35.7911627,-9.6805799],[-35.7855241,-9.66952]],[[-35.7855241,-9.66952],[-35.7694051,-9.6389625],[-35.7715988,-9.6320502],[-35.7913756,-9.6021584]],[[-36.0307721,-10.0470455],[-36.0566005,-10.0419357],[-36.0565118,-10.0118239],[-36.0739923,-10.0032884],[-36.0823171,-9.9796873],[-36.1158563,-9.9396387],[-36.1239107,-9.9336604],[-36.2809505,-9.9350507]],[[-36.2809505,-9.9350507],[-36.2911857,-10.0002678]],[[-36.2911857,-10.0002678],[-36.3046607,-10.0313797]],[[-36.3046607,-10.0313797],[-36.4527333,-10.041168]],[[-36.4527333,-10.041168],[-36.4486612,-10.0601879],[-36.4142969,-10.0839892],[-36.3997125,-10.1017924],[-36.3782373,-10.1039973],[-36.3620496,-10.1215877],[-36.3601585,-10.1572174],[-36.3433843,-10.164738],[-36.338152,-10.1859159],[-36.3519706,-10.2126316],[-36.356828,-10.2204224],[-36.3713222,-10.2302583]],[[-36.3713222,-10.2302583],[-36.2596309,-10.2640539]],[[-36.2596309,-10.2640539],[-36.2150757,-10.2200662],[-36.1855036,-10.1989225],[-36.1703186,-10.174948],[-36.1445625,-10.1555459],[-36.1338498,-10.1597979],[-36.109228,-10.1300201],[-36.088346,-10.0939972],[-36.0451293,-10.0742703],[-36.0307721,-10.0470455]],[[-36.8161397,-9.5602039],[-36.8366909,-9.5571923]],[[-36.8366909,-9.5571923],[-36.842598,-9.5665654],[-36.8492173,-9.5696175],[-36.8754657,-9.5927832]],[[-36.8754657,-9.5927832],[-36.8942223,-9.6072783]],[[-36.8942223,-9.6072783],[-36.9039007,-9.6275109]],[[-36.9039007,-9.6275109],[-36.8745712,-9.6467734],[-36.8683599,-9.6639991],[-36.8294933,-9.6809995],[-36.8159454,-9.6918692],[-36.7992197,-9.7082777]],[[-36.7992197,-9.7082777],[-36.7745964,-9.7295743]],[[-36.7745964,-9.7295743],[-36.7341818,-9.6850041],[-36.7118748,-9.6633278]],[[-36.6869856,-9.652108],[-36.6851952,-9.6194787]],[[-36.6851952,-9.6194787],[-36.7110256,-9.5851982],[-36.7262831,-9.5845304],[-36.7553451,-9.575523],[-36.7639213,-9.5579851],[-36.7773627,-9.5538105],[-36.7974016,-9.5576246],[-36.8161397,-9.5602039]],[[-37.8747586,-9.419234],[-37.8722833,-9.4066333]],[[-37.8722833,-9.4066333],[-38.156374,-9.2500702]],[[-38.156374,-9.2500702],[-38.1579827,-9.2638296],[-38.179554,-9.2912502],[-38.2030806,-9.2969016],[-38.23759,-9.3297945],[-38.205573,-9.3636489],[-38.1941767,-9.3943858],[-38.2047642,-9.4186743],[-38.1572696,-9.4403982],[-38.1181198,-9.4422607],[-38.1089424,-9.4356214],[-38.0777597,-9.4411067],[-38.0678462,-9.4585026],[-38.0221548,-9.4699909],[-37.9979494,-9.4992833],[-37.9893302,-9.5273587],[-37.9562952,-9.5340827],[-37.9224297,-9.5478353],[-37.8941417,-9.5395273]],[[-37.8941417,-9.5395273],[-37.8907476,-9.5245302],[-37.8942315,-9.5178719],[-37.8924167,-9.4532716],[-37.8892559,-9.4430384],[-37.8747586,-9.419234]],[[-36.9796404,-9.3593283],[-37.0033646,-9.3526135],[-37.0242898,-9.315715],[-37.0595827,-9.3185366]],[[-37.0595827,-9.3185366],[-37.0795628,-9.3219383],[-37.0893594,-9.3481699],[-37.1027244,-9.3616803],[-37.1452806,-9.4219368],[-37.1488624,-9.4359708]],[[-37.1488624,-9.4359708],[-37.117728,-9.4376991]],[[-37.117728,-9.4376991],[-37.1045763,-9.4605719]],[[-37.1045763,-9.4605719],[-37.0385892,-9.4168446],[-37.0279801,-9.3860994]],[[-36.831145,-9.5015138],[-36.7928389,-9.4866139]],[[-36.7928389,-9.4866139],[-36.708904,-9.484833]],[[-36.708904,-9.484833],[-36.7212517,-9.4684111],[-36.7238626,-9.3902994],[-36.7173015,-9.3875658],[-36.7142232,-9.3680186],[-36.7203873,-9.3629753],[-36.7204142,-9.3484701],[-36.7124985,-9.3139969],[-36.6997475,-9.2930058]],[[-36.6997475,-9.2930058],[-36.7617725,-9.271457],[-36.7968326,-9.2804232]],[[-36.7968326,-9.2804232],[-36.7983114,-9.350612],[-36.8029169,-9.3680532]],[[-36.8029169,-9.3680532],[-36.8300574,-9.3972515]],[[-36.6907493,-9.8042435],[-36.7345894,-9.8675464],[-36.7470228,-9.8774462]],[[-36.7470228,-9.8774462],[-36.7498147,-9.8827867]],[[-36.6759658,-9.9477843],[-36.6743809,-9.9691774]],[[-36.6743809,-9.9691774],[-36.667568,-9.9716032]],[[-36.667568,-9.9716032],[-36.6404118,-9.9853209]],[[-36.6404118,-9.9853209],[-36.6291938,-9.9788213],[-36.6312728,-9.9723802],[-36.6135268,-9.9510766],[-36.6146911,-9.9120936],[-36.603412,-9.9025071],[-36.6042242,-9.8726495],[-36.5950846,-9.8728257],[-36.591307,-9.871587]],[[-36.591307,-9.871587],[-36.5964775,-9.8664698],[-36.5959129,-9.8609921]],[[-36.6263857,-9.8435261],[-36.625004,-9.8375209],[-36.6907493,-9.8042435]],[[-36.3713222,-10.2302583],[-36.3728514,-10.233021],[-36.3828326,-10.2346896],[-36.3986007,-10.2483891],[-36.386685,-10.2694894],[-36.3814347,-10.2807812],[-36.3898016,-10.3079424]],[[-36.3898016,-10.3079424],[-36.3930972,-10.3098139]],[[-36.3930972,-10.3098139],[-36.3013825,-10.3445564]],[[-36.3013825,-10.3445564],[-36.2938376,-10.3046159],[-36.2596309,-10.2640539]],[[-35.7029832,-9.2297015],[-35.725549,-9.1235593],[-35.7453067,-9.1363746],[-35.7613641,-9.1419315]],[[-35.7613641,-9.1419315],[-35.7693175,-9.1470786],[-35.7845078,-9.1549212],[-35.8029059,-9.1568598],[-35.8086596,-9.1579763],[-35.8126113,-9.1580208],[-35.8151797,-9.1598607],[-35.8205959,-9.1566151],[-35.8236719,-9.1526267],[-35.8329964,-9.1500431],[-35.8656583,-9.1382559],[-35.888572,-9.1383084]],[[-35.888572,-9.1383084],[-35.8345364,-9.2356573]],[[-35.8345364,-9.2356573],[-35.836351,-9.2645425]],[[-35.836351,-9.2645425],[-35.8045495,-9.266542],[-35.769017,-9.3090066]],[[-35.769017,-9.3090066],[-35.7696055,-9.3895934]],[[-35.7696055,-9.3895934],[-35.6864845,-9.3705663]],[[-35.6864845,-9.3705663],[-35.6933197,-9.2602569],[-35.7029832,-9.2297015]],[[-36.9205576,-9.6276121],[-36.9333998,-9.6262883],[-36.9413066,-9.6277056],[-36.9459685,-9.6326235],[-36.9462406,-9.6348584],[-36.9424426,-9.6410101],[-36.9520354,-9.6429137]],[[-36.9520354,-9.6429137],[-36.9523948,-9.6621383],[-36.9655744,-9.6762364]],[[-36.9655744,-9.6762364],[-36.9692048,-9.6939875]],[[-36.9692048,-9.6939875],[-36.8855183,-9.7459072],[-36.8975357,-9.7733624],[-36.9042557,-9.8092957],[-36.9306024,-9.8225642],[-36.9341272,-9.8420199],[-36.9495375,-9.8586374],[-36.9251718,-9.88942],[-36.9018736,-9.8977991],[-36.826536,-9.9456852],[-36.7981914,-9.958063]],[[-36.7520979,-9.8869776],[-36.7470228,-9.8774462]],[[-36.7470228,-9.8774462],[-36.7661399,-9.8528251],[-36.7584448,-9.838721],[-36.766885,-9.7981941],[-36.7434712,-9.7640401]],[[-36.7434712,-9.7640401],[-36.7897665,-9.7125035],[-36.7992197,-9.7082777]],[[-36.9039007,-9.6275109],[-36.9182071,-9.6258719]],[[-36.9182071,-9.6258719],[-36.9205576,-9.6276121]],[[-35.8353295,-8.9447076],[-35.8265719,-8.8704172],[-35.8273894,-8.8697143],[-35.8305839,-8.8684866],[-35.8370508,-8.8687416],[-35.8491388,-8.8718121],[-35.863866,-8.8579702],[-35.9114175,-8.8612891],[-35.924276,-8.8846275],[-35.9425353,-8.8855993],[-35.9626324,-8.9012079],[-35.9883607,-8.9040247]],[[-35.9883607,-8.9040247],[-35.9815235,-8.9090688],[-35.9737147,-8.919191],[-35.9534754,-8.9466182],[-35.9523683,-8.9884261],[-35.9587965,-9.0050051]],[[-35.9587965,-9.0050051],[-35.9491367,-9.0347851]],[[-35.9491367,-9.0347851],[-35.9467781,-9.0345915],[-35.9379931,-9.0327515],[-35.9064311,-9.0481281],[-35.9021399,-9.059496],[-35.8924463,-9.0669371],[-35.884299,-9.0669682],[-35.8605134,-9.0534903]],[[-35.8605134,-9.0534903],[-35.8345667,-8.984289]],[[-36.5700861,-9.4860722],[-36.6155611,-9.4821417],[-36.6391278,-9.500725],[-36.6875611,-9.4843972]],[[-36.6875611,-9.4843972],[-36.7928389,-9.4866139]],[[-36.7928389,-9.4866139],[-36.8380023,-9.5137329]],[[-36.8367675,-9.5198431],[-36.8386134,-9.5411826]],[[-36.8386134,-9.5411826],[-36.833282,-9.5450299]],[[-36.833282,-9.5450299],[-36.8161397,-9.5602039]],[[-36.6851952,-9.6194787],[-36.6860715,-9.6354476]],[[-36.611648,-9.6522746],[-36.6063982,-9.6534724]],[[-36.5882449,-9.5722774],[-36.5756729,-9.5640749]],[[-36.5756729,-9.5640749],[-36.5556374,-9.5393277],[-36.5422643,-9.5344956]],[[-36.5422643,-9.5344956],[-36.5700861,-9.4860722]],[[-36.6559746,-10.0343356],[-36.6708277,-10.0662152],[-36.6836109,-10.1259155],[-36.7280829,-10.1420802],[-36.7296034,-10.1934594],[-36.7204038,-10.2649115]],[[-36.7204038,-10.2649115],[-36.6914611,-10.2715844],[-36.6577102,-10.2679123],[-36.6319212,-10.2521525]],[[-36.6319212,-10.2521525],[-36.6599384,-10.2467272],[-36.6137841,-10.1996699],[-36.5236447,-10.1765057],[-36.5043823,-10.1259117],[-36.5020844,-10.0946185],[-36.4913613,-10.0710942]],[[-36.4913613,-10.0710942],[-36.5095824,-10.0686186],[-36.5172162,-10.0405194]],[[-36.5172162,-10.0405194],[-36.6559746,-10.0343356]],[[-37.6824583,-9.1790389],[-37.73147,-9.1837551],[-37.7436464,-9.1967019],[-37.7919642,-9.1938014],[-37.8333585,-9.221231]],[[-37.8333585,-9.221231],[-37.654158,-9.4087979]],[[-37.654158,-9.4087979],[-37.6521706,-9.4063178]],[[-37.6521706,-9.4063178],[-37.6355146,-9.3761536],[-37.6166276,-9.355769],[-37.5877469,-9.2958684]],[[-37.5877469,-9.2958684],[-37.5882307,-9.286831]],[[-37.5882307,-9.286831],[-37.5971397,-9.2840891]],[[-37.1538352,-9.6129566],[-37.1602476,-9.6031519],[-37.2592968,-9.5723198],[-37.2562911,-9.5794108]],[[-37.2562911,-9.5794108],[-37.2442228,-9.5898282]],[[-37.2442228,-9.5898282],[-37.2360986,-9.6054274],[-37.252583,-9.6328415],[-37.2857784,-9.636615]],[[-37.2857784,-9.636615],[-37.3030574,-9.6360277]],[[-37.3030574,-9.6360277],[-37.2883987,-9.6865509],[-37.2404621,-9.7360187]],[[-37.2404621,-9.7360187],[-37.2360848,-9.7292329]],[[-37.2216487,-9.720802],[-37.2183434,-9.7077424],[-37.2146177,-9.7026152]],[[-37.190976,-9.6903912],[-37.1538352,-9.6129566]],[[-35.3507547,-8.8607129],[-35.3945703,-8.849836],[-35.4112256,-8.836231],[-35.4598277,-8.8377745],[-35.4722268,-8.8171558],[-35.4957537,-8.8283023],[-35.517771,-8.8167578],[-35.5482525,-8.8444724]],[[-35.49653,-8.9322934],[-35.4911333,-8.9423]],[[-35.4911333,-8.9423],[-35.4538833,-8.9499548]],[[-35.4538833,-8.9499548],[-35.4218805,-8.9206895],[-35.3783795,-8.9685026],[-35.366396,-8.943392]],[[-35.366396,-8.943392],[-35.3691262,-8.9374631]],[[-35.3691262,-8.9374631],[-35.372073,-8.9123704],[-35.3507547,-8.8607129]],[[-35.3022505,-9.0291827],[-35.3360726,-9.0318883]],[[-35.3360726,-9.0318883],[-35.335464,-9.0482536],[-35.3377647,-9.0631398],[-35.3259572,-9.1202729],[-35.3122484,-9.1470135]],[[-35.3122484,-9.1470135],[-35.3084881,-9.147712]],[[-35.3084881,-9.147712],[-35.2986234,-9.1449819],[-35.2940127,-9.1522227]],[[-35.2940127,-9.1522227],[-35.2701829,-9.1224937],[-35.2446335,-9.0695225]],[[-35.2446335,-9.0695225],[-35.251842,-9.0732384],[-35.2609869,-9.068854],[-35.2869876,-9.034183]],[[-35.2869876,-9.034183],[-35.3022505,-9.0291827]],[[-36.8942223,-9.6072783],[-36.8873835,-9.5992079]],[[-36.8873835,-9.5992079],[-37.0013331,-9.6298328]],[[-37.0013331,-9.6298328],[-37.0460389,-9.6201366]],[[-37.0596556,-9.6826754],[-36.9929782,-9.7212355],[-36.986297,-9.7177922]],[[-36.986297,-9.7177922],[-36.9788992,-9.7025005]],[[-36.9788992,-9.7025005],[-36.9655744,-9.6762364]],[[-36.9520354,-9.6429137],[-36.946353,-9.6342955],[-36.9431043,-9.629121],[-36.9345677,-9.6257477],[-36.9205576,-9.6276121]],[[-36.9182071,-9.6258719],[-36.8942223,-9.6072783]],[[-36.176969,-9.8126028],[-36.1929962,-9.8011068]],[[-36.1782971,-9.8892772],[-36.2809505,-9.9350507]],[[-36.0307721,-10.0470455],[-36.0044461,-10.0047702],[-35.9751913,-9.9665497],[-35.9626554,-9.9406615]],[[-35.9626554,-9.9406615],[-35.9845997,-9.9123738],[-35.9992602,-9.9156082],[-36.0281008,-9.8929068]],[[-36.0281008,-9.8929068],[-36.0409793,-9.8583648]],[[-36.0409793,-9.8583648],[-36.0650854,-9.8756703],[-36.1257625,-9.8376579],[-36.1449094,-9.8568442],[-36.1562615,-9.8596298],[-36.1665486,-9.8404255],[-36.1712534,-9.8263713],[-36.176969,-9.8126028]],[[-35.7090184,-9.0483386],[-35.6868536,-9.0364091],[-35.6813327,-9.0296809]],[[-35.8605134,-9.0534903],[-35.888572,-9.1383084]],[[-35.7613641,-9.1419315],[-35.7426669,-9.1350891],[-35.7259547,-9.1237321],[-35.7251071,-9.1252435]],[[-35.7251071,-9.1252435],[-35.7118674,-9.11372],[-35.6892264,-9.1021864],[-35.6668258,-9.1087538],[-35.6499837,-9.1209384],[-35.6298221,-9.124857],[-35.6212101,-9.1307258]],[[-35.6212101,-9.1307258],[-35.5800649,-9.1578119]],[[-35.5800649,-9.1578119],[-35.6291829,-9.0922133]],[[-35.6291829,-9.0922133],[-35.6866511,-9.0996661],[-35.7052213,-9.0826671],[-35.7072821,-9.062617],[-35.7110115,-9.0577142],[-35.7118485,-9.0537987],[-35.7090184,-9.0483386]],[[-35.5769492,-8.914147],[-35.57945,-8.91695]],[[-35.57945,-8.91695],[-35.5876701,-8.9564263],[-35.583458,-8.9591661],[-35.5843964,-8.9671737],[-35.5832738,-8.9743107],[-35.5705273,-8.9859984],[-35.56455,-9.01025]],[[-35.56455,-9.01025],[-35.5405333,-9.0174167],[-35.4538833,-8.9499548]],[[-35.4911333,-8.9423],[-35.4976987,-8.9467724]],[[-36.4144339,-9.7774472],[-36.4653954,-9.7870874],[-36.4738309,-9.8028749],[-36.5260374,-9.8032483]],[[-36.5260374,-9.8032483],[-36.5415239,-9.8418664]],[[-36.5415239,-9.8418664],[-36.5155004,-9.8595531],[-36.5036405,-9.8564769],[-36.5005156,-9.8632903],[-36.4963827,-9.8801015],[-36.4877244,-9.9161459],[-36.4710017,-9.9389767]],[[-36.4710017,-9.9389767],[-36.4789699,-9.9600083]],[[-36.4789699,-9.9600083],[-36.4688583,-9.9710461],[-36.448432,-9.9604087],[-36.3987158,-9.8871419],[-36.3954261,-9.8744303]],[[-36.3954261,-9.8744303],[-36.3131249,-9.8869123]],[[-36.3971565,-9.7899234],[-36.4144339,-9.7774472]],[[-36.7544657,-9.7073736],[-36.7745964,-9.7295743]],[[-36.7745964,-9.7295743],[-36.7434712,-9.7640401]],[[-36.6907493,-9.8042435],[-36.6938487,-9.8026598]],[[-36.3756321,-9.6662821],[-36.3794419,-9.6576847],[-36.3883307,-9.651682]],[[-36.3883307,-9.651682],[-36.46722,-9.6747607],[-36.5101874,-9.6922867],[-36.5264429,-9.6881095]],[[-36.5264429,-9.6881095],[-36.5361053,-9.6630752]],[[-36.566414,-9.6823221],[-36.5812071,-9.7007256]],[[-36.5531713,-9.8390596],[-36.5260374,-9.8032483]],[[-36.4144339,-9.7774472],[-36.3935654,-9.7741103]],[[-36.3475593,-9.7489701],[-36.3445198,-9.7215718]],[[-35.69055,-9.371],[-35.7696055,-9.3895934]],[[-35.7696055,-9.3895934],[-35.7967038,-9.5315255]],[[-35.7967038,-9.5315255],[-35.8088611,-9.5819528]],[[-35.8088611,-9.5819528],[-35.8029972,-9.5878056],[-35.8028675,-9.5923677]],[[-35.8028675,-9.5923677],[-35.7955753,-9.5963927],[-35.7913756,-9.6021584]],[[-35.7855241,-9.66952],[-35.7855407,-9.7014784]],[[-35.7855407,-9.7014784],[-35.7898406,-9.7111735]],[[-35.7898406,-9.7111735],[-35.7603934,-9.682562],[-35.7094416,-9.6657871],[-35.6909071,-9.6198769],[-35.6508767,-9.5686209],[-35.5913367,-9.5288975],[-35.57929,-9.502851],[-35.5584903,-9.4875297]],[[-35.5584903,-9.4875297],[-35.5840428,-9.4698338],[-35.6176283,-9.4696774],[-35.6257967,-9.447966],[-35.651987,-9.4359518],[-35.6657362,-9.4262531],[-35.67665,-9.3985833]],[[-37.0397139,-9.4178333],[-37.1047916,-9.4607203],[-37.105867,-9.4657903]],[[-37.105867,-9.4657903],[-37.1031038,-9.4803871],[-37.1088524,-9.5057373],[-37.1131781,-9.520283],[-37.1165045,-9.5290114]],[[-37.1165045,-9.5290114],[-37.1529684,-9.6175351]],[[-37.1529684,-9.6175351],[-37.1044556,-9.6074443]],[[-37.1044556,-9.6074443],[-37.0013331,-9.6298328]],[[-36.8873835,-9.5992079],[-36.8754657,-9.5927832]],[[-36.8366909,-9.5571923],[-36.833282,-9.5450299]],[[-36.8386134,-9.5411826],[-36.843848,-9.5317071]],[[-35.3691262,-8.9374631],[-35.3644062,-8.9449749]],[[-35.3644062,-8.9449749],[-35.3540154,-8.9636245],[-35.3583509,-8.9811906],[-35.3363181,-9.0087869],[-35.3100495,-9.0248759]],[[-35.3100495,-9.0248759],[-35.3022505,-9.0291827]],[[-35.2869876,-9.034183],[-35.2619823,-9.0679531],[-35.2515953,-9.0732058],[-35.2446335,-9.0695225]],[[-35.2446335,-9.0695225],[-35.2208437,-9.0137702],[-35.1810715,-8.9774385],[-35.1667463,-8.934898],[-35.1519022,-8.9151006],[-35.1682513,-8.8924711],[-35.209094,-8.8917637],[-35.2378375,-8.8827229],[-35.2527821,-8.887233],[-35.3507547,-8.8607129]],[[-37.229226,-9.2268537],[-37.2470816,-9.1790184],[-37.278488,-9.1525001]],[[-37.278488,-9.1525001],[-37.3134886,-9.1970537],[-37.4362934,-9.1837368]],[[-37.4362934,-9.1837368],[-37.4443725,-9.1925813]],[[-37.5802645,-9.2863299],[-37.5882307,-9.286831]],[[-37.5882307,-9.286831],[-37.527903,-9.3030378],[-37.3991926,-9.3324988],[-37.4145343,-9.2894659],[-37.3354527,-9.2672262],[-37.229226,-9.2268537]],[[-35.8676819,-9.6408598],[-35.8681144,-9.6253881]],[[-35.8681144,-9.6253881],[-35.8882397,-9.6479063],[-35.9442186,-9.6392492],[-35.9785467,-9.6438012],[-35.98691,-9.6624939],[-36.0197942,-9.6597919],[-36.0358665,-9.6777718],[-36.0370312,-9.685261],[-36.0338597,-9.6899703],[-36.0321563,-9.6985166],[-36.0336621,-9.7014191]],[[-36.0336621,-9.7014191],[-36.0242232,-9.7009969]],[[-36.0242232,-9.7009969],[-35.9874597,-9.7033641],[-35.9893001,-9.7386444]],[[-35.9893001,-9.7386444],[-36.0045641,-9.7670943]],[[-35.8552545,-9.7882838],[-35.8127588,-9.729734],[-35.7898406,-9.7111735]],[[-35.7855407,-9.7014784],[-35.7911627,-9.6805799]],[[-36.2185222,-9.5631917],[-36.2267199,-9.5152261],[-36.2209528,-9.4842639]],[[-36.2209528,-9.4842639],[-36.2555694,-9.5188083],[-36.2961222,-9.5191333],[-36.3100118,-9.520805],[-36.3291097,-9.5101573]],[[-36.3291097,-9.5101573],[-36.3358035,-9.5134631],[-36.3514028,-9.5068528]],[[-36.3514028,-9.5068528],[-36.3862019,-9.5067569]],[[-36.3862019,-9.5067569],[-36.3838229,-9.5125858]],[[-36.3838229,-9.5125858],[-36.3753164,-9.5281431],[-36.3818944,-9.560997],[-36.3570562,-9.5854268],[-36.3531992,-9.5885247]],[[-36.3531992,-9.5885247],[-36.3460098,-9.5945723]],[[-36.2879722,-9.6088056],[-36.2499278,-9.6233306]],[[-36.390601,-9.4244056],[-36.4631868,-9.4538534]],[[-36.4631868,-9.4538534],[-36.4566271,-9.4663851],[-36.4659647,-9.4793174],[-36.4684155,-9.4855188]],[[-36.4684155,-9.4855188],[-36.4509754,-9.5052716]],[[-36.4509754,-9.5052716],[-36.3862019,-9.5067569]],[[-36.3514028,-9.5068528],[-36.3399586,-9.5112187]],[[-36.3399586,-9.5112187],[-36.3430348,-9.4932818],[-36.3554239,-9.4693402],[-36.3394155,-9.4645751]],[[-36.3394155,-9.4645751],[-36.390601,-9.4244056]],[[-37.5191111,-8.9683333],[-37.5459722,-8.9609444],[-37.5559444,-8.9704722],[-37.5970513,-8.9690718],[-37.6101667,-8.9878611],[-37.6376667,-9.0037778],[-37.6577778,-8.9926667],[-37.6988417,-8.9447222],[-37.7039225,-8.9219266],[-37.7416683,-8.8760777],[-37.7553619,-8.8463637],[-37.7736496,-8.8530329],[-37.7929336,-8.8739101],[-37.8246288,-8.8859573],[-37.8203593,-8.9087038],[-37.8390986,-8.9783812],[-37.8530933,-9.0001398],[-37.9516408,-9.0974264]],[[-37.9516408,-9.0974264],[-37.8333585,-9.221231]],[[-35.5602007,-9.0488046],[-35.6812462,-9.0240615]],[[-35.6812462,-9.0240615],[-35.6818322,-9.0312221],[-35.6862687,-9.0359598],[-35.6987593,-9.0413933],[-35.7090184,-9.0483386]],[[-35.6291829,-9.0922133],[-35.5549815,-9.191293]],[[-35.5549815,-9.191293],[-35.4757805,-9.1905936]],[[-35.4757805,-9.1905936],[-35.4688314,-9.1768823],[-35.4462928,-9.1809414],[-35.4363227,-9.1793477],[-35.4685469,-9.1668596],[-35.4822807,-9.1456961],[-35.5265457,-9.118309],[-35.5205435,-9.1017283],[-35.5124575,-9.1000502]],[[-35.5124575,-9.1000502],[-35.5017483,-9.0853164]],[[-35.5017483,-9.0853164],[-35.5602007,-9.0488046]],[[-35.7695027,-9.3876102],[-35.769017,-9.3090066]],[[-35.836351,-9.2645425],[-35.8385139,-9.3093245]],[[-35.8385139,-9.3093245],[-35.8300896,-9.3226816],[-35.8774201,-9.416687]],[[-35.8774201,-9.416687],[-35.7695027,-9.3876102]],[[-36.7968326,-9.2804232],[-36.8360412,-9.2886286],[-36.8674694,-9.2685315],[-36.9136922,-9.2960556],[-36.9365515,-9.3498863],[-36.9368499,-9.3774254]],[[-36.8265364,-9.3909593],[-36.8029169,-9.3680532]],[[-37.2442228,-9.5898282],[-37.252145,-9.5822586]],[[-37.252145,-9.5822586],[-37.2553609,-9.5813246],[-37.3048748,-9.5360762]],[[-37.3048748,-9.5360762],[-37.3584814,-9.6436185]],[[-37.3584814,-9.6436185],[-37.351148,-9.6452532]],[[-37.351148,-9.6452532],[-37.3093439,-9.6363557],[-37.2922308,-9.6344039],[-37.2857784,-9.636615]],[[-36.0024389,-9.2657972],[-36.0576427,-9.2872729]],[[-35.9961444,-9.3836046],[-36.0165478,-9.3973214]],[[-35.9288487,-9.3745494],[-35.8774201,-9.416687]],[[-35.8385139,-9.3093245],[-35.8345364,-9.2356573]],[[-35.5747579,-8.8477744],[-35.6137823,-8.8643945],[-35.6321278,-8.8812783],[-35.6519858,-8.8822565]],[[-35.6790317,-9.0196155],[-35.6812462,-9.0240615]],[[-35.5602007,-9.0488046],[-35.562888,-9.0265746],[-35.56455,-9.01025]],[[-35.57945,-8.91695],[-35.5851233,-8.8856531]],[[-37.1873516,-9.5612936],[-37.2279169,-9.5194894],[-37.2691496,-9.4571163]],[[-37.2691496,-9.4571163],[-37.32078,-9.4684153]],[[-37.3730977,-9.5247824],[-37.3135801,-9.5531499]],[[-37.3135801,-9.5531499],[-37.3048748,-9.5360762]],[[-37.252145,-9.5822586],[-37.2562911,-9.5794108]],[[-37.1538352,-9.6129566],[-37.1529684,-9.6175351]],[[-37.1529684,-9.6175351],[-37.1198786,-9.5381422]],[[-37.1198786,-9.5381422],[-37.1873516,-9.5612936]],[[-37.7252462,-9.3343907],[-37.7707402,-9.2942659]],[[-37.8682347,-9.406103],[-37.8747586,-9.419234]],[[-37.8941417,-9.5395273],[-37.8861699,-9.5501668],[-37.8422269,-9.5794152]],[[-37.8422269,-9.5794152],[-37.8423218,-9.5739967],[-37.8414553,-9.561907],[-37.8135362,-9.546673],[-37.8021461,-9.5462064],[-37.796462,-9.5420831],[-37.795264,-9.5368336],[-37.7962914,-9.5044992],[-37.776895,-9.4882532],[-37.7658028,-9.4431889],[-37.7200194,-9.3882667],[-37.7252462,-9.3343907]],[[-36.8430809,-10.0101999],[-36.868887,-10.0470968]],[[-36.868887,-10.0470968],[-36.8654725,-10.058344],[-36.8216638,-10.0745975],[-36.8133607,-10.0918303],[-36.7895595,-10.1053601],[-36.7861495,-10.1114823],[-36.7821686,-10.1124144],[-36.7700428,-10.1240991]],[[-36.7700428,-10.1240991],[-36.7674996,-10.1195502],[-36.7660832,-10.1117536]],[[-36.7660832,-10.1117536],[-36.7390533,-10.0871514],[-36.713951,-10.0454934]],[[-36.713951,-10.0454934],[-36.7875834,-10.0220285]],[[-37.117728,-9.4376991],[-37.1980929,-9.4322638]],[[-37.1980929,-9.4322638],[-37.2296725,-9.4463232],[-37.2671565,-9.4495106],[-37.2698388,-9.4534884]],[[-37.2698388,-9.4534884],[-37.2689957,-9.4544578]],[[-37.2701807,-9.4573419],[-37.2691496,-9.4571163]],[[-37.2691496,-9.4571163],[-37.2280729,-9.5193287],[-37.1873516,-9.5612936]],[[-37.1198786,-9.5381422],[-37.1165045,-9.5290114]],[[-37.105867,-9.4657903],[-37.1045763,-9.4605719]],[[-37.278488,-9.1525001],[-37.2965722,-9.1209173],[-37.3277033,-9.0932257],[-37.3586391,-9.0538891],[-37.3937895,-9.0382883]],[[-37.4333738,-9.1754978],[-37.4362934,-9.1837368]],[[-37.3030574,-9.6360277],[-37.3178365,-9.6603231],[-37.3495208,-9.6888418],[-37.3178683,-9.7045822],[-37.2404621,-9.7360187]],[[-36.6248554,-9.3318319],[-36.6446864,-9.3143715],[-36.6704222,-9.3132355],[-36.6997475,-9.2930058]],[[-36.708904,-9.484833],[-36.6875611,-9.4843972]],[[-36.5700861,-9.4860722],[-36.5332201,-9.5309281],[-36.5247724,-9.5248335]],[[-36.4951104,-9.4998796],[-36.4818919,-9.4974416]],[[-36.4818919,-9.4974416],[-36.4684155,-9.4855188]],[[-36.4631868,-9.4538534],[-36.4607672,-9.4528714]],[[-36.4607672,-9.4528714],[-36.4856106,-9.4071484],[-36.5508353,-9.3438235]],[[-36.5508353,-9.3438235],[-36.55019,-9.3540977],[-36.5932192,-9.3608493],[-36.6248554,-9.3318319]],[[-37.6721864,-9.5356295],[-37.6668019,-9.539264]],[[-37.6668019,-9.539264],[-37.6643101,-9.5562316],[-37.6369777,-9.6016772],[-37.6424983,-9.6204655]],[[-37.6424983,-9.6204655],[-37.6594737,-9.6559233],[-37.6558984,-9.6689059]],[[-37.6558984,-9.6689059],[-37.659616,-9.6782385]],[[-37.659616,-9.6782385],[-37.6335334,-9.7001309],[-37.5755148,-9.7376698],[-37.515373,-9.7458745],[-37.4730916,-9.7463641],[-37.4080223,-9.7641091],[-37.3936189,-9.7792353],[-37.3466157,-9.7911833],[-37.3227763,-9.8197357],[-37.2965215,-9.830582]],[[-37.2497235,-9.7373648],[-37.2404621,-9.7360187]],[[-37.3030574,-9.6360277],[-37.351148,-9.6452532]],[[-37.3584814,-9.6436185],[-37.3586457,-9.6337519]],[[-37.3586457,-9.6337519],[-37.468559,-9.6499202],[-37.4793964,-9.6244043],[-37.5348959,-9.5799727],[-37.5377425,-9.5691295],[-37.5694522,-9.5476568],[-37.5632639,-9.5191936],[-37.6035006,-9.5009231],[-37.6170555,-9.4965662],[-37.6427585,-9.5203117],[-37.6589724,-9.5197767],[-37.6721864,-9.5356295]],[[-38.0121072,-9.1560431],[-38.0639045,-9.1737805],[-38.0922873,-9.172725],[-38.1153696,-9.1983602],[-38.1439087,-9.2182047],[-38.156374,-9.2500702]],[[-38.156374,-9.2500702],[-38.0002374,-9.3361175]],[[-35.5584903,-9.4875297],[-35.5541584,-9.474751],[-35.5245918,-9.4426262]],[[-35.5800649,-9.1578119],[-35.6165739,-9.1394547]],[[-35.6165739,-9.1394547],[-35.6096443,-9.1501483],[-35.6019505,-9.1577775],[-35.5969765,-9.1674874],[-35.597833,-9.187351],[-35.5991384,-9.2167266],[-35.5777609,-9.2559246],[-35.5136676,-9.3077291],[-35.5132725,-9.3127479]],[[-35.5132725,-9.3127479],[-35.5144,-9.3143]],[[-35.4724912,-9.3580331],[-35.4597309,-9.3440754],[-35.39602,-9.3018687],[-35.3867883,-9.2862628]],[[-35.3867883,-9.2862628],[-35.3908799,-9.2800606],[-35.4003811,-9.2701531],[-35.4243242,-9.2457989],[-35.4611376,-9.2276507],[-35.4757805,-9.1905936]],[[-35.5549815,-9.191293],[-35.5800649,-9.1578119]],[[-36.3398921,-9.286712],[-36.3907498,-9.292879]],[[-36.3907498,-9.292879],[-36.3848221,-9.3116301],[-36.403466,-9.3426777],[-36.4235988,-9.3589882],[-36.4164295,-9.3643361],[-36.42903,-9.3649659],[-36.4866743,-9.406146]],[[-36.4866743,-9.406146],[-36.4607672,-9.4528714]],[[-36.4607672,-9.4528714],[-36.390601,-9.4244056]],[[-36.390601,-9.4244056],[-36.3893631,-9.4253786]],[[-36.3893631,-9.4253786],[-36.3741836,-9.3745411],[-36.3665981,-9.3744638],[-36.364608,-9.3635762],[-36.3660905,-9.3614312],[-36.3398921,-9.286712]],[[-36.4527333,-10.041168],[-36.4549519,-10.0322699]],[[-36.4549519,-10.0322699],[-36.4913613,-10.0710942]],[[-36.6319212,-10.2521525],[-36.6226392,-10.2552517],[-36.6004501,-10.2900603],[-36.5718256,-10.3161472],[-36.5567435,-10.3770811],[-36.5624955,-10.4146096],[-36.5350737,-10.4302845],[-36.5019299,-10.4311324],[-36.4868688,-10.4231697]],[[-36.4868688,-10.4231697],[-36.502267,-10.4036462],[-36.5077131,-10.3684489],[-36.4907745,-10.3494662],[-36.4602507,-10.333016],[-36.4169708,-10.3288826],[-36.3984612,-10.3028814]],[[-36.3984612,-10.3028814],[-36.3898016,-10.3079424]],[[-36.4868688,-10.4231697],[-36.4630962,-10.4084796],[-36.4307229,-10.4299539],[-36.403575,-10.486978],[-36.3864339,-10.4967433],[-36.3192304,-10.3805972],[-36.2933272,-10.3542261],[-36.3013825,-10.3445564]],[[-36.3930972,-10.3098139],[-36.3984612,-10.3028814]],[[-35.9494106,-9.5361935],[-35.9511847,-9.5324124],[-35.9591623,-9.5301128],[-35.95975,-9.5280389]],[[-36.1747018,-9.6115227],[-36.1817539,-9.6127993]],[[-36.0774946,-9.6716533],[-36.0699557,-9.6762961]],[[-36.0699557,-9.6762961],[-36.0634933,-9.6853635],[-36.0590727,-9.6887931],[-36.035042,-9.6972571]],[[-36.035042,-9.6972571],[-36.0336621,-9.7014191]],[[-35.8681144,-9.6253881],[-35.8768198,-9.6096657]],[[-35.8768198,-9.6096657],[-35.8872426,-9.5888386]],[[-35.8872426,-9.5888386],[-35.9494106,-9.5361935]],[[-36.3399586,-9.5112187],[-36.3291097,-9.5101573]],[[-36.2209528,-9.4842639],[-36.207286,-9.4538444]],[[-36.207286,-9.4538444],[-36.2530555,-9.4437438]],[[-36.2530555,-9.4437438],[-36.2963435,-9.4265692],[-36.2996561,-9.426839],[-36.3250207,-9.4433507],[-36.3394155,-9.4645751]],[[-37.6620014,-9.4458778],[-37.6634649,-9.4403041],[-37.6621698,-9.4338512],[-37.657427,-9.4225862],[-37.6557798,-9.4114476],[-37.654158,-9.4087979]],[[-37.654158,-9.4087979],[-37.7252462,-9.3343907]],[[-37.8422269,-9.5794152],[-37.8182483,-9.5928939],[-37.7915152,-9.6228227],[-37.7861268,-9.6389131],[-37.7469947,-9.6249209],[-37.7052049,-9.634498],[-37.6698593,-9.6566438],[-37.659616,-9.6782385]],[[-37.6558984,-9.6689059],[-37.6593161,-9.6553173],[-37.6424983,-9.6204655]],[[-37.6668019,-9.539264],[-37.6727119,-9.5353533],[-37.6721209,-9.5320669]],[[-37.6721209,-9.5320669],[-37.673487,-9.4997497],[-37.6596004,-9.4856144],[-37.6691315,-9.4619611],[-37.6620014,-9.4458778]],[[-37.1805623,-9.2727733],[-37.1589467,-9.2391017],[-37.1983152,-9.2154825],[-37.229226,-9.2268537]],[[-37.5877469,-9.2958684],[-37.5779376,-9.2970035]],[[-37.5779376,-9.2970035],[-37.5604288,-9.305145],[-37.5188867,-9.310248]],[[-37.5188867,-9.310248],[-37.4841626,-9.3449908]],[[-37.4841626,-9.3449908],[-37.4613612,-9.3539497],[-37.4479243,-9.3577005],[-37.4418585,-9.3570771],[-37.4122843,-9.3622865]],[[-37.4122843,-9.3622865],[-37.3899016,-9.3521857],[-37.3732317,-9.3572519],[-37.3136077,-9.3511397],[-37.2834799,-9.3422833],[-37.2156675,-9.3116974],[-37.1805623,-9.2727733]],[[-35.5017483,-9.0853164],[-35.4947684,-9.0776895]],[[-35.4947684,-9.0776895],[-35.4603452,-9.0715285],[-35.4455476,-9.0677721],[-35.440962,-9.0692218],[-35.4357652,-9.0694916],[-35.3719729,-9.0888382],[-35.3565731,-9.1148392],[-35.3319282,-9.1325263],[-35.3327166,-9.1388905],[-35.321154,-9.1472451]],[[-35.321154,-9.1472451],[-35.3122484,-9.1470135]],[[-35.3360726,-9.0318883],[-35.3100495,-9.0248759]],[[-35.3644062,-8.9449749],[-35.366396,-8.943392]],[[-35.4947684,-9.0776895],[-35.5124575,-9.1000502]],[[-35.4757805,-9.1905936],[-35.427736,-9.1938706],[-35.377957,-9.2096964],[-35.3593469,-9.2292492]],[[-35.3593469,-9.2292492],[-35.3392942,-9.2308567],[-35.3391133,-9.2290663],[-35.3300697,-9.2220513],[-35.3197458,-9.199003],[-35.294822,-9.1713332],[-35.2940127,-9.1522227]],[[-35.3084881,-9.147712],[-35.321154,-9.1472451]],[[-36.6743809,-9.9691774],[-36.6868938,-9.9654666],[-36.6876651,-9.9663441],[-36.7060255,-9.9982761],[-36.7068511,-10.0110103]],[[-36.7051097,-10.0195886],[-36.713951,-10.0454934]],[[-36.7660832,-10.1117536],[-36.7685567,-10.1226112],[-36.7714157,-10.1254704]],[[-36.7714157,-10.1254704],[-36.8127245,-10.1461133],[-36.8503855,-10.1784477]],[[-36.8503855,-10.1784477],[-36.8263467,-10.2111873],[-36.8014388,-10.2131064],[-36.7885611,-10.2280941],[-36.7583365,-10.2249126],[-36.7352144,-10.2419349],[-36.7204038,-10.2649115]],[[-36.6559746,-10.0343356],[-36.6501678,-10.0322745]],[[-36.6501678,-10.0322745],[-36.6480952,-10.0326953],[-36.6521532,-10.0189306],[-36.6505469,-10.0124921],[-36.6507596,-10.0034094]],[[-36.6507596,-10.0034094],[-36.6459898,-9.9850544],[-36.667568,-9.9716032]],[[-36.3559327,-9.2183859],[-36.4243709,-9.2260241],[-36.43183,-9.2121305],[-36.4625173,-9.2392511],[-36.4871653,-9.2402014],[-36.4904055,-9.2612143],[-36.5532163,-9.282593],[-36.5718396,-9.2925828],[-36.5658282,-9.3271056],[-36.605047,-9.3415082],[-36.6248554,-9.3318319]],[[-36.5508353,-9.3438235],[-36.4866743,-9.406146]],[[-36.3907498,-9.292879],[-36.3279296,-9.2859004]],[[-36.3279296,-9.2859004],[-36.3243412,-9.2804465]],[[-35.8774201,-9.416687],[-35.928894,-9.3755663],[-35.9308944,-9.4617306]],[[-35.9404328,-9.4980018],[-35.9580634,-9.5250809],[-35.959434,-9.5296599],[-35.9498574,-9.5333397],[-35.9494106,-9.5361935]],[[-35.8872426,-9.5888386],[-35.8463394,-9.5483789],[-35.8273002,-9.5503833],[-35.7967038,-9.5315255]],[[-35.7967038,-9.5315255],[-35.7695027,-9.3876102]],[[-36.0253527,-9.8122596],[-36.034056,-9.8107302]],[[-36.034056,-9.8107302],[-36.0371864,-9.8261577],[-36.0442404,-9.8489955]],[[-36.0442404,-9.8489955],[-36.0281008,-9.8929068]],[[-35.9626554,-9.9406615],[-35.9358959,-9.8997414],[-35.9069917,-9.8746766],[-35.9047401,-9.855854]],[[-35.9232441,-9.8379649],[-35.9302686,-9.8420257],[-35.9415258,-9.8453718],[-35.9518378,-9.844707],[-35.9606006,-9.8369049],[-35.9623833,-9.8336028]],[[-35.8088611,-9.5819528],[-35.8187337,-9.5785828]],[[-35.8187337,-9.5785828],[-35.8517649,-9.607743],[-35.8523938,-9.6095951],[-35.8561413,-9.6156329],[-35.8676422,-9.626294]],[[-35.7935222,-9.6001361],[-35.8028675,-9.5923677]],[[-37.0595827,-9.3185366],[-37.0571996,-9.2817884],[-37.0906725,-9.2463621],[-37.1164756,-9.2409306],[-37.1299203,-9.2600634],[-37.1643357,-9.2757055],[-37.1805623,-9.2727733]],[[-37.4122843,-9.3622865],[-37.4452578,-9.3572096],[-37.3318691,-9.4241006]],[[-37.3318691,-9.4241006],[-37.318562,-9.4205765]],[[-37.318562,-9.4205765],[-37.2698388,-9.4534884]],[[-37.1980929,-9.4322638],[-37.1488624,-9.4359708]],[[-36.1212109,-9.0278673],[-36.1517282,-9.0426944],[-36.1985057,-9.0466767],[-36.202797,-9.0668449],[-36.2409616,-9.0993929],[-36.2668438,-9.1023818],[-36.2572548,-9.1401488],[-36.2670724,-9.1715822],[-36.2915064,-9.1740884]],[[-36.2008278,-9.2187583],[-36.1835833,-9.2006944],[-36.1463056,-9.1823056],[-36.1108333,-9.1570833],[-36.133115,-9.1239995],[-36.1169949,-9.0549869]],[[-36.1169949,-9.0549869],[-36.1239586,-9.0599538]],[[-36.1239586,-9.0599538],[-36.1387655,-9.0615534],[-36.1212109,-9.0278673]],[[-36.868887,-10.0470968],[-36.9423072,-10.0772432],[-36.9474114,-10.074686]],[[-36.9474114,-10.074686],[-36.9288451,-10.1011833],[-36.9121838,-10.1382379],[-36.8699454,-10.1471254],[-36.8503855,-10.1784477]],[[-36.7714157,-10.1254704],[-36.7700428,-10.1240991]],[[-35.9883607,-8.9040247],[-36.0053839,-8.9130004],[-36.026411,-8.9079691],[-36.063935,-8.9153373],[-36.0864106,-8.9440674],[-36.1224516,-8.9527343],[-36.1268105,-8.9812763],[-36.1043282,-8.9989293],[-36.1212109,-9.0278673]],[[-36.1239586,-9.0599538],[-36.1149092,-9.0541869],[-36.0913807,-9.0590379]],[[-36.0913807,-9.0590379],[-36.0930866,-9.0732646],[-36.0601903,-9.0580913],[-36.0469709,-9.065087],[-36.004204,-9.0399366],[-35.9545487,-9.0310468]],[[-35.9545487,-9.0310468],[-35.9587965,-9.0050051]],[[-37.4453383,-9.4766277],[-37.6543673,-9.4090364]],[[-37.6543673,-9.4090364],[-37.6570017,-9.421215],[-37.6634258,-9.439787],[-37.6620014,-9.4458778]],[[-37.6721209,-9.5320669],[-37.6721864,-9.5356295]],[[-37.3586457,-9.6337519],[-37.3135801,-9.5531499]],[[-35.7251071,-9.1252435],[-35.7029832,-9.2297015]],[[-35.6864845,-9.3705663],[-35.5806967,-9.3592969]],[[-35.5202373,-9.3237096],[-35.5132725,-9.3127479]],[[-35.6165739,-9.1394547],[-35.6212101,-9.1307258]],[[-36.0699557,-9.6762961],[-36.0794009,-9.6802828]],[[-36.2471417,-9.7321248],[-36.2415845,-9.7394746]],[[-36.2415845,-9.7394746],[-36.184862,-9.7955942],[-36.176969,-9.8126028]],[[-36.0409793,-9.8583648],[-36.0442404,-9.8489955]],[[-36.034056,-9.8107302],[-36.0281635,-9.8089555]],[[-36.0281635,-9.8089555],[-35.9893001,-9.7386444]],[[-36.0242232,-9.7009969],[-36.033425,-9.701677],[-36.035042,-9.6972571]],[[-35.3867883,-9.2862628],[-35.3556842,-9.2573678],[-35.3390531,-9.2306869],[-35.3593469,-9.2292492]],[[-36.5415239,-9.8418664],[-36.5548963,-9.8403623]],[[-36.5911648,-9.8785187],[-36.591307,-9.871587]],[[-36.6404118,-9.9853209],[-36.6507596,-10.0034094]],[[-36.6501678,-10.0322745],[-36.6514092,-10.0338736],[-36.5172162,-10.0405194]],[[-36.4549519,-10.0322699],[-36.4561952,-10.0298334]],[[-36.4561952,-10.0298334],[-36.4709958,-10.0308763],[-36.4878256,-10.0159739],[-36.4805,-10.0026263],[-36.4721148,-9.9741944]],[[-36.4721148,-9.9741944],[-36.480113,-9.9611958],[-36.4710017,-9.9389767]],[[-35.8768198,-9.6096657],[-35.8676422,-9.626294]],[[-35.8187337,-9.5785828],[-35.7967038,-9.5315255]],[[-37.5188867,-9.310248],[-37.5612187,-9.304877],[-37.5779376,-9.2970035]],[[-37.6521706,-9.4063178],[-37.6543673,-9.4090364]],[[-37.4498674,-9.4533125],[-37.3318691,-9.4241006]],[[-37.3318691,-9.4241006],[-37.4445691,-9.3576161],[-37.4573165,-9.3552842],[-37.4841626,-9.3449908]],[[-36.3838229,-9.5125858],[-36.4509754,-9.5052716]],[[-36.4818919,-9.4974416],[-36.4883639,-9.5021992]],[[-36.4467823,-9.6059167],[-36.4326045,-9.6165545]],[[-36.4326045,-9.6165545],[-36.413721,-9.6138586],[-36.4070331,-9.6175647],[-36.4047036,-9.6268859],[-36.4067095,-9.6315446],[-36.4010717,-9.6399174]],[[-36.4010717,-9.6399174],[-36.3941648,-9.6483676]],[[-36.3921049,-9.6029049],[-36.3531992,-9.5885247]],[[-36.5378786,-9.532892],[-36.5422643,-9.5344956]],[[-36.5756729,-9.5640749],[-36.5721914,-9.5636337]],[[-36.5422506,-9.6446096],[-36.5264429,-9.6881095]],[[-36.3883307,-9.651682],[-36.3948523,-9.648285],[-36.4010717,-9.6399174]],[[-36.4326045,-9.6165545],[-36.4670298,-9.6089623]],[[-36.2911857,-10.0002678],[-36.2772783,-9.8997067]],[[-36.2778826,-9.8922952],[-36.3954261,-9.8744303]],[[-36.4789699,-9.9600083],[-36.4721148,-9.9741944]],[[-36.4561952,-10.0298334],[-36.4524122,-10.0403187],[-36.3046607,-10.0313797]],[[-36.9692048,-9.6939875],[-36.9788992,-9.7025005]],[[-36.986297,-9.7177922],[-36.9948707,-9.7222205],[-36.9997802,-9.728858],[-37.0003168,-9.734433],[-36.9982484,-9.7412882],[-36.9993519,-9.7445605],[-36.9972274,-9.756078],[-36.9989596,-9.7636308],[-37.0031549,-9.7632116],[-37.0080438,-9.7668562],[-37.0090258,-9.769313],[-37.0148554,-9.7697744]],[[-37.0378753,-9.8072203],[-37.0401897,-9.807315]],[[-37.1337799,-9.9137652],[-37.0859392,-9.9516958],[-37.0624048,-9.9825197],[-37.0330877,-9.9875786],[-36.9963712,-9.9723746],[-36.9616864,-9.9963701],[-36.9529618,-10.0248015],[-36.956324,-10.0554493],[-36.9474114,-10.074686]],[[-35.9491367,-9.0347851],[-35.9545487,-9.0310468]],[[-36.0913807,-9.0590379],[-36.1044479,-9.0586576],[-36.1104232,-9.0552028],[-36.1169949,-9.0549869]],[[-36.3222179,-9.2893992],[-36.3279296,-9.2859004]],[[-36.3279296,-9.2859004],[-36.3398921,-9.286712]],[[-36.3893631,-9.4253786],[-36.3394155,-9.4645751]],[[-36.2530555,-9.4437438],[-36.2111239,-9.4529979]]],"bbox":[-38.23759,-10.4967433,-35.1519022,-8.8167578]}
