{"type":"Topology","objects":{"geometrias":{"type":"GeometryCollection","geometries":[{"type":"Polygon","arcs":[[0]],"properties":{"code_state":24,"code_region":2,"name_state":"Rio Grande do Norte","abbrev_state":"RN","name_region":"Nordeste","year":2020}}]}},"arcs":[[[-38.0615092,-5.7620533],[-38.1188643,-5.8328348],[-38.1225154,-5.8817401],[-38.2526921,-6.011914],[-38.2525691,-6.0431031],[-38.3065012,-6.0870334],[-38.3652457,-6.0884594],[-38.4015365,-6.053495],[-38.4473166,-6.0852777],[-38.4754853,-6.1570403],[-38.5272039,-6.193378],[-38.528348,-6.2391762],[-38.5795457,-6.2796264],[-38.5820985,-6.3192728],[-38.5625059,-6.3556517],[-38.532623,-6.3417062],[-38.4520637,-6.3924893],[-38.3993194,-6.4097925],[-38.373663,-6.455781],[-38.3284375,-6.460656],[-38.2815259,-6.499544],[-38.2392289,-6.4802973],[-38.1355176,-6.5184761],[-38.0979875,-6.5094908],[-38.0701511,-6.4627525],[-38.0370128,-6.4570546],[-37.9552056,-6.4080615],[-37.9260514,-6.4211378],[-37.8598275,-6.3748773],[-37.8121239,-6.2927268],[-37.7648844,-6.2922364],[-37.7756165,-6.2313435],[-37.7423739,-6.1889754],[-37.7075242,-6.1768554],[-37.6731701,-6.1905803],[-37.5999132,-6.174011],[-37.5696205,-6.1554387],[-37.4589474,-6.1450022],[-37.4456931,-6.1122014],[-37.3936319,-6.1093877],[-37.2955717,-6.0500947],[-37.2724774,-6.0557025],[-37.2318602,-6.0275949],[-37.1755727,-6.0549393],[-37.1613391,-6.157528],[-37.2015813,-6.205704],[-37.2342715,-6.2132783],[-37.2705525,-6.2517144],[-37.2731386,-6.2799722],[-37.3214502,-6.2828122],[-37.3665279,-6.3255827],[-37.39752,-6.4180988],[-37.3968914,-6.5142074],[-37.4157096,-6.5318801],[-37.4647245,-6.5326637],[-37.4803841,-6.6052178],[-37.4661909,-6.6599595],[-37.4846995,-6.7100374],[-37.4073341,-6.6971954],[-37.3427129,-6.7012464],[-37.3142989,-6.6889744],[-37.2639208,-6.73217],[-37.2551439,-6.8110615],[-37.1906719,-6.8253657],[-37.1289358,-6.765977],[-37.0594232,-6.749425],[-36.9998335,-6.7077129],[-36.9776218,-6.7218552],[-36.9571355,-6.7904782],[-36.9034284,-6.7536148],[-36.8350296,-6.7310709],[-36.7727287,-6.7870652],[-36.7694651,-6.8387481],[-36.7305176,-6.83544],[-36.7665439,-6.9358676],[-36.7441126,-6.9677737],[-36.7092715,-6.9746886],[-36.6872181,-6.9259627],[-36.6036081,-6.930457],[-36.540991,-6.8407187],[-36.5069378,-6.8130054],[-36.5047532,-6.7539395],[-36.5588804,-6.7091075],[-36.5138108,-6.594393],[-36.4358581,-6.625878],[-36.4491734,-6.5539142],[-36.5258468,-6.5011613],[-36.5309716,-6.4520716],[-36.4998486,-6.3581649],[-36.430306,-6.362255],[-36.3945614,-6.2939748],[-36.3575767,-6.3099873],[-36.31364,-6.2833561],[-36.2798727,-6.3088615],[-36.2767475,-6.3404305],[-36.2988575,-6.3846068],[-36.2511629,-6.4044235],[-36.2497721,-6.4373599],[-36.1437507,-6.4253246],[-36.110189,-6.4291807],[-36.0777206,-6.4050906],[-36.0053484,-6.4810533],[-35.9441837,-6.4930062],[-35.7633561,-6.482192],[-35.7071666,-6.4695364],[-35.6601643,-6.4452787],[-35.6001881,-6.4606106],[-35.5805324,-6.4871114],[-35.5252965,-6.4760978],[-35.4123941,-6.4882475],[-35.3307729,-6.5443414],[-35.2323484,-6.5317766],[-35.1702989,-6.5583926],[-35.1454435,-6.5527097],[-35.0945474,-6.4981034],[-35.0577321,-6.5277912],[-34.971027,-6.4853969],[-34.9749944,-6.4190675],[-34.9907724,-6.3718731],[-35.0272021,-6.3509906],[-35.0359791,-6.2353981],[-35.0780922,-6.2112986],[-35.0949638,-6.1824475],[-35.0963025,-6.0572878],[-35.1062298,-6.0069172],[-35.1430161,-5.9647323],[-35.1530009,-5.8878385],[-35.1788124,-5.8663642],[-35.1792424,-5.7989714],[-35.2035316,-5.7472818],[-35.1922014,-5.7005941],[-35.2161873,-5.6763806],[-35.2286356,-5.5745536],[-35.248402,-5.5461074],[-35.2603519,-5.4895211],[-35.2880024,-5.4605602],[-35.3194116,-5.3778303],[-35.3510968,-5.3624687],[-35.3707072,-5.2845856],[-35.4167172,-5.2209732],[-35.4589473,-5.1970323],[-35.4895279,-5.157048],[-35.6061833,-5.120593],[-35.6389768,-5.1195318],[-35.7588296,-5.0887739],[-35.7852408,-5.075011],[-35.8791621,-5.0680083],[-35.9494994,-5.0440103],[-36.0394363,-5.0513964],[-36.1254898,-5.091471],[-36.1605417,-5.0965453],[-36.2902358,-5.0876877],[-36.3841283,-5.0876119],[-36.4492302,-5.0664439],[-36.5078674,-5.0623472],[-36.5440385,-5.088894],[-36.6133961,-5.0943336],[-36.6886622,-5.088301],[-36.7866242,-5.0447719],[-36.8665928,-4.9586195],[-36.9188313,-4.9465193],[-36.9603391,-4.9184779],[-37.0372554,-4.9498712],[-37.1052559,-4.9222523],[-37.1531414,-4.9481062],[-37.2096537,-4.895365],[-37.2526246,-4.8313814],[-37.4464459,-4.8809614],[-37.6403381,-4.9264044],[-37.6776204,-5.0540857],[-37.7250894,-5.0706243],[-37.7649556,-5.1396162],[-37.7899659,-5.214499],[-37.7831099,-5.2948155],[-37.8474704,-5.3400231],[-37.8604816,-5.4066857],[-37.8895409,-5.4522882],[-37.9015773,-5.4997924],[-37.9346995,-5.5052844],[-37.9480565,-5.5346449],[-37.9900371,-5.5557979],[-38.0342697,-5.6371528],[-38.0819854,-5.6701227],[-38.0889527,-5.7280888],[-38.0615092,-5.7620533]]],"bbox":[-38.5820985,-6.9746886,-34.971027,-4.8313814]}
