{"type":"Topology","objects":{"geometrias":{"type":"GeometryCollection","geometries":[{"type":"MultiPolygon","arcs":[[[0]],[[1]],[[2]],[[3]],[[4]],[[5]],[[6]],[[7]],[[8]],[[9]]],"properties":{"code_state":33,"code_region":3,"name_state":"Rio de Janeiro","abbrev_state":"RJ","name_region":"Sudeste","year":2020}}]}},"arcs":[[[-44.3713295,-23.0369649],[-44.3513808,-23.0594547],[-44.3472155,-23.043257],[-44.3713295,-23.0369649]],[[-44.2300434,-23.0755784],[-44.2377449,-23.0927858],[-44.2499071,-23.109995],[-44.2726213,-23.1174329],[-44.2867117,-23.1360824],[-44.3061617,-23.1211848],[-44.3253934,-23.1543517],[-44.3399667,-23.1534687],[-44.3486825,-23.1612203],[-44.3692448,-23.1668518],[-44.357547,-23.1916006],[-44.3455999,-23.1806438],[-44.3394712,-23.1902812],[-44.3512027,-23.2141959],[-44.3378855,-23.2232601],[-44.3290722,-23.2070696],[-44.3149326,-23.1907004],[-44.3113276,-23.1804693],[-44.2884123,-23.1765762],[-44.2700492,-23.1807702],[-44.2623267,-23.192475],[-44.2534797,-23.1892814],[-44.244869,-23.1999884],[-44.2070373,-23.1924798],[-44.1926804,-23.1986729],[-44.1848163,-23.1798419],[-44.172154,-23.1815792],[-44.1586024,-23.1714891],[-44.1399607,-23.1670272],[-44.1255788,-23.1733074],[-44.1177421,-23.1859001],[-44.0945029,-23.1747534],[-44.1171524,-23.1533358],[-44.1376976,-23.1596698],[-44.1404712,-23.1389305],[-44.1266598,-23.1195603],[-44.1402736,-23.1216087],[-44.1644271,-23.1419058],[-44.1763606,-23.1171075],[-44.1894415,-23.1218143],[-44.2017004,-23.1196924],[-44.2089007,-23.1114835],[-44.2091948,-23.0922599],[-44.2335601,-23.0905996],[-44.2300434,-23.0755784]],[[-43.9182389,-22.9932418],[-43.9274642,-22.988897],[-43.9369617,-22.99812],[-43.931237,-23.0076512],[-43.9182389,-22.9932418]],[[-43.8811905,-22.9247064],[-43.8923565,-22.9335452],[-43.9019991,-22.9303666],[-43.9109268,-22.9413852],[-43.8968922,-22.9586076],[-43.8678727,-22.9264068],[-43.8811905,-22.9247064]],[[-43.7539941,-23.059757],[-43.7957611,-23.0615658],[-43.8283896,-23.0581518],[-43.8602792,-23.0475376],[-43.8773965,-23.0498313],[-43.8823228,-23.0669963],[-43.8994668,-23.0687956],[-43.9161008,-23.0592741],[-43.9333909,-23.057165],[-43.9474778,-23.0504415],[-43.9544335,-23.0409264],[-43.9737221,-23.0455041],[-43.9824587,-23.0581788],[-44.0107424,-23.0793065],[-44.006465,-23.0964754],[-43.9879975,-23.1024004],[-43.9679631,-23.0904553],[-43.9346205,-23.0831005],[-43.8820962,-23.0747432],[-43.8470545,-23.0717752],[-43.7836641,-23.0626873],[-43.7208061,-23.0566587],[-43.630363,-23.0502651],[-43.6060767,-23.0505107],[-43.5768952,-23.0563138],[-43.5769517,-23.0481352],[-43.6039813,-23.0387066],[-43.6142776,-23.030969],[-43.6637037,-23.0407434],[-43.705966,-23.0528946],[-43.7539941,-23.059757]],[[-43.2317627,-22.8361484],[-43.2399696,-22.8423247],[-43.2362388,-22.8611336],[-43.2219459,-22.870743],[-43.2140988,-22.8678269],[-43.2166734,-22.8617629],[-43.232374,-22.8474515],[-43.2317627,-22.8361484]],[[-43.17208,-22.7758023],[-43.1856682,-22.784698],[-43.1885841,-22.7945695],[-43.2076901,-22.7949895],[-43.2193146,-22.7851515],[-43.2566881,-22.7974008],[-43.2656753,-22.8128498],[-43.2376545,-22.8327381],[-43.2267189,-22.8206628],[-43.2102231,-22.8156526],[-43.1911223,-22.8203098],[-43.1845642,-22.8300555],[-43.1726462,-22.825297],[-43.1783521,-22.8020611],[-43.1574536,-22.7873981],[-43.1566559,-22.7790715],[-43.17208,-22.7758023]],[[-41.978386,-22.9778921],[-42.003291,-22.9933547],[-42.0069398,-23.0109182],[-41.9860114,-23.0036896],[-41.9738376,-22.9896207],[-41.978386,-22.9778921]],[[-44.1714498,-22.6594284],[-44.1613652,-22.6782584],[-44.176813,-22.6926214],[-44.1738608,-22.702108],[-44.1852319,-22.7120183],[-44.2037069,-22.7174175],[-44.1989603,-22.7352873],[-44.218331,-22.7323715],[-44.2295279,-22.7355418],[-44.2426384,-22.754611],[-44.257581,-22.7669589],[-44.2563685,-22.7877264],[-44.2401407,-22.792658],[-44.2463792,-22.8039661],[-44.2613115,-22.8062592],[-44.2676787,-22.8292436],[-44.2833648,-22.8361567],[-44.2965216,-22.8278766],[-44.3164591,-22.839077],[-44.325274,-22.8377612],[-44.3742233,-22.8580862],[-44.4005357,-22.8550975],[-44.4106793,-22.846359],[-44.4230592,-22.8504965],[-44.4332925,-22.8688376],[-44.4661916,-22.8853713],[-44.4801342,-22.8665045],[-44.4753333,-22.8572393],[-44.4849432,-22.846201],[-44.5052785,-22.8515493],[-44.5184214,-22.8653248],[-44.5306093,-22.868087],[-44.5559534,-22.8880917],[-44.5698635,-22.8840013],[-44.6073108,-22.885237],[-44.6227174,-22.9009468],[-44.6353676,-22.9063947],[-44.6396724,-22.9155878],[-44.658994,-22.9279312],[-44.6716121,-22.9220663],[-44.6872237,-22.9325197],[-44.7035452,-22.936102],[-44.7134344,-22.9298754],[-44.7278651,-22.9418204],[-44.7438207,-22.9472056],[-44.7517661,-22.9626382],[-44.751031,-22.972011],[-44.7648405,-22.9833138],[-44.7767395,-22.9780555],[-44.7936473,-22.9863291],[-44.8012564,-22.9965004],[-44.7928172,-23.0098386],[-44.8019625,-23.0315875],[-44.8022084,-23.0487801],[-44.8188437,-23.0914584],[-44.8093378,-23.1013904],[-44.8105998,-23.1155346],[-44.8254815,-23.143741],[-44.8227272,-23.1600769],[-44.8429035,-23.1666863],[-44.8604567,-23.180978],[-44.8727325,-23.1825022],[-44.8749001,-23.1967461],[-44.8837207,-23.2048051],[-44.8801147,-23.2133097],[-44.8893206,-23.2265949],[-44.8859508,-23.2357903],[-44.8694641,-23.249834],[-44.8521219,-23.2488988],[-44.8399931,-23.2633896],[-44.8284829,-23.2695571],[-44.8188487,-23.2897377],[-44.8053644,-23.2900491],[-44.7874214,-23.2991069],[-44.7867846,-23.3100876],[-44.778112,-23.3155977],[-44.7816111,-23.3258969],[-44.7707526,-23.3382542],[-44.759944,-23.3412275],[-44.7564282,-23.3502079],[-44.7357554,-23.3656372],[-44.7159333,-23.3451632],[-44.7011774,-23.3402412],[-44.6850498,-23.347481],[-44.6550234,-23.3429163],[-44.6397234,-23.3310349],[-44.611151,-23.3493847],[-44.6082366,-23.3639551],[-44.5853556,-23.3595584],[-44.5618141,-23.3297681],[-44.5662958,-23.3229946],[-44.5557631,-23.3035671],[-44.5421927,-23.3022155],[-44.5358119,-23.2920771],[-44.5139483,-23.2916589],[-44.5271944,-23.2727545],[-44.5400776,-23.2665515],[-44.547805,-23.2743106],[-44.5799661,-23.2708988],[-44.5849023,-23.2637483],[-44.5760951,-23.2537046],[-44.5748435,-23.2335604],[-44.5908709,-23.232514],[-44.5971096,-23.2442307],[-44.6209522,-23.2582831],[-44.6303995,-23.2819104],[-44.6437093,-23.2940573],[-44.6572725,-23.2921632],[-44.641982,-23.2774468],[-44.6248925,-23.2439805],[-44.6382847,-23.2339882],[-44.6519644,-23.2350194],[-44.6639192,-23.247937],[-44.6803425,-23.2526713],[-44.6783521,-23.2382105],[-44.6667264,-23.2350824],[-44.6571267,-23.2146882],[-44.6406227,-23.2146406],[-44.6251187,-23.2223684],[-44.6263612,-23.1962341],[-44.6437158,-23.1964214],[-44.652676,-23.18835],[-44.6607458,-23.2084402],[-44.6948458,-23.2326372],[-44.7151398,-23.2301514],[-44.7095291,-23.2164356],[-44.7211571,-23.2018262],[-44.6983112,-23.1744987],[-44.7075077,-23.1634866],[-44.6951627,-23.1511773],[-44.6990838,-23.1306665],[-44.6957862,-23.1020531],[-44.6910195,-23.0827562],[-44.6685526,-23.0541686],[-44.644925,-23.0467126],[-44.6380673,-23.05253],[-44.6185755,-23.044163],[-44.6082141,-23.0498064],[-44.5961987,-23.0450674],[-44.5770236,-23.0488298],[-44.5545596,-23.0364026],[-44.5305385,-23.0271277],[-44.4948288,-23.024135],[-44.4775306,-23.0058107],[-44.4611853,-23.0073678],[-44.4484932,-23.0251924],[-44.4411822,-22.9921536],[-44.4344154,-22.9851531],[-44.4376702,-22.973403],[-44.4238943,-22.9518053],[-44.3892801,-22.9515994],[-44.3671543,-22.9604358],[-44.3494832,-22.9457888],[-44.371393,-22.9379779],[-44.3666228,-22.9286415],[-44.3311195,-22.9258117],[-44.3227368,-22.9420704],[-44.3340628,-22.9468183],[-44.3362,-22.9645805],[-44.3189443,-22.9564692],[-44.2998713,-22.9586671],[-44.3175266,-22.9853907],[-44.3258915,-22.9918131],[-44.345185,-22.9911968],[-44.3536241,-22.9970039],[-44.3630425,-23.0182486],[-44.3485069,-23.0270925],[-44.3032315,-23.0024153],[-44.2970724,-23.0098024],[-44.299008,-23.026067],[-44.2799671,-23.0141045],[-44.2733666,-23.0040225],[-44.2587544,-23.006073],[-44.2529337,-22.9985266],[-44.2413617,-23.0010878],[-44.2309312,-23.0219828],[-44.2478432,-23.0450089],[-44.2376444,-23.0565346],[-44.219252,-23.0499788],[-44.2013781,-23.0383127],[-44.1916294,-23.0541358],[-44.1709801,-23.0329886],[-44.1446907,-23.036032],[-44.1298006,-23.0324835],[-44.1136296,-23.0233847],[-44.0959409,-23.0048576],[-44.0961004,-22.9956112],[-44.0825803,-22.9929905],[-44.0756499,-22.9729791],[-44.0813277,-22.9594999],[-44.0742717,-22.9520492],[-44.0537747,-22.9422934],[-44.0410331,-22.9474006],[-44.0419851,-22.9633696],[-44.052685,-22.9730671],[-44.0472935,-22.9845043],[-44.0326291,-22.9810598],[-44.0327782,-22.9711357],[-44.0122839,-22.9459265],[-43.9909103,-22.9402695],[-43.9770004,-22.9314219],[-43.9648895,-22.9344399],[-43.9509172,-22.9269528],[-43.9102718,-22.9310166],[-43.8943435,-22.9226567],[-43.8830205,-22.9215042],[-43.8804592,-22.9122439],[-43.867489,-22.9039029],[-43.8456571,-22.9017065],[-43.839026,-22.9117719],[-43.8522129,-22.9244979],[-43.8422823,-22.9321672],[-43.8320353,-22.9311906],[-43.8102224,-22.917569],[-43.8014366,-22.9245116],[-43.7843279,-22.9242711],[-43.7740441,-22.9327601],[-43.7462805,-22.9458873],[-43.7178596,-22.9695858],[-43.7109637,-22.970579],[-43.7006032,-22.9857035],[-43.6874758,-22.9859968],[-43.6742791,-22.9803094],[-43.6589721,-22.9916438],[-43.6532004,-23.0027751],[-43.6229159,-23.0078702],[-43.6141027,-23.0176301],[-43.599564,-23.0228836],[-43.5735461,-23.0472426],[-43.562373,-23.0531564],[-43.569089,-23.0662934],[-43.5646141,-23.0755287],[-43.5541368,-23.0726433],[-43.5489318,-23.0607076],[-43.5343866,-23.0502917],[-43.5085352,-23.0475738],[-43.4928009,-23.0353181],[-43.4455964,-23.0229183],[-43.3986838,-23.0143491],[-43.3576048,-23.0111214],[-43.3359425,-23.011363],[-43.3070557,-23.0160003],[-43.2873845,-23.0148424],[-43.2747269,-23.002277],[-43.2407815,-23.0004151],[-43.2266681,-22.988537],[-43.1952466,-22.9884332],[-43.1769287,-22.9683585],[-43.1625485,-22.965274],[-43.1565953,-22.9533049],[-43.1803779,-22.9479345],[-43.1686341,-22.9387159],[-43.1712692,-22.9324076],[-43.1615378,-22.9052779],[-43.1770238,-22.8958765],[-43.1958862,-22.8920373],[-43.2108437,-22.8976064],[-43.2165364,-22.8735543],[-43.2266671,-22.8741249],[-43.2262096,-22.8691535],[-43.2365296,-22.8620282],[-43.243236,-22.8422557],[-43.2539085,-22.8373219],[-43.2668898,-22.8234842],[-43.2735418,-22.8101522],[-43.2705035,-22.7987592],[-43.27863,-22.7804863],[-43.2578794,-22.7564137],[-43.2381868,-22.7428017],[-43.219323,-22.7389899],[-43.1947401,-22.7220395],[-43.184716,-22.7216902],[-43.151794,-22.7080015],[-43.1339363,-22.7150404],[-43.1173525,-22.7068537],[-43.1176099,-22.6986864],[-43.1004127,-22.6859606],[-43.0845631,-22.6796607],[-43.0513496,-22.692737],[-43.037207,-22.7007754],[-43.0291613,-22.7262947],[-43.0294023,-22.7476182],[-43.0394146,-22.7503377],[-43.0638281,-22.7648069],[-43.0683784,-22.7786477],[-43.0815323,-22.7893856],[-43.0789438,-22.7991317],[-43.0650793,-22.8029319],[-43.0820829,-22.8200513],[-43.0971232,-22.8281171],[-43.0953928,-22.8370973],[-43.1015676,-22.8530319],[-43.1345626,-22.8815742],[-43.1289631,-22.8917403],[-43.1362111,-22.9025604],[-43.1304204,-22.908519],[-43.1167964,-22.9043641],[-43.1110183,-22.9153319],[-43.0957821,-22.9155471],[-43.0986248,-22.9315746],[-43.1174468,-22.9367357],[-43.1104297,-22.9536496],[-43.0773004,-22.9559543],[-43.0519448,-22.9636319],[-43.0457447,-22.9724856],[-43.0140716,-22.9770959],[-43.0046864,-22.9697186],[-42.9668363,-22.9700059],[-42.9177002,-22.9749446],[-42.8707092,-22.9656493],[-42.7331058,-22.9564613],[-42.7026317,-22.9565952],[-42.6899609,-22.9621034],[-42.6744559,-22.9437247],[-42.6358176,-22.9365853],[-42.5666977,-22.9327026],[-42.5185322,-22.9333733],[-42.4742011,-22.9378176],[-42.4557655,-22.9348771],[-42.3612933,-22.9354655],[-42.1792382,-22.9449553],[-42.1114053,-22.9508218],[-42.0542049,-22.9598324],[-42.0209922,-22.9750184],[-42.0249665,-22.9494228],[-42.0368114,-22.936768],[-42.037343,-22.9216994],[-42.0286862,-22.8984246],[-42.0138142,-22.8833977],[-42.004295,-22.8895319],[-41.9896809,-22.8827493],[-41.9822803,-22.8713987],[-41.9864918,-22.8532617],[-41.9795757,-22.8353784],[-41.9708172,-22.8233984],[-41.9537502,-22.8145178],[-41.9331814,-22.809839],[-41.921825,-22.7871168],[-41.9079891,-22.7782457],[-41.8932072,-22.785568],[-41.8887173,-22.7706869],[-41.8662258,-22.7618883],[-41.8816334,-22.7449911],[-41.8858944,-22.7544229],[-41.9053188,-22.7569921],[-41.9105907,-22.7683943],[-41.925922,-22.7703359],[-41.9456478,-22.7542818],[-41.9580227,-22.7353094],[-41.9758984,-22.7284448],[-41.9879566,-22.7104376],[-41.9940906,-22.6892965],[-41.9997364,-22.6354082],[-41.9978405,-22.6093328],[-41.9891888,-22.5985162],[-41.984058,-22.5762956],[-41.9755474,-22.5540483],[-41.9624401,-22.5352018],[-41.9437328,-22.5280302],[-41.9325176,-22.5375345],[-41.893333,-22.4884565],[-41.8826748,-22.4887731],[-41.8595386,-22.4701612],[-41.8544765,-22.4492891],[-41.8391338,-22.4325884],[-41.8125988,-22.4135339],[-41.7715488,-22.3897131],[-41.7734981,-22.3640535],[-41.7568279,-22.3480032],[-41.7392384,-22.3390672],[-41.7007709,-22.3077142],[-41.6743618,-22.2913015],[-41.6504208,-22.2794092],[-41.5941654,-22.2553308],[-41.4938465,-22.2153852],[-41.4513431,-22.2023809],[-41.3567844,-22.1770056],[-41.2700191,-22.1553552],[-41.2114597,-22.1357172],[-41.1674152,-22.1158293],[-41.1341587,-22.0967157],[-41.1260944,-22.0859316],[-41.0710789,-22.0546911],[-41.0097233,-22.0246122],[-40.9875141,-22.0060632],[-40.9760586,-21.9736536],[-40.9751888,-21.9410341],[-40.9917141,-21.8722894],[-40.9939697,-21.8487058],[-41.0029713,-21.8238714],[-41.0180851,-21.7624281],[-41.0245357,-21.7250841],[-41.0226665,-21.6853864],[-41.0123084,-21.6209843],[-41.0399204,-21.62083],[-41.0436948,-21.6180267],[-41.0468712,-21.6190934],[-41.0481121,-21.6137784],[-41.0459861,-21.6066027],[-41.0649492,-21.5527182],[-41.0726467,-21.5256098],[-41.0690342,-21.4979189],[-41.0573307,-21.4788931],[-41.0376125,-21.4622743],[-41.023109,-21.4452646],[-41.0061069,-21.4190843],[-41.0024753,-21.4074133],[-40.9906612,-21.3933637],[-40.9826275,-21.3916109],[-40.9613987,-21.3607767],[-40.9642902,-21.3492162],[-40.9592911,-21.3029228],[-40.9717809,-21.2951909],[-40.9776179,-21.2851351],[-40.9957952,-21.2861898],[-40.9981659,-21.2661726],[-41.0047404,-21.2510999],[-41.0249052,-21.2458027],[-41.0358033,-21.2540699],[-41.0445825,-21.2530586],[-41.0593193,-21.2346468],[-41.0892187,-21.2195207],[-41.1054035,-21.2195815],[-41.1155525,-21.2286353],[-41.1633039,-21.2428731],[-41.1776147,-21.2390033],[-41.1937387,-21.2440657],[-41.2148521,-21.2372997],[-41.2413685,-21.2203603],[-41.2564946,-21.2252523],[-41.2767152,-21.2402293],[-41.303455,-21.2285988],[-41.3161839,-21.2135457],[-41.3699408,-21.2042226],[-41.388013,-21.1989007],[-41.4164778,-21.2001205],[-41.435249,-21.2157019],[-41.4603557,-21.2087711],[-41.4791333,-21.1936396],[-41.4865243,-21.1798929],[-41.4966116,-21.1849606],[-41.5115501,-21.1758363],[-41.5209754,-21.187019],[-41.5304368,-21.1800253],[-41.5482883,-21.1832995],[-41.5560886,-21.1723936],[-41.5782375,-21.1697453],[-41.586146,-21.159682],[-41.5867479,-21.1494743],[-41.6125895,-21.1570009],[-41.6219815,-21.1469585],[-41.6393967,-21.1461934],[-41.6653644,-21.1319839],[-41.6631531,-21.1247016],[-41.6884281,-21.1221734],[-41.6941579,-21.1153722],[-41.7170652,-21.125279],[-41.7183532,-21.1164195],[-41.7362793,-21.1014302],[-41.7255196,-21.0819651],[-41.7218306,-21.0682413],[-41.7327675,-21.0660531],[-41.7161889,-21.047051],[-41.7252015,-21.033078],[-41.7145453,-21.0154083],[-41.7214215,-21.0020133],[-41.7116275,-20.9805924],[-41.716441,-20.9742667],[-41.7174055,-20.9530449],[-41.73389,-20.9431358],[-41.7374317,-20.9308415],[-41.7223679,-20.9232528],[-41.7184836,-20.8991449],[-41.7263409,-20.8923895],[-41.715697,-20.8718246],[-41.7390006,-20.8652135],[-41.7458898,-20.8524366],[-41.7363089,-20.8359131],[-41.7396532,-20.8180147],[-41.7667418,-20.8019956],[-41.7940261,-20.798051],[-41.7991687,-20.8053185],[-41.8168006,-20.8013061],[-41.8288264,-20.7943438],[-41.8324432,-20.7818772],[-41.8481876,-20.7743723],[-41.852166,-20.7637593],[-41.8747382,-20.7659343],[-41.8789429,-20.7787436],[-41.9063095,-20.7972422],[-41.9160826,-20.7925272],[-41.9287363,-20.7943273],[-41.9324769,-20.8257122],[-41.926707,-20.8387898],[-41.936028,-20.8552443],[-41.9500502,-20.858234],[-41.9497554,-20.872972],[-41.9604723,-20.8833189],[-41.9673098,-20.8985727],[-41.9666893,-20.9169515],[-41.9798187,-20.922884],[-41.9761523,-20.9357924],[-41.9933027,-20.9304709],[-42.0039403,-20.9318914],[-42.0376544,-20.9269847],[-42.0477841,-20.9347277],[-42.0658627,-20.9389947],[-42.0740598,-20.9364681],[-42.10129,-20.9435143],[-42.1380367,-20.9600489],[-42.15095,-20.974029],[-42.1413633,-20.9926409],[-42.1200878,-21.0001213],[-42.1157816,-21.0099232],[-42.0848094,-21.0229899],[-42.1036014,-21.0453992],[-42.1046812,-21.0550927],[-42.1201757,-21.0679503],[-42.1201003,-21.0772168],[-42.1333095,-21.0807075],[-42.1402155,-21.103472],[-42.1640269,-21.1010601],[-42.1706603,-21.1146119],[-42.1706476,-21.1286444],[-42.181827,-21.1434009],[-42.1915706,-21.1471176],[-42.1939877,-21.1642318],[-42.2080744,-21.1782247],[-42.2059978,-21.1871596],[-42.1944335,-21.2017374],[-42.201319,-21.2062621],[-42.2029341,-21.2204462],[-42.1880926,-21.2303908],[-42.1950365,-21.2391255],[-42.1897249,-21.250506],[-42.1997699,-21.2563823],[-42.2119997,-21.2720274],[-42.2286368,-21.2820599],[-42.2293022,-21.308202],[-42.2379724,-21.3194524],[-42.2242343,-21.3378131],[-42.2368297,-21.3451991],[-42.2300242,-21.3664945],[-42.2519754,-21.3871971],[-42.2372762,-21.3928221],[-42.2375192,-21.4021625],[-42.2550888,-21.4097667],[-42.2753117,-21.4041794],[-42.2753662,-21.4283085],[-42.2859125,-21.4415276],[-42.2921249,-21.4592381],[-42.2680784,-21.4688749],[-42.2712506,-21.4750276],[-42.2555846,-21.483612],[-42.259743,-21.4962828],[-42.2738619,-21.5038954],[-42.2856011,-21.5281202],[-42.2971882,-21.5235355],[-42.3063047,-21.5290847],[-42.3025261,-21.5389146],[-42.3148828,-21.555899],[-42.3273882,-21.5575109],[-42.324772,-21.5694436],[-42.3462563,-21.5829751],[-42.3615684,-21.6023468],[-42.3637154,-21.613313],[-42.3588467,-21.6313346],[-42.3696015,-21.6400943],[-42.3651522,-21.6464585],[-42.3464774,-21.6522262],[-42.3401909,-21.6592984],[-42.3245926,-21.6560116],[-42.3077333,-21.6599774],[-42.301341,-21.6549221],[-42.2883564,-21.6674546],[-42.2861396,-21.6773835],[-42.273758,-21.6774081],[-42.2649348,-21.6938637],[-42.2667389,-21.708281],[-42.2795291,-21.7186103],[-42.3032145,-21.7287207],[-42.3141474,-21.7378314],[-42.3334621,-21.7458488],[-42.3590328,-21.7409898],[-42.3735795,-21.7458488],[-42.3956274,-21.7616407],[-42.4298837,-21.7756712],[-42.4491667,-21.7803726],[-42.4980013,-21.8023352],[-42.5856408,-21.8390783],[-42.6043803,-21.8455572],[-42.6143208,-21.8558872],[-42.6849644,-21.8791981],[-42.7399783,-21.9086643],[-42.7877903,-21.9295698],[-42.8155048,-21.9363599],[-42.8423915,-21.9482613],[-42.8550891,-21.9495019],[-42.8814275,-21.9592662],[-42.8784697,-21.9657735],[-42.8936031,-21.9751693],[-42.9091062,-21.9905067],[-42.9470947,-22.0059204],[-42.9592083,-22.0150036],[-42.9689855,-22.014895],[-42.9969043,-22.0361104],[-43.0078774,-22.0315079],[-43.0243471,-22.0417414],[-43.0391521,-22.0445945],[-43.0331612,-22.0659049],[-43.053126,-22.0817249],[-43.074129,-22.0933493],[-43.0781458,-22.0830558],[-43.089697,-22.0878969],[-43.1061821,-22.0826565],[-43.1222409,-22.0893994],[-43.1274312,-22.1051477],[-43.1355584,-22.1098842],[-43.1442396,-22.1010323],[-43.1537114,-22.0741605],[-43.1333747,-22.0584097],[-43.1285357,-22.0293118],[-43.1441576,-22.0337312],[-43.163393,-22.0285227],[-43.1776488,-22.0285688],[-43.2029477,-22.0374372],[-43.2074747,-22.0296835],[-43.2215116,-22.0337609],[-43.2312633,-22.0247564],[-43.2341933,-22.0141504],[-43.245467,-22.0065741],[-43.261535,-22.0080348],[-43.2949277,-22.0164932],[-43.3022433,-22.0210084],[-43.3162356,-22.0076697],[-43.3300039,-22.010734],[-43.3503725,-22.0080324],[-43.3650143,-22.0104667],[-43.3685753,-22.0205074],[-43.4046862,-22.042392],[-43.4193021,-22.0541879],[-43.4281699,-22.0547531],[-43.4636785,-22.0726508],[-43.5038228,-22.0752023],[-43.5069295,-22.0620096],[-43.5184225,-22.0609476],[-43.5248272,-22.0724075],[-43.559605,-22.083812],[-43.5743059,-22.0783255],[-43.5923143,-22.0562575],[-43.6128889,-22.0822966],[-43.636594,-22.0723301],[-43.6464278,-22.0648524],[-43.6720908,-22.0903495],[-43.6812941,-22.071777],[-43.7148551,-22.0824404],[-43.7314476,-22.0962232],[-43.7520413,-22.0878858],[-43.7557998,-22.0762403],[-43.7748424,-22.0657263],[-43.7994766,-22.0825953],[-43.8111135,-22.0822192],[-43.8423705,-22.0996411],[-43.8579706,-22.0950507],[-43.8636452,-22.1003934],[-43.8806469,-22.1019531],[-43.8796514,-22.1140214],[-43.9426032,-22.1324943],[-43.9534878,-22.1423281],[-43.9648813,-22.1393525],[-43.998022,-22.1559339],[-44.0043713,-22.1626373],[-44.0146255,-22.1536884],[-44.0338174,-22.1522504],[-44.0483413,-22.162228],[-44.0603543,-22.1602258],[-44.0907204,-22.1793619],[-44.1172885,-22.1899042],[-44.141684,-22.2203866],[-44.1530761,-22.2268124],[-44.1807049,-22.2335714],[-44.2236691,-22.2599392],[-44.2498362,-22.2604013],[-44.2605753,-22.267868],[-44.2635061,-22.2434359],[-44.2845176,-22.2435627],[-44.3170128,-22.2593875],[-44.3524219,-22.2576839],[-44.3620225,-22.2519732],[-44.3768855,-22.2682984],[-44.3899627,-22.2705088],[-44.3947967,-22.2589069],[-44.4238966,-22.2556627],[-44.4571073,-22.2575871],[-44.4633792,-22.2763202],[-44.4948214,-22.2997018],[-44.5135755,-22.3086286],[-44.5302293,-22.3231889],[-44.5325793,-22.3307041],[-44.5501376,-22.3253807],[-44.555208,-22.3306953],[-44.5812664,-22.3285415],[-44.592428,-22.3228686],[-44.6100354,-22.3265578],[-44.626141,-22.3353834],[-44.6274461,-22.3459444],[-44.6419546,-22.3561532],[-44.6459456,-22.3651629],[-44.6592574,-22.3743731],[-44.6703924,-22.3748184],[-44.7079531,-22.3688281],[-44.7211659,-22.3602294],[-44.7302412,-22.3611199],[-44.7446961,-22.3755902],[-44.7564257,-22.3746587],[-44.776001,-22.3842932],[-44.7933865,-22.3868711],[-44.8036654,-22.3938141],[-44.805387,-22.4038479],[-44.7937922,-22.4090768],[-44.7784846,-22.4088969],[-44.7700824,-22.4155261],[-44.7553337,-22.4152692],[-44.7339428,-22.4328958],[-44.7288103,-22.4486145],[-44.7192455,-22.4634211],[-44.7238223,-22.4761657],[-44.7200743,-22.4927715],[-44.7122661,-22.4928222],[-44.7127903,-22.509367],[-44.6888605,-22.5198073],[-44.6710072,-22.5366647],[-44.6771244,-22.5475284],[-44.6749225,-22.5613421],[-44.6615327,-22.5509361],[-44.6416234,-22.5602024],[-44.6423682,-22.5776348],[-44.6471202,-22.5846413],[-44.6402486,-22.6080579],[-44.6229872,-22.6051234],[-44.612785,-22.6173448],[-44.5969551,-22.6099938],[-44.5932677,-22.6216814],[-44.583777,-22.6228551],[-44.5716079,-22.6057498],[-44.5640868,-22.6119927],[-44.5460294,-22.6069617],[-44.5375378,-22.6181941],[-44.5156,-22.6301066],[-44.5085884,-22.640947],[-44.49299,-22.6180119],[-44.485175,-22.6110516],[-44.4648767,-22.6159696],[-44.4467258,-22.6105125],[-44.4314745,-22.5986518],[-44.4154394,-22.6021044],[-44.4059457,-22.5989991],[-44.4002478,-22.5821908],[-44.3823978,-22.5734942],[-44.3712139,-22.5804062],[-44.3704205,-22.5897465],[-44.35183,-22.6002366],[-44.3449903,-22.5878487],[-44.3264885,-22.5884476],[-44.313263,-22.5957672],[-44.2833338,-22.6043817],[-44.2643148,-22.6041075],[-44.2533882,-22.6124709],[-44.2456062,-22.6064197],[-44.2039458,-22.615971],[-44.2043678,-22.6263438],[-44.1842763,-22.6372991],[-44.1901268,-22.648584],[-44.1714498,-22.6594284]],[[-41.0187967,-21.6073166],[-41.0483944,-21.5895972],[-41.0442839,-21.6067802],[-41.045911,-21.616218],[-41.0194842,-21.614647],[-41.0187967,-21.6073166]]],"bbox":[-44.8893206,-23.3656372,-40.9592911,-20.7637593]}
