{"type":"Topology","objects":{"geometrias":{"type":"GeometryCollection","geometries":[{"type":"Polygon","arcs":[[0]],"properties":{"code_state":28,"code_region":2,"name_state":"Sergipe","abbrev_state":"SE","name_region":"Nordeste","year":2020}}]}},"arcs":[[[-37.7656811,-10.1960449],[-37.7470908,-10.2380727],[-37.7503827,-10.2894991],[-37.7433128,-10.3383907],[-37.7786833,-10.3431919],[-37.8076254,-10.3675035],[-37.839048,-10.3788204],[-37.853109,-10.4062775],[-37.8527055,-10.4387027],[-37.820987,-10.4836401],[-37.8126051,-10.507247],[-37.8412315,-10.5547936],[-37.806319,-10.6005274],[-37.8167229,-10.6313785],[-37.8029907,-10.6521623],[-37.8151346,-10.6848568],[-37.8475103,-10.6992649],[-37.9096224,-10.7155103],[-37.9454812,-10.7565173],[-37.9768025,-10.7579327],[-38.0250319,-10.7255192],[-38.0485734,-10.7034538],[-38.067792,-10.7156658],[-38.0983533,-10.7124371],[-38.1435605,-10.7190129],[-38.1833944,-10.7053632],[-38.2092245,-10.7119177],[-38.2165189,-10.7268057],[-38.2094108,-10.7605882],[-38.238345,-10.8001848],[-38.2313983,-10.8429341],[-38.2374459,-10.8761491],[-38.227251,-10.9160143],[-38.1806156,-10.9427672],[-38.1865421,-10.9642065],[-38.1700454,-10.9889955],[-38.1019991,-11.0158945],[-38.1024196,-11.0439829],[-38.0809638,-11.0640434],[-38.0884012,-11.1162559],[-38.0656188,-11.1229761],[-38.0712201,-11.143546],[-38.057209,-11.1720512],[-38.0233545,-11.177767],[-38.0029487,-11.193824],[-37.9822963,-11.1911066],[-37.9764057,-11.2155386],[-37.990642,-11.2279944],[-37.9836406,-11.248288],[-38.0013459,-11.3033025],[-37.9682775,-11.389536],[-37.9044605,-11.411759],[-37.8823804,-11.4247047],[-37.8534577,-11.4674974],[-37.8235926,-11.4925822],[-37.8122886,-11.51702],[-37.7589745,-11.5253783],[-37.749361,-11.5386277],[-37.6984173,-11.5634142],[-37.6613297,-11.5461672],[-37.6642002,-11.5319608],[-37.6385012,-11.5184252],[-37.6157268,-11.538601],[-37.590269,-11.5284951],[-37.5627166,-11.5426752],[-37.5170038,-11.5469251],[-37.5047505,-11.5249101],[-37.4554887,-11.5231383],[-37.4108864,-11.4954325],[-37.3552553,-11.4436993],[-37.3379097,-11.4428246],[-37.3122179,-11.4229911],[-37.2996847,-11.3636844],[-37.2603198,-11.2897955],[-37.2070498,-11.2229464],[-37.1661092,-11.1824984],[-37.1329321,-11.1141258],[-37.0663909,-11.0170781],[-37.0353692,-10.9798473],[-37.0340254,-10.9562448],[-36.9530599,-10.8515135],[-36.867505,-10.7580522],[-36.7844259,-10.6882294],[-36.7346858,-10.6580667],[-36.6729468,-10.6307931],[-36.6127009,-10.5884047],[-36.527295,-10.5512561],[-36.4367935,-10.5170562],[-36.4087988,-10.5126924],[-36.3959408,-10.4968722],[-36.4276286,-10.4335147],[-36.4630962,-10.4084796],[-36.5019299,-10.4311324],[-36.5294169,-10.4308933],[-36.5626853,-10.4139182],[-36.5569866,-10.3748876],[-36.5718256,-10.3161472],[-36.6004501,-10.2900603],[-36.6226392,-10.2552517],[-36.6577102,-10.2679123],[-36.7016177,-10.2704043],[-36.7212114,-10.2645986],[-36.7352144,-10.2419349],[-36.759159,-10.2249199],[-36.7885611,-10.2280941],[-36.8014388,-10.2131064],[-36.8263467,-10.2111873],[-36.8699454,-10.1471254],[-36.9121838,-10.1382379],[-36.9288451,-10.1011833],[-36.9456955,-10.0873628],[-36.9565986,-10.053734],[-36.9539332,-10.0185449],[-36.9682085,-9.9869158],[-36.9963712,-9.9723746],[-37.0330877,-9.9875786],[-37.0624048,-9.9825197],[-37.1138859,-9.9256234],[-37.1625382,-9.8938468],[-37.217159,-9.9000516],[-37.2425876,-9.8944563],[-37.2619127,-9.8491387],[-37.2852199,-9.8306289],[-37.3227763,-9.8197357],[-37.3491033,-9.7898084],[-37.3936189,-9.7792353],[-37.4099011,-9.7626496],[-37.4730916,-9.7463641],[-37.515373,-9.7458745],[-37.577684,-9.7368078],[-37.6540515,-9.6863334],[-37.670392,-9.6559792],[-37.7052049,-9.634498],[-37.7469947,-9.6249209],[-37.7855541,-9.6391762],[-37.8182483,-9.5928939],[-37.8861699,-9.5501668],[-37.9224297,-9.5478353],[-37.9893302,-9.5273587],[-38.0032899,-9.5150299],[-38.0226164,-9.5406648],[-38.0209014,-9.560914],[-38.0617097,-9.5909087],[-38.0488721,-9.6323926],[-38.0166551,-9.6388738],[-38.0322192,-9.6606865],[-38.0450383,-9.6974549],[-38.038619,-9.7500946],[-38.020426,-9.797863],[-37.9999705,-9.8143261],[-37.9954442,-9.8460787],[-38.007183,-9.8687177],[-37.9921235,-9.8943078],[-38.0000359,-9.9087148],[-37.9754164,-9.9367318],[-37.9554324,-9.9429999],[-37.9134407,-9.9331128],[-37.8625558,-9.9885966],[-37.8520777,-9.9904569],[-37.8270049,-10.0341612],[-37.7909033,-10.0327032],[-37.7826444,-10.0435984],[-37.8020145,-10.1124474],[-37.7779303,-10.1341413],[-37.7829268,-10.1824238],[-37.7656811,-10.1960449]]],"bbox":[-38.238345,-11.5634142,-36.3959408,-9.5150299]}
