{"type":"Topology","objects":{"geometrias":{"type":"GeometryCollection","geometries":[{"type":"MultiPolygon","arcs":[[[0]],[[1]],[[2]]],"properties":{"code_state":16,"code_region":1,"name_state":"Amapá","abbrev_state":"AP","name_region":"Norte","year":2020}}]}},"arcs":[[[-53.2765535,2.1881616],[-53.25332,2.2465215],[-53.229515,2.2623791],[-53.3232962,2.3471142],[-53.3600212,2.3493119],[-53.367632,2.3206454],[-53.4730772,2.256739],[-53.5202433,2.2665094],[-53.5499143,2.258324],[-53.59813,2.2845377],[-53.6562953,2.2845212],[-53.7485209,2.3224815],[-53.7279918,2.3510786],[-53.7416335,2.3749994],[-53.7996331,2.3650322],[-53.8240499,2.3176321],[-53.859581,2.320001],[-53.8878011,2.2987991],[-53.9420777,2.2780862],[-53.9356883,2.2593974],[-53.9749109,2.2323926],[-54.0012416,2.22999],[-54.1890791,2.1788275],[-54.4365792,2.2098867],[-54.6016931,2.3371661],[-54.6622491,2.326987],[-54.6920868,2.3613963],[-54.6849188,2.4468238],[-54.7440324,2.4714862],[-54.7973939,2.4390171],[-54.8722509,2.4337466],[-54.8746964,2.4153254],[-54.80756,2.3416749],[-54.7961664,2.3179651],[-54.8114203,2.266378],[-54.7631109,2.2023191],[-54.7678915,2.1809114],[-54.8062543,2.1389277],[-54.8038049,2.0258228],[-54.7559997,1.9742069],[-54.7701983,1.9256957],[-54.7384599,1.8248356],[-54.7447791,1.7758008],[-54.6436397,1.7686],[-54.6019171,1.7845734],[-54.528107,1.7649425],[-54.4959444,1.7469426],[-54.4571677,1.7583028],[-54.3516918,1.7540727],[-54.3093044,1.7410503],[-54.2627439,1.6883824],[-54.2008834,1.6455793],[-54.1436637,1.640612],[-54.1019449,1.5843053],[-54.0987782,1.5505238],[-54.06916,1.5009694],[-54.0202741,1.5157631],[-53.9670765,1.4843951],[-53.8959981,1.4551258],[-53.876742,1.4354522],[-53.8877512,1.4077873],[-53.820106,1.3891676],[-53.7837222,1.4028539],[-53.7014598,1.3779189],[-53.6648539,1.3752498],[-53.6332463,1.3473586],[-53.5952181,1.3581541],[-53.5706899,1.337302],[-53.5527117,1.2802892],[-53.5233275,1.2613389],[-53.5463212,1.2285074],[-53.5252098,1.2117165],[-53.4699094,1.2399701],[-53.438769,1.232134],[-53.3960801,1.1792925],[-53.4044098,1.1511736],[-53.4443579,1.1513192],[-53.4591576,1.1336804],[-53.4558237,1.0773718],[-53.4223294,1.0337374],[-53.4108033,0.9820425],[-53.4114942,0.9293442],[-53.2874946,0.8457159],[-53.2551477,0.8092116],[-53.1902726,0.7683835],[-53.1469379,0.6997862],[-53.1057436,0.6794615],[-53.1227118,0.6300909],[-53.1473221,0.6003346],[-53.1520646,0.5318937],[-53.1697689,0.4937348],[-53.1612041,0.398538],[-53.1753105,0.3817172],[-53.136459,0.3260357],[-53.131376,0.2962017],[-53.0941268,0.2589577],[-53.1058506,0.2373476],[-53.0942925,0.195307],[-53.0521271,0.1573389],[-53.0149667,0.0596921],[-52.9772926,0.0237963],[-52.9710222,-0.0431101],[-52.9327437,-0.1423073],[-52.9040129,-0.1549377],[-52.8641028,-0.1447643],[-52.8360989,-0.1861492],[-52.7604398,-0.2375744],[-52.7544268,-0.2621886],[-52.6841716,-0.3143137],[-52.6973482,-0.3929354],[-52.6810757,-0.415085],[-52.70068,-0.4529291],[-52.6954363,-0.4964017],[-52.640009,-0.5849061],[-52.61299,-0.5948934],[-52.5763261,-0.5764098],[-52.5322928,-0.5763552],[-52.5131837,-0.6196459],[-52.5103877,-0.679184],[-52.4971522,-0.7229462],[-52.5182377,-0.7755192],[-52.5169699,-0.8090464],[-52.5418462,-0.8365449],[-52.5169334,-0.858616],[-52.4555179,-0.8302661],[-52.403158,-0.8771483],[-52.4047158,-0.9127377],[-52.4376793,-0.9288754],[-52.4199283,-0.9659632],[-52.4167912,-1.0256118],[-52.3581556,-1.0625844],[-52.3329879,-1.1158915],[-52.2147327,-1.1349578],[-52.1789319,-1.1295951],[-52.1202623,-1.146198],[-52.1067638,-1.1830679],[-52.1098719,-1.2181159],[-52.070459,-1.2359841],[-52.062961,-1.1928913],[-52.0409005,-1.1701323],[-51.9911221,-1.171816],[-51.9939523,-1.1347229],[-51.9229007,-1.1329634],[-51.8872859,-1.1663971],[-51.8090963,-1.1571011],[-51.7783994,-1.1404123],[-51.7043365,-1.067741],[-51.6856469,-1.0128623],[-51.6955135,-0.9212915],[-51.6834486,-0.7940294],[-51.5955362,-0.6504378],[-51.5151162,-0.5660446],[-51.4577885,-0.513234],[-51.4324792,-0.4733425],[-51.4236695,-0.4366112],[-51.3683699,-0.3762575],[-51.3477828,-0.2996133],[-51.3024816,-0.2526427],[-51.2163629,-0.1186128],[-51.1132027,-0.0966079],[-51.0656742,-0.0762263],[-50.9654996,0.0493969],[-50.9210933,0.0761336],[-50.8035185,0.1063234],[-50.7264617,0.1416011],[-50.6681975,0.1850345],[-50.5963071,0.2503658],[-50.556148,0.3067173],[-50.5238924,0.3723908],[-50.5039997,0.4350876],[-50.4762092,0.4814998],[-50.4672645,0.5309222],[-50.4365469,0.600107],[-50.3472365,0.6668437],[-50.2260218,0.6962486],[-50.2203937,0.7431222],[-50.153397,0.7497434],[-50.097362,0.7670499],[-50.0202612,0.85877],[-49.9861265,0.8807603],[-50.0024735,0.9064127],[-49.8897824,1.013597],[-49.88467,1.0471377],[-49.883083,1.169077],[-49.9003135,1.2128682],[-49.9042695,1.2955915],[-49.8836418,1.3399816],[-49.8758387,1.4231385],[-49.8826094,1.50477],[-49.9029365,1.5799307],[-49.9002953,1.6023258],[-49.9238851,1.6934496],[-49.9581288,1.7196719],[-50.0322127,1.7597013],[-50.176901,1.8135554],[-50.2896941,1.8078737],[-50.3246141,1.815381],[-50.3735471,1.8011223],[-50.4237254,1.8044642],[-50.4749649,1.8385951],[-50.5073752,1.8845103],[-50.5256164,1.9299361],[-50.5826601,1.9896326],[-50.5980613,2.0638278],[-50.6430821,2.1134295],[-50.6818668,2.1334028],[-50.6866313,2.1910505],[-50.7252725,2.2557221],[-50.7226278,2.2877466],[-50.7407916,2.3090093],[-50.7703726,2.4534216],[-50.7942244,2.4985492],[-50.8164994,2.5029687],[-50.8443311,2.6009843],[-50.847721,2.6403442],[-50.8824485,2.6882411],[-50.8873064,2.7462342],[-50.9084916,2.7888666],[-50.9449973,2.8177539],[-50.9505117,2.8821705],[-50.9925025,2.9621893],[-50.9988269,3.0110367],[-51.021168,3.0513765],[-51.0142975,3.0855578],[-51.0444104,3.1340039],[-51.0328225,3.213689],[-51.0865365,3.350172],[-51.1093087,3.4506267],[-51.0910111,3.4804817],[-51.0817748,3.5595385],[-51.0911695,3.7384705],[-51.0806825,3.8848086],[-51.101868,3.9127957],[-51.1792978,3.9194963],[-51.1756508,4.0108615],[-51.1886118,4.0778203],[-51.2143281,4.1459298],[-51.2833624,4.2502674],[-51.3942265,4.3649768],[-51.4858816,4.4371787],[-51.6376349,4.5088171],[-51.6693681,4.4538394],[-51.6637841,4.4235166],[-51.6791842,4.3660938],[-51.676804,4.332651],[-51.6493234,4.2672714],[-51.623141,4.225624],[-51.6375525,4.1332632],[-51.6560654,4.0539051],[-51.6757207,4.0360534],[-51.7457366,4.0014883],[-51.7776249,3.9745539],[-51.7815158,3.9241728],[-51.7986414,3.8869539],[-51.8564008,3.832667],[-51.8733752,3.80358],[-51.9171895,3.7818897],[-51.9227163,3.7231018],[-51.9726057,3.7054668],[-51.9934118,3.6438007],[-52.0604098,3.5196807],[-52.0928151,3.4790486],[-52.1742298,3.3305014],[-52.2343395,3.2401105],[-52.2604514,3.2530006],[-52.2925133,3.2264208],[-52.3013258,3.1730521],[-52.3295818,3.171871],[-52.3528862,3.1269871],[-52.3259446,3.0778089],[-52.39513,2.9278241],[-52.3910709,2.8975584],[-52.422241,2.8910104],[-52.4734545,2.793888],[-52.4752666,2.7639579],[-52.5293373,2.6516085],[-52.5414088,2.6069983],[-52.5276727,2.5810519],[-52.5612072,2.5502874],[-52.5520602,2.5200208],[-52.6168126,2.4756753],[-52.6581531,2.4013383],[-52.660581,2.3739738],[-52.7104685,2.3586243],[-52.7174186,2.3429196],[-52.8418319,2.2913958],[-52.8876787,2.2383708],[-52.9042871,2.1891852],[-52.9565133,2.1729696],[-53.0529534,2.1901171],[-53.0845186,2.2127428],[-53.1386568,2.2118983],[-53.2206887,2.1936133],[-53.2427685,2.2075778],[-53.2765535,2.1881616]],[[-50.442522,2.1097664],[-50.4684307,2.1000039],[-50.5042092,2.0940301],[-50.5212302,2.0054291],[-50.4905843,1.9647474],[-50.4489823,1.879636],[-50.4255082,1.8670172],[-50.3669897,1.8894511],[-50.3182368,1.9457136],[-50.3267404,1.9828288],[-50.3624547,2.0220263],[-50.3606161,2.0548669],[-50.4054105,2.1112592],[-50.442522,2.1097664]],[[-50.5136684,2.1853071],[-50.550145,2.1516709],[-50.529473,2.1382537],[-50.5113326,2.1033826],[-50.4953975,2.0962017],[-50.4712717,2.1022984],[-50.4583402,2.1152468],[-50.4226335,2.1184624],[-50.4384035,2.1595927],[-50.5136684,2.1853071]]],"bbox":[-54.8746964,-1.2359841,-49.8758387,4.5088171]}
