{"type":"Topology","objects":{"geometrias":{"type":"GeometryCollection","geometries":[{"type":"MultiPolygon","arcs":[[[0]],[[1]],[[2]],[[3]],[[4]],[[5]],[[6]],[[7]]],"properties":{"code_state":21,"code_region":2,"name_state":"Maranhão","abbrev_state":"MA","name_region":"Nordeste","year":2020}}]}},"arcs":[[[-46.1473091,-1.6064361],[-46.1658773,-1.634375],[-46.1553227,-1.6754034],[-46.1712523,-1.6983595],[-46.2035024,-1.705295],[-46.2112229,-1.7271762],[-46.2475775,-1.7209245],[-46.2658526,-1.7328418],[-46.3118822,-1.7332325],[-46.3244891,-1.772696],[-46.31413,-1.804271],[-46.2536366,-1.7958462],[-46.2303286,-1.8031233],[-46.2152786,-1.8459062],[-46.2435218,-1.8786276],[-46.2227059,-1.9102252],[-46.2364854,-1.9664352],[-46.2514378,-2.0006193],[-46.2604287,-2.0460831],[-46.2745992,-2.0546288],[-46.2730844,-2.1201116],[-46.2832969,-2.1543901],[-46.3355811,-2.1940389],[-46.3509244,-2.2240678],[-46.3911392,-2.2501412],[-46.4106359,-2.2287552],[-46.4305234,-2.2352003],[-46.4163041,-2.2738216],[-46.4324291,-2.2971111],[-46.4318916,-2.3644873],[-46.4127859,-2.3791338],[-46.442153,-2.4194111],[-46.4365825,-2.5152417],[-46.4193336,-2.5324251],[-46.4735724,-2.5465816],[-46.5094384,-2.5906125],[-46.5068486,-2.616874],[-46.5673419,-2.626783],[-46.6060909,-2.6394741],[-46.6380966,-2.6872113],[-46.6631149,-2.6935566],[-46.6696138,-2.7346049],[-46.6313534,-2.7708688],[-46.6252943,-2.8065459],[-46.5989568,-2.79698],[-46.6109773,-2.8552524],[-46.6400023,-2.8509089],[-46.639416,-2.8835578],[-46.6805554,-2.8827178],[-46.6539285,-2.9310654],[-46.6730342,-2.9450709],[-46.6474296,-2.9698118],[-46.6684899,-2.9927955],[-46.6773342,-3.0342723],[-46.6731808,-3.0673062],[-46.6886218,-3.0929714],[-46.7496037,-3.1244909],[-46.7226309,-3.159132],[-46.7715436,-3.2040662],[-46.7791907,-3.2421684],[-46.802059,-3.2659998],[-46.8148613,-3.3114659],[-46.8460364,-3.319271],[-46.8586432,-3.3429786],[-46.8848342,-3.3351737],[-46.92974,-3.3738319],[-46.9563218,-3.4258777],[-46.9484548,-3.476799],[-46.9824151,-3.496162],[-46.9688798,-3.5144028],[-47.0040617,-3.5426413],[-47.0453679,-3.6238821],[-47.0557157,-3.7735356],[-47.0835715,-3.8244046],[-47.0852051,-3.85664],[-47.1066248,-3.8809428],[-47.128751,-3.8766426],[-47.1484961,-3.9144898],[-47.1731461,-3.9238234],[-47.1902562,-3.9837047],[-47.2389286,-3.9986308],[-47.2931109,-4.0522709],[-47.3194243,-4.0477745],[-47.3502036,-4.1178207],[-47.3402351,-4.1770458],[-47.3658287,-4.18064],[-47.3790018,-4.2205369],[-47.3717681,-4.2455858],[-47.4420493,-4.2874251],[-47.4795412,-4.3284996],[-47.4763146,-4.3564394],[-47.5376001,-4.4525953],[-47.5637242,-4.4745575],[-47.5814777,-4.5199355],[-47.6119419,-4.5573579],[-47.6821203,-4.6063812],[-47.7248128,-4.6064181],[-47.7540405,-4.5908236],[-47.7925691,-4.5864108],[-47.816153,-4.6147285],[-48.0014333,-4.75886],[-48.3155936,-5.0069924],[-48.4392993,-5.1006225],[-48.4922238,-5.1440965],[-48.7551507,-5.3491654],[-48.712127,-5.3530136],[-48.6992101,-5.3201232],[-48.6794384,-5.3058201],[-48.6061317,-5.3365008],[-48.5685726,-5.2829328],[-48.5610735,-5.2301992],[-48.5330131,-5.1987179],[-48.3639098,-5.1683805],[-48.3286879,-5.1965942],[-48.2934032,-5.2040481],[-48.2349277,-5.2283067],[-48.1785442,-5.2607761],[-48.0738428,-5.2722461],[-48.0492647,-5.2661013],[-48.0040589,-5.2346202],[-47.9281041,-5.2412355],[-47.8729236,-5.2723581],[-47.8676241,-5.3428159],[-47.8275409,-5.3865882],[-47.7683377,-5.3782023],[-47.7409265,-5.3814482],[-47.6667723,-5.4217873],[-47.6186197,-5.4597262],[-47.5805091,-5.4700166],[-47.5602606,-5.4632127],[-47.5001205,-5.5256048],[-47.4832614,-5.5648989],[-47.4844013,-5.595604],[-47.4737045,-5.6619797],[-47.4930942,-5.7100384],[-47.4826225,-5.7593056],[-47.4665086,-5.7783003],[-47.4310634,-5.8692106],[-47.4288701,-5.9194832],[-47.4463681,-5.9845441],[-47.428042,-6.0392245],[-47.4344778,-6.0931153],[-47.423204,-6.1601861],[-47.3853684,-6.2303915],[-47.3772358,-6.2667683],[-47.4086249,-6.3280669],[-47.4099549,-6.3696555],[-47.4342057,-6.4311886],[-47.4166526,-6.4856784],[-47.4564977,-6.5382745],[-47.4687902,-6.6212462],[-47.4986441,-6.6712316],[-47.4941187,-6.7548332],[-47.516702,-6.7902601],[-47.5296459,-6.8313891],[-47.5070392,-6.8720101],[-47.5076246,-6.9071901],[-47.5295707,-6.946013],[-47.5283161,-6.9734044],[-47.5449368,-7.0127728],[-47.574782,-7.0503378],[-47.6184295,-7.0911604],[-47.6274527,-7.1215814],[-47.6603749,-7.1513681],[-47.7106552,-7.1376528],[-47.7451291,-7.1625048],[-47.7498258,-7.1952617],[-47.73507,-7.2188998],[-47.6910091,-7.2382985],[-47.6539303,-7.2982028],[-47.6270111,-7.3008237],[-47.5919031,-7.2639953],[-47.5401768,-7.2657935],[-47.4997864,-7.2938583],[-47.4782024,-7.3367537],[-47.4929962,-7.3758749],[-47.5803436,-7.4192029],[-47.5915697,-7.4400683],[-47.5628339,-7.4506335],[-47.5284919,-7.4335397],[-47.501525,-7.4397949],[-47.4963582,-7.4813961],[-47.4610895,-7.5183631],[-47.4251086,-7.5285591],[-47.439975,-7.5559998],[-47.3990893,-7.5691277],[-47.383018,-7.6003894],[-47.3884071,-7.6324683],[-47.3369882,-7.6362198],[-47.3230007,-7.655917],[-47.3316711,-7.6854401],[-47.3029899,-7.6902464],[-47.3161674,-7.7175096],[-47.2632039,-7.7520021],[-47.235753,-7.8042997],[-47.1877127,-7.8586617],[-47.1470843,-7.8968663],[-47.1036372,-7.9540427],[-47.0997545,-7.9846888],[-47.0624465,-8.0045961],[-47.0455856,-8.0530907],[-47.0031523,-8.0638818],[-46.970654,-8.0435818],[-46.9416367,-7.9979071],[-46.8832574,-7.9642485],[-46.8139012,-7.9511515],[-46.7861749,-7.952884],[-46.7461334,-7.927386],[-46.70928,-7.9134842],[-46.6494081,-7.9100205],[-46.6091661,-7.8929592],[-46.577697,-7.9111659],[-46.5598218,-7.9408804],[-46.5102664,-7.9658306],[-46.4763706,-8.0147165],[-46.4800319,-8.042155],[-46.4655932,-8.0719288],[-46.4825614,-8.0887668],[-46.5138952,-8.164658],[-46.4891624,-8.2077175],[-46.5091024,-8.2355974],[-46.5068685,-8.2658847],[-46.5439995,-8.3174359],[-46.6117205,-8.327711],[-46.6338866,-8.3183546],[-46.7025988,-8.3481655],[-46.7365293,-8.3792104],[-46.7824337,-8.3680837],[-46.8026138,-8.4060856],[-46.8005095,-8.4540934],[-46.8234833,-8.4744962],[-46.8491469,-8.4746502],[-46.8433518,-8.5228537],[-46.8624212,-8.55537],[-46.9022558,-8.5862755],[-46.8977279,-8.6010165],[-46.9163941,-8.6484068],[-46.8869493,-8.6864898],[-46.9143685,-8.7085831],[-46.9248679,-8.7442212],[-46.9075097,-8.7720788],[-46.9028067,-8.8145359],[-46.9181468,-8.856995],[-46.9597282,-8.8754498],[-46.9929219,-8.8788894],[-46.9714187,-8.9164052],[-47.0112552,-8.9466044],[-47.0215615,-8.9886406],[-47.0358639,-8.989814],[-47.0577274,-9.0529545],[-47.0073415,-9.0821934],[-46.9759264,-9.0817295],[-46.9402883,-9.0637411],[-46.9121494,-9.0827243],[-46.9302566,-9.1059806],[-46.9263087,-9.1349438],[-46.8999976,-9.1280193],[-46.861117,-9.1464228],[-46.8523673,-9.1861361],[-46.8196135,-9.2116185],[-46.8288944,-9.2400898],[-46.8189454,-9.2600573],[-46.8470632,-9.2924222],[-46.8187517,-9.3034377],[-46.7991716,-9.3388432],[-46.7586743,-9.3812175],[-46.7543134,-9.4138029],[-46.7233119,-9.3963646],[-46.6659757,-9.3919186],[-46.6337571,-9.4137633],[-46.6495644,-9.444091],[-46.6275914,-9.4657229],[-46.5732556,-9.4777617],[-46.5591976,-9.4929926],[-46.5745282,-9.5206835],[-46.5391662,-9.5601446],[-46.5923881,-9.5872005],[-46.6130575,-9.6658082],[-46.6533374,-9.6934421],[-46.6443936,-9.7403333],[-46.5961386,-9.7472513],[-46.5750865,-9.7585754],[-46.579665,-9.7963455],[-46.5624781,-9.8106895],[-46.5143077,-9.7977511],[-46.4803335,-9.8552553],[-46.4708399,-9.8980472],[-46.4786115,-9.9238687],[-46.4775839,-9.9883014],[-46.457085,-10.0180174],[-46.4452004,-10.0773873],[-46.420695,-10.0808792],[-46.3839691,-10.1201424],[-46.3678895,-10.1688141],[-46.3275253,-10.1836944],[-46.3130818,-10.1728238],[-46.2682935,-10.1812102],[-46.2408341,-10.1718858],[-46.2020098,-10.1740091],[-46.1633034,-10.2136326],[-46.135913,-10.2063543],[-46.0928346,-10.2099009],[-46.0584106,-10.1855633],[-46.0282782,-10.1768696],[-46.0177241,-10.2403919],[-45.9462653,-10.2585499],[-45.9560735,-10.2210775],[-45.945619,-10.1964425],[-45.9000213,-10.1527686],[-45.8785439,-10.1102993],[-45.8699363,-10.069292],[-45.8801071,-10.0610063],[-45.8540563,-9.9900761],[-45.8422862,-9.9415579],[-45.8662777,-9.870719],[-45.8387355,-9.7968986],[-45.8214206,-9.7731271],[-45.8210097,-9.7392142],[-45.8385678,-9.6963177],[-45.8335115,-9.6522772],[-45.8203869,-9.6179128],[-45.8367433,-9.6021266],[-45.8419325,-9.5628899],[-45.8323329,-9.5366631],[-45.7976247,-9.4872621],[-45.7834353,-9.4794771],[-45.801624,-9.436008],[-45.7991632,-9.4163401],[-45.8246917,-9.3745778],[-45.8480022,-9.3558846],[-45.8877335,-9.3488501],[-45.9079205,-9.297005],[-45.8972877,-9.2332596],[-45.9060932,-9.191255],[-45.9294989,-9.1276255],[-45.9232199,-9.0899924],[-45.9383299,-9.0631884],[-45.943779,-9.0151149],[-45.9911913,-8.950212],[-45.9950893,-8.9269916],[-45.967338,-8.8763614],[-45.9536804,-8.8069269],[-45.9377073,-8.7812437],[-45.8898847,-8.7392622],[-45.8404069,-8.715529],[-45.815991,-8.6327526],[-45.7774735,-8.6174334],[-45.7948031,-8.5917974],[-45.7707796,-8.5732971],[-45.7386778,-8.5006556],[-45.7449161,-8.4491543],[-45.7305013,-8.4295698],[-45.7246755,-8.394824],[-45.7031008,-8.3807083],[-45.6903817,-8.3359749],[-45.667125,-8.2886542],[-45.6636264,-8.2505308],[-45.609782,-8.2054181],[-45.6150805,-8.1933337],[-45.5837278,-8.1569362],[-45.585718,-8.1027887],[-45.5630388,-8.0456436],[-45.5776554,-8.0283313],[-45.5394653,-7.9183584],[-45.5223797,-7.8882602],[-45.5407541,-7.8640562],[-45.5112007,-7.823467],[-45.5106337,-7.8013623],[-45.4895111,-7.7862569],[-45.4823218,-7.715842],[-45.4558381,-7.6700189],[-45.399205,-7.6410589],[-45.3346804,-7.5776595],[-45.2617074,-7.5711843],[-45.2323263,-7.5490714],[-45.2136061,-7.5655847],[-45.155528,-7.5129145],[-45.1267163,-7.5142023],[-45.0843087,-7.5021569],[-45.0492328,-7.5132098],[-44.9870148,-7.4811379],[-44.9230093,-7.4682318],[-44.9004353,-7.4254106],[-44.8697051,-7.4230572],[-44.8480283,-7.3865659],[-44.8164962,-7.3608938],[-44.7803456,-7.3785175],[-44.7419808,-7.3617039],[-44.7299293,-7.3907703],[-44.688641,-7.3949088],[-44.6591714,-7.3285253],[-44.6158702,-7.3086662],[-44.5940769,-7.2671767],[-44.5641953,-7.227708],[-44.5351164,-7.2273081],[-44.5142335,-7.1960154],[-44.4620959,-7.1600911],[-44.4306277,-7.1515581],[-44.3860639,-7.1209154],[-44.3324675,-7.1086126],[-44.3051848,-7.1178122],[-44.2757784,-7.0745111],[-44.2797853,-7.0452697],[-44.2622947,-7.0013021],[-44.2359545,-6.9987123],[-44.2081719,-6.9699452],[-44.1986023,-6.9297624],[-44.1786515,-6.9271586],[-44.171346,-6.8849772],[-44.0987098,-6.8399437],[-44.1162756,-6.8057859],[-44.0590626,-6.8084375],[-44.0533707,-6.7683088],[-43.9877336,-6.7572779],[-43.9567604,-6.7431544],[-43.9451026,-6.76551],[-43.9137943,-6.7526615],[-43.879918,-6.7577824],[-43.8537609,-6.7356117],[-43.8201262,-6.7272772],[-43.7908561,-6.702332],[-43.6428744,-6.7165511],[-43.5843756,-6.7574843],[-43.5616591,-6.7481209],[-43.5416337,-6.7891369],[-43.5083976,-6.7988271],[-43.4834282,-6.8330325],[-43.45753,-6.8460734],[-43.4191289,-6.8440105],[-43.3664572,-6.8199615],[-43.3451933,-6.7975282],[-43.2959868,-6.799846],[-43.2712618,-6.7925679],[-43.2500549,-6.7686466],[-43.1782741,-6.7673365],[-43.1475876,-6.7836885],[-43.1049784,-6.7702479],[-43.0882871,-6.7517415],[-43.0479056,-6.7619503],[-42.9928003,-6.7487284],[-42.977444,-6.7179372],[-42.9511065,-6.7050771],[-42.9199314,-6.6710081],[-42.9077155,-6.6059212],[-42.8885014,-6.58016],[-42.886233,-6.5087383],[-42.8657951,-6.483881],[-42.8779309,-6.4184932],[-42.854454,-6.3825418],[-42.8515221,-6.3586007],[-42.8316358,-6.3446918],[-42.8491967,-6.3071447],[-42.8545028,-6.2498564],[-42.8766595,-6.2253549],[-42.9142143,-6.214591],[-42.9346657,-6.1915956],[-42.9699111,-6.1773251],[-42.9797895,-6.1330731],[-42.9922986,-6.1175746],[-43.0491272,-6.1015897],[-43.075709,-6.0411928],[-43.0475635,-5.9973364],[-43.0842113,-5.9573401],[-43.0869477,-5.9191393],[-43.0989682,-5.9008642],[-43.077175,-5.8741309],[-43.096525,-5.8297994],[-43.090417,-5.8078268],[-43.1011671,-5.7586283],[-43.0758068,-5.7311104],[-43.0885602,-5.671597],[-43.0803547,-5.6515195],[-43.0972956,-5.6270398],[-43.0819956,-5.5995129],[-43.0332174,-5.5920741],[-43.0244021,-5.5617437],[-43.0042214,-5.542679],[-43.0002634,-5.519285],[-42.9740668,-5.4859637],[-42.9697043,-5.4575611],[-42.9306814,-5.4391741],[-42.9095318,-5.3944861],[-42.8866425,-5.3918993],[-42.8645688,-5.3687339],[-42.8253096,-5.3463631],[-42.8122357,-5.2823751],[-42.8294846,-5.2392642],[-42.7989936,-5.1896781],[-42.8182455,-5.0975515],[-42.8353951,-5.0739684],[-42.8446323,-5.0242009],[-42.8632006,-4.9681237],[-42.8539165,-4.9372598],[-42.8856392,-4.9046048],[-42.8974052,-4.8426144],[-42.9386462,-4.8092127],[-42.947344,-4.7633435],[-42.9262348,-4.7506827],[-42.9230768,-4.7212766],[-42.9442167,-4.706368],[-42.9446269,-4.6716971],[-42.9161689,-4.6514334],[-42.8665233,-4.5662958],[-42.8750876,-4.5365172],[-42.8521698,-4.5059709],[-42.8535976,-4.4743222],[-42.8755527,-4.4629476],[-42.8710854,-4.4300212],[-42.8966234,-4.4022265],[-42.9272121,-4.3851744],[-42.9590713,-4.3815691],[-42.9635249,-4.3272055],[-42.9847736,-4.2835362],[-42.986435,-4.2204805],[-42.9358417,-4.1591226],[-42.8873033,-4.1473043],[-42.8990805,-4.1164122],[-42.8697483,-4.1041016],[-42.8415051,-4.0296258],[-42.8165846,-3.9931653],[-42.7914356,-3.9863746],[-42.7875595,-3.9629428],[-42.7392821,-3.9272592],[-42.7198343,-3.8750962],[-42.6713615,-3.787338],[-42.684036,-3.7652214],[-42.6701707,-3.7270984],[-42.6832842,-3.7000585],[-42.6750751,-3.6726539],[-42.6188251,-3.6206567],[-42.6117701,-3.5871407],[-42.565152,-3.5673871],[-42.554015,-3.538072],[-42.530243,-3.5114277],[-42.5269691,-3.485627],[-42.4883075,-3.4692255],[-42.4612565,-3.4846029],[-42.418981,-3.4535822],[-42.3558482,-3.4506558],[-42.3166987,-3.4341703],[-42.2952656,-3.4540514],[-42.2470775,-3.4325601],[-42.1995819,-3.4278288],[-42.1947444,-3.3993918],[-42.1506693,-3.3866119],[-42.1456821,-3.3544152],[-42.1257977,-3.3464177],[-42.1236476,-3.2668048],[-42.0689723,-3.2643565],[-42.0401395,-3.2469494],[-42.0127758,-3.2480714],[-41.9727075,-3.2062128],[-41.9250838,-3.1393739],[-41.9253585,-3.1150742],[-41.8956982,-3.0939472],[-41.8644743,-3.05218],[-41.8228453,-3.0179417],[-41.7967323,-2.9606173],[-41.8062776,-2.9383366],[-41.8351358,-2.9150608],[-41.8660379,-2.8699664],[-41.8451309,-2.8139355],[-41.8486424,-2.7838756],[-41.8247689,-2.746684],[-41.8340703,-2.7240423],[-41.9102779,-2.7189438],[-41.9937635,-2.7213606],[-42.0165117,-2.7375778],[-42.0436845,-2.7284903],[-42.0701524,-2.6871521],[-42.1283541,-2.6952237],[-42.2127713,-2.6871254],[-42.2294878,-2.6964947],[-42.2553725,-2.6830782],[-42.2635558,-2.7579038],[-42.3386064,-2.7491508],[-42.3646388,-2.7156394],[-42.4216335,-2.7139179],[-42.4755408,-2.69971],[-42.5042444,-2.6781208],[-42.5613215,-2.6786391],[-42.6210092,-2.6450801],[-42.7021335,-2.5689462],[-42.7227119,-2.5562389],[-42.7489808,-2.5607334],[-42.763197,-2.5454551],[-42.8252915,-2.5447232],[-42.9633508,-2.4752786],[-43.054906,-2.4401398],[-43.2374131,-2.3586896],[-43.3275002,-2.3365618],[-43.4414269,-2.3416982],[-43.4785084,-2.3669157],[-43.4833242,-2.3853387],[-43.4520953,-2.4426008],[-43.4566175,-2.4826229],[-43.5070331,-2.4775487],[-43.5209629,-2.4546667],[-43.5160764,-2.4245194],[-43.5374497,-2.4219104],[-43.554675,-2.4475319],[-43.5797943,-2.4586428],[-43.6125278,-2.5065254],[-43.6262012,-2.5102068],[-43.6640642,-2.4879463],[-43.7169568,-2.4758836],[-43.7466075,-2.4935863],[-43.760094,-2.4658732],[-43.7398722,-2.4321661],[-43.710462,-2.4271639],[-43.6875871,-2.3976532],[-43.6452069,-2.4027164],[-43.6288315,-2.3582626],[-43.6235881,-2.3031106],[-43.5994759,-2.2929417],[-43.6023834,-2.2605317],[-43.6272105,-2.2512337],[-43.7181198,-2.2888024],[-43.7218633,-2.3220543],[-43.739594,-2.3503498],[-43.7268003,-2.3864684],[-43.7599625,-2.417388],[-43.7983976,-2.4395976],[-43.8004645,-2.3902511],[-43.8381131,-2.4166562],[-43.8468201,-2.5018685],[-43.8911662,-2.5354441],[-43.89368,-2.5564613],[-43.9312195,-2.5616223],[-43.9565437,-2.621532],[-44.003944,-2.6381525],[-44.0225752,-2.6526069],[-44.0542486,-2.7113015],[-44.0775712,-2.7426212],[-44.1158153,-2.7486151],[-44.1364039,-2.7664455],[-44.1852856,-2.7641934],[-44.2414346,-2.7805082],[-44.2660385,-2.757982],[-44.2495717,-2.7303218],[-44.2222595,-2.726325],[-44.1946156,-2.7051436],[-44.1647833,-2.6995888],[-44.1375868,-2.681636],[-44.1317911,-2.6563219],[-44.1056932,-2.6292448],[-44.1056653,-2.6033728],[-44.0801434,-2.5635338],[-44.0340172,-2.5499031],[-44.0238605,-2.5082929],[-44.0526525,-2.4688077],[-44.0265249,-2.4512955],[-44.0308375,-2.4070153],[-44.0946029,-2.4066045],[-44.1519536,-2.4343493],[-44.1744068,-2.4583777],[-44.2259255,-2.4769518],[-44.2998438,-2.4861852],[-44.3208355,-2.5271834],[-44.3559533,-2.5327634],[-44.370678,-2.5714595],[-44.3540919,-2.6031972],[-44.3804292,-2.668178],[-44.3917063,-2.7205383],[-44.3886679,-2.753767],[-44.403057,-2.7695457],[-44.410448,-2.8114122],[-44.4062131,-2.8821781],[-44.4248175,-2.9439339],[-44.4537407,-2.9872782],[-44.4961175,-3.0265815],[-44.5324988,-3.0440498],[-44.5971538,-3.0400478],[-44.6655082,-3.0108781],[-44.6794481,-2.9790843],[-44.6786176,-2.9153394],[-44.6506763,-2.8914676],[-44.6326205,-2.8458973],[-44.6516071,-2.8074561],[-44.6238064,-2.7389322],[-44.6268043,-2.7026794],[-44.6065877,-2.6895843],[-44.5572532,-2.6042223],[-44.5345819,-2.527683],[-44.5121871,-2.5351872],[-44.4902258,-2.5217285],[-44.4759972,-2.4850476],[-44.4429414,-2.4575159],[-44.4778895,-2.4112011],[-44.4049676,-2.4156149],[-44.3723585,-2.3807378],[-44.3800655,-2.3592815],[-44.3580073,-2.3405179],[-44.3837893,-2.2766636],[-44.3984631,-2.2143858],[-44.435365,-2.1658855],[-44.4641781,-2.1467091],[-44.519899,-2.1547384],[-44.539997,-2.1890102],[-44.5986412,-2.2510094],[-44.6232252,-2.2673457],[-44.6387692,-2.2958522],[-44.6717808,-2.2876893],[-44.6853746,-2.2630012],[-44.6341237,-2.2285412],[-44.5872919,-2.1655535],[-44.5886114,-2.1368446],[-44.566719,-2.1256263],[-44.5550637,-2.0974638],[-44.4979537,-2.0493448],[-44.4812537,-1.9868997],[-44.4958287,-1.9719053],[-44.4924108,-1.9422359],[-44.5145672,-1.8857296],[-44.5537733,-1.8816402],[-44.5389028,-1.8512743],[-44.5684406,-1.8248669],[-44.5632453,-1.8075625],[-44.6167768,-1.7589094],[-44.6010659,-1.7397075],[-44.6525225,-1.7154006],[-44.6474827,-1.7587284],[-44.6808578,-1.7726448],[-44.725642,-1.7580747],[-44.7009158,-1.7262436],[-44.7543681,-1.7179919],[-44.7775458,-1.6802269],[-44.738208,-1.6505464],[-44.6750018,-1.6413743],[-44.6584889,-1.6597566],[-44.6363315,-1.6165594],[-44.6570985,-1.5877507],[-44.704997,-1.5549676],[-44.7233624,-1.5567241],[-44.7582053,-1.5920846],[-44.7788165,-1.5784472],[-44.8026869,-1.5894386],[-44.8357046,-1.5729409],[-44.8410776,-1.6030264],[-44.9057994,-1.6046657],[-44.9177152,-1.5647063],[-44.8725439,-1.4855886],[-44.843488,-1.4784611],[-44.8305433,-1.4277163],[-44.8604482,-1.411296],[-44.8863524,-1.4201299],[-44.8992003,-1.4460825],[-44.9548712,-1.4912888],[-44.961222,-1.5433726],[-45.0064892,-1.4861296],[-45.0488938,-1.4903513],[-45.0967094,-1.4554646],[-45.103193,-1.4731292],[-45.1324901,-1.4847851],[-45.1980237,-1.488425],[-45.2128599,-1.5315776],[-45.2321302,-1.5474558],[-45.2495865,-1.5872259],[-45.2682033,-1.5985924],[-45.3119308,-1.5994428],[-45.3434691,-1.5867941],[-45.321884,-1.5441976],[-45.3084477,-1.4968108],[-45.3162845,-1.4863264],[-45.383413,-1.4666555],[-45.3102957,-1.4379595],[-45.2979255,-1.4130962],[-45.3078855,-1.3671724],[-45.3048976,-1.3364114],[-45.3449908,-1.3128683],[-45.3562905,-1.3317941],[-45.3703829,-1.3955306],[-45.3909708,-1.4133832],[-45.4361972,-1.4283951],[-45.463828,-1.4771148],[-45.4889818,-1.4707818],[-45.474976,-1.3720072],[-45.4157437,-1.3459114],[-45.4084096,-1.3066439],[-45.4483204,-1.2931682],[-45.4944899,-1.3529629],[-45.5267855,-1.3587696],[-45.5191177,-1.3193135],[-45.5734152,-1.2867296],[-45.5937076,-1.2667204],[-45.6258967,-1.2836175],[-45.6427317,-1.2319227],[-45.6364092,-1.1925335],[-45.6135664,-1.1629369],[-45.634618,-1.1483984],[-45.6483426,-1.2146637],[-45.6463001,-1.2321743],[-45.6898993,-1.2736014],[-45.7065024,-1.270058],[-45.73441,-1.2349627],[-45.7329876,-1.1996034],[-45.6909081,-1.1486673],[-45.7235216,-1.1291686],[-45.7424287,-1.1406046],[-45.768167,-1.1989824],[-45.7996427,-1.1799169],[-45.8444438,-1.2124599],[-45.8830969,-1.1494545],[-45.8647027,-1.1306539],[-45.8649479,-1.1083212],[-45.8435407,-1.0828239],[-45.8524516,-1.0546563],[-45.8715496,-1.0525306],[-45.8948567,-1.1126371],[-45.9465218,-1.1955882],[-45.9577631,-1.1951372],[-45.962323,-1.1102472],[-45.9783456,-1.0493281],[-45.9959905,-1.0543331],[-46.0750388,-1.1609984],[-46.0770824,-1.1962431],[-46.1330409,-1.2103693],[-46.1400773,-1.2476926],[-46.1615773,-1.2818889],[-46.1333341,-1.3097341],[-46.1145704,-1.351941],[-46.1534659,-1.4256059],[-46.1435954,-1.449737],[-46.1761387,-1.4773849],[-46.1440841,-1.5178302],[-46.1336272,-1.5818183],[-46.1473091,-1.6064361]],[[-45.6960059,-1.2594604],[-45.6725576,-1.2541054],[-45.668519,-1.2220026],[-45.6880151,-1.1836537],[-45.710748,-1.2265744],[-45.6960059,-1.2594604]],[[-44.4759702,-2.7360571],[-44.4903919,-2.7239927],[-44.5363495,-2.75386],[-44.5861828,-2.8146511],[-44.5803079,-2.8594035],[-44.6138694,-2.9505527],[-44.6399017,-2.968609],[-44.6332582,-2.9863496],[-44.5920609,-3.0151757],[-44.5609183,-3.0225313],[-44.4897079,-2.9713835],[-44.4760915,-2.876649],[-44.4821107,-2.8080102],[-44.4759702,-2.7360571]],[[-44.7423289,-1.4926994],[-44.7664101,-1.4579916],[-44.7748462,-1.4951794],[-44.7423289,-1.4926994]],[[-44.9290041,-1.2667719],[-44.9865661,-1.2661465],[-44.9988394,-1.2857035],[-44.9872873,-1.3226586],[-45.028776,-1.3180265],[-45.014585,-1.3535851],[-45.0214093,-1.3840191],[-45.0067443,-1.3998824],[-44.9682279,-1.3904831],[-44.9434249,-1.3649817],[-44.9014277,-1.3371745],[-44.8673909,-1.3296053],[-44.8781392,-1.2854746],[-44.9290041,-1.2667719]],[[-43.7537358,-2.3781748],[-43.7869607,-2.3774446],[-43.7753544,-2.4075027],[-43.7537358,-2.3781748]],[[-43.5435019,-2.3867506],[-43.558058,-2.3554962],[-43.6128797,-2.3784923],[-43.5997653,-2.4074293],[-43.5618867,-2.4238154],[-43.5435019,-2.3867506]],[[-43.5161855,-2.4068138],[-43.5066243,-2.3839978],[-43.5268369,-2.3707381],[-43.5372177,-2.4056358],[-43.5161855,-2.4068138]]],"bbox":[-48.7551507,-10.2585499,-41.7967323,-1.0493281]}
