{"type":"Topology","objects":{"geometrias":{"type":"GeometryCollection","geometries":[{"type":"Polygon","arcs":[[0]],"properties":{"code_state":25,"code_region":2,"name_state":"Paraíba","abbrev_state":"PB","name_region":"Nordeste","year":2020}}]}},"arcs":[[[-38.669849,-7.0477046],[-38.6564059,-7.0924258],[-38.6774153,-7.1309352],[-38.6593223,-7.1832477],[-38.6248028,-7.1913206],[-38.615368,-7.2301858],[-38.5830835,-7.2483827],[-38.5588783,-7.2394171],[-38.5345869,-7.293793],[-38.5786649,-7.3797483],[-38.5853008,-7.4348151],[-38.6459957,-7.501926],[-38.6611819,-7.5682918],[-38.7036588,-7.5809573],[-38.7156068,-7.612086],[-38.6264385,-7.6947249],[-38.6070728,-7.7402984],[-38.5601296,-7.7570921],[-38.5249571,-7.7546448],[-38.4639757,-7.7308921],[-38.4095078,-7.7304933],[-38.3549779,-7.6784252],[-38.3266856,-7.6937045],[-38.2946014,-7.7779702],[-38.2933511,-7.8230459],[-38.2385707,-7.8307261],[-38.164219,-7.7799088],[-38.1391963,-7.7862381],[-38.1161782,-7.8225602],[-38.0770694,-7.8305796],[-38.0713985,-7.7742344],[-38.0395816,-7.7481191],[-38.003971,-7.7789864],[-37.9705998,-7.7775769],[-37.9239349,-7.7151119],[-37.8805967,-7.6836501],[-37.8571589,-7.6519689],[-37.8100395,-7.6438918],[-37.7858276,-7.6257982],[-37.7609745,-7.6668105],[-37.740368,-7.6360853],[-37.7558477,-7.6195218],[-37.7287319,-7.5797304],[-37.6558188,-7.5234166],[-37.6303781,-7.532511],[-37.6097708,-7.5080308],[-37.5279586,-7.4653107],[-37.5274041,-7.4483824],[-37.4876262,-7.3894195],[-37.496038,-7.3648223],[-37.4255124,-7.3529162],[-37.3857137,-7.3566938],[-37.3305857,-7.2882835],[-37.2883328,-7.2882889],[-37.2341788,-7.2738869],[-37.196674,-7.2946701],[-37.1353148,-7.3466643],[-37.0856227,-7.3582564],[-37.0674131,-7.38338],[-37.0256234,-7.3860442],[-37.0236157,-7.4338675],[-36.9842256,-7.4822617],[-37.0032533,-7.4963885],[-37.0538222,-7.5045686],[-37.121524,-7.5361189],[-37.1635694,-7.5747149],[-37.1979462,-7.6352979],[-37.1545429,-7.7064038],[-37.1389447,-7.7455177],[-37.1570323,-7.7729995],[-37.217416,-7.8066859],[-37.244648,-7.8749],[-37.2873944,-7.9038765],[-37.3089764,-7.9341762],[-37.3434534,-7.9470209],[-37.3397846,-7.9798045],[-37.2917793,-7.9653109],[-37.2373419,-7.9733068],[-37.2079199,-7.9518661],[-37.1933946,-7.9828667],[-37.1517946,-8.0094148],[-37.1568452,-8.0645345],[-37.1425578,-8.1179448],[-37.1602253,-8.1704004],[-37.1264516,-8.173684],[-37.1229148,-8.2090664],[-37.0822268,-8.2618874],[-37.0402836,-8.2661796],[-36.9911563,-8.3029551],[-36.9602017,-8.3004673],[-36.8999978,-8.2436608],[-36.8125112,-8.2052941],[-36.7615697,-8.1962939],[-36.6678453,-8.1242659],[-36.6403209,-8.1199106],[-36.6537909,-8.0703841],[-36.6278519,-8.0557493],[-36.6278515,-7.9864066],[-36.6118769,-7.9478967],[-36.586861,-7.9586561],[-36.5748119,-7.9075006],[-36.5336306,-7.9021779],[-36.4801364,-7.9247633],[-36.4441096,-7.9152833],[-36.4296952,-7.8865592],[-36.4299642,-7.8271115],[-36.3945385,-7.8076088],[-36.3091315,-7.8066872],[-36.2613346,-7.832077],[-36.254196,-7.7963868],[-36.2166343,-7.7641042],[-36.1978732,-7.7903806],[-36.1433702,-7.7815622],[-36.068992,-7.7809736],[-36.0215873,-7.8102391],[-35.9328815,-7.7844259],[-35.9093578,-7.7925091],[-35.8721183,-7.7495389],[-35.828499,-7.751649],[-35.7805775,-7.7383514],[-35.7365494,-7.709599],[-35.6841139,-7.7077989],[-35.6315236,-7.6812374],[-35.6146193,-7.6563094],[-35.5595634,-7.66133],[-35.5196319,-7.6400175],[-35.5316871,-7.6216661],[-35.5151939,-7.585021],[-35.527211,-7.5699614],[-35.4943121,-7.4822056],[-35.4503698,-7.4534114],[-35.4326034,-7.4723446],[-35.3732703,-7.4436477],[-35.3523559,-7.4223977],[-35.3090486,-7.4090439],[-35.2485947,-7.3747796],[-35.1907413,-7.3978912],[-35.1720667,-7.3880404],[-35.107964,-7.405526],[-35.0705208,-7.398761],[-34.9854187,-7.4620067],[-34.9842275,-7.5078883],[-34.9593463,-7.5391331],[-34.8580231,-7.5379505],[-34.8265968,-7.5510049],[-34.8141774,-7.4900032],[-34.7945268,-7.3329527],[-34.8025632,-7.3135207],[-34.8035074,-7.2137666],[-34.7931613,-7.1545605],[-34.8104519,-7.1450005],[-34.8422771,-7.0574216],[-34.865263,-7.0295831],[-34.8739579,-6.9860793],[-34.853938,-6.9006149],[-34.8875589,-6.8831989],[-34.9112215,-6.8261596],[-34.9338983,-6.6968913],[-34.9550045,-6.6675271],[-34.9659405,-6.5977662],[-34.9675551,-6.4902893],[-35.0285409,-6.5055226],[-35.0577321,-6.5277912],[-35.0945474,-6.4981034],[-35.1125496,-6.5051175],[-35.1454435,-6.5527097],[-35.1702989,-6.5583926],[-35.2323484,-6.5317766],[-35.2745652,-6.5438778],[-35.3307729,-6.5443414],[-35.3645125,-6.5120405],[-35.4123941,-6.4882475],[-35.5252965,-6.4760978],[-35.5805324,-6.4871114],[-35.6001881,-6.4606106],[-35.6601643,-6.4452787],[-35.7071666,-6.4695364],[-35.7633561,-6.482192],[-35.9441837,-6.4930062],[-36.0053484,-6.4810533],[-36.0777206,-6.4050906],[-36.110189,-6.4291807],[-36.1437507,-6.4253246],[-36.2497721,-6.4373599],[-36.2511629,-6.4044235],[-36.2988575,-6.3846068],[-36.2767475,-6.3404305],[-36.2798727,-6.3088615],[-36.31364,-6.2833561],[-36.3575767,-6.3099873],[-36.3945614,-6.2939748],[-36.430306,-6.362255],[-36.4998486,-6.3581649],[-36.5074919,-6.4001167],[-36.5309716,-6.4520716],[-36.5258468,-6.5011613],[-36.4809566,-6.5230828],[-36.4491734,-6.5539142],[-36.4358581,-6.625878],[-36.5138108,-6.594393],[-36.5588804,-6.7091075],[-36.5047532,-6.7539395],[-36.5069378,-6.8130054],[-36.540991,-6.8407187],[-36.6036081,-6.930457],[-36.6872181,-6.9259627],[-36.7092715,-6.9746886],[-36.7441126,-6.9677737],[-36.7665439,-6.9358676],[-36.7305176,-6.83544],[-36.7694651,-6.8387481],[-36.7727287,-6.7870652],[-36.8350296,-6.7310709],[-36.9034284,-6.7536148],[-36.9571355,-6.7904782],[-36.9776218,-6.7218552],[-36.9998335,-6.7077129],[-37.0594232,-6.749425],[-37.1289358,-6.765977],[-37.1537077,-6.7997892],[-37.1906719,-6.8253657],[-37.2345993,-6.824636],[-37.2551439,-6.8110615],[-37.269363,-6.7619855],[-37.2639208,-6.73217],[-37.3142989,-6.6889744],[-37.3427129,-6.7012464],[-37.4073341,-6.6971954],[-37.4846995,-6.7100374],[-37.4661909,-6.6599595],[-37.4803841,-6.6052178],[-37.4647245,-6.5326637],[-37.4157096,-6.5318801],[-37.3968914,-6.5142074],[-37.3909523,-6.4528424],[-37.39752,-6.4180988],[-37.3665279,-6.3255827],[-37.3304244,-6.3063276],[-37.3214502,-6.2828122],[-37.2731386,-6.2799722],[-37.2705525,-6.2517144],[-37.2342715,-6.2132783],[-37.2015813,-6.205704],[-37.1613391,-6.157528],[-37.1755727,-6.0549393],[-37.2318602,-6.0275949],[-37.2724774,-6.0557025],[-37.2955717,-6.0500947],[-37.3936319,-6.1093877],[-37.4456931,-6.1122014],[-37.4589474,-6.1450022],[-37.5696205,-6.1554387],[-37.5999132,-6.174011],[-37.6731701,-6.1905803],[-37.7075242,-6.1768554],[-37.7423739,-6.1889754],[-37.7756165,-6.2313435],[-37.7605164,-6.2540906],[-37.7648844,-6.2922364],[-37.8121239,-6.2927268],[-37.8598275,-6.3748773],[-37.9260514,-6.4211378],[-37.9552056,-6.4080615],[-37.9972783,-6.4264889],[-38.0370128,-6.4570546],[-38.0701511,-6.4627525],[-38.0979875,-6.5094908],[-38.1355176,-6.5184761],[-38.1690391,-6.5000201],[-38.2392289,-6.4802973],[-38.2815259,-6.499544],[-38.3140874,-6.4873324],[-38.3284375,-6.460656],[-38.373663,-6.455781],[-38.3993194,-6.4097925],[-38.4260412,-6.4141238],[-38.4520637,-6.3924893],[-38.4850614,-6.3994193],[-38.4897546,-6.3634482],[-38.5337961,-6.3417251],[-38.5924663,-6.3782461],[-38.5542654,-6.4327631],[-38.5704101,-6.4701951],[-38.6122882,-6.5131913],[-38.6121695,-6.5383173],[-38.6428534,-6.5811777],[-38.6291604,-6.6045824],[-38.6570803,-6.6422895],[-38.6519647,-6.6731834],[-38.6731505,-6.6972212],[-38.6575338,-6.7407602],[-38.6169213,-6.7932989],[-38.6518704,-6.8117122],[-38.6948153,-6.8745632],[-38.7562792,-6.9035917],[-38.7552435,-6.9391261],[-38.7305837,-7.0120279],[-38.669849,-7.0477046]]],"bbox":[-38.7562792,-8.3029551,-34.7931613,-6.0275949]}
