{"type":"Topology","objects":{"geometrias":{"type":"GeometryCollection","geometries":[{"type":"Polygon","arcs":[[0]],"properties":{"code_state":23,"code_region":2,"name_state":"Ceará","abbrev_state":"CE","name_region":"Nordeste","year":2020}}]}},"arcs":[[[-41.1829153,-4.0179652],[-41.1718147,-4.0324776],[-41.1203449,-4.036339],[-41.1141151,-4.0518193],[-41.1408264,-4.123585],[-41.1183295,-4.1652241],[-41.0908856,-4.1703318],[-41.1359048,-4.2335113],[-41.1191241,-4.3065257],[-41.1600114,-4.3814973],[-41.190776,-4.515529],[-41.2215303,-4.5674913],[-41.2293307,-4.620095],[-41.1817163,-4.6738033],[-41.2238319,-4.7209125],[-41.2477903,-4.7617835],[-41.2127659,-4.772025],[-41.2431815,-4.8283262],[-41.2495738,-4.8696902],[-41.2213666,-4.9382298],[-41.1802162,-4.9475449],[-41.150922,-4.9921105],[-41.1225996,-5.0080684],[-41.1320192,-5.0485713],[-41.0970052,-5.0531485],[-41.0813031,-5.0900729],[-41.0264052,-5.1096969],[-40.9252903,-5.1820967],[-40.9117131,-5.2666535],[-40.9269076,-5.2969667],[-40.9184529,-5.3382552],[-40.9361032,-5.3659675],[-40.9170161,-5.3894477],[-40.9360725,-5.4400918],[-40.9291569,-5.4833344],[-40.9323823,-5.548897],[-40.9156645,-5.5643716],[-40.903254,-5.6325524],[-40.9387693,-5.6733406],[-40.9135413,-5.7267463],[-40.9056455,-5.8492766],[-40.880216,-5.9176672],[-40.8735913,-5.9730536],[-40.9039474,-6.020877],[-40.9022038,-6.0492042],[-40.8728458,-6.0566276],[-40.8457385,-6.134995],[-40.8522242,-6.2242205],[-40.8105046,-6.2870634],[-40.7875128,-6.3042566],[-40.7791491,-6.3413465],[-40.8051547,-6.3931316],[-40.7836794,-6.5284046],[-40.7422241,-6.571719],[-40.7218947,-6.6185558],[-40.7322461,-6.6552201],[-40.7005233,-6.6773629],[-40.6491396,-6.6788294],[-40.6022071,-6.7160118],[-40.4769263,-6.7328317],[-40.4321666,-6.8129776],[-40.3887903,-6.7969987],[-40.3705774,-6.8079935],[-40.4285196,-6.8642545],[-40.4286547,-6.9961299],[-40.4533848,-7.0712338],[-40.4897393,-7.1186901],[-40.4843697,-7.1331987],[-40.5135611,-7.2397033],[-40.5116313,-7.2994306],[-40.5237232,-7.3184505],[-40.4335917,-7.3671782],[-40.3609839,-7.3556007],[-40.3185632,-7.3033404],[-40.2629956,-7.3010209],[-40.1956847,-7.3581487],[-40.1277543,-7.381915],[-40.000707,-7.3744783],[-39.926345,-7.3409989],[-39.8576968,-7.3254287],[-39.8286958,-7.3323702],[-39.7413221,-7.3268166],[-39.7061889,-7.3377612],[-39.6457183,-7.3808781],[-39.6289072,-7.4256285],[-39.5715905,-7.4298313],[-39.5528279,-7.4806568],[-39.5023605,-7.4641484],[-39.4607476,-7.471219],[-39.4556775,-7.5018609],[-39.4851642,-7.534449],[-39.4716808,-7.5758006],[-39.4349335,-7.5737228],[-39.4196561,-7.6044123],[-39.376095,-7.6117724],[-39.3055665,-7.6659316],[-39.2703214,-7.6598973],[-39.250388,-7.698443],[-39.2083352,-7.6894803],[-39.1437127,-7.718547],[-39.1063539,-7.7602263],[-39.088188,-7.8377261],[-39.0537557,-7.8193046],[-38.9822446,-7.8461256],[-38.9397983,-7.7915557],[-38.9395781,-7.7587726],[-38.8813975,-7.7474323],[-38.8688517,-7.7111798],[-38.8219622,-7.7147944],[-38.8121916,-7.6687972],[-38.742802,-7.660322],[-38.7151129,-7.6219195],[-38.7036588,-7.5809573],[-38.6611819,-7.5682918],[-38.6459957,-7.501926],[-38.5853008,-7.4348151],[-38.5786649,-7.3797483],[-38.5345869,-7.293793],[-38.5588783,-7.2394171],[-38.5830835,-7.2483827],[-38.615368,-7.2301858],[-38.6248028,-7.1913206],[-38.6593223,-7.1832477],[-38.6774153,-7.1309352],[-38.6564059,-7.0924258],[-38.669849,-7.0477046],[-38.7305837,-7.0120279],[-38.7552435,-6.9391261],[-38.7562792,-6.9035917],[-38.6948153,-6.8745632],[-38.6518704,-6.8117122],[-38.6182092,-6.7941425],[-38.6575338,-6.7407602],[-38.6731505,-6.6972212],[-38.6519647,-6.6731834],[-38.6570803,-6.6422895],[-38.6291604,-6.6045824],[-38.6428534,-6.5811777],[-38.6121695,-6.5383173],[-38.6122882,-6.5131913],[-38.5704101,-6.4701951],[-38.5542654,-6.4327631],[-38.5924663,-6.3782461],[-38.5770754,-6.3474275],[-38.5795457,-6.2796264],[-38.528348,-6.2391762],[-38.5272039,-6.193378],[-38.4781193,-6.1593764],[-38.4473166,-6.0852777],[-38.4015365,-6.053495],[-38.3662148,-6.0882981],[-38.3065012,-6.0870334],[-38.2525691,-6.0431031],[-38.2526921,-6.011914],[-38.2060156,-5.9643478],[-38.1637798,-5.9454434],[-38.1640605,-5.9274628],[-38.1225154,-5.8817401],[-38.1188643,-5.8328348],[-38.0615092,-5.7620533],[-38.0468842,-5.732942],[-38.0896939,-5.7148464],[-38.0819854,-5.6701227],[-38.0342697,-5.6371528],[-37.9900371,-5.5557979],[-37.9480565,-5.5346449],[-37.9346995,-5.5052844],[-37.9015773,-5.4997924],[-37.8895409,-5.4522882],[-37.8604816,-5.4066857],[-37.8642752,-5.3783526],[-37.8474704,-5.3400231],[-37.7831099,-5.2948155],[-37.7899659,-5.214499],[-37.7649556,-5.1396162],[-37.7334225,-5.1006412],[-37.7250894,-5.0706243],[-37.6776204,-5.0540857],[-37.6403381,-4.9264044],[-37.4464459,-4.8809614],[-37.2526586,-4.8313903],[-37.2950338,-4.7302004],[-37.3366511,-4.6931631],[-37.4075504,-4.6751417],[-37.47856,-4.6463392],[-37.4978126,-4.6269612],[-37.5586779,-4.6416654],[-37.5953211,-4.6230747],[-37.7128934,-4.5152771],[-37.7404125,-4.4725616],[-37.7700944,-4.4012707],[-37.809989,-4.3986351],[-37.8541657,-4.3794976],[-37.9065917,-4.339753],[-37.9883175,-4.2608416],[-38.1159673,-4.1480004],[-38.192162,-4.0405547],[-38.2728621,-3.9446755],[-38.3185531,-3.926197],[-38.360323,-3.8848564],[-38.4358215,-3.7705705],[-38.4613007,-3.7194362],[-38.4958517,-3.7250337],[-38.6524047,-3.682156],[-38.7017547,-3.6383599],[-38.7624235,-3.6059174],[-38.8072073,-3.5474398],[-38.8478133,-3.542842],[-38.911174,-3.5026221],[-38.9398097,-3.4489797],[-38.9733511,-3.4114983],[-39.0068377,-3.3968491],[-39.0487479,-3.4125743],[-39.091177,-3.3845614],[-39.1127379,-3.3471147],[-39.1592405,-3.3324643],[-39.2277272,-3.2408134],[-39.2617886,-3.2178823],[-39.3130443,-3.2060711],[-39.3441722,-3.1781403],[-39.3818222,-3.1835786],[-39.5498833,-3.0791328],[-39.5943265,-3.067981],[-39.6198268,-3.0259834],[-39.6498016,-3.0246493],[-39.6874313,-2.9966186],[-39.7325378,-2.9905367],[-39.7761955,-2.9560682],[-39.9187373,-2.8683649],[-39.9343158,-2.8707967],[-39.9946252,-2.839547],[-40.0388148,-2.8419486],[-40.1262327,-2.8235415],[-40.1437771,-2.840177],[-40.1853339,-2.8116806],[-40.3312076,-2.8059828],[-40.3718859,-2.8124064],[-40.4391695,-2.8092546],[-40.4979588,-2.7843235],[-40.5371263,-2.8194883],[-40.587525,-2.8399637],[-40.6433173,-2.849247],[-40.6702384,-2.8434164],[-40.7743912,-2.852787],[-40.8447845,-2.8858541],[-40.8672704,-2.8623655],[-41.0103149,-2.8914491],[-41.1114043,-2.8947769],[-41.2605616,-2.8836139],[-41.3226683,-2.9212078],[-41.321769,-2.951732],[-41.2799387,-2.9678059],[-41.2525524,-3.0356505],[-41.2675025,-3.0928897],[-41.3275371,-3.1599678],[-41.3224851,-3.1797928],[-41.3958586,-3.3040985],[-41.4123177,-3.3406973],[-41.3870216,-3.3900079],[-41.3240493,-3.3859241],[-41.319739,-3.4840869],[-41.3449041,-3.588739],[-41.3313155,-3.6246843],[-41.3417478,-3.6807726],[-41.3076646,-3.6848034],[-41.2393389,-3.7126454],[-41.2585189,-3.7327755],[-41.2768563,-3.8256211],[-41.2677571,-3.8618499],[-41.2289134,-3.9117298],[-41.2202395,-3.9415055],[-41.24924,-3.9898697],[-41.2388289,-4.015405],[-41.1829153,-4.0179652]]],"bbox":[-41.4123177,-7.8461256,-37.2526586,-2.7843235]}
