{"type":"Topology","objects":{"geometrias":{"type":"GeometryCollection","geometries":[{"type":"Polygon","arcs":[[0]],"properties":{"code_state":13,"code_region":1,"name_state":"Amazonas","abbrev_state":"AM","name_region":"Norte","year":2020}}]}},"arcs":[[[-69.8940261,-4.0006775],[-69.9351666,-4.2164712],[-69.9512441,-4.227073],[-69.9575556,-4.2842592],[-69.9809463,-4.3274264],[-70.0327789,-4.3551675],[-70.0793069,-4.3249745],[-70.1037271,-4.2762463],[-70.1681391,-4.3147638],[-70.1523918,-4.3355861],[-70.2056966,-4.3609937],[-70.2089486,-4.3281441],[-70.2555001,-4.3184365],[-70.2556147,-4.2776837],[-70.2895923,-4.2823148],[-70.3159161,-4.2595045],[-70.2848931,-4.233844],[-70.2988341,-4.1660642],[-70.3758354,-4.1418254],[-70.4191694,-4.140455],[-70.4733106,-4.1773737],[-70.520951,-4.1426805],[-70.624947,-4.1927938],[-70.6534993,-4.127195],[-70.6810338,-4.1997918],[-70.7299472,-4.1844437],[-70.7590075,-4.1599719],[-70.8081727,-4.183532],[-70.8498925,-4.2786538],[-70.8794739,-4.2925811],[-70.9155014,-4.3540325],[-70.9493684,-4.3795118],[-70.9884771,-4.3696929],[-71.0432845,-4.4010013],[-71.1005362,-4.3773914],[-71.1848414,-4.3926988],[-71.2171471,-4.3800231],[-71.2715899,-4.3970196],[-71.2665943,-4.4287341],[-71.3199826,-4.444544],[-71.3887583,-4.4281756],[-71.4178389,-4.4662349],[-71.4599855,-4.4394544],[-71.5375641,-4.4673765],[-71.6064534,-4.53443],[-71.6539535,-4.5082536],[-71.7149524,-4.5122609],[-71.7411775,-4.4855264],[-71.7770367,-4.4875548],[-71.8564553,-4.5131742],[-71.9767889,-4.6081153],[-72.0059011,-4.6416792],[-72.0393326,-4.6232419],[-72.1003473,-4.7031959],[-72.1412369,-4.7137233],[-72.2472341,-4.7809445],[-72.3206825,-4.7778577],[-72.3716546,-4.8073656],[-72.3856879,-4.8722773],[-72.4581265,-4.9255647],[-72.5476795,-4.9585074],[-72.6066747,-4.9955799],[-72.6110959,-5.0372389],[-72.6526505,-5.0637014],[-72.7075402,-5.0528985],[-72.739266,-5.0915009],[-72.8145777,-5.1097384],[-72.8160149,-5.1384917],[-72.8850672,-5.1668175],[-72.8635207,-5.2397924],[-72.8701065,-5.299351],[-72.8986544,-5.3370326],[-72.9569091,-5.4654078],[-72.9537678,-5.5401488],[-72.9921899,-5.703779],[-73.0425194,-5.7490234],[-73.1146581,-5.8537511],[-73.1510448,-5.8634491],[-73.1878491,-5.9387877],[-73.1817802,-5.962788],[-73.2374686,-6.032191],[-73.2317769,-6.0735718],[-73.2507967,-6.1049176],[-73.2502476,-6.1449404],[-73.2205261,-6.1785345],[-73.2192172,-6.2216958],[-73.1654897,-6.274208],[-73.1335201,-6.387364],[-73.1088656,-6.4100313],[-73.1384161,-6.4979764],[-73.1842126,-6.527574],[-73.212964,-6.5778386],[-73.2934088,-6.5928142],[-73.3544914,-6.5949159],[-73.3806914,-6.6350228],[-73.4586391,-6.6655406],[-73.5164161,-6.6773499],[-73.5597748,-6.7209528],[-73.6428058,-6.762149],[-73.6667812,-6.8064476],[-73.7071961,-6.8396508],[-73.721445,-6.8890873],[-73.7545814,-6.9419073],[-73.7267824,-7.0225233],[-73.8015581,-7.1118244],[-72.5847656,-7.5520042],[-70.0549793,-7.8451491],[-69.2862711,-8.5016401],[-68.6471864,-9.0494166],[-67.516882,-9.5609067],[-67.3258172,-9.5923815],[-66.8102531,-9.8180459],[-66.7805792,-9.7913933],[-66.7753636,-9.7530913],[-66.7253897,-9.7560725],[-66.6849453,-9.7146456],[-66.6241659,-9.6808192],[-66.5863066,-9.6735589],[-66.5006134,-9.6335642],[-66.4949168,-9.6015832],[-66.4389348,-9.55439],[-66.3924143,-9.5004801],[-66.3747764,-9.4263661],[-66.2596688,-9.4109965],[-66.2434147,-9.4293871],[-66.1736328,-9.4344187],[-66.1238908,-9.4087794],[-66.0597396,-9.4182176],[-66.0424116,-9.4023724],[-65.9703006,-9.4131601],[-65.9126344,-9.4837503],[-65.8809081,-9.4874649],[-65.8482485,-9.5323243],[-65.8250771,-9.5300912],[-65.8000217,-9.5850225],[-65.7299672,-9.5630727],[-65.6809976,-9.5004075],[-65.6794352,-9.4513929],[-65.5881079,-9.4137738],[-65.5556338,-9.4224552],[-65.5031633,-9.4699754],[-65.4320983,-9.458635],[-65.4566002,-9.4012087],[-65.4402184,-9.3117453],[-65.3775134,-9.3244261],[-65.2466614,-9.2576636],[-65.2117718,-9.2789934],[-65.2089565,-9.3096433],[-65.1735439,-9.3854485],[-65.1854632,-9.4270317],[-65.1428806,-9.4468123],[-65.053546,-9.4021423],[-65.0005153,-9.3046138],[-64.9628795,-9.2927766],[-64.9196828,-9.2202803],[-64.9399298,-9.1245658],[-64.9156801,-9.0746143],[-64.8705663,-9.0121936],[-64.8164156,-8.98662],[-64.7839641,-8.9892699],[-64.7611805,-9.0205834],[-64.7136811,-8.9938629],[-64.587961,-9.0095099],[-64.5501239,-8.9782709],[-64.446574,-8.9768705],[-64.3233996,-8.9288606],[-64.3113185,-8.9964708],[-64.2332051,-8.9923081],[-64.1417669,-8.9450507],[-64.1582033,-8.8431675],[-64.129459,-8.8051627],[-64.1430671,-8.7430315],[-64.0431747,-8.7119098],[-64.0164261,-8.667682],[-63.9862097,-8.5856339],[-63.9459539,-8.6094853],[-63.9245687,-8.5755254],[-63.9731772,-8.4784472],[-63.9408384,-8.452264],[-63.9769546,-8.4097397],[-63.9453732,-8.3878261],[-63.9456197,-8.338933],[-63.9108358,-8.3285248],[-63.8707594,-8.2888196],[-63.7912313,-8.3332153],[-63.7227614,-8.249499],[-63.7485628,-8.2078652],[-63.6934211,-8.1583487],[-63.6624486,-8.1011713],[-63.6670003,-8.0816033],[-63.621779,-8.0296108],[-63.6212491,-7.9765317],[-63.1183827,-7.9771072],[-62.8666166,-7.9758683],[-62.8099965,-8.0253396],[-62.7439725,-8.0452861],[-62.6922801,-8.0929083],[-62.6730277,-8.1453106],[-62.6866642,-8.1737744],[-62.6550016,-8.2290564],[-62.5853879,-8.2718806],[-62.5184725,-8.3847382],[-62.4654746,-8.33974],[-62.4245582,-8.374985],[-62.3840279,-8.3775558],[-62.3608035,-8.3985493],[-62.3660512,-8.4935617],[-62.3373587,-8.5166389],[-62.3258047,-8.5637074],[-62.3357776,-8.6094846],[-62.2943077,-8.6054408],[-62.2688885,-8.5757586],[-62.1837005,-8.5989665],[-62.2005306,-8.6442928],[-62.165087,-8.6793938],[-62.1550309,-8.7396423],[-62.1249717,-8.8016711],[-62.031061,-8.7997101],[-61.97914,-8.8732446],[-61.9381066,-8.8814117],[-61.8597486,-8.8529733],[-61.8610249,-8.8036155],[-61.8412499,-8.7394106],[-61.7746056,-8.7482289],[-61.741854,-8.6951929],[-61.6735812,-8.7050168],[-61.6264691,-8.7288535],[-61.6060278,-8.794714],[-61.5831348,-8.7986891],[-60.4201808,-8.7966226],[-60.0005265,-8.8008853],[-59.4813631,-8.8033209],[-59.0003101,-8.8030955],[-58.4428679,-8.7993991],[-58.3880024,-8.7747864],[-58.3283686,-8.7121787],[-58.3758508,-8.703714],[-58.4119558,-8.7206089],[-58.4359716,-8.6954603],[-58.3895183,-8.5947925],[-58.410469,-8.5703919],[-58.4178072,-8.4895196],[-58.3545775,-8.3927541],[-58.3448047,-8.3407363],[-58.3148931,-8.3230601],[-58.3280835,-8.2858292],[-58.3129453,-8.2091049],[-58.3224642,-8.1700394],[-58.2901673,-8.1356],[-58.2930643,-8.0709469],[-58.3217286,-8.0249817],[-58.3315026,-7.9687628],[-58.3751355,-7.8990013],[-58.3847417,-7.8439891],[-58.3646072,-7.8167663],[-58.2940558,-7.7715405],[-58.2759903,-7.6996663],[-58.2021706,-7.6208543],[-58.2227233,-7.5240378],[-58.21306,-7.4585347],[-58.173361,-7.3943672],[-58.1369999,-7.3564081],[-58.1700099,-7.3132232],[-58.1678046,-7.239248],[-58.1809958,-7.1817367],[-58.2528349,-7.0834243],[-58.2882552,-7.061674],[-58.3354221,-6.9863726],[-58.3802498,-6.970504],[-58.4345559,-6.9088065],[-58.4817556,-6.7814217],[-58.4784712,-6.6996136],[-58.4273058,-6.6161675],[-58.3498866,-6.5624011],[-58.3270562,-6.500374],[-58.2931091,-6.493882],[-58.2552559,-6.4541175],[-58.033639,-5.9781378],[-57.5855733,-5.0007431],[-57.2536156,-4.2967522],[-57.0004891,-3.7591296],[-56.887239,-3.4990467],[-56.7629193,-3.2322098],[-56.6097644,-2.8963407],[-56.4263006,-2.5015831],[-56.4021072,-2.4565168],[-56.4655948,-2.4231151],[-56.42565,-2.3691538],[-56.3843157,-2.2704754],[-56.2634986,-2.2210564],[-56.2037697,-2.1830802],[-56.1694261,-2.1455081],[-56.097558,-2.0371332],[-56.1067261,-2.0270363],[-56.2283772,-2.0562204],[-56.2561526,-2.0883161],[-56.2974569,-2.1008075],[-56.3167613,-2.140126],[-56.367785,-2.1370767],[-56.4138828,-2.1759496],[-56.4441803,-2.1539257],[-56.4778933,-2.1703764],[-56.5270653,-2.1391952],[-56.6129132,-2.2101713],[-56.6790728,-2.2125642],[-56.7077679,-2.183902],[-56.760959,-2.1740582],[-56.7694297,-2.1406729],[-56.7327642,-2.0917397],[-56.7266021,-2.0309607],[-56.7669924,-2.0086976],[-56.8167648,-2.0229705],[-56.8590445,-2.015926],[-56.8762985,-1.9923486],[-56.9611252,-1.952972],[-56.9883509,-1.9071603],[-57.0284152,-1.9180238],[-57.0666755,-1.8571237],[-57.0916449,-1.7779555],[-57.1580752,-1.7708003],[-57.1616911,-1.7403237],[-57.292255,-1.7082836],[-57.3533836,-1.7368071],[-57.3857558,-1.6976848],[-57.4434639,-1.6646183],[-57.4730754,-1.6788804],[-57.5440744,-1.6111343],[-57.6219144,-1.5891542],[-57.6746383,-1.5950156],[-57.7176873,-1.503283],[-57.7799886,-1.5100239],[-57.8228177,-1.438682],[-57.8771053,-1.4233436],[-57.9912388,-1.3512663],[-57.9657808,-1.1710272],[-58.0012559,-1.1481148],[-58.0173321,-1.1036085],[-58.0586708,-1.1065398],[-58.0939993,-1.1621358],[-58.1144244,-1.1645785],[-58.154004,-1.2326797],[-58.2125916,-1.1665326],[-58.2558849,-1.1308204],[-58.3167203,-1.1476751],[-58.3637272,-1.0711199],[-58.4289115,-1.0286156],[-58.4105876,-0.9822266],[-58.4519752,-0.9240868],[-58.4364854,-0.8859778],[-58.4605874,-0.862868],[-58.5559695,-0.8137163],[-58.6128469,-0.75831],[-58.6367412,-0.7201017],[-58.7061278,-0.6788638],[-58.7363256,-0.6193516],[-58.709988,-0.5170359],[-58.736521,-0.4717409],[-58.7252824,-0.4383191],[-58.7834791,-0.388968],[-58.8361542,-0.3727456],[-58.8730952,-0.3437211],[-58.8653947,-0.2655488],[-58.881038,-0.1965794],[-58.8652551,-0.1689373],[-58.8638839,-0.0780298],[-58.8865816,-0.0591839],[-58.8950359,-0.0109629],[-58.8954648,0.2635103],[-60.0379686,0.2635455],[-60.0590829,0.1629969],[-60.1336091,0.1034778],[-60.1213931,0.0880369],[-60.1351238,0.0316482],[-60.2042172,-0.0299202],[-60.2360275,-0.1037044],[-60.2211607,-0.1419768],[-60.2688029,-0.1765234],[-60.3034961,-0.2585161],[-60.2925506,-0.294626],[-60.3263644,-0.3389936],[-60.3267553,-0.3809179],[-60.3514803,-0.4056424],[-60.3464962,-0.4379405],[-60.3826554,-0.4592444],[-60.4000998,-0.5174879],[-60.3815315,-0.5884836],[-60.3152723,-0.6364651],[-60.3114609,-0.7184527],[-60.3466917,-0.739609],[-60.3735668,-0.7318403],[-60.4263396,-0.7711722],[-60.4748613,-0.7615958],[-60.4978273,-0.7806509],[-60.5028602,-0.8406985],[-60.5362098,-0.869476],[-60.5880053,-0.843288],[-60.6634998,-0.881202],[-60.7356472,-0.8521314],[-60.7622046,-0.862929],[-60.7712078,-0.7560625],[-60.7926101,-0.7417466],[-60.8185079,-0.6891733],[-60.8551557,-0.6863394],[-60.8576966,-0.6554596],[-60.8915103,-0.6452966],[-60.9276695,-0.6055239],[-60.9336309,-0.5478676],[-60.9836674,-0.5617443],[-61.0568653,-0.543861],[-61.0790494,-0.5061397],[-61.2230998,-0.4998854],[-61.2340453,-0.5619397],[-61.3595274,-0.5969244],[-61.4287185,-0.6495475],[-61.4581344,-0.6547267],[-61.4846186,-0.716877],[-61.5356323,-0.7544012],[-61.5567415,-0.86492],[-61.5764824,-0.9111396],[-61.5807825,-0.9779761],[-61.5509756,-0.9831549],[-61.5428642,-1.0622039],[-61.5727688,-1.0757856],[-61.5661233,-1.129135],[-61.6269031,-1.29397],[-61.5821752,-1.3534073],[-61.6191215,-1.3947977],[-61.548014,-1.429518],[-61.5235688,-1.4906328],[-61.473291,-1.5278497],[-61.4827365,-1.5806331],[-61.5446819,-1.5256267],[-61.6049547,-1.4481315],[-61.7180136,-1.4097932],[-61.7407891,-1.3920181],[-61.7980094,-1.38063],[-61.8171838,-1.3995172],[-61.8966239,-1.3953553],[-61.906898,-1.3561901],[-61.9499562,-1.2970205],[-61.966905,-1.2428579],[-62.0174603,-1.141744],[-62.062179,-1.0997992],[-62.0996815,-1.0967433],[-62.1719075,-1.0059124],[-62.3127423,-0.930355],[-62.3649621,-0.8773045],[-62.3760672,-0.8364693],[-62.4332906,-0.8039684],[-62.5010732,-0.7814661],[-62.5082918,-0.7142492],[-62.4866273,-0.6814673],[-62.4271271,-0.6897596],[-62.4050896,-0.7222027],[-62.3558105,-0.671608],[-62.3080217,-0.6577317],[-62.2867171,-0.632373],[-62.3123217,-0.5759385],[-62.3072399,-0.5081186],[-62.2804137,-0.4507057],[-62.232796,-0.4244911],[-62.1871572,-0.3278407],[-62.2421259,-0.2992467],[-62.253389,-0.2700021],[-62.241564,-0.1704673],[-62.2778209,-0.1498469],[-62.3197948,-0.0963412],[-62.326538,-0.0016922],[-62.3658734,0.0557716],[-62.4092644,0.0750728],[-62.4241258,0.1532502],[-62.4527436,0.2074142],[-62.4666294,0.2679859],[-62.4668891,0.3329678],[-62.4463713,0.3791138],[-62.485246,0.4540804],[-62.5186613,0.4437009],[-62.5330086,0.5088084],[-62.5188492,0.5937719],[-62.5382905,0.6751955],[-62.5004942,0.7479483],[-62.4630261,0.7768688],[-62.4660739,0.8290772],[-62.4846856,0.8760203],[-62.4427354,0.9585339],[-62.4746958,1.0162997],[-62.4716209,1.0862816],[-62.5210879,1.0838159],[-62.5452401,1.1207622],[-62.5546935,1.1749041],[-62.6205211,1.3626934],[-62.6202536,1.4037833],[-62.6399648,1.4382383],[-62.6769036,1.4546309],[-62.7308005,1.499632],[-62.7363493,1.5296296],[-62.8052823,1.5913457],[-62.7929928,1.6353122],[-62.7286068,1.7],[-62.7223724,1.7224945],[-62.7310733,1.8182323],[-62.6987291,1.9119576],[-62.7149136,1.9506879],[-62.8132455,1.9916842],[-62.8385715,2.0163864],[-62.9484827,2.0310414],[-63.0237762,2.0146794],[-63.0772673,2.0460662],[-63.1241234,2.1049906],[-63.1463394,2.1732586],[-63.1941336,2.1812129],[-63.2763514,2.1543897],[-63.3597912,2.1971016],[-63.3888586,2.1829859],[-63.3977409,2.1468868],[-63.4924661,2.1154656],[-63.5619064,2.1323587],[-63.6174619,2.1065552],[-63.668021,2.0168828],[-63.7033005,2.0462687],[-63.7849696,1.9815483],[-63.8296883,1.9682281],[-63.9066373,1.9915269],[-63.9755238,1.9913059],[-64.0191381,1.9512979],[-64.0619156,1.9307373],[-64.0560847,1.8410087],[-64.0780269,1.7590416],[-64.065248,1.6760096],[-64.1121903,1.5893265],[-64.1441374,1.582435],[-64.3021953,1.4682845],[-64.3427474,1.3843245],[-64.3999729,1.3948723],[-64.3571906,1.4838108],[-64.3513625,1.5182727],[-64.3974674,1.5268362],[-64.4385855,1.4718185],[-64.5313556,1.4352188],[-64.5827463,1.3754932],[-64.5908,1.3374136],[-64.634971,1.3202018],[-64.6602494,1.2913363],[-64.7019142,1.2913088],[-64.7224702,1.2384823],[-64.7638611,1.2307695],[-64.7935823,1.2693605],[-64.8033094,1.3105007],[-64.8616387,1.2693133],[-64.8688597,1.2410053],[-64.9066365,1.2416119],[-64.9608037,1.1896693],[-65.022249,1.1149409],[-65.1030858,1.1566564],[-65.1514751,1.1164774],[-65.1472772,1.009346],[-65.1649762,0.9504778],[-65.2408088,0.921048],[-65.3027514,0.9421604],[-65.3291401,0.9315675],[-65.3519192,0.8729742],[-65.3980261,0.8213317],[-65.3974706,0.7499208],[-65.452757,0.6854416],[-65.5305331,0.6679567],[-65.5641402,0.675712],[-65.5913674,0.721611],[-65.5735861,0.764372],[-65.5485837,0.7745993],[-65.5035907,0.8524478],[-65.5083615,0.915535],[-65.5419203,0.9755243],[-65.5855583,1.0089346],[-65.6527545,1.0117712],[-65.7394209,0.9995908],[-65.767201,0.9640511],[-65.8622852,0.9309006],[-65.8815576,0.9016085],[-65.9365849,0.8821381],[-65.9713703,0.8060344],[-66.0700558,0.8050584],[-66.08853,0.7590606],[-66.1510876,0.744472],[-66.2129729,0.7806478],[-66.3185201,0.7550422],[-66.5993098,0.9996884],[-66.8569331,1.2302063],[-67.0881602,1.1668967],[-67.0888285,1.3249804],[-67.072331,1.4426041],[-67.078717,1.4998321],[-67.0815227,1.6381769],[-67.0995477,1.6817408],[-67.0973816,1.7326009],[-67.1240535,1.7989282],[-67.1570501,1.8488441],[-67.2439499,1.8581853],[-67.278087,1.8757471],[-67.3001994,1.9266702],[-67.336873,2.0980903],[-67.3434869,2.2054799],[-67.3892608,2.2440111],[-67.4309917,2.241616],[-67.4481787,2.2081033],[-67.5219342,2.1703146],[-67.5509126,2.1417181],[-67.5580226,2.1060894],[-67.5863565,2.0854913],[-67.6198315,2.0236732],[-67.6706442,2.0200117],[-67.7499272,2.0401289],[-67.7794222,2.031064],[-67.8182306,1.9668342],[-67.8826199,1.9028001],[-67.9412948,1.8307309],[-67.9735795,1.8327501],[-68.0434404,1.8996897],[-68.0875265,1.9013133],[-68.1406947,1.9847824],[-68.1829182,1.978796],[-68.2432559,1.9267464],[-68.2669026,1.8273363],[-68.2365907,1.7725223],[-68.2025902,1.7863312],[-68.1695326,1.7706642],[-68.1568127,1.7316353],[-69.0007639,1.7321173],[-69.1786162,1.7334428],[-69.3848865,1.729737],[-69.4261623,1.7568641],[-69.4868981,1.7621574],[-69.5523449,1.7917466],[-69.6575812,1.7367307],[-69.7111159,1.7494561],[-69.7522569,1.7389191],[-69.7950949,1.7099626],[-69.8425454,1.7207748],[-69.8455758,1.4996463],[-69.8443766,1.0853793],[-69.8020646,1.0735832],[-69.7547522,1.1186755],[-69.7105853,1.1265092],[-69.684761,1.0764769],[-69.6069069,1.105173],[-69.5664707,1.0807469],[-69.4934233,1.0879038],[-69.4373989,1.0806241],[-69.4165087,1.0523523],[-69.3859886,1.0825802],[-69.3215783,1.0956949],[-69.2898073,1.0624061],[-69.265356,1.0643609],[-69.213045,1.0201808],[-69.2061373,0.9722809],[-69.1718296,0.9026969],[-69.1358289,0.877186],[-69.1659125,0.8284801],[-69.1450214,0.7830299],[-69.1873348,0.7492421],[-69.1445521,0.7025014],[-69.115159,0.6498419],[-69.1932214,0.6515253],[-69.212809,0.6096125],[-69.2389516,0.6023902],[-69.3115405,0.6374274],[-69.3688512,0.6275135],[-69.4100205,0.674732],[-69.4814747,0.7356074],[-69.5664838,0.6840547],[-69.6067941,0.629207],[-69.6798001,0.6705732],[-69.7180314,0.6430104],[-69.7252278,0.61686],[-69.81315,0.5828062],[-69.8873226,0.5749305],[-69.9148269,0.5852725],[-69.9423858,0.5542955],[-70.0435655,0.5588281],[-70.0464958,-0.000511],[-70.0416633,-0.1241509],[-70.0574332,-0.1867765],[-69.9971611,-0.2347713],[-69.9231595,-0.3315149],[-69.8925192,-0.3491759],[-69.8448846,-0.3457965],[-69.8235482,-0.3810107],[-69.7753282,-0.4002804],[-69.7177421,-0.4551373],[-69.6449955,-0.48302],[-69.6111023,-0.5134525],[-69.593214,-0.567686],[-69.6049651,-0.6000017],[-69.573801,-0.6498361],[-69.5852481,-0.6844086],[-69.6226049,-0.7321441],[-69.6120784,-0.7702015],[-69.5595997,-0.8229638],[-69.5232685,-0.8862752],[-69.5273769,-0.921957],[-69.4635765,-0.967341],[-69.4250746,-1.0836273],[-69.3983811,-1.1444042],[-69.4307987,-1.241949],[-69.4111889,-1.2817651],[-69.3999899,-1.3707265],[-69.4296539,-1.3873204],[-69.435329,-1.457894],[-69.4574972,-1.4934757],[-69.4533231,-1.5314554],[-69.485607,-1.7206616],[-69.7123019,-3.0006097],[-69.8940261,-4.0006775]]],"bbox":[-73.8015581,-9.8180459,-56.097558,2.2440111]}
