{"type":"Topology","objects":{"geometrias":{"type":"GeometryCollection","geometries":[{"type":"MultiPolygon","arcs":[[[0]],[[1]],[[2]],[[3]]],"properties":{"code_state":35,"code_region":3,"name_state":"São Paulo","abbrev_state":"SP","name_region":"Sudeste","year":2020}}]}},"arcs":[[[-51.9528586,-21.4744325],[-51.9679033,-21.5017621],[-52.0003676,-21.5166265],[-52.0620417,-21.5032685],[-52.0777894,-21.5152225],[-52.1022934,-21.5548406],[-52.0987673,-21.5749856],[-52.0688756,-21.5981075],[-52.0483403,-21.6563421],[-52.0764924,-21.7148802],[-52.1028652,-21.7452912],[-52.147792,-21.7595888],[-52.1612618,-21.7707737],[-52.1839844,-21.8144605],[-52.1905614,-21.8461447],[-52.2484061,-21.9022804],[-52.2749632,-21.9149419],[-52.3014847,-21.9421686],[-52.3190194,-21.9721319],[-52.3391918,-22.0478264],[-52.377218,-22.1066782],[-52.3919064,-22.1146789],[-52.4081883,-22.1416352],[-52.4457419,-22.1769469],[-52.4799657,-22.2008818],[-52.4877143,-22.217206],[-52.5869392,-22.2567505],[-52.6019914,-22.2719514],[-52.6333804,-22.2849861],[-52.6502765,-22.301001],[-52.6951341,-22.3146106],[-52.745835,-22.343313],[-52.7983309,-22.3782734],[-52.8398869,-22.415311],[-52.8547612,-22.4391124],[-52.885837,-22.4528736],[-52.9882459,-22.4868783],[-53.0143612,-22.5206658],[-53.039801,-22.5273956],[-53.0738065,-22.5488576],[-53.1078623,-22.5955115],[-53.1087062,-22.6150398],[-53.0945825,-22.6379787],[-53.0557979,-22.6326227],[-53.030807,-22.6084114],[-52.972425,-22.5704843],[-52.9247426,-22.565624],[-52.9053625,-22.5722073],[-52.8583628,-22.608001],[-52.8154397,-22.5970432],[-52.7503018,-22.6123689],[-52.7269043,-22.6252423],[-52.6971054,-22.6270066],[-52.6630376,-22.6119177],[-52.6113574,-22.5744716],[-52.5893444,-22.5660966],[-52.5453772,-22.6117435],[-52.5026768,-22.6345557],[-52.4676343,-22.6158782],[-52.4330458,-22.6071665],[-52.3686111,-22.6293368],[-52.3004356,-22.635445],[-52.2786947,-22.6203902],[-52.2504131,-22.6154264],[-52.2280991,-22.6425169],[-52.2225772,-22.6755354],[-52.1971818,-22.6589303],[-52.156678,-22.6447189],[-52.1609654,-22.5894509],[-52.1487619,-22.5492535],[-52.1276022,-22.519923],[-52.0896174,-22.5212499],[-52.0600478,-22.5377656],[-51.9968526,-22.5460533],[-51.9405126,-22.5673428],[-51.8789728,-22.624353],[-51.8470961,-22.632226],[-51.7716206,-22.6141269],[-51.7330367,-22.6286144],[-51.7258674,-22.6614648],[-51.6991709,-22.6693686],[-51.6463861,-22.6563411],[-51.6158422,-22.6625934],[-51.5914778,-22.6851988],[-51.5595692,-22.6971793],[-51.5434953,-22.6895165],[-51.4989018,-22.6905293],[-51.4719041,-22.6771868],[-51.4530961,-22.6557505],[-51.4247256,-22.6535108],[-51.4020163,-22.6679055],[-51.3736492,-22.6581329],[-51.306495,-22.6744902],[-51.2651999,-22.6676974],[-51.2428803,-22.6895762],[-51.228336,-22.7160172],[-51.1870158,-22.7298921],[-51.1644128,-22.7489629],[-51.1279231,-22.7599926],[-51.057615,-22.7660571],[-51.0111421,-22.792297],[-50.9786781,-22.7826098],[-50.9456364,-22.8039323],[-50.8953334,-22.7943002],[-50.8423871,-22.8313985],[-50.8306654,-22.8621733],[-50.7978171,-22.8885524],[-50.7931381,-22.9051173],[-50.8061462,-22.9402993],[-50.795935,-22.9511794],[-50.7586621,-22.9476544],[-50.7295268,-22.9624986],[-50.7112162,-22.9547444],[-50.679942,-22.9032102],[-50.6615854,-22.8954775],[-50.6038084,-22.9231785],[-50.5770572,-22.9039445],[-50.5300104,-22.9191495],[-50.5110192,-22.9446388],[-50.4827394,-22.9369345],[-50.4303025,-22.9464074],[-50.4189476,-22.9139331],[-50.3790746,-22.9054056],[-50.3592495,-22.9160588],[-50.3401866,-22.9480729],[-50.3184953,-22.9506826],[-50.2733879,-22.9310013],[-50.2441636,-22.94955],[-50.1833934,-22.9537733],[-50.1480536,-22.9351283],[-50.1154098,-22.9397912],[-50.0928258,-22.9225047],[-50.0715498,-22.9281236],[-50.0527394,-22.9052685],[-50.0162405,-22.9103352],[-49.9613778,-22.930863],[-49.9741983,-22.9544968],[-49.9545019,-22.9784205],[-49.9307596,-22.9830312],[-49.8995854,-23.0020053],[-49.9159033,-23.0347875],[-49.9116022,-23.0511186],[-49.8853291,-23.0650684],[-49.8505758,-23.0732551],[-49.8336586,-23.0659429],[-49.7917155,-23.1024262],[-49.751382,-23.0977574],[-49.725551,-23.1094381],[-49.7304888,-23.1414461],[-49.6974899,-23.1649832],[-49.6833234,-23.1637756],[-49.6537516,-23.212037],[-49.6258029,-23.2866501],[-49.6308803,-23.2994757],[-49.6118066,-23.3546535],[-49.5904025,-23.3827925],[-49.5985165,-23.3981866],[-49.575543,-23.4313959],[-49.603186,-23.4512926],[-49.6032894,-23.4784236],[-49.6210967,-23.492099],[-49.6242171,-23.5233026],[-49.6002062,-23.5356244],[-49.6079896,-23.5652324],[-49.602017,-23.5826967],[-49.6211716,-23.6070475],[-49.6021338,-23.6521161],[-49.5491992,-23.7040164],[-49.5673236,-23.7367786],[-49.5600689,-23.8119307],[-49.5985289,-23.8367922],[-49.6024638,-23.8682819],[-49.5631719,-23.9123424],[-49.5029134,-23.9485422],[-49.4936847,-23.9775958],[-49.4981248,-23.9938083],[-49.4634431,-24.0274358],[-49.4575401,-24.0494852],[-49.4378235,-24.0587863],[-49.4318438,-24.0856013],[-49.3891,-24.1196287],[-49.3365663,-24.1375819],[-49.3398259,-24.1747945],[-49.3557624,-24.2090737],[-49.3506772,-24.2208009],[-49.3053741,-24.251431],[-49.301235,-24.2763039],[-49.2860996,-24.3040721],[-49.2312127,-24.3303952],[-49.2161546,-24.3558903],[-49.2476759,-24.3927177],[-49.2355492,-24.4095521],[-49.2532326,-24.4359366],[-49.2489852,-24.4715054],[-49.296462,-24.5018955],[-49.280272,-24.5372649],[-49.3098163,-24.5499278],[-49.3176777,-24.5666395],[-49.3035971,-24.5969487],[-49.3140712,-24.6320664],[-49.2998835,-24.6540421],[-49.3120154,-24.6635327],[-49.2756811,-24.6943759],[-49.2232588,-24.6985849],[-49.187123,-24.6736981],[-49.1360713,-24.6752471],[-49.1115946,-24.6883523],[-49.0746749,-24.6734165],[-49.0518457,-24.6806952],[-49.0345676,-24.65005],[-48.9632894,-24.6732153],[-48.8404009,-24.6649768],[-48.7882067,-24.6811894],[-48.7786516,-24.6967322],[-48.7185899,-24.6830148],[-48.6770593,-24.6925268],[-48.641642,-24.6896675],[-48.6040298,-24.6682968],[-48.5722028,-24.6906386],[-48.5518104,-24.7166178],[-48.5018968,-24.7459757],[-48.5167241,-24.7801821],[-48.5488908,-24.7972137],[-48.5678141,-24.8474996],[-48.5493901,-24.8791638],[-48.5671436,-24.9038712],[-48.5628676,-24.9394293],[-48.5673709,-24.9722669],[-48.5884602,-24.9864393],[-48.6008313,-25.0105057],[-48.5838052,-25.0415844],[-48.5579385,-25.0639725],[-48.5560079,-25.0865526],[-48.5285838,-25.1007893],[-48.4808824,-25.0369881],[-48.4740493,-25.0125524],[-48.4111527,-24.9802317],[-48.3786378,-24.9970283],[-48.3469716,-25.0352408],[-48.3177739,-25.0565481],[-48.3074617,-25.0354827],[-48.2846277,-25.0391923],[-48.2633319,-24.9928045],[-48.2353924,-24.9955833],[-48.2319501,-25.0153583],[-48.214943,-25.0296741],[-48.2160543,-25.0766716],[-48.1713342,-25.1422586],[-48.1666386,-25.1660086],[-48.1933632,-25.1898656],[-48.1627203,-25.2098366],[-48.1512382,-25.2281274],[-48.1148836,-25.250702],[-48.0985821,-25.2412534],[-48.0621061,-25.2400852],[-48.0402996,-25.2187445],[-48.0239381,-25.2291433],[-47.9264866,-25.16169],[-47.9083367,-25.1185339],[-47.9023781,-25.0656706],[-47.8869055,-25.0512669],[-47.8717418,-25.0115718],[-47.8429223,-24.976605],[-47.800267,-24.9367522],[-47.7158621,-24.8683726],[-47.6230426,-24.7991402],[-47.5610293,-24.7579095],[-47.5103698,-24.7289578],[-47.4248093,-24.6851413],[-47.3752748,-24.650078],[-47.2450093,-24.5739702],[-47.1861655,-24.5326024],[-47.1852021,-24.5244773],[-47.1408434,-24.4895432],[-47.0532789,-24.4331004],[-47.0037122,-24.4094793],[-47.0182394,-24.3788361],[-47.0024817,-24.3620659],[-47.002473,-24.3373097],[-46.9718344,-24.3050536],[-46.9315631,-24.2747135],[-46.8146204,-24.2012516],[-46.6350914,-24.1044789],[-46.484256,-24.0348757],[-46.415595,-24.0156591],[-46.3902681,-24.0238268],[-46.3918773,-23.9986085],[-46.3717254,-23.9749121],[-46.3323278,-23.9727232],[-46.3193634,-23.9972659],[-46.2847189,-24.0323852],[-46.265198,-24.0040519],[-46.2119003,-23.9864078],[-46.1912849,-23.9899399],[-46.1805433,-23.9330936],[-46.1671342,-23.9110452],[-46.1408407,-23.8921059],[-46.1283974,-23.8440863],[-46.085022,-23.8206782],[-46.0366614,-23.8124636],[-45.972647,-23.7853503],[-45.8983204,-23.7653529],[-45.8241645,-23.7573482],[-45.800668,-23.7696852],[-45.7659252,-23.7624939],[-45.6255157,-23.7871012],[-45.6231068,-23.8050813],[-45.5875578,-23.7926744],[-45.5601955,-23.7925316],[-45.533392,-23.8233564],[-45.5026446,-23.8426375],[-45.4669769,-23.8190682],[-45.4319897,-23.8295354],[-45.3961345,-23.8091138],[-45.396868,-23.7805715],[-45.4124827,-23.7536692],[-45.398766,-23.7367442],[-45.4196571,-23.7258581],[-45.4305175,-23.6826592],[-45.4241915,-23.6461929],[-45.4074729,-23.6243404],[-45.3882545,-23.6347035],[-45.3573437,-23.6243306],[-45.3434037,-23.600672],[-45.3114123,-23.5756653],[-45.2850822,-23.5723269],[-45.2726537,-23.5864209],[-45.244225,-23.5937286],[-45.2154068,-23.5686209],[-45.2306148,-23.5475821],[-45.2219509,-23.5306241],[-45.1948747,-23.5203112],[-45.1660244,-23.5293309],[-45.1602159,-23.5000272],[-45.0833508,-23.4961175],[-45.0551072,-23.4591894],[-45.0671639,-23.4467816],[-45.0613964,-23.4202216],[-45.0088565,-23.4059326],[-44.9493341,-23.3786443],[-44.9421504,-23.3570614],[-44.9210299,-23.3509196],[-44.9080106,-23.3340716],[-44.8876425,-23.3387171],[-44.8891397,-23.3596666],[-44.8651678,-23.3569588],[-44.8368651,-23.3695881],[-44.8441802,-23.3872616],[-44.7850628,-23.3780342],[-44.7505718,-23.3660388],[-44.7816111,-23.3258969],[-44.7874214,-23.2991069],[-44.8188487,-23.2897377],[-44.8362626,-23.257897],[-44.8694641,-23.249834],[-44.8893206,-23.2265949],[-44.8727325,-23.1825022],[-44.8227272,-23.1600769],[-44.8254815,-23.143741],[-44.8105998,-23.1155346],[-44.8188437,-23.0914584],[-44.7928172,-23.0098386],[-44.8012564,-22.9965004],[-44.7767395,-22.9780555],[-44.751031,-22.972011],[-44.7438207,-22.9472056],[-44.7134344,-22.9298754],[-44.7035452,-22.936102],[-44.6716121,-22.9220663],[-44.658994,-22.9279312],[-44.6073108,-22.885237],[-44.5559534,-22.8880917],[-44.5052785,-22.8515493],[-44.4849432,-22.846201],[-44.4661916,-22.8853713],[-44.4332925,-22.8688376],[-44.4230592,-22.8504965],[-44.3742233,-22.8580862],[-44.2965216,-22.8278766],[-44.2676787,-22.8292436],[-44.2504728,-22.7575675],[-44.2295279,-22.7355418],[-44.1989603,-22.7352873],[-44.1613652,-22.6782584],[-44.1842763,-22.6372991],[-44.2039458,-22.615971],[-44.2456062,-22.6064197],[-44.2833338,-22.6043817],[-44.3264885,-22.5884476],[-44.3449903,-22.5878487],[-44.3923701,-22.572494],[-44.4059457,-22.5989991],[-44.4314745,-22.5986518],[-44.4648767,-22.6159696],[-44.485175,-22.6110516],[-44.5085884,-22.640947],[-44.5460294,-22.6069617],[-44.583777,-22.6228551],[-44.5969551,-22.6099938],[-44.6402486,-22.6080579],[-44.6471202,-22.5846413],[-44.6416234,-22.5602024],[-44.6771244,-22.5475284],[-44.6710072,-22.5366647],[-44.7127903,-22.509367],[-44.7238223,-22.4761657],[-44.7192455,-22.4634211],[-44.7339428,-22.4328958],[-44.7553337,-22.4152692],[-44.7937922,-22.4090768],[-44.8302314,-22.4281434],[-44.8595994,-22.4230432],[-44.8897308,-22.432124],[-44.8976822,-22.4491138],[-44.9400702,-22.4526691],[-44.9698484,-22.4719446],[-44.9918141,-22.4661729],[-45.0549289,-22.470504],[-45.0826458,-22.4863677],[-45.1284594,-22.4971103],[-45.1600093,-22.5169168],[-45.1645153,-22.5379287],[-45.2545407,-22.5816243],[-45.2614069,-22.6071156],[-45.332962,-22.6176392],[-45.3609582,-22.6387614],[-45.4105211,-22.651671],[-45.4129317,-22.6222155],[-45.4355472,-22.6183207],[-45.4738566,-22.5888942],[-45.4888005,-22.6287852],[-45.5659653,-22.6565228],[-45.5599393,-22.6276023],[-45.5793868,-22.6053855],[-45.6181281,-22.6379141],[-45.6661848,-22.6512012],[-45.6810783,-22.6363357],[-45.6661076,-22.6126952],[-45.6605737,-22.5778408],[-45.6797214,-22.5734188],[-45.6954392,-22.5863386],[-45.7267937,-22.587023],[-45.73669,-22.6101504],[-45.7174694,-22.6210098],[-45.6979552,-22.6497703],[-45.7161828,-22.6619924],[-45.7428067,-22.6591669],[-45.7505519,-22.6712425],[-45.7878589,-22.6933565],[-45.811641,-22.6987077],[-45.8198219,-22.7232996],[-45.7956339,-22.7390214],[-45.7564638,-22.72104],[-45.7325571,-22.7220027],[-45.7119176,-22.7732277],[-45.7709451,-22.8059268],[-45.7669594,-22.8408123],[-45.7891664,-22.8581243],[-45.809802,-22.8293866],[-45.8481273,-22.8378307],[-45.8638522,-22.8687103],[-45.887282,-22.87205],[-45.911829,-22.816293],[-45.938812,-22.846471],[-45.951145,-22.845879],[-45.993092,-22.86981],[-46.007954,-22.889497],[-46.026798,-22.884876],[-46.050675,-22.896975],[-46.0952183,-22.894429],[-46.1390937,-22.9227553],[-46.13828,-22.8949706],[-46.1553279,-22.8641682],[-46.1921979,-22.8652306],[-46.2585307,-22.8905747],[-46.2790257,-22.8783476],[-46.2960609,-22.8981541],[-46.314641,-22.88676],[-46.3563107,-22.9003033],[-46.3724091,-22.8831304],[-46.3768111,-22.8278195],[-46.3621404,-22.789877],[-46.3345415,-22.7603001],[-46.3635472,-22.7556473],[-46.4527231,-22.7275819],[-46.4573342,-22.7070572],[-46.4806366,-22.6783159],[-46.4277141,-22.6613577],[-46.3930589,-22.6629741],[-46.4059705,-22.6221789],[-46.4337254,-22.5745679],[-46.4146427,-22.5579277],[-46.4549551,-22.5217324],[-46.5421469,-22.494356],[-46.554814,-22.44665],[-46.6316074,-22.4358357],[-46.6665163,-22.4151098],[-46.6663078,-22.3809903],[-46.7179524,-22.3169443],[-46.7052841,-22.295824],[-46.7104007,-22.2623901],[-46.6781678,-22.2240419],[-46.6708008,-22.1842606],[-46.6464271,-22.1779461],[-46.6404581,-22.1577196],[-46.6130415,-22.1502525],[-46.6227309,-22.1099309],[-46.646755,-22.0918932],[-46.6649482,-22.096362],[-46.7188373,-22.0886791],[-46.7221634,-22.0749778],[-46.664786,-22.0688631],[-46.685389,-22.0374221],[-46.6158686,-21.9955445],[-46.6433949,-21.9761066],[-46.6536443,-21.9417049],[-46.6737785,-21.9110527],[-46.6475365,-21.8804608],[-46.665285,-21.848788],[-46.6909705,-21.8369638],[-46.6512016,-21.7894427],[-46.6260303,-21.7662265],[-46.6308415,-21.7408998],[-46.6230198,-21.7129462],[-46.6215947,-21.675543],[-46.5930358,-21.6831783],[-46.5646313,-21.6786794],[-46.5659174,-21.6569384],[-46.5473674,-21.6304338],[-46.518228,-21.6128219],[-46.5219942,-21.5845087],[-46.5007767,-21.5497611],[-46.5229777,-21.5299379],[-46.50889,-21.4891271],[-46.5210932,-21.4469803],[-46.5602225,-21.44233],[-46.5765137,-21.4269572],[-46.6018899,-21.4439608],[-46.6487303,-21.3917213],[-46.6471993,-21.3641931],[-46.6655312,-21.3611582],[-46.7147217,-21.3926621],[-46.7389748,-21.3925723],[-46.776398,-21.3628248],[-46.7895373,-21.3729595],[-46.8321491,-21.3665382],[-46.842084,-21.3891083],[-46.8826741,-21.4049495],[-46.8933056,-21.4156141],[-46.9342496,-21.4252539],[-46.9647087,-21.4181135],[-46.9843674,-21.4266951],[-47.0102072,-21.420823],[-47.016168,-21.3965034],[-46.9968389,-21.3576981],[-47.016527,-21.3423629],[-47.029773,-21.2995557],[-47.0522817,-21.2465187],[-47.0789122,-21.2305951],[-47.1236478,-21.1679094],[-47.1173051,-21.1536959],[-47.1335055,-21.1334556],[-47.1184774,-21.1090533],[-47.1370422,-21.0880229],[-47.1469812,-21.0380418],[-47.1570299,-21.0188247],[-47.1437389,-20.9823857],[-47.2104581,-20.924139],[-47.2400443,-20.8852817],[-47.2144844,-20.8272194],[-47.2247543,-20.8000989],[-47.2048158,-20.7743437],[-47.1888183,-20.7706247],[-47.1862607,-20.7311344],[-47.1490655,-20.7076166],[-47.1153008,-20.7072048],[-47.1012353,-20.6831658],[-47.0968958,-20.6445283],[-47.1233226,-20.6127225],[-47.1426277,-20.5660141],[-47.138234,-20.5545926],[-47.1545174,-20.5195532],[-47.1856804,-20.5108592],[-47.2532124,-20.4766136],[-47.2910113,-20.4505499],[-47.2961002,-20.427256],[-47.2880312,-20.3931778],[-47.2982081,-20.3484357],[-47.2858418,-20.3335586],[-47.2767287,-20.291638],[-47.2604338,-20.2775686],[-47.2310736,-20.2191522],[-47.2505709,-20.1996702],[-47.2617804,-20.1599249],[-47.2930069,-20.1486619],[-47.3096734,-20.1244984],[-47.3586764,-20.1039816],[-47.3745709,-20.0836627],[-47.4081335,-20.0801963],[-47.4387084,-20.0510888],[-47.4448424,-20.0303817],[-47.424428,-20.0153196],[-47.463322,-19.965789],[-47.4977254,-19.9716276],[-47.5085321,-19.9829406],[-47.5401584,-19.984325],[-47.5526378,-19.9960259],[-47.5838246,-19.9966646],[-47.5947481,-20.0258915],[-47.6139901,-20.042109],[-47.6396561,-20.0472194],[-47.6706264,-20.0225159],[-47.6761499,-20.0019156],[-47.7126917,-19.978148],[-47.7336817,-19.9879282],[-47.8056581,-19.9851317],[-47.8346805,-19.9960656],[-47.8597507,-19.9929397],[-47.8758201,-20.0324105],[-47.8593839,-20.0524121],[-47.8699656,-20.0636946],[-47.8750773,-20.0983727],[-47.8954628,-20.1252583],[-47.9341021,-20.1078536],[-47.9434963,-20.0919985],[-47.9460221,-20.0604678],[-47.9759693,-20.0353727],[-47.991528,-20.0491659],[-47.9897482,-20.072963],[-48.0024175,-20.1039695],[-48.024392,-20.124729],[-48.0767758,-20.1484296],[-48.1054874,-20.146356],[-48.1477216,-20.1241396],[-48.15566,-20.1053012],[-48.1820543,-20.0895131],[-48.1824659,-20.074627],[-48.2077715,-20.03937],[-48.223658,-20.0293112],[-48.2441319,-20.0474038],[-48.2534251,-20.0779207],[-48.2281268,-20.1042144],[-48.2177475,-20.1252888],[-48.2546878,-20.1438158],[-48.2749559,-20.1421127],[-48.3171344,-20.113347],[-48.3749359,-20.1231032],[-48.4057768,-20.113511],[-48.4762218,-20.1347649],[-48.5092316,-20.1387963],[-48.5546289,-20.130299],[-48.6006412,-20.1397105],[-48.6421287,-20.1664961],[-48.7071077,-20.1602172],[-48.7313411,-20.1493818],[-48.7811373,-20.1638525],[-48.8257432,-20.1619575],[-48.8527791,-20.1775076],[-48.8592598,-20.2323061],[-48.8865458,-20.2711626],[-48.8887604,-20.2948472],[-48.8756657,-20.3149986],[-48.8784296,-20.3561378],[-48.8672304,-20.4024613],[-48.8786069,-20.4296692],[-48.8982024,-20.4418731],[-48.9630303,-20.4031215],[-48.965783,-20.2792918],[-48.9617858,-20.2633012],[-48.9720232,-20.2077903],[-48.9860452,-20.1707653],[-49.0329473,-20.1500559],[-49.0718032,-20.1614972],[-49.0893002,-20.2121746],[-49.1224111,-20.273545],[-49.1835625,-20.3146598],[-49.225294,-20.3053431],[-49.259156,-20.2602042],[-49.2642762,-20.231263],[-49.2992464,-20.1670761],[-49.308538,-20.1038929],[-49.3072553,-20.0603193],[-49.296311,-20.0155738],[-49.2839236,-20.0047717],[-49.2582284,-20.0061014],[-49.2464315,-19.9751613],[-49.2651731,-19.962038],[-49.2975378,-19.9605454],[-49.3564865,-19.9867173],[-49.4345392,-19.9823852],[-49.458242,-19.975931],[-49.4927862,-19.9504212],[-49.5140049,-19.9143115],[-49.5514852,-19.905841],[-49.6110265,-19.9187849],[-49.6344053,-19.9319321],[-49.7121496,-19.9312615],[-49.7824562,-19.9244631],[-49.8352745,-19.933315],[-49.8555733,-19.946825],[-49.8883369,-19.9453049],[-49.9460521,-19.923911],[-49.9698825,-19.9200484],[-50.0152884,-19.9263578],[-50.0472392,-19.9153896],[-50.0972433,-19.875479],[-50.1624139,-19.8783143],[-50.2156518,-19.8666484],[-50.2451559,-19.8767577],[-50.285631,-19.8678179],[-50.3064103,-19.874086],[-50.3527589,-19.8646024],[-50.4171328,-19.8011365],[-50.4693236,-19.7798888],[-50.4989703,-19.7957843],[-50.5779488,-19.8163744],[-50.6055452,-19.8560883],[-50.6319448,-19.8709166],[-50.661324,-19.909002],[-50.7354129,-19.930189],[-50.7836015,-19.9372295],[-50.8173362,-19.9583332],[-50.851583,-19.9697666],[-50.8761761,-19.990825],[-50.8971994,-19.9901552],[-50.9618953,-20.0319333],[-50.9965342,-20.0773146],[-51.0691631,-20.2500495],[-51.117583,-20.2869446],[-51.1780597,-20.3092856],[-51.2399055,-20.3169359],[-51.2956845,-20.3284821],[-51.3480852,-20.359518],[-51.3751155,-20.396527],[-51.4092796,-20.4595706],[-51.4443681,-20.4789171],[-51.4928561,-20.5465063],[-51.5002223,-20.5682163],[-51.5330051,-20.5969939],[-51.5707683,-20.6200766],[-51.5941482,-20.6438477],[-51.6242875,-20.7125187],[-51.6348992,-20.7548484],[-51.6223983,-20.776872],[-51.6329772,-20.8215582],[-51.6297015,-20.8614529],[-51.6150883,-20.886086],[-51.6189985,-20.9325906],[-51.6281707,-20.9490296],[-51.6657334,-20.9705204],[-51.7136957,-20.971458],[-51.7596476,-21.0221968],[-51.7756445,-21.0730936],[-51.7896709,-21.1021195],[-51.82359,-21.1268398],[-51.8654739,-21.1305401],[-51.8789848,-21.1481377],[-51.8795737,-21.1994307],[-51.8485145,-21.2666384],[-51.8569297,-21.2895262],[-51.86196,-21.3416175],[-51.9075357,-21.3864558],[-51.9286818,-21.4558161],[-51.9528586,-21.4744325]],[[-45.3335719,-23.7225775],[-45.3414736,-23.7277895],[-45.3635131,-23.7873919],[-45.3667121,-23.8113249],[-45.4619346,-23.888147],[-45.460388,-23.9141997],[-45.4443223,-23.9341456],[-45.4078725,-23.9385004],[-45.2916865,-23.910313],[-45.2872038,-23.941308],[-45.2685279,-23.9652845],[-45.240545,-23.9627376],[-45.2322281,-23.944626],[-45.2484783,-23.9032372],[-45.288854,-23.873698],[-45.2868893,-23.8515278],[-45.2553328,-23.8360519],[-45.2298332,-23.7763327],[-45.2558742,-23.7498879],[-45.2830398,-23.7343185],[-45.3335719,-23.7225775]],[[-45.137836,-23.7898757],[-45.1606547,-23.8017794],[-45.1470621,-23.8176192],[-45.1175715,-23.8026894],[-45.137836,-23.7898757]],[[-45.0806737,-23.526167],[-45.0777006,-23.5612394],[-45.0567155,-23.5455456],[-45.0806737,-23.526167]]],"bbox":[-53.1087062,-25.250702,-44.1613652,-19.7798888]}
