{"type":"Topology","objects":{"geometrias":{"type":"GeometryCollection","geometries":[{"type":"Polygon","arcs":[[0]],"properties":{"code_state":41,"code_region":4,"name_state":"Paraná","abbrev_state":"PR","name_region":"Sul","year":2020}}]}},"arcs":[[[-54.0860616,-23.8251609],[-54.0799057,-23.8889783],[-54.101765,-23.9519635],[-54.1326548,-23.9841923],[-54.1746867,-24.0019728],[-54.2494639,-24.0559018],[-54.2862316,-24.0682254],[-54.3141561,-24.1040009],[-54.334227,-24.1163763],[-54.3455788,-24.1570492],[-54.3299632,-24.187957],[-54.3306814,-24.230271],[-54.3225729,-24.2516575],[-54.2774409,-24.2914447],[-54.2578191,-24.3552654],[-54.2627684,-24.3781341],[-54.292898,-24.4245667],[-54.3265126,-24.4651747],[-54.3355146,-24.5179357],[-54.3200482,-24.5680481],[-54.3188175,-24.6069396],[-54.3343363,-24.7011012],[-54.3700859,-24.7562192],[-54.3899278,-24.7772832],[-54.3949768,-24.8112832],[-54.4369866,-24.9414242],[-54.4493445,-25.0141459],[-54.463547,-25.056906],[-54.4595183,-25.1020636],[-54.4458725,-25.1139142],[-54.4248858,-25.1532656],[-54.4478333,-25.1687802],[-54.474288,-25.2130135],[-54.4912342,-25.2779663],[-54.5253651,-25.3315358],[-54.586413,-25.3965778],[-54.6042831,-25.4409428],[-54.6198575,-25.4519867],[-54.6036678,-25.4824553],[-54.5947339,-25.537976],[-54.5935181,-25.5922462],[-54.5528867,-25.5881529],[-54.5345379,-25.5991872],[-54.5263422,-25.6288288],[-54.5024631,-25.6144302],[-54.4702174,-25.6357679],[-54.4238679,-25.6928712],[-54.4252962,-25.6589049],[-54.397052,-25.6397113],[-54.3870437,-25.5980501],[-54.3454761,-25.6049062],[-54.3289058,-25.5719021],[-54.2883178,-25.5544066],[-54.2537193,-25.5964092],[-54.2341677,-25.5875956],[-54.2229194,-25.564836],[-54.2030733,-25.5588354],[-54.192929,-25.5339978],[-54.1631106,-25.5426072],[-54.1157271,-25.4985354],[-54.0948569,-25.497991],[-54.1014446,-25.5298164],[-54.1198091,-25.5532823],[-54.1195437,-25.5835102],[-54.1018156,-25.6180567],[-54.0913095,-25.6169969],[-54.0834924,-25.5621886],[-54.0453376,-25.5851564],[-54.0287494,-25.5665344],[-53.9785979,-25.5930931],[-53.9655809,-25.6125347],[-53.9167903,-25.6160827],[-53.9144853,-25.6332687],[-53.8840811,-25.6582456],[-53.8624923,-25.6586085],[-53.850465,-25.7008526],[-53.8664965,-25.743966],[-53.8309233,-25.7808442],[-53.8222755,-25.800324],[-53.8418882,-25.8390156],[-53.8316599,-25.8593604],[-53.8395679,-25.8826856],[-53.8240015,-25.8955933],[-53.8202932,-25.927252],[-53.8428116,-25.9336556],[-53.8360377,-25.9718871],[-53.8176836,-25.989964],[-53.7801244,-26.0084636],[-53.7716138,-26.0314698],[-53.7378591,-26.0412422],[-53.7266149,-26.0647917],[-53.740105,-26.0835158],[-53.741514,-26.1160169],[-53.7103078,-26.1305632],[-53.7000696,-26.1528282],[-53.6822014,-26.1620718],[-53.6411691,-26.2155345],[-53.6535212,-26.2351071],[-53.6291101,-26.2578479],[-53.5862947,-26.2558663],[-53.5822163,-26.2724168],[-53.5537554,-26.2924472],[-53.5244028,-26.2918941],[-53.4984093,-26.3030406],[-53.4613865,-26.2963735],[-53.4240268,-26.2797157],[-53.3998165,-26.254013],[-53.3760719,-26.241614],[-53.3048557,-26.260529],[-53.2890034,-26.2480361],[-53.2260153,-26.3184752],[-53.165447,-26.3512796],[-53.150939,-26.344519],[-53.1269968,-26.3724881],[-53.093228,-26.3920221],[-53.0464406,-26.3813775],[-52.9933039,-26.3475248],[-52.9504203,-26.3622865],[-52.8665078,-26.3582736],[-52.8469285,-26.3444065],[-52.7753913,-26.3478885],[-52.7377632,-26.3421849],[-52.7188906,-26.357301],[-52.678622,-26.352676],[-52.6597739,-26.3738708],[-52.5958322,-26.4160624],[-52.5789527,-26.4081527],[-52.5187326,-26.4015213],[-52.496272,-26.4200194],[-52.4767233,-26.421436],[-52.4636056,-26.4396036],[-52.4333066,-26.4402033],[-52.3980605,-26.42882],[-52.3774195,-26.4409567],[-52.3049939,-26.4402571],[-52.2902188,-26.4553658],[-52.2616222,-26.4542808],[-52.2298118,-26.4670431],[-52.186343,-26.4451167],[-52.1666946,-26.4649806],[-52.1295515,-26.4772059],[-52.1116325,-26.4749634],[-52.0813539,-26.525111],[-52.0651889,-26.5230182],[-52.0212151,-26.5487221],[-52.0087675,-26.5665606],[-51.9433269,-26.5712026],[-51.9283319,-26.5843685],[-51.9002917,-26.5792836],[-51.8734505,-26.5993625],[-51.8339981,-26.5900386],[-51.8205615,-26.5786004],[-51.789399,-26.5886824],[-51.7345458,-26.5723759],[-51.694165,-26.5812113],[-51.6568594,-26.5664278],[-51.6309939,-26.5878183],[-51.5969898,-26.58406],[-51.5356074,-26.5917979],[-51.4973868,-26.5852636],[-51.454883,-26.6406582],[-51.435346,-26.6881781],[-51.4073176,-26.70062],[-51.3911297,-26.6632474],[-51.3253187,-26.6485981],[-51.2948899,-26.6558927],[-51.2835172,-26.6423633],[-51.2357544,-26.6232834],[-51.2249954,-26.5911805],[-51.231517,-26.5485977],[-51.2731744,-26.4983042],[-51.2511304,-26.4720702],[-51.2793484,-26.4538078],[-51.3004929,-26.4178719],[-51.2570124,-26.3723302],[-51.2479512,-26.3298664],[-51.148403,-26.2787746],[-51.101911,-26.2728112],[-51.082455,-26.228528],[-51.0568457,-26.2439017],[-50.9989726,-26.2310534],[-50.9748918,-26.2441157],[-50.9473857,-26.281234],[-50.908207,-26.2512143],[-50.9091388,-26.2846351],[-50.8819619,-26.2792658],[-50.8724416,-26.2445027],[-50.846873,-26.2663831],[-50.7976048,-26.2301802],[-50.750563,-26.2244501],[-50.7459296,-26.2467729],[-50.7164043,-26.2450009],[-50.7277985,-26.2014514],[-50.7056204,-26.1897056],[-50.6775895,-26.1472181],[-50.6483104,-26.1303502],[-50.6565623,-26.1018131],[-50.6309991,-26.0646211],[-50.5948011,-26.0703959],[-50.5519076,-26.0575582],[-50.5525092,-26.0426318],[-50.5862879,-26.0476008],[-50.5914895,-26.0225393],[-50.5619125,-26.0064933],[-50.5508688,-26.0382627],[-50.5023602,-26.0242432],[-50.4591296,-26.0272142],[-50.4295381,-26.0629874],[-50.4001443,-26.0625911],[-50.3721225,-26.0787336],[-50.3589874,-26.1177779],[-50.3326555,-26.134937],[-50.3320127,-26.0853748],[-50.2980142,-26.0543171],[-50.2873903,-26.0558091],[-50.2512218,-26.0304735],[-50.2363389,-26.0354609],[-50.1779718,-26.0785023],[-50.161577,-26.0576771],[-50.1702508,-26.0251885],[-50.1401632,-26.0265834],[-50.1097613,-26.0519902],[-50.063827,-26.0327058],[-50.0110633,-26.0267338],[-49.9774544,-26.0136823],[-49.9631377,-26.0275984],[-49.9147902,-26.0254229],[-49.8699694,-26.0332501],[-49.8635593,-26.0550485],[-49.8345321,-26.0692838],[-49.8249998,-26.0934253],[-49.778346,-26.1198942],[-49.7487992,-26.1241737],[-49.7489641,-26.1401181],[-49.727533,-26.171436],[-49.7114555,-26.1543236],[-49.6807649,-26.1865019],[-49.65369,-26.1869599],[-49.5556187,-26.237353],[-49.5379632,-26.2128537],[-49.5224637,-26.2212854],[-49.4909621,-26.2142533],[-49.4793639,-26.1840571],[-49.4523629,-26.1619579],[-49.4334457,-26.168591],[-49.3685702,-26.1528266],[-49.3608472,-26.1370906],[-49.31468,-26.108929],[-49.2941314,-26.0855889],[-49.2557627,-26.0679584],[-49.239861,-26.0349863],[-49.1744743,-26.004206],[-49.150377,-26.0096917],[-49.1188991,-26.0024927],[-49.0981087,-26.0104567],[-49.0717076,-26.0003947],[-49.0201609,-26.0157474],[-48.9942518,-26.0093054],[-48.9604784,-25.9807998],[-48.6820323,-25.9836713],[-48.6495503,-25.9578473],[-48.6209429,-25.9823147],[-48.5950432,-25.9767745],[-48.5809628,-25.9319711],[-48.5597196,-25.8907489],[-48.5646653,-25.8564196],[-48.5375649,-25.8435697],[-48.5266128,-25.8019801],[-48.5009548,-25.7534543],[-48.4316145,-25.6428746],[-48.3903071,-25.604056],[-48.3582855,-25.5859468],[-48.3199262,-25.5865626],[-48.2901316,-25.5461365],[-48.2769112,-25.5140512],[-48.2870256,-25.4891998],[-48.2393219,-25.465269],[-48.2149358,-25.4740505],[-48.1978832,-25.4279896],[-48.1622966,-25.37497],[-48.134616,-25.34442],[-48.0997085,-25.316354],[-48.0984588,-25.2996767],[-48.0511582,-25.2523355],[-48.0235374,-25.2309317],[-48.0402996,-25.2187445],[-48.0621061,-25.2400852],[-48.0985821,-25.2412534],[-48.1148836,-25.250702],[-48.1512382,-25.2281274],[-48.1627203,-25.2098366],[-48.1933632,-25.1898656],[-48.1666386,-25.1660086],[-48.1713342,-25.1422586],[-48.2160543,-25.0766716],[-48.214943,-25.0296741],[-48.2353924,-24.9955833],[-48.2633319,-24.9928045],[-48.2846277,-25.0391923],[-48.3074617,-25.0354827],[-48.3177739,-25.0565481],[-48.3469716,-25.0352408],[-48.3786378,-24.9970283],[-48.4111527,-24.9802317],[-48.4740493,-25.0125524],[-48.4808824,-25.0369881],[-48.5285838,-25.1007893],[-48.5560079,-25.0865526],[-48.5579385,-25.0639725],[-48.5838052,-25.0415844],[-48.6008313,-25.0105057],[-48.5884602,-24.9864393],[-48.5673709,-24.9722669],[-48.5628676,-24.9394293],[-48.5671436,-24.9038712],[-48.5493901,-24.8791638],[-48.5678141,-24.8474996],[-48.5488908,-24.7972137],[-48.5167241,-24.7801821],[-48.5018968,-24.7459757],[-48.5518104,-24.7166178],[-48.5722028,-24.6906386],[-48.6040298,-24.6682968],[-48.641642,-24.6896675],[-48.6770593,-24.6925268],[-48.7185899,-24.6830148],[-48.7786516,-24.6967322],[-48.7882067,-24.6811894],[-48.8404009,-24.6649768],[-48.9632894,-24.6732153],[-49.0345676,-24.65005],[-49.0518457,-24.6806952],[-49.0746749,-24.6734165],[-49.1115946,-24.6883523],[-49.1360713,-24.6752471],[-49.187123,-24.6736981],[-49.2232588,-24.6985849],[-49.2756811,-24.6943759],[-49.3120154,-24.6635327],[-49.3140712,-24.6320664],[-49.3035971,-24.5969487],[-49.3176777,-24.5666395],[-49.3098163,-24.5499278],[-49.280272,-24.5372649],[-49.296462,-24.5018955],[-49.2489852,-24.4715054],[-49.2532326,-24.4359366],[-49.2355492,-24.4095521],[-49.2476759,-24.3927177],[-49.2161546,-24.3558903],[-49.2312127,-24.3303952],[-49.2860996,-24.3040721],[-49.3053741,-24.251431],[-49.3506772,-24.2208009],[-49.3557624,-24.2090737],[-49.3398259,-24.1747945],[-49.3365663,-24.1375819],[-49.3891,-24.1196287],[-49.4318438,-24.0856013],[-49.4378235,-24.0587863],[-49.4575401,-24.0494852],[-49.4634431,-24.0274358],[-49.4981248,-23.9938083],[-49.5029134,-23.9485422],[-49.5631719,-23.9123424],[-49.6024638,-23.8682819],[-49.5985289,-23.8367922],[-49.5600689,-23.8119307],[-49.5673236,-23.7367786],[-49.5491992,-23.7040164],[-49.6021338,-23.6521161],[-49.6211716,-23.6070475],[-49.602017,-23.5826967],[-49.6079896,-23.5652324],[-49.6002062,-23.5356244],[-49.6242171,-23.5233026],[-49.6210967,-23.492099],[-49.6032894,-23.4784236],[-49.603186,-23.4512926],[-49.575543,-23.4313959],[-49.5985165,-23.3981866],[-49.5904025,-23.3827925],[-49.6118066,-23.3546535],[-49.6308803,-23.2994757],[-49.6258029,-23.2866501],[-49.6537516,-23.212037],[-49.6833234,-23.1637756],[-49.6974899,-23.1649832],[-49.7304888,-23.1414461],[-49.725551,-23.1094381],[-49.751382,-23.0977574],[-49.7917155,-23.1024262],[-49.8336586,-23.0659429],[-49.8505758,-23.0732551],[-49.8853291,-23.0650684],[-49.9116022,-23.0511186],[-49.9159033,-23.0347875],[-49.8995854,-23.0020053],[-49.9307596,-22.9830312],[-49.9545019,-22.9784205],[-49.9741983,-22.9544968],[-49.9613778,-22.930863],[-50.0162405,-22.9103352],[-50.0527394,-22.9052685],[-50.0715498,-22.9281236],[-50.0928258,-22.9225047],[-50.1154098,-22.9397912],[-50.1480536,-22.9351283],[-50.1833934,-22.9537733],[-50.2441636,-22.94955],[-50.2733879,-22.9310013],[-50.3184953,-22.9506826],[-50.3401866,-22.9480729],[-50.3592495,-22.9160588],[-50.3790746,-22.9054056],[-50.4189476,-22.9139331],[-50.4303025,-22.9464074],[-50.4827394,-22.9369345],[-50.5110192,-22.9446388],[-50.5300104,-22.9191495],[-50.5770572,-22.9039445],[-50.6038084,-22.9231785],[-50.6615854,-22.8954775],[-50.679942,-22.9032102],[-50.7112162,-22.9547444],[-50.7295268,-22.9624986],[-50.7586621,-22.9476544],[-50.795935,-22.9511794],[-50.8061462,-22.9402993],[-50.7931381,-22.9051173],[-50.7978171,-22.8885524],[-50.8306654,-22.8621733],[-50.8423871,-22.8313985],[-50.8953334,-22.7943002],[-50.9456364,-22.8039323],[-50.9786781,-22.7826098],[-51.0111421,-22.792297],[-51.057615,-22.7660571],[-51.1279231,-22.7599926],[-51.1644128,-22.7489629],[-51.1870158,-22.7298921],[-51.228336,-22.7160172],[-51.2428803,-22.6895762],[-51.2651999,-22.6676974],[-51.306495,-22.6744902],[-51.3736492,-22.6581329],[-51.4020163,-22.6679055],[-51.4247256,-22.6535108],[-51.4530961,-22.6557505],[-51.4719041,-22.6771868],[-51.4989018,-22.6905293],[-51.5434953,-22.6895165],[-51.5595692,-22.6971793],[-51.5914778,-22.6851988],[-51.6158422,-22.6625934],[-51.6463861,-22.6563411],[-51.6991709,-22.6693686],[-51.7258674,-22.6614648],[-51.7330367,-22.6286144],[-51.7716206,-22.6141269],[-51.8470961,-22.632226],[-51.8789728,-22.624353],[-51.9405126,-22.5673428],[-51.9968526,-22.5460533],[-52.0600478,-22.5377656],[-52.1058519,-22.5166619],[-52.1276022,-22.519923],[-52.1487619,-22.5492535],[-52.1609654,-22.5894509],[-52.156678,-22.6447189],[-52.1971818,-22.6589303],[-52.2225772,-22.6755354],[-52.2280991,-22.6425169],[-52.2504131,-22.6154264],[-52.2786947,-22.6203902],[-52.3004356,-22.635445],[-52.3686111,-22.6293368],[-52.4330458,-22.6071665],[-52.4676343,-22.6158782],[-52.5026768,-22.6345557],[-52.5453772,-22.6117435],[-52.5893444,-22.5660966],[-52.6113574,-22.5744716],[-52.6630376,-22.6119177],[-52.6971054,-22.6270066],[-52.7269043,-22.6252423],[-52.7503018,-22.6123689],[-52.8154397,-22.5970432],[-52.8583628,-22.608001],[-52.9053625,-22.5722073],[-52.9247426,-22.565624],[-52.972425,-22.5704843],[-53.030807,-22.6084114],[-53.0877869,-22.6584449],[-53.1051872,-22.6219296],[-53.1476084,-22.6780813],[-53.1853664,-22.7187337],[-53.2067208,-22.7312603],[-53.2441288,-22.7346976],[-53.3001456,-22.7538518],[-53.3595079,-22.7795565],[-53.3775322,-22.8032341],[-53.3987296,-22.8067269],[-53.4296507,-22.8329554],[-53.4847612,-22.8638542],[-53.5468271,-22.8900963],[-53.5707711,-22.9284913],[-53.6074235,-22.9513335],[-53.634125,-22.9984951],[-53.6298958,-23.0135048],[-53.6365887,-23.1250308],[-53.6547546,-23.1441601],[-53.6679996,-23.1823501],[-53.699341,-23.2349043],[-53.7252209,-23.3104334],[-53.7754879,-23.3751314],[-53.8160218,-23.3856449],[-53.8765944,-23.4197884],[-53.932055,-23.4459488],[-53.9601976,-23.4434149],[-53.9865967,-23.4647936],[-54.0043425,-23.51108],[-54.0084866,-23.5490387],[-54.0240178,-23.5860784],[-54.0322298,-23.6516617],[-54.0446082,-23.6686559],[-54.0526388,-23.7250676],[-54.0757093,-23.7644849],[-54.0860616,-23.8251609]]],"bbox":[-54.6198575,-26.70062,-48.0235374,-22.5166619]}
