{"type":"Topology","objects":{"geometrias":{"type":"GeometryCollection","geometries":[{"type":"Polygon","arcs":[[0]],"properties":{"code_state":42,"code_region":4,"name_state":"Santa Catarina","abbrev_state":"SC","name_region":"Sul","year":2020}}]}},"arcs":[[[-53.694322,-26.8891309],[-53.6736827,-26.9134639],[-53.7096874,-26.9405645],[-53.7014305,-26.953977],[-53.7267291,-26.9591053],[-53.7336567,-26.9787484],[-53.718659,-26.9842058],[-53.7647967,-27.0453718],[-53.7725234,-27.0663196],[-53.7933355,-27.0416191],[-53.8014678,-27.0862847],[-53.7777023,-27.1015206],[-53.824192,-27.1337135],[-53.8371493,-27.1556386],[-53.8296431,-27.1726275],[-53.8148466,-27.1758898],[-53.7801413,-27.1495899],[-53.7629422,-27.1553555],[-53.7515895,-27.1880526],[-53.7352636,-27.1907901],[-53.700899,-27.1700094],[-53.6750504,-27.1606825],[-53.6501258,-27.1788221],[-53.6511769,-27.2127152],[-53.6307258,-27.2133786],[-53.6182319,-27.1873364],[-53.5914418,-27.1874727],[-53.5540029,-27.173178],[-53.518249,-27.2021778],[-53.4947061,-27.2039403],[-53.4917069,-27.1766918],[-53.5051496,-27.1614501],[-53.5043642,-27.1356415],[-53.4763393,-27.1389083],[-53.4525555,-27.1561351],[-53.4179383,-27.1444445],[-53.4011986,-27.1295012],[-53.3943562,-27.1105606],[-53.3776178,-27.0919808],[-53.3649824,-27.0943479],[-53.3533047,-27.1153807],[-53.3122408,-27.119688],[-53.2929369,-27.1408089],[-53.3090173,-27.181611],[-53.320727,-27.1982383],[-53.3078492,-27.2165417],[-53.293067,-27.1969193],[-53.2320857,-27.1711117],[-53.1972164,-27.1926527],[-53.1811367,-27.1882679],[-53.1723622,-27.1480209],[-53.1545929,-27.1406169],[-53.1403447,-27.1744194],[-53.1321831,-27.1802287],[-53.0774788,-27.1631158],[-53.069718,-27.1515543],[-53.0790453,-27.1184736],[-53.0590423,-27.0882454],[-53.0320951,-27.082302],[-53.0213514,-27.1057905],[-53.0413939,-27.1249055],[-53.0375501,-27.1577479],[-53.0193158,-27.1538174],[-53.0030057,-27.1356146],[-52.9837257,-27.156503],[-52.9851446,-27.1704881],[-53.0025644,-27.1976227],[-52.991719,-27.2176533],[-52.9681942,-27.2111029],[-52.9677099,-27.1903744],[-52.9566923,-27.1632578],[-52.9360669,-27.1780364],[-52.9293114,-27.2040764],[-52.9033596,-27.1990902],[-52.8851406,-27.1826681],[-52.8599769,-27.1704273],[-52.8430785,-27.1785255],[-52.8466916,-27.2023335],[-52.8339914,-27.2112922],[-52.8075153,-27.2023721],[-52.7635597,-27.2112333],[-52.7639082,-27.2429623],[-52.7575613,-27.2574918],[-52.7397649,-27.2552421],[-52.7236915,-27.2351438],[-52.7122882,-27.2400034],[-52.7072601,-27.2721932],[-52.6809898,-27.2740514],[-52.6767383,-27.2466088],[-52.6574574,-27.2395345],[-52.6461956,-27.2606121],[-52.6178894,-27.2657059],[-52.5874994,-27.2468901],[-52.5636001,-27.2489161],[-52.5438602,-27.2410847],[-52.5291471,-27.2626863],[-52.4930183,-27.2671533],[-52.4763924,-27.2605782],[-52.4798149,-27.2355428],[-52.4462101,-27.217412],[-52.4301649,-27.223725],[-52.44174,-27.248985],[-52.4390853,-27.2644049],[-52.4156089,-27.2852581],[-52.3936592,-27.2851463],[-52.3997418,-27.263265],[-52.3811387,-27.260818],[-52.3785034,-27.3026838],[-52.3502253,-27.2882432],[-52.3130843,-27.3092657],[-52.2910463,-27.3068335],[-52.3060917,-27.265723],[-52.2939566,-27.2566509],[-52.2571493,-27.2562013],[-52.2368566,-27.2737692],[-52.2597603,-27.2789379],[-52.2778953,-27.2949224],[-52.2348009,-27.3106581],[-52.2271795,-27.3290007],[-52.2056261,-27.3273864],[-52.1910065,-27.2917198],[-52.1737838,-27.2720469],[-52.1593055,-27.2815636],[-52.1683643,-27.3055814],[-52.1612892,-27.3142878],[-52.1263285,-27.3025235],[-52.1056867,-27.3133503],[-52.1111215,-27.335403],[-52.103287,-27.3466956],[-52.0660571,-27.3395366],[-52.0383697,-27.3442034],[-52.0198518,-27.3319461],[-52.010832,-27.3466054],[-52.0228896,-27.3621543],[-52.0064474,-27.3746257],[-51.9734125,-27.3723383],[-51.9520867,-27.3802471],[-51.952099,-27.3951736],[-51.9786975,-27.3889042],[-52.0065747,-27.3950301],[-51.9995823,-27.409739],[-51.9512992,-27.4173062],[-51.9335484,-27.4381325],[-51.9637942,-27.463136],[-51.9449946,-27.4730915],[-51.9183845,-27.4584344],[-51.9004867,-27.4640604],[-51.902342,-27.4955225],[-51.8947903,-27.5170212],[-51.8739134,-27.5114993],[-51.8740397,-27.4797936],[-51.8463267,-27.4793449],[-51.8551292,-27.5154503],[-51.8370708,-27.522233],[-51.7984337,-27.5094318],[-51.8017881,-27.4939626],[-51.75968,-27.4867563],[-51.7303892,-27.511502],[-51.7166827,-27.5103401],[-51.6996498,-27.4790642],[-51.6732478,-27.4880457],[-51.677578,-27.5029806],[-51.6647179,-27.5172667],[-51.6474327,-27.5163319],[-51.6436426,-27.4925564],[-51.6194935,-27.5002824],[-51.6311317,-27.5414631],[-51.6083281,-27.5413715],[-51.593921,-27.5244056],[-51.5778171,-27.5319054],[-51.5867222,-27.560268],[-51.5717093,-27.5826241],[-51.554876,-27.5639917],[-51.5130743,-27.5565923],[-51.4870129,-27.5608153],[-51.4777967,-27.5710291],[-51.4767643,-27.5987746],[-51.457684,-27.6071136],[-51.4366062,-27.6298497],[-51.4352043,-27.6543987],[-51.4191535,-27.6546386],[-51.4052908,-27.631861],[-51.3827589,-27.6245716],[-51.3701089,-27.6366712],[-51.3779345,-27.6600239],[-51.3615622,-27.6780875],[-51.3308702,-27.6709395],[-51.3133938,-27.678758],[-51.3020007,-27.7025595],[-51.3100359,-27.7180894],[-51.276128,-27.7240242],[-51.2704828,-27.7523073],[-51.2262537,-27.7711841],[-51.1912823,-27.7761507],[-51.1577918,-27.8028892],[-51.1346065,-27.8036571],[-51.1289232,-27.8320476],[-51.0982717,-27.8274176],[-51.0765643,-27.8418454],[-51.0721612,-27.8645116],[-51.0529908,-27.869788],[-51.0582788,-27.8968387],[-51.0509794,-27.9076595],[-51.0199085,-27.9224875],[-51.0189557,-27.957048],[-51.002258,-27.964213],[-50.9936288,-27.9460069],[-50.9470437,-27.9672425],[-50.9239682,-27.9716546],[-50.9232384,-28.0119878],[-50.8923361,-28.021156],[-50.8753996,-28.0401999],[-50.8813874,-28.0672564],[-50.8984814,-28.075516],[-50.8993599,-28.0896556],[-50.8759188,-28.0950754],[-50.858991,-28.1397055],[-50.8367577,-28.1194],[-50.8137868,-28.1415602],[-50.7940761,-28.1386404],[-50.782816,-28.175983],[-50.7888221,-28.198335],[-50.7614854,-28.193141],[-50.7533452,-28.2456844],[-50.7107406,-28.2665167],[-50.6965973,-28.2678412],[-50.695224,-28.2885195],[-50.6649077,-28.3127962],[-50.6516748,-28.3434574],[-50.6284503,-28.3645961],[-50.6332902,-28.378916],[-50.6115593,-28.3932666],[-50.5922669,-28.3819459],[-50.5592689,-28.4173972],[-50.5370015,-28.4297226],[-50.531594,-28.4078106],[-50.4704404,-28.4149022],[-50.4287806,-28.433541],[-50.395171,-28.4331574],[-50.3768372,-28.4436738],[-50.3599941,-28.4198395],[-50.3404469,-28.4409658],[-50.3296183,-28.4342305],[-50.3038899,-28.437901],[-50.2928469,-28.4510336],[-50.2729133,-28.4570719],[-50.2468002,-28.4282705],[-50.2357086,-28.4570291],[-50.2226487,-28.4632721],[-50.1990863,-28.4448338],[-50.1780074,-28.4522534],[-50.1620146,-28.4813851],[-50.1392568,-28.4939534],[-50.1472781,-28.4495265],[-50.1269337,-28.4397298],[-50.1113576,-28.4444705],[-50.1261868,-28.4745281],[-50.0728184,-28.4808072],[-50.0258232,-28.4730834],[-50.0138764,-28.4507755],[-49.9886396,-28.4452528],[-49.9525054,-28.4503368],[-49.9423245,-28.4824344],[-49.9284437,-28.4714096],[-49.9285138,-28.4512235],[-49.9016491,-28.4648422],[-49.8635729,-28.462846],[-49.8666498,-28.4886323],[-49.8439264,-28.4851968],[-49.8172655,-28.4698688],[-49.7909263,-28.4964202],[-49.7780453,-28.477256],[-49.7392665,-28.5003347],[-49.7354803,-28.5236153],[-49.7467201,-28.5353911],[-49.7309012,-28.551183],[-49.7259776,-28.5695039],[-49.7079683,-28.5822272],[-49.7101947,-28.6043446],[-49.6914599,-28.6201692],[-49.7789039,-28.6294802],[-49.783828,-28.6099076],[-49.8140127,-28.6355045],[-49.8132853,-28.6475568],[-49.8413263,-28.6768597],[-49.8348665,-28.6939265],[-49.8427336,-28.7099406],[-49.8701871,-28.7087247],[-49.8739726,-28.7267655],[-49.9048608,-28.7184784],[-49.9346778,-28.7256765],[-49.9217437,-28.7455426],[-49.9613329,-28.7721804],[-49.9569943,-28.7836107],[-49.9661441,-28.8213279],[-49.9567607,-28.8703633],[-49.9435899,-28.8796583],[-49.9631796,-28.9189189],[-49.9580268,-28.9625515],[-49.9336567,-28.9658216],[-49.9591547,-29.0104812],[-49.9469385,-29.0318308],[-49.9609987,-29.0508076],[-49.9569425,-29.0629374],[-49.9697599,-29.1005732],[-49.9682774,-29.1147769],[-50.0049122,-29.1406371],[-50.0386135,-29.1774386],[-50.0628447,-29.1859154],[-50.0876318,-29.1837495],[-50.0889976,-29.2235466],[-50.1330356,-29.1973491],[-50.1406832,-29.2377834],[-50.1552287,-29.2476875],[-50.1425247,-29.2713911],[-50.134067,-29.3021625],[-50.0906541,-29.3108993],[-50.0595088,-29.3412031],[-50.051215,-29.3241113],[-50.0995917,-29.2884012],[-50.1154827,-29.2622804],[-50.0365467,-29.2378462],[-50.0099322,-29.2254095],[-49.9965852,-29.2282623],[-49.9696791,-29.2121376],[-49.9627342,-29.1988546],[-49.935434,-29.2082815],[-49.912866,-29.2079428],[-49.8571037,-29.2330584],[-49.8522,-29.2536409],[-49.8173798,-29.2856538],[-49.7905422,-29.2858847],[-49.7759297,-29.2974099],[-49.7420974,-29.2988203],[-49.7435636,-29.3197173],[-49.7129375,-29.3255835],[-49.7048471,-29.3097299],[-49.6263555,-29.2153597],[-49.5886011,-29.1727733],[-49.4343545,-29.0091056],[-49.3625057,-28.9430673],[-49.2442803,-28.8451053],[-49.1475363,-28.7755045],[-49.0787653,-28.7321151],[-48.9745782,-28.6714801],[-48.8635538,-28.6172662],[-48.8162252,-28.6060575],[-48.81531,-28.5882263],[-48.7818609,-28.5482293],[-48.7614945,-28.5354858],[-48.7629064,-28.5246263],[-48.7466706,-28.5033699],[-48.7603413,-28.4952658],[-48.7664203,-28.4744887],[-48.7591767,-28.4456455],[-48.7454138,-28.4264759],[-48.7439095,-28.3964378],[-48.7112207,-28.3449856],[-48.6974451,-28.2915716],[-48.6740285,-28.2549077],[-48.6454349,-28.2346067],[-48.6609978,-28.2268579],[-48.6660766,-28.2058158],[-48.6528704,-28.1563344],[-48.6387117,-28.142478],[-48.6318565,-28.0850364],[-48.6062357,-28.0522903],[-48.6047964,-28.0192674],[-48.6299404,-28.0097508],[-48.6253649,-27.9552471],[-48.6063533,-27.9236512],[-48.5753106,-27.8922876],[-48.5962403,-27.8823526],[-48.6007786,-27.8582577],[-48.5768661,-27.8489016],[-48.5708388,-27.8360425],[-48.5442708,-27.8298771],[-48.5346568,-27.7965739],[-48.5067096,-27.7835733],[-48.493616,-27.7941354],[-48.4782557,-27.7618218],[-48.5063337,-27.747483],[-48.5055348,-27.7240717],[-48.4817645,-27.6917208],[-48.467304,-27.6511865],[-48.444341,-27.6235976],[-48.4274369,-27.5939839],[-48.4256872,-27.5420345],[-48.4003016,-27.4993587],[-48.3760903,-27.4779866],[-48.3720479,-27.443942],[-48.3913887,-27.4353116],[-48.4117346,-27.4049943],[-48.4166373,-27.3805606],[-48.4834723,-27.3782829],[-48.5262704,-27.408262],[-48.5369689,-27.357959],[-48.5259546,-27.3440545],[-48.5381249,-27.3254253],[-48.5380321,-27.3070483],[-48.5881314,-27.3195312],[-48.6029839,-27.3020958],[-48.6154371,-27.2718603],[-48.6138344,-27.2390062],[-48.6073048,-27.219728],[-48.5779655,-27.2114419],[-48.5422741,-27.1826259],[-48.5131611,-27.1848397],[-48.4952612,-27.1984611],[-48.4998784,-27.1461376],[-48.5259682,-27.1234825],[-48.5504184,-27.1571223],[-48.585558,-27.1449171],[-48.6086964,-27.1152957],[-48.613645,-27.0980711],[-48.591817,-27.0803429],[-48.5940877,-27.0627959],[-48.5810635,-27.0274636],[-48.5828168,-27.0000756],[-48.6160277,-27.0040872],[-48.6283221,-26.9931647],[-48.6265385,-26.9332671],[-48.6436525,-26.9049406],[-48.6275153,-26.833296],[-48.6046484,-26.8256706],[-48.5967051,-26.803554],[-48.5841362,-26.7955474],[-48.6317411,-26.7816836],[-48.6472533,-26.7621671],[-48.6622736,-26.7714038],[-48.6749753,-26.7552328],[-48.6881604,-26.6715765],[-48.6794808,-26.6229647],[-48.6555297,-26.5568037],[-48.6267938,-26.4987825],[-48.5935453,-26.4530709],[-48.5994767,-26.4323846],[-48.5912343,-26.4048309],[-48.5625464,-26.353824],[-48.5419417,-26.3017335],[-48.5041197,-26.2372922],[-48.5247558,-26.2098685],[-48.5276456,-26.1638226],[-48.5497775,-26.1708504],[-48.5768579,-26.1658064],[-48.5885762,-26.1549941],[-48.5975559,-26.1304513],[-48.6024955,-26.0719734],[-48.6106081,-26.0607574],[-48.6013834,-25.980806],[-48.6215282,-25.9819868],[-48.6495503,-25.9578473],[-48.6689389,-25.9792397],[-48.6820323,-25.9836713],[-48.9604784,-25.9807998],[-48.9942518,-26.0093054],[-49.0201609,-26.0157474],[-49.0434601,-26.0053733],[-49.054101,-26.0209346],[-49.0717076,-26.0003947],[-49.0981087,-26.0104567],[-49.1257939,-25.9961315],[-49.1384493,-26.0151852],[-49.1737641,-26.0001384],[-49.1915423,-26.0134522],[-49.239861,-26.0349863],[-49.2557627,-26.0679584],[-49.2769582,-26.0828956],[-49.2941314,-26.0855889],[-49.3000682,-26.1112838],[-49.31468,-26.108929],[-49.333957,-26.1245657],[-49.3608472,-26.1370906],[-49.3685702,-26.1528266],[-49.4334457,-26.168591],[-49.4523629,-26.1619579],[-49.4793639,-26.1840571],[-49.4909621,-26.2142533],[-49.5224637,-26.2212854],[-49.5379632,-26.2128537],[-49.5556187,-26.237353],[-49.6052352,-26.211931],[-49.6229226,-26.215574],[-49.6298044,-26.1975263],[-49.6509153,-26.208363],[-49.65369,-26.1869599],[-49.6807649,-26.1865019],[-49.7114555,-26.1543236],[-49.727533,-26.171436],[-49.7489641,-26.1401181],[-49.7487992,-26.1241737],[-49.7649976,-26.1140649],[-49.778346,-26.1198942],[-49.8249998,-26.0934253],[-49.8345321,-26.0692838],[-49.8635593,-26.0550485],[-49.8699694,-26.0332501],[-49.9147902,-26.0254229],[-49.9312753,-26.0303358],[-49.9631377,-26.0275984],[-49.9774544,-26.0136823],[-50.01094,-26.0133282],[-50.0110633,-26.0267338],[-50.063827,-26.0327058],[-50.1097613,-26.0519902],[-50.1315541,-26.0422733],[-50.1401632,-26.0265834],[-50.1702508,-26.0251885],[-50.161577,-26.0576771],[-50.1779718,-26.0785023],[-50.2087834,-26.0570194],[-50.2226853,-26.0604246],[-50.2363389,-26.0354609],[-50.2512218,-26.0304735],[-50.2873903,-26.0558091],[-50.2980142,-26.0543171],[-50.3320127,-26.0853748],[-50.3326555,-26.134937],[-50.3589874,-26.1177779],[-50.3618472,-26.0932212],[-50.3721225,-26.0787336],[-50.4001443,-26.0625911],[-50.4295381,-26.0629874],[-50.4591296,-26.0272142],[-50.5023602,-26.0242432],[-50.5508688,-26.0382627],[-50.5619125,-26.0064933],[-50.5702306,-26.0019528],[-50.5914895,-26.0225393],[-50.5862879,-26.0476008],[-50.5525092,-26.0426318],[-50.5519076,-26.0575582],[-50.5948011,-26.0703959],[-50.6309991,-26.0646211],[-50.6565623,-26.1018131],[-50.6483104,-26.1303502],[-50.6775895,-26.1472181],[-50.7056204,-26.1897056],[-50.7277985,-26.2014514],[-50.728554,-26.2148783],[-50.7164043,-26.2450009],[-50.7459296,-26.2467729],[-50.750563,-26.2244501],[-50.7976048,-26.2301802],[-50.8277425,-26.2481634],[-50.8311658,-26.2661363],[-50.846873,-26.2663831],[-50.8621338,-26.243376],[-50.8724416,-26.2445027],[-50.8819619,-26.2792658],[-50.9091388,-26.2846351],[-50.908207,-26.2512143],[-50.9325129,-26.2344918],[-50.9440114,-26.2429562],[-50.9315532,-26.2684955],[-50.9473857,-26.281234],[-50.9644819,-26.2679161],[-50.9748918,-26.2441157],[-50.9989726,-26.2310534],[-51.0568457,-26.2439017],[-51.082455,-26.228528],[-51.101911,-26.2728112],[-51.1203944,-26.2796727],[-51.148403,-26.2787746],[-51.1619388,-26.2910267],[-51.194074,-26.3014791],[-51.2479512,-26.3298664],[-51.2565004,-26.3441089],[-51.2570124,-26.3723302],[-51.2772528,-26.3894347],[-51.3004929,-26.4178719],[-51.2793484,-26.4538078],[-51.2530573,-26.4622957],[-51.2511304,-26.4720702],[-51.2731744,-26.4983042],[-51.2502094,-26.5194763],[-51.2471252,-26.5377186],[-51.231517,-26.5485977],[-51.2249954,-26.5911805],[-51.2367949,-26.6078918],[-51.2357544,-26.6232834],[-51.2835172,-26.6423633],[-51.2948899,-26.6558927],[-51.3253187,-26.6485981],[-51.3911297,-26.6632474],[-51.3927778,-26.6848787],[-51.4073176,-26.70062],[-51.435346,-26.6881781],[-51.4394948,-26.6672339],[-51.4567615,-26.6531763],[-51.454883,-26.6406582],[-51.4973868,-26.5852636],[-51.507795,-26.5809242],[-51.5356074,-26.5917979],[-51.5969898,-26.58406],[-51.6309939,-26.5878183],[-51.6568594,-26.5664278],[-51.671999,-26.5651968],[-51.694165,-26.5812113],[-51.7345458,-26.5723759],[-51.789399,-26.5886824],[-51.8205615,-26.5786004],[-51.8339981,-26.5900386],[-51.8734505,-26.5993625],[-51.8831782,-26.5848166],[-51.9002917,-26.5792836],[-51.9283319,-26.5843685],[-51.9433269,-26.5712026],[-52.0087675,-26.5665606],[-52.0212151,-26.5487221],[-52.0651889,-26.5230182],[-52.0813539,-26.525111],[-52.0981791,-26.5015009],[-52.096879,-26.4874797],[-52.1116325,-26.4749634],[-52.1295515,-26.4772059],[-52.1666946,-26.4649806],[-52.186343,-26.4451167],[-52.2028476,-26.4587849],[-52.2298118,-26.4670431],[-52.2616222,-26.4542808],[-52.2902188,-26.4553658],[-52.3049939,-26.4402571],[-52.3774195,-26.4409567],[-52.3980605,-26.42882],[-52.4333066,-26.4402033],[-52.4636056,-26.4396036],[-52.4767233,-26.421436],[-52.496272,-26.4200194],[-52.5187326,-26.4015213],[-52.5789527,-26.4081527],[-52.5958322,-26.4160624],[-52.6153782,-26.4091241],[-52.6211027,-26.395509],[-52.6597739,-26.3738708],[-52.678622,-26.352676],[-52.7188906,-26.357301],[-52.7377632,-26.3421849],[-52.7634936,-26.3536707],[-52.7753913,-26.3478885],[-52.8469285,-26.3444065],[-52.8665078,-26.3582736],[-52.9504203,-26.3622865],[-52.9933039,-26.3475248],[-53.0464406,-26.3813775],[-53.093228,-26.3920221],[-53.1095398,-26.3763517],[-53.1269968,-26.3724881],[-53.150939,-26.344519],[-53.165447,-26.3512796],[-53.2260153,-26.3184752],[-53.2400852,-26.3002441],[-53.2645345,-26.2893298],[-53.262114,-26.2773298],[-53.2890034,-26.2480361],[-53.3048557,-26.260529],[-53.3389307,-26.2482313],[-53.3760719,-26.241614],[-53.3998165,-26.254013],[-53.4246944,-26.2800667],[-53.4702349,-26.2901297],[-53.4984093,-26.3030406],[-53.5237076,-26.2920211],[-53.5534836,-26.2926096],[-53.5822163,-26.2724168],[-53.5862947,-26.2558663],[-53.6416505,-26.2603977],[-53.6710734,-26.3307319],[-53.6857281,-26.3354044],[-53.7002756,-26.3628918],[-53.696649,-26.4019605],[-53.7033502,-26.4171114],[-53.6877198,-26.4314332],[-53.7092422,-26.5012416],[-53.7313362,-26.5103879],[-53.7227745,-26.5276649],[-53.7390348,-26.5484462],[-53.7221142,-26.5589891],[-53.7223263,-26.5810829],[-53.7346075,-26.6074378],[-53.7299537,-26.620366],[-53.7516225,-26.6354733],[-53.7261606,-26.6591855],[-53.7347264,-26.7168645],[-53.7480911,-26.7263276],[-53.7141493,-26.7525963],[-53.7285483,-26.7649803],[-53.7100255,-26.7975164],[-53.700878,-26.7975483],[-53.6983698,-26.8292995],[-53.678276,-26.8430588],[-53.6721776,-26.8616767],[-53.6855129,-26.8668057],[-53.694322,-26.8891309]]],"bbox":[-53.8371493,-29.3412031,-48.3720479,-25.9578473]}
