{"type":"Topology","objects":{"geometrias":{"type":"GeometryCollection","geometries":[{"type":"Polygon","arcs":[[0]],"properties":{"code_state":52,"code_region":5,"name_state":"Goiás","abbrev_state":"GO","name_region":"Centro-Oeste","year":2020}}]}},"arcs":[[[-52.3682737,-16.0843193],[-52.372894,-16.0981299],[-52.3988793,-16.0933424],[-52.4395408,-16.1100841],[-52.4605729,-16.1277183],[-52.488136,-16.1304309],[-52.5020554,-16.1421354],[-52.5259589,-16.141064],[-52.5264499,-16.1553939],[-52.5473373,-16.1632322],[-52.5505031,-16.1875631],[-52.545272,-16.2226104],[-52.5689264,-16.2338872],[-52.5545962,-16.2524165],[-52.5827195,-16.2546894],[-52.5891948,-16.269497],[-52.6103955,-16.2717467],[-52.6193461,-16.2838801],[-52.6579667,-16.2800754],[-52.6825566,-16.3017423],[-52.68258,-16.3441296],[-52.692787,-16.3671524],[-52.6775937,-16.3809965],[-52.687412,-16.3990005],[-52.6745488,-16.4124041],[-52.6516772,-16.408483],[-52.6386778,-16.4375587],[-52.6192182,-16.4463069],[-52.6060783,-16.4860242],[-52.6127559,-16.5017547],[-52.6316352,-16.5001506],[-52.6255931,-16.5309265],[-52.6544824,-16.5607108],[-52.6702748,-16.558683],[-52.6732905,-16.5849219],[-52.7032115,-16.5963439],[-52.7275853,-16.5863466],[-52.7260216,-16.6144966],[-52.7410747,-16.6520897],[-52.7590414,-16.6711255],[-52.7640304,-16.6979826],[-52.7856585,-16.714447],[-52.7925243,-16.7401439],[-52.8081932,-16.7422776],[-52.8293704,-16.7701427],[-52.8594506,-16.7685953],[-52.8844177,-16.7764073],[-52.8927581,-16.7940898],[-52.9232654,-16.8182183],[-52.9450246,-16.8551914],[-53.0054934,-16.8652765],[-53.0174078,-16.8782915],[-53.0191666,-16.9002232],[-53.0394551,-16.9126931],[-53.0350329,-16.9424731],[-53.053547,-16.9788949],[-53.0608971,-17.0305634],[-53.071421,-17.0496052],[-53.0548061,-17.0641756],[-53.0874917,-17.1008125],[-53.110745,-17.1081403],[-53.1275167,-17.1545758],[-53.1566662,-17.1706845],[-53.1551668,-17.1868367],[-53.1718272,-17.2331751],[-53.2080973,-17.2931612],[-53.2118412,-17.3272933],[-53.2019544,-17.340922],[-53.2009055,-17.3718219],[-53.2281141,-17.4378245],[-53.2234972,-17.4586332],[-53.2344451,-17.479059],[-53.2441223,-17.5229237],[-53.2362465,-17.5782373],[-53.2483442,-17.6421667],[-53.2366639,-17.6794998],[-53.2337892,-17.7130374],[-53.2021732,-17.7259884],[-53.172069,-17.7569311],[-53.1553716,-17.7852182],[-53.159894,-17.7960312],[-53.1337961,-17.8324855],[-53.135743,-17.8756462],[-53.1227249,-17.8982747],[-53.1248223,-17.918015],[-53.1047187,-17.9276243],[-53.071315,-17.9659132],[-53.0647494,-17.9845366],[-53.0757114,-18.0507954],[-53.1236517,-18.0588283],[-53.14324,-18.0818367],[-53.1290165,-18.1384845],[-53.1297381,-18.1607025],[-53.1101876,-18.2195633],[-53.1020397,-18.2726203],[-53.0996557,-18.3136191],[-53.0699358,-18.3428798],[-53.0278517,-18.351596],[-53.0139382,-18.3261391],[-52.9652657,-18.2989407],[-52.9352301,-18.2965543],[-52.8732067,-18.3148335],[-52.814259,-18.3112978],[-52.7759033,-18.3287534],[-52.7593196,-18.3480709],[-52.7588732,-18.3631404],[-52.8067938,-18.4176957],[-52.8732937,-18.4267916],[-52.8809573,-18.4654927],[-52.8990952,-18.4768327],[-52.9157605,-18.5089029],[-52.942511,-18.5170307],[-52.9623514,-18.5408197],[-52.9518167,-18.5766716],[-52.9176575,-18.6152409],[-52.9167596,-18.6402946],[-52.872214,-18.6461177],[-52.8464687,-18.666953],[-52.8091012,-18.667215],[-52.7852626,-18.6815089],[-52.7651871,-18.6806226],[-52.746015,-18.6924069],[-52.7161033,-18.6914091],[-52.6873098,-18.6783425],[-52.6404504,-18.6905284],[-52.5886921,-18.6879335],[-52.5666335,-18.6648205],[-52.5315493,-18.6574807],[-52.4741711,-18.6861859],[-52.4480256,-18.6919665],[-52.4096939,-18.7548644],[-52.3539008,-18.8002034],[-52.3442559,-18.8181456],[-52.3051407,-18.8404398],[-52.2933538,-18.8292451],[-52.2632303,-18.8282244],[-52.2505018,-18.839869],[-52.1873538,-18.8458754],[-52.1730423,-18.8569967],[-52.1462319,-18.8946598],[-52.105569,-18.9068189],[-52.1057927,-18.9259298],[-52.0799944,-18.9508492],[-52.0344708,-18.9580622],[-51.9956616,-18.9742346],[-51.9400077,-18.968472],[-51.9067679,-18.9945819],[-51.8906643,-19.0177686],[-51.8576816,-19.0505313],[-51.8168818,-19.0547208],[-51.7910824,-19.0798312],[-51.751782,-19.0855882],[-51.7418615,-19.10057],[-51.682563,-19.1209272],[-51.6599195,-19.1343787],[-51.6338214,-19.1313634],[-51.6084347,-19.1409997],[-51.592212,-19.1267874],[-51.5509349,-19.1406521],[-51.5271028,-19.138922],[-51.4976479,-19.1614011],[-51.4740732,-19.1537129],[-51.4585146,-19.1677776],[-51.4272881,-19.1651906],[-51.4053572,-19.175547],[-51.3926331,-19.1962778],[-51.3701184,-19.1995871],[-51.3639605,-19.222506],[-51.3070969,-19.2180815],[-51.2978876,-19.2386039],[-51.2759732,-19.2611265],[-51.2573458,-19.2664855],[-51.1876418,-19.2689996],[-51.1691682,-19.2869631],[-51.1432251,-19.2870724],[-51.1265369,-19.3032868],[-51.086857,-19.3139993],[-51.0455374,-19.3433676],[-51.029906,-19.3669788],[-51.0189384,-19.4010838],[-51.0047644,-19.4129623],[-50.9880034,-19.4084441],[-50.9853022,-19.4313828],[-50.9521315,-19.4426335],[-50.9343326,-19.4680997],[-50.889467,-19.4808963],[-50.8566669,-19.4956744],[-50.8355094,-19.4961042],[-50.8290442,-19.467035],[-50.868584,-19.4339229],[-50.8753571,-19.4228408],[-50.8415857,-19.3508004],[-50.8359989,-19.3272746],[-50.8188904,-19.2917345],[-50.7859507,-19.2626272],[-50.770439,-19.2609848],[-50.7465327,-19.239907],[-50.7341529,-19.187695],[-50.6838926,-19.1760808],[-50.671757,-19.1627133],[-50.6776879,-19.1398107],[-50.6567471,-19.1336973],[-50.5877655,-19.1399476],[-50.5730293,-19.1223828],[-50.5351625,-19.0988871],[-50.5049146,-19.0507551],[-50.4950762,-19.0128685],[-50.5040182,-19.0044822],[-50.5006273,-18.9762627],[-50.5118782,-18.9519649],[-50.5056842,-18.9322003],[-50.468216,-18.9191611],[-50.4415031,-18.8907899],[-50.4234927,-18.8326532],[-50.3862367,-18.819731],[-50.3656856,-18.7944115],[-50.3523236,-18.7602978],[-50.31449,-18.7007498],[-50.2502634,-18.6778911],[-50.1988769,-18.6790799],[-50.164288,-18.6643525],[-50.0800431,-18.6722438],[-50.0502051,-18.6435418],[-50.0426032,-18.6198727],[-50.0200643,-18.5993635],[-49.9814547,-18.6046454],[-49.9738163,-18.6143197],[-49.9316515,-18.6239931],[-49.9043716,-18.6213046],[-49.8893049,-18.6099351],[-49.870211,-18.6143407],[-49.8361535,-18.6366896],[-49.8197929,-18.6325772],[-49.7848196,-18.6422477],[-49.7721992,-18.6132646],[-49.7328262,-18.616023],[-49.6937324,-18.590641],[-49.6669645,-18.5906591],[-49.6478626,-18.6018142],[-49.6355382,-18.5900196],[-49.6526051,-18.5735899],[-49.6420083,-18.5552431],[-49.5752534,-18.5423262],[-49.5589651,-18.5467658],[-49.5444763,-18.535998],[-49.5464672,-18.5011279],[-49.5353064,-18.4918071],[-49.499833,-18.4910228],[-49.4857626,-18.5094353],[-49.4817256,-18.5605478],[-49.455975,-18.5778985],[-49.4057131,-18.645098],[-49.3850575,-18.6460619],[-49.3438841,-18.5978656],[-49.3274973,-18.5622003],[-49.2934845,-18.564679],[-49.2856353,-18.536312],[-49.2540865,-18.5259333],[-49.2293182,-18.4803786],[-49.1925855,-18.4497216],[-49.2025283,-18.4292342],[-49.1867277,-18.4193944],[-49.1614616,-18.4182148],[-49.1548475,-18.4048896],[-49.1263129,-18.3843143],[-49.0790512,-18.4166711],[-49.0487005,-18.3974989],[-49.0296362,-18.36882],[-49.0059642,-18.374359],[-48.9815012,-18.3563742],[-48.9711389,-18.3304868],[-48.9367738,-18.3062076],[-48.9177447,-18.3058794],[-48.8882794,-18.3170959],[-48.8727515,-18.3328468],[-48.8320838,-18.3461352],[-48.8280249,-18.3752488],[-48.7871685,-18.3532014],[-48.7714138,-18.3582423],[-48.7577234,-18.3447611],[-48.7422953,-18.3524984],[-48.6471697,-18.3438906],[-48.6338249,-18.3276484],[-48.6023528,-18.3348221],[-48.5614147,-18.3238865],[-48.5545426,-18.3469494],[-48.5262169,-18.3539807],[-48.5156492,-18.3664159],[-48.4927768,-18.352975],[-48.484114,-18.3785746],[-48.4420499,-18.3566186],[-48.4111716,-18.3576201],[-48.4000129,-18.3728089],[-48.3526388,-18.3676968],[-48.310541,-18.3867095],[-48.318073,-18.3670951],[-48.287235,-18.3472136],[-48.2750115,-18.3291113],[-48.2567775,-18.342977],[-48.2279685,-18.344975],[-48.2214763,-18.3619685],[-48.1972066,-18.3631719],[-48.1593809,-18.3755081],[-48.1465333,-18.4095445],[-48.1107876,-18.428594],[-48.0681178,-18.4267065],[-48.0474563,-18.4176461],[-48.0380723,-18.4347123],[-47.979906,-18.4626914],[-47.952655,-18.4938398],[-47.9295493,-18.4878432],[-47.914274,-18.4665778],[-47.8879121,-18.4772192],[-47.8579639,-18.4390126],[-47.8387927,-18.4517602],[-47.829735,-18.4113034],[-47.8083816,-18.4002225],[-47.7984968,-18.4163092],[-47.7790168,-18.4241351],[-47.7571061,-18.4098729],[-47.7369631,-18.3626023],[-47.7168546,-18.3620882],[-47.6940404,-18.3749681],[-47.6624567,-18.3350847],[-47.6481547,-18.3406985],[-47.610582,-18.3164807],[-47.63877,-18.2876781],[-47.6073287,-18.263959],[-47.6070005,-18.2462041],[-47.5882303,-18.2264318],[-47.5706447,-18.2208957],[-47.5401466,-18.1935162],[-47.539358,-18.2150381],[-47.4969651,-18.1990171],[-47.4806058,-18.1783207],[-47.4629873,-18.1766911],[-47.4286403,-18.1399176],[-47.3918894,-18.1168725],[-47.3700398,-18.1160146],[-47.3576318,-18.0852333],[-47.3214485,-18.0688667],[-47.3027867,-18.069855],[-47.2834435,-18.0577538],[-47.2830694,-18.0442692],[-47.3118246,-18.0062874],[-47.3230084,-17.9831567],[-47.3129613,-17.9618874],[-47.3293806,-17.9540243],[-47.3412829,-17.9348564],[-47.3428603,-17.898624],[-47.3554317,-17.8954453],[-47.3541149,-17.869802],[-47.365876,-17.834548],[-47.3507473,-17.8139461],[-47.3532807,-17.7880863],[-47.3329179,-17.7683927],[-47.3421123,-17.746645],[-47.3169505,-17.7252432],[-47.3137022,-17.698963],[-47.2713657,-17.6658635],[-47.2807997,-17.6476307],[-47.2688931,-17.6362841],[-47.2648038,-17.6113892],[-47.288674,-17.5707342],[-47.3066249,-17.5584603],[-47.3254145,-17.5238006],[-47.3744483,-17.5235951],[-47.4004487,-17.5118175],[-47.4314768,-17.5237402],[-47.4547257,-17.541786],[-47.4772836,-17.5127848],[-47.4911741,-17.5187779],[-47.5088518,-17.5012183],[-47.502948,-17.4902433],[-47.514639,-17.4609981],[-47.5413643,-17.4546104],[-47.5282939,-17.4388645],[-47.5340531,-17.4005259],[-47.5145067,-17.3749523],[-47.5166009,-17.3461032],[-47.4984106,-17.3360036],[-47.4879548,-17.3495063],[-47.4600437,-17.3441505],[-47.4378685,-17.3178782],[-47.4228662,-17.3230893],[-47.4178482,-17.2704629],[-47.4078156,-17.2459561],[-47.3896233,-17.2451251],[-47.3853188,-17.2270492],[-47.3661276,-17.2217757],[-47.3484877,-17.176223],[-47.3265203,-17.1541597],[-47.2971259,-17.1420425],[-47.2827101,-17.1440996],[-47.2819575,-17.1148932],[-47.2395492,-17.0836899],[-47.2055403,-17.0706816],[-47.1820537,-17.0532688],[-47.1780595,-17.0407701],[-47.146632,-17.032326],[-47.1403427,-17.018583],[-47.1441213,-16.9909364],[-47.1294759,-16.9751591],[-47.1672751,-16.9526489],[-47.1818762,-16.9013299],[-47.2031153,-16.8928856],[-47.2096329,-16.8635581],[-47.2064375,-16.8383888],[-47.2211844,-16.8077662],[-47.2197008,-16.7780734],[-47.2364892,-16.7553454],[-47.2289826,-16.7121525],[-47.2461895,-16.700457],[-47.2508621,-16.6648074],[-47.2737876,-16.6619406],[-47.3011068,-16.6249778],[-47.339147,-16.6026508],[-47.3473129,-16.5908332],[-47.3744293,-16.584915],[-47.4060723,-16.5578251],[-47.4442298,-16.5393026],[-47.446005,-16.5173669],[-47.4595246,-16.5041259],[-47.4461699,-16.4501464],[-47.4269215,-16.4340202],[-47.4201416,-16.3831948],[-47.4030493,-16.3759185],[-47.3654888,-16.3298811],[-47.3524215,-16.3066762],[-47.3516084,-16.2754134],[-47.334288,-16.2585865],[-47.3219811,-16.2314256],[-47.3345377,-16.1983935],[-47.3319567,-16.1717392],[-47.3505851,-16.1385341],[-47.336561,-16.1194875],[-47.3329111,-16.0867316],[-47.3131586,-16.0856078],[-47.3085041,-16.0499714],[-48.2778112,-16.0495978],[-48.2513944,-15.955654],[-48.2587351,-15.9296878],[-48.2771091,-15.9074416],[-48.2716483,-15.883715],[-48.2858068,-15.8445339],[-48.280657,-15.8239459],[-48.2429068,-15.7973121],[-48.2096863,-15.754044],[-48.2088841,-15.7153612],[-48.2376815,-15.7085121],[-48.241331,-15.6867065],[-48.2341602,-15.6419091],[-48.2182154,-15.6233359],[-48.1997298,-15.622914],[-48.200009,-15.5022782],[-47.4184069,-15.5018199],[-47.4177866,-15.546259],[-47.4027651,-15.5474564],[-47.3765167,-15.5766676],[-47.3208407,-15.5865891],[-47.3319763,-15.628512],[-47.3266032,-15.652618],[-47.3281031,-15.6889177],[-47.3124896,-15.6972871],[-47.3207455,-15.7230306],[-47.313691,-15.7448666],[-47.3394977,-15.7949824],[-47.368099,-15.8356435],[-47.3719887,-15.8740795],[-47.3788324,-15.8842243],[-47.3620936,-15.9292016],[-47.3785962,-15.962185],[-47.3692725,-16.0030809],[-47.3485985,-16.0062169],[-47.3256782,-16.0296187],[-47.3100062,-16.0362735],[-47.2967716,-16.0153307],[-47.2765091,-16.0093563],[-47.2447732,-16.017722],[-47.2217175,-16.0121546],[-47.2095607,-15.9926771],[-47.1672988,-15.9683774],[-47.1717381,-15.9541297],[-47.1386268,-15.9290202],[-47.1149112,-15.9536681],[-47.0768869,-15.9581333],[-47.0603838,-15.9400587],[-47.0220964,-15.9287803],[-46.9843092,-15.9240313],[-46.824868,-15.8857186],[-46.8068987,-15.879249],[-46.8055018,-15.8593948],[-46.8232217,-15.8246331],[-46.813149,-15.7872043],[-46.8274702,-15.7512492],[-46.8271475,-15.7299712],[-46.8424533,-15.714671],[-46.8557027,-15.6831245],[-46.8548835,-15.6183005],[-46.888818,-15.6056067],[-46.8970606,-15.5931796],[-46.9177476,-15.5900078],[-46.948688,-15.5578444],[-46.9442146,-15.5181869],[-46.9324305,-15.4831717],[-46.9293133,-15.4399397],[-46.9151246,-15.4148348],[-46.8494784,-15.373164],[-46.8678404,-15.3572925],[-46.847957,-15.3467604],[-46.8356758,-15.3251277],[-46.8753369,-15.2839233],[-46.8893183,-15.2822469],[-46.8914846,-15.2352596],[-46.9063464,-15.2366187],[-46.9276553,-15.2550953],[-46.9408666,-15.2307016],[-46.9373469,-15.2050198],[-46.9128412,-15.1557732],[-46.8884431,-15.1156449],[-46.8977634,-15.0942172],[-46.9260374,-15.0735624],[-46.9205918,-15.050859],[-46.8641705,-15.0203851],[-46.856899,-15.010266],[-46.8205547,-15.0107669],[-46.7818569,-15.0193214],[-46.7264771,-15.0384155],[-46.6816692,-15.0586204],[-46.6515351,-15.0846034],[-46.6280595,-15.0894905],[-46.5880057,-15.0811231],[-46.5753084,-15.0836319],[-46.5513197,-15.0638756],[-46.5319982,-15.0563939],[-46.5154789,-15.0617918],[-46.502722,-15.0508979],[-46.5206716,-15.0137398],[-46.5308107,-15.0052785],[-46.5210077,-14.967394],[-46.5408375,-14.9516036],[-46.5465359,-14.9254445],[-46.521556,-14.8511795],[-46.5319268,-14.8302984],[-46.5585055,-14.8221536],[-46.5638389,-14.7833849],[-46.5432281,-14.7686732],[-46.5441922,-14.7530124],[-46.5102818,-14.7382606],[-46.5097242,-14.7160762],[-46.4765621,-14.7050974],[-46.4631397,-14.7311744],[-46.4473617,-14.7316769],[-46.4238049,-14.7559729],[-46.4045319,-14.7603312],[-46.3657836,-14.795406],[-46.3550072,-14.7942008],[-46.3221999,-14.8145803],[-46.325087,-14.8456231],[-46.3004725,-14.8580787],[-46.3181674,-14.8832583],[-46.3193358,-14.900439],[-46.29467,-14.9086131],[-46.2868648,-14.9281457],[-46.2600565,-14.9300408],[-46.2322235,-14.9222961],[-46.2113038,-14.9369656],[-46.1738903,-14.9487332],[-46.1615537,-14.9310482],[-46.1203001,-14.9200586],[-46.1089403,-14.9378484],[-46.0881416,-14.9363926],[-46.0793361,-14.9048431],[-46.0673034,-14.9097754],[-46.0485611,-14.8782827],[-46.0252869,-14.8557565],[-46.0411979,-14.8264946],[-46.0186719,-14.8185497],[-46.0025841,-14.795839],[-45.9970579,-14.7413414],[-46.0055037,-14.688998],[-46.0279691,-14.6810075],[-46.0105164,-14.66219],[-45.989515,-14.658845],[-45.9843987,-14.6218787],[-45.9978884,-14.6035777],[-45.9852551,-14.5781326],[-45.9913237,-14.5651792],[-45.9814491,-14.5318979],[-46.0039971,-14.5145895],[-45.996085,-14.488406],[-46.0190031,-14.4720712],[-46.0000734,-14.4466222],[-46.0036893,-14.4254522],[-45.9758064,-14.434248],[-45.9326429,-14.4098593],[-45.9071553,-14.3551898],[-45.9422146,-14.343255],[-45.9570512,-14.3213986],[-45.9644033,-14.2843113],[-45.9954281,-14.2561577],[-46.0295909,-14.2595295],[-46.0604058,-14.2327006],[-46.0525646,-14.2044721],[-46.0610483,-14.1954846],[-46.0982283,-14.1999275],[-46.1181409,-14.1599493],[-46.1321884,-14.1528501],[-46.1581407,-14.1605914],[-46.1841003,-14.1569481],[-46.199313,-14.1269406],[-46.2243922,-14.1050276],[-46.2276801,-14.0442614],[-46.2130884,-14.0305578],[-46.220066,-13.9754228],[-46.2544873,-13.9674639],[-46.2641903,-13.9474351],[-46.2568302,-13.8871755],[-46.2324747,-13.8486074],[-46.2647782,-13.8117487],[-46.2774951,-13.7908815],[-46.229975,-13.7742093],[-46.2229368,-13.7654029],[-46.2510312,-13.7368664],[-46.23577,-13.7010531],[-46.2561978,-13.6841624],[-46.2163979,-13.6359857],[-46.1627454,-13.6036421],[-46.1675389,-13.5897333],[-46.1996428,-13.5725394],[-46.2317192,-13.5832136],[-46.24138,-13.5713861],[-46.2374522,-13.5445555],[-46.2472571,-13.5216887],[-46.2302613,-13.511774],[-46.233156,-13.4817453],[-46.2101648,-13.4618865],[-46.2373491,-13.4348044],[-46.2319648,-13.4185849],[-46.1917297,-13.4099817],[-46.1622858,-13.3826351],[-46.1354731,-13.3755242],[-46.0993391,-13.3344932],[-46.0733396,-13.3113689],[-46.0682755,-13.2954418],[-46.0802173,-13.2738374],[-46.1032194,-13.2575102],[-46.1748511,-13.2769535],[-46.2202554,-13.2956893],[-46.2924869,-13.3169301],[-46.317902,-13.3052278],[-46.2999859,-13.2828818],[-46.3055418,-13.2516639],[-46.3276793,-13.2529237],[-46.3043483,-13.2059795],[-46.3070303,-13.1706718],[-46.2996101,-13.1281286],[-46.3157947,-13.1187347],[-46.316385,-13.0909773],[-46.2815629,-13.0451358],[-46.2755338,-13.0202133],[-46.1938118,-12.9967524],[-46.1663753,-12.977276],[-46.1246636,-12.9598204],[-46.1068577,-12.9357294],[-46.120116,-12.9256799],[-46.1509947,-12.9377361],[-46.1777318,-12.9393773],[-46.195902,-12.956977],[-46.2810157,-12.968555],[-46.304931,-12.97854],[-46.3706226,-12.987923],[-46.3724272,-12.9445488],[-46.3652006,-12.9346972],[-46.3684008,-12.9025899],[-46.3657643,-12.863354],[-46.3829617,-12.8485596],[-46.4091181,-12.8455928],[-46.4179848,-12.8224367],[-46.4325688,-12.9306408],[-46.4459259,-12.9357678],[-46.4546499,-12.9711526],[-46.750611,-12.969155],[-46.8228182,-13.0067893],[-46.8614231,-13.0667377],[-46.8916768,-13.0523851],[-46.9275007,-13.0897505],[-46.9791473,-13.1218422],[-47.0053109,-13.1265186],[-47.0078393,-13.1386366],[-47.0712409,-13.1589459],[-47.0854035,-13.1717336],[-47.1321165,-13.1778641],[-47.1335041,-13.1993901],[-47.1679426,-13.2111178],[-47.1969246,-13.1936844],[-47.2296138,-13.1947384],[-47.2523793,-13.2126088],[-47.2482667,-13.2278975],[-47.2683979,-13.2374476],[-47.2821518,-13.2651268],[-47.3063623,-13.249093],[-47.3238054,-13.2582586],[-47.3381852,-13.2463509],[-47.3797227,-13.2306025],[-47.3914681,-13.2583855],[-47.4171999,-13.2708326],[-47.4364455,-13.2667829],[-47.4544222,-13.2505276],[-47.4321613,-13.2379692],[-47.4421239,-13.2223176],[-47.4651907,-13.227158],[-47.4878931,-13.2112802],[-47.4774514,-13.1871897],[-47.5410293,-13.1917981],[-47.5652595,-13.179662],[-47.5685676,-13.1434514],[-47.5609943,-13.1255621],[-47.6156147,-13.1036851],[-47.6458713,-13.1198323],[-47.6516952,-13.1498235],[-47.6661664,-13.1726605],[-47.6652143,-13.2183676],[-47.639661,-13.2642926],[-47.6614696,-13.3027767],[-47.6536575,-13.3134643],[-47.6500735,-13.3491826],[-47.6287514,-13.365694],[-47.6377011,-13.3898225],[-47.6709903,-13.4412691],[-47.6797484,-13.4681748],[-47.7982282,-13.3289841],[-47.8236019,-13.3117114],[-47.8740603,-13.3204879],[-47.8986464,-13.3125729],[-47.9064982,-13.2991233],[-47.9363044,-13.2898552],[-47.9439503,-13.303586],[-47.9705718,-13.3115825],[-47.9885408,-13.2763636],[-48.0252513,-13.2798336],[-48.034061,-13.2537272],[-48.0541503,-13.2395873],[-48.0760426,-13.2427307],[-48.0792374,-13.2853782],[-48.1430995,-13.3061551],[-48.1698794,-13.3003456],[-48.1532145,-13.2783113],[-48.1571961,-13.2500059],[-48.1667655,-13.2325899],[-48.1543121,-13.2210279],[-48.1659237,-13.1892998],[-48.1529748,-13.1561787],[-48.1797662,-13.1515657],[-48.193604,-13.1730343],[-48.2307606,-13.1712946],[-48.2447494,-13.1926502],[-48.2625454,-13.1976362],[-48.2920688,-13.2199679],[-48.3621149,-13.2429505],[-48.3854841,-13.2662822],[-48.430047,-13.2711776],[-48.435071,-13.2901429],[-48.4577023,-13.2824783],[-48.458876,-13.2523081],[-48.476282,-13.2300904],[-48.4723679,-13.2010499],[-48.4772668,-13.1788007],[-48.4701744,-13.1458577],[-48.4946538,-13.1368825],[-48.5173926,-13.1463231],[-48.5296886,-13.1914152],[-48.5537521,-13.2035451],[-48.5535925,-13.3026334],[-48.5876603,-13.3100071],[-48.5998625,-13.2879857],[-48.5889337,-13.2635269],[-48.5999452,-13.2386606],[-48.5844342,-13.2270548],[-48.5774783,-13.1952471],[-48.5907997,-13.1514697],[-48.578456,-13.1173228],[-48.6022296,-13.0772677],[-48.6022054,-13.057559],[-48.6270937,-13.0518591],[-48.6386632,-13.0134339],[-48.6561079,-13.0117733],[-48.6749137,-12.9927556],[-48.7157524,-13.0022834],[-48.7325583,-12.9837304],[-48.7333252,-12.9356951],[-48.7736691,-12.8884402],[-48.805945,-12.8692098],[-48.8248181,-12.8453398],[-48.8428259,-12.8425068],[-48.8464274,-12.8092887],[-48.8703122,-12.8032618],[-48.9762335,-12.9578931],[-49.0029909,-12.9337856],[-49.0091156,-12.9164814],[-49.0330387,-12.9022575],[-49.0754895,-12.9052517],[-49.0874736,-12.887177],[-49.0732435,-12.869707],[-49.0737183,-12.8458037],[-49.1046307,-12.8354203],[-49.1176838,-12.7900847],[-49.1380501,-12.801185],[-49.1441475,-12.8177577],[-49.1795587,-12.8466265],[-49.2106839,-12.8779345],[-49.2261652,-12.8782885],[-49.2488814,-12.9060402],[-49.2492919,-12.9265398],[-49.2797504,-12.9669855],[-49.2757252,-12.979242],[-49.3069216,-13.0331474],[-49.3372722,-13.0643396],[-49.3520922,-13.0926942],[-49.3543037,-13.1123772],[-49.3410799,-13.1274961],[-49.3557086,-13.1557731],[-49.3470578,-13.1676757],[-49.3489569,-13.2105459],[-49.3372447,-13.2472816],[-49.3683159,-13.2723014],[-49.9092331,-12.9748676],[-49.9330662,-12.9566911],[-49.9499656,-12.9592881],[-50.0093375,-12.9310255],[-50.0374525,-12.9356091],[-50.0558533,-12.9202356],[-50.0917026,-12.9085261],[-50.1470251,-12.9032391],[-50.1578672,-12.8931307],[-50.185178,-12.8936382],[-50.2244967,-12.87304],[-50.225444,-12.8599517],[-50.2504494,-12.85349],[-50.2960416,-12.8314538],[-50.3075478,-12.8177422],[-50.3107784,-12.7916062],[-50.3024772,-12.7473437],[-50.2882198,-12.7348842],[-50.2954765,-12.6836702],[-50.271462,-12.6832418],[-50.2684329,-12.6517489],[-50.2363815,-12.6236716],[-50.2447603,-12.5974743],[-50.207071,-12.5665508],[-50.2136392,-12.5466268],[-50.2295244,-12.531189],[-50.2184498,-12.514831],[-50.2176095,-12.4873571],[-50.1791191,-12.4383606],[-50.170666,-12.418804],[-50.2117812,-12.4355973],[-50.2283186,-12.4541338],[-50.2530304,-12.4616048],[-50.2616921,-12.477218],[-50.3104161,-12.4953762],[-50.3695501,-12.557338],[-50.386478,-12.5898503],[-50.4181009,-12.6244473],[-50.4171486,-12.6349777],[-50.4363734,-12.6781082],[-50.4389381,-12.6975408],[-50.4608311,-12.6927772],[-50.477353,-12.7164962],[-50.4833995,-12.7393087],[-50.4749808,-12.7707892],[-50.4932856,-12.7836871],[-50.4838415,-12.8105787],[-50.4958557,-12.844634],[-50.5109811,-12.8608983],[-50.5134792,-12.9128663],[-50.5263757,-12.9339305],[-50.5241438,-12.9736516],[-50.548804,-12.9928203],[-50.5905238,-13.0004264],[-50.5935939,-13.0072101],[-50.5690214,-13.0424957],[-50.5763134,-13.0541372],[-50.6064732,-13.0540029],[-50.6103187,-13.0647588],[-50.5945502,-13.096701],[-50.5995303,-13.1360913],[-50.5936237,-13.1636575],[-50.6059358,-13.1875102],[-50.5841755,-13.2176963],[-50.592727,-13.2605582],[-50.6066294,-13.2789389],[-50.6085957,-13.3175954],[-50.6464959,-13.3619688],[-50.6653237,-13.3755658],[-50.6696223,-13.3976196],[-50.6639456,-13.4349565],[-50.6835249,-13.445191],[-50.6940354,-13.4695508],[-50.7148156,-13.4914731],[-50.7589998,-13.5203153],[-50.7683782,-13.5608543],[-50.7715851,-13.6045005],[-50.7836065,-13.6203941],[-50.786569,-13.6466268],[-50.8062258,-13.6938146],[-50.8297337,-13.7098143],[-50.8613369,-13.7186374],[-50.8732996,-13.7324117],[-50.8583114,-13.7536609],[-50.8543701,-13.7997614],[-50.8590855,-13.8287048],[-50.8406443,-13.8637887],[-50.8402336,-13.9236819],[-50.8626275,-13.9540243],[-50.8663329,-13.979648],[-50.8471508,-13.9997948],[-50.8550439,-14.0258773],[-50.8329111,-14.0708596],[-50.8348823,-14.0946837],[-50.8518089,-14.1176257],[-50.8711194,-14.11793],[-50.8951037,-14.1308696],[-50.9037008,-14.1102235],[-50.9197824,-14.1266249],[-50.9100275,-14.148419],[-50.9402094,-14.2184689],[-50.9548889,-14.2332145],[-50.9781733,-14.2972436],[-50.9693146,-14.3358323],[-50.9882005,-14.3599682],[-50.9844832,-14.3764446],[-50.9978306,-14.4156747],[-50.9849149,-14.4319171],[-50.9889651,-14.4535716],[-50.9680137,-14.4819971],[-50.973025,-14.4976842],[-50.9642292,-14.5282977],[-50.9962494,-14.5746109],[-50.9928355,-14.6124579],[-51.0100072,-14.6457339],[-51.0266586,-14.6593581],[-51.029233,-14.7074084],[-51.0531885,-14.7388819],[-51.0566607,-14.7612964],[-51.0448213,-14.7928386],[-51.0707095,-14.8099634],[-51.0896375,-14.8401805],[-51.0930003,-14.8935438],[-51.0871098,-14.9213487],[-51.1449181,-14.9434106],[-51.15705,-14.985611],[-51.1983989,-15.0027752],[-51.2190088,-15.0247016],[-51.2676087,-15.044413],[-51.295042,-15.0302486],[-51.3070507,-14.9809707],[-51.3355323,-14.9717535],[-51.3595787,-15.0023992],[-51.3769297,-15.0102626],[-51.4017387,-15.0028534],[-51.4269632,-15.0076659],[-51.4441342,-15.0345996],[-51.4620029,-15.0479797],[-51.5341081,-15.0652022],[-51.5468907,-15.1004651],[-51.5640798,-15.1086091],[-51.5863887,-15.1335699],[-51.601781,-15.1604943],[-51.6474271,-15.1734621],[-51.6507182,-15.2033039],[-51.6681964,-15.2321668],[-51.668793,-15.2546151],[-51.6506993,-15.2730935],[-51.6797381,-15.290064],[-51.69144,-15.3281551],[-51.6873706,-15.3468505],[-51.669531,-15.374421],[-51.6972226,-15.4091862],[-51.6912771,-15.4258682],[-51.7094595,-15.4594918],[-51.7000568,-15.4740008],[-51.7057302,-15.4975624],[-51.7285664,-15.5018063],[-51.7371803,-15.5267965],[-51.7255764,-15.544129],[-51.7393436,-15.5592768],[-51.7556134,-15.5574154],[-51.760886,-15.5300637],[-51.7772681,-15.534985],[-51.7798514,-15.5554215],[-51.754235,-15.6124359],[-51.7651493,-15.6495527],[-51.8025989,-15.7043354],[-51.8037938,-15.7237058],[-51.8345195,-15.7438316],[-51.8592473,-15.7874643],[-51.8763102,-15.8020547],[-51.879841,-15.8229438],[-51.8922896,-15.8311214],[-51.9129113,-15.8132336],[-51.9484549,-15.8100984],[-51.9531249,-15.8344788],[-51.9813041,-15.8425042],[-52.0079674,-15.8846314],[-52.0576873,-15.8875426],[-52.0733217,-15.8816546],[-52.1313821,-15.8954985],[-52.1926654,-15.880842],[-52.2159323,-15.8915822],[-52.2479693,-15.8901847],[-52.2568953,-15.9308847],[-52.266918,-15.9477238],[-52.2903395,-15.9655473],[-52.28913,-15.9794146],[-52.3108158,-16.0070365],[-52.3240427,-16.0378143],[-52.3284983,-16.0704034],[-52.3503527,-16.0840538],[-52.3682737,-16.0843193]]],"bbox":[-53.2483442,-19.4961042,-45.9071553,-12.418804]}
