{"type":"Topology","objects":{"geometrias":{"type":"GeometryCollection","geometries":[{"type":"Polygon","arcs":[[0]],"properties":{"code_state":51,"code_region":5,"name_state":"Mato Grosso","abbrev_state":"MT","name_region":"Centro-Oeste","year":2020}}]}},"arcs":[[[-61.5402295,-10.0002094],[-61.5558735,-10.0389514],[-61.5843749,-10.0596093],[-61.5787102,-10.0792444],[-61.6012364,-10.1500901],[-61.5577505,-10.1823138],[-61.5740051,-10.2089593],[-61.5767244,-10.2485762],[-61.5440872,-10.3009945],[-61.5301392,-10.333314],[-61.5017216,-10.3537765],[-61.5031111,-10.3759259],[-61.4617928,-10.4199046],[-61.4808157,-10.4877483],[-61.4790698,-10.529872],[-61.4663218,-10.5412113],[-61.4799609,-10.5691537],[-61.4762363,-10.6076634],[-61.4844843,-10.6737666],[-61.4993935,-10.6986176],[-61.4763671,-10.722504],[-61.4764168,-10.7677946],[-61.5108965,-10.7936807],[-61.5099966,-10.8368279],[-61.5251489,-10.8558039],[-61.5193336,-10.891992],[-61.5300873,-10.9790195],[-61.5502579,-10.9860947],[-61.0005949,-10.9922393],[-61.0005934,-10.988351],[-60.4600501,-10.9898562],[-60.4296987,-11.0374942],[-60.4114906,-11.0467759],[-60.3915541,-11.0937926],[-60.3479707,-11.1090363],[-60.3419726,-11.0826337],[-60.301248,-11.0571521],[-60.2823584,-11.0640172],[-60.2808334,-11.0915305],[-60.2412468,-11.0968881],[-60.1914692,-11.1141134],[-60.1776041,-11.0992539],[-60.0750227,-11.1050246],[-60.0663542,-11.1209934],[-60.032028,-11.127778],[-59.9767766,-11.1223889],[-59.9950224,-11.148203],[-59.9875818,-11.1711082],[-59.9640257,-11.1891151],[-59.9811296,-11.2037619],[-59.9796883,-11.2395295],[-59.9679112,-11.2529339],[-59.9594679,-11.2947339],[-59.9277738,-11.3104346],[-59.9171931,-11.3384346],[-59.925437,-11.3617763],[-59.9206343,-11.3980076],[-59.9344129,-11.4236675],[-59.9762413,-11.4392225],[-59.9854077,-11.4693409],[-60.0328028,-11.4995521],[-60.0574695,-11.542096],[-60.0866925,-11.5609447],[-60.1148844,-11.591462],[-60.1099085,-11.6155403],[-60.1187981,-11.6540707],[-60.1216618,-11.7121038],[-60.1073891,-11.7489734],[-60.1033601,-11.8191718],[-60.0766345,-11.8852893],[-60.0503863,-11.8978671],[-60.0068898,-11.894683],[-59.9857972,-11.9120801],[-59.9713581,-11.9699456],[-59.9695798,-12.0324752],[-59.9619968,-12.0563674],[-59.9292763,-12.0784547],[-59.8998038,-12.1172227],[-59.9026053,-12.1750357],[-59.9108107,-12.1864566],[-59.9017147,-12.2238791],[-59.8867969,-12.245087],[-59.7743574,-12.3409559],[-59.7929413,-12.3457819],[-59.8192559,-12.3787482],[-59.8425487,-12.424849],[-59.84416,-12.4671729],[-59.8989333,-12.5030734],[-59.8960537,-12.5364446],[-59.9476548,-12.5992652],[-59.9774152,-12.6065175],[-60.0033205,-12.5923372],[-60.028942,-12.6185671],[-60.059073,-12.6635501],[-60.0557303,-12.7036176],[-60.0750583,-12.7332327],[-60.0587059,-12.786211],[-60.0828176,-12.852636],[-60.0791962,-12.873926],[-60.1015281,-12.9134155],[-60.1171653,-12.9595556],[-60.1833444,-12.967629],[-60.2136568,-13.0070527],[-60.2152922,-13.0269807],[-60.2413314,-13.0384575],[-60.2562022,-13.063813],[-60.2829916,-13.0805523],[-60.2771203,-13.1126783],[-60.2786128,-13.1596137],[-60.3038368,-13.1783698],[-60.3297838,-13.2354686],[-60.3248107,-13.2504877],[-60.3734795,-13.324443],[-60.3660926,-13.332232],[-60.3795864,-13.3752343],[-60.3793059,-13.4153231],[-60.3879196,-13.4546951],[-60.4115299,-13.4616583],[-60.4320021,-13.4884356],[-60.4864221,-13.4941821],[-60.5316656,-13.5180899],[-60.5357855,-13.537301],[-60.5776508,-13.5652277],[-60.6347881,-13.5745178],[-60.6455062,-13.5928216],[-60.6860379,-13.6252274],[-60.7139468,-13.6759978],[-60.7046824,-13.7046713],[-60.6461545,-13.7387043],[-60.6235162,-13.7195351],[-60.6003771,-13.7489045],[-60.574761,-13.7474353],[-60.5694102,-13.7687045],[-60.5319304,-13.7715548],[-60.4726823,-13.7937191],[-60.4842355,-13.848864],[-60.4551528,-13.8809775],[-60.450121,-13.9286386],[-60.4275955,-13.9435763],[-60.4032362,-13.9998022],[-60.4060405,-14.030345],[-60.4261176,-14.0489176],[-60.447631,-14.0856296],[-60.4791528,-14.0954326],[-60.482542,-14.1348699],[-60.4752133,-14.1602975],[-60.4652368,-14.264411],[-60.4531588,-14.3143463],[-60.3954848,-14.3643105],[-60.4038727,-14.401021],[-60.3789319,-14.4637191],[-60.3381787,-14.5118859],[-60.3240992,-14.6021033],[-60.2930458,-14.625271],[-60.272148,-14.6202922],[-60.2443214,-15.096806],[-60.5010196,-15.0962195],[-60.5650189,-15.1086836],[-60.5004328,-15.1797951],[-60.2386048,-15.4738516],[-60.1717171,-16.2661061],[-59.4728237,-16.2793037],[-58.4304714,-16.321295],[-58.3941679,-16.2967772],[-58.388701,-16.2610025],[-58.3657234,-16.2733408],[-58.3284134,-16.2704522],[-58.3031109,-16.3076866],[-58.3071421,-16.37019],[-58.3447791,-16.4001511],[-58.3561672,-16.4263463],[-58.3337504,-16.4900151],[-58.3438582,-16.5177267],[-58.3860655,-16.5435927],[-58.3938376,-16.5628727],[-58.4213356,-16.5735517],[-58.4360882,-16.5923583],[-58.4631091,-16.6522195],[-58.4734442,-16.7451697],[-58.466673,-16.7568816],[-58.4760304,-16.8274445],[-58.4618988,-16.8410824],[-58.4669236,-16.9110622],[-58.456752,-16.9399572],[-58.4609536,-16.964724],[-58.4315048,-16.9908198],[-58.4305889,-17.0722635],[-58.4235325,-17.1132338],[-58.3958657,-17.1046488],[-58.3970015,-17.1815511],[-58.3696428,-17.2003801],[-58.3460059,-17.2327389],[-58.2782571,-17.2991959],[-58.2635877,-17.344677],[-58.2169192,-17.3601514],[-58.1963696,-17.3872148],[-58.1531693,-17.3836439],[-58.1454784,-17.4136682],[-58.1228699,-17.4146831],[-58.1183906,-17.4503746],[-58.0892817,-17.461136],[-58.0601442,-17.450721],[-58.0433869,-17.4926684],[-57.9808625,-17.5107843],[-57.8834421,-17.449542],[-57.7522947,-17.5644631],[-57.7400515,-17.5363052],[-57.712196,-17.5589094],[-57.6998343,-17.6111177],[-57.6717799,-17.6641124],[-57.6846131,-17.7164815],[-57.6635542,-17.7298538],[-57.6403039,-17.7173593],[-57.6231109,-17.736359],[-57.6093088,-17.7975415],[-57.5763315,-17.8005284],[-57.5347769,-17.8536338],[-57.4852744,-17.8622281],[-57.4619356,-17.8985358],[-57.4262763,-17.856396],[-57.4097521,-17.8539153],[-57.3680807,-17.8261992],[-57.3534564,-17.8378584],[-57.3113845,-17.8178245],[-57.2648357,-17.8203496],[-57.2271374,-17.7827847],[-57.2042483,-17.7892519],[-57.1467441,-17.7675051],[-57.1209426,-17.780164],[-57.0985808,-17.7704176],[-57.0739121,-17.7354635],[-57.0449146,-17.7303213],[-57.0333769,-17.6947411],[-56.9882191,-17.65929],[-56.9734925,-17.5803843],[-56.9449609,-17.5529495],[-56.8759675,-17.5329722],[-56.8502388,-17.4867813],[-56.8409099,-17.4420086],[-56.824407,-17.4230789],[-56.8297428,-17.3913258],[-56.7910296,-17.3910659],[-56.7674608,-17.3645847],[-56.7568856,-17.3256863],[-56.7338542,-17.3098602],[-56.6118524,-17.3319082],[-56.5138734,-17.3128227],[-56.5080719,-17.2952844],[-56.4773991,-17.305408],[-56.442331,-17.3312821],[-56.4325993,-17.3185875],[-56.38893,-17.3019463],[-56.3830663,-17.2879584],[-56.3440177,-17.2852847],[-56.313541,-17.2694291],[-56.2865701,-17.2704402],[-56.2690411,-17.239792],[-56.2130102,-17.2259386],[-56.1844615,-17.1945709],[-56.1288482,-17.1794232],[-56.1112024,-17.1667958],[-56.0827304,-17.1777458],[-56.0160675,-17.1902288],[-56.0120377,-17.2366818],[-55.9917599,-17.2502234],[-55.9601547,-17.2501906],[-55.9469868,-17.2712912],[-55.9093871,-17.263146],[-55.8865622,-17.2847647],[-55.8696498,-17.2753556],[-55.8452305,-17.2986061],[-55.805011,-17.3094399],[-55.7876445,-17.3286458],[-55.7612066,-17.323532],[-55.7215605,-17.3494956],[-55.6892624,-17.3404395],[-55.6389256,-17.3497901],[-55.5829072,-17.3790709],[-55.5852567,-17.4076463],[-55.5150329,-17.4836213],[-55.4654475,-17.4868574],[-55.4437374,-17.5117761],[-55.4052044,-17.5123968],[-55.3537599,-17.531617],[-55.3518155,-17.5476916],[-55.2996749,-17.541193],[-55.2089503,-17.6157483],[-55.127256,-17.6527223],[-55.1113648,-17.6312286],[-55.0726482,-17.6316326],[-55.0473123,-17.640333],[-54.9143075,-17.6084507],[-54.8970355,-17.620346],[-54.8608638,-17.6238535],[-54.8250042,-17.6096759],[-54.8213108,-17.5973862],[-54.7587809,-17.5656964],[-54.746913,-17.5199422],[-54.6955269,-17.503521],[-54.6360808,-17.4957244],[-54.5886138,-17.4771219],[-54.5541884,-17.4886684],[-54.536332,-17.4775852],[-54.484664,-17.4890941],[-54.4669149,-17.5290742],[-54.4263032,-17.5370001],[-54.3859105,-17.5814497],[-54.3770818,-17.607434],[-54.3877987,-17.6319367],[-54.3308523,-17.661479],[-54.2745496,-17.6540482],[-54.2437438,-17.6289046],[-54.1934133,-17.6061271],[-54.1620475,-17.6072396],[-54.1341872,-17.6187264],[-54.0846925,-17.6190348],[-54.0732693,-17.5878013],[-54.051633,-17.5627701],[-54.045908,-17.5372274],[-54.0580771,-17.5131293],[-54.0232666,-17.4770731],[-53.9730501,-17.472244],[-53.9311006,-17.4394503],[-53.9146006,-17.4144145],[-53.8683836,-17.3683775],[-53.8332681,-17.3571102],[-53.834963,-17.3357604],[-53.8200727,-17.2946157],[-53.7857133,-17.2875151],[-53.7590784,-17.2431425],[-53.705145,-17.2281538],[-53.6800749,-17.2535697],[-53.6934025,-17.5002017],[-53.7046075,-17.6635095],[-53.7569664,-17.6734603],[-53.8002416,-17.6707893],[-53.8546834,-17.7030036],[-53.8883811,-17.7489926],[-53.910353,-17.8038856],[-53.9359416,-17.8320981],[-53.9550243,-17.8712438],[-53.9522962,-17.9146877],[-53.9242445,-17.9199634],[-53.8985506,-17.9088024],[-53.854247,-17.9258343],[-53.8241628,-17.9487043],[-53.8086091,-17.9722466],[-53.7742172,-18.0007701],[-53.7338219,-17.9953349],[-53.6927188,-18.0069201],[-53.6520434,-17.9763287],[-53.6125462,-17.9780328],[-53.6069948,-17.9954897],[-53.5750192,-18.0126507],[-53.5178768,-18.0206482],[-53.4860712,-18.0404003],[-53.4601554,-18.0220326],[-53.4572943,-17.999699],[-53.4350488,-17.9845827],[-53.3807712,-18.0087572],[-53.3356748,-18.0069075],[-53.307573,-17.9959785],[-53.2415444,-18.0047098],[-53.1987916,-18.0203061],[-53.1767934,-18.0415807],[-53.0722775,-18.0339753],[-53.0647494,-17.9845366],[-53.071315,-17.9659132],[-53.1047187,-17.9276243],[-53.1248223,-17.918015],[-53.135743,-17.8756462],[-53.1337961,-17.8324855],[-53.159894,-17.7960312],[-53.1739929,-17.7542098],[-53.2021732,-17.7259884],[-53.2337892,-17.7130374],[-53.2483442,-17.6421667],[-53.2362465,-17.5782373],[-53.2441223,-17.5229237],[-53.2234972,-17.4586332],[-53.2281141,-17.4378245],[-53.2009055,-17.3718219],[-53.2118412,-17.3272933],[-53.2080973,-17.2931612],[-53.1718272,-17.2331751],[-53.1551668,-17.1868367],[-53.1566662,-17.1706845],[-53.1275167,-17.1545758],[-53.110745,-17.1081403],[-53.0874917,-17.1008125],[-53.0548061,-17.0641756],[-53.071421,-17.0496052],[-53.0608971,-17.0305634],[-53.053547,-16.9788949],[-53.0350329,-16.9424731],[-53.0394551,-16.9126931],[-53.0191666,-16.9002232],[-53.0054934,-16.8652765],[-52.9450246,-16.8551914],[-52.9232654,-16.8182183],[-52.8927581,-16.7940898],[-52.8844177,-16.7764073],[-52.8293704,-16.7701427],[-52.7856585,-16.714447],[-52.7640304,-16.6979826],[-52.7590414,-16.6711255],[-52.7410747,-16.6520897],[-52.7260216,-16.6144966],[-52.6732905,-16.5849219],[-52.6255931,-16.5309265],[-52.6316352,-16.5001506],[-52.6060783,-16.4860242],[-52.6192182,-16.4463069],[-52.6386778,-16.4375587],[-52.6516772,-16.408483],[-52.6745488,-16.4124041],[-52.6775937,-16.3809965],[-52.692787,-16.3671524],[-52.68258,-16.3441296],[-52.6825566,-16.3017423],[-52.6579667,-16.2800754],[-52.6193461,-16.2838801],[-52.5891948,-16.269497],[-52.5689264,-16.2338872],[-52.545272,-16.2226104],[-52.5473373,-16.1632322],[-52.488136,-16.1304309],[-52.4605729,-16.1277183],[-52.4395408,-16.1100841],[-52.3988793,-16.0933424],[-52.372894,-16.0981299],[-52.3299379,-16.0721758],[-52.3108158,-16.0070365],[-52.2903395,-15.9655473],[-52.2568953,-15.9308847],[-52.2479693,-15.8901847],[-52.2159323,-15.8915822],[-52.1926654,-15.880842],[-52.1313821,-15.8954985],[-52.0733217,-15.8816546],[-52.0576873,-15.8875426],[-52.0079674,-15.8846314],[-51.9813041,-15.8425042],[-51.9531249,-15.8344788],[-51.9484549,-15.8100984],[-51.9129113,-15.8132336],[-51.8922896,-15.8311214],[-51.8592473,-15.7874643],[-51.8345195,-15.7438316],[-51.8037938,-15.7237058],[-51.8025989,-15.7043354],[-51.7651493,-15.6495527],[-51.754235,-15.6124359],[-51.7798514,-15.5554215],[-51.7556134,-15.5574154],[-51.7255764,-15.544129],[-51.7371803,-15.5267965],[-51.7285664,-15.5018063],[-51.7057302,-15.4975624],[-51.7094595,-15.4594918],[-51.6912771,-15.4258682],[-51.6972226,-15.4091862],[-51.669531,-15.374421],[-51.69144,-15.3281551],[-51.6797381,-15.290064],[-51.6506993,-15.2730935],[-51.668793,-15.2546151],[-51.6681964,-15.2321668],[-51.6507182,-15.2033039],[-51.6474271,-15.1734621],[-51.601781,-15.1604943],[-51.5640798,-15.1086091],[-51.5468907,-15.1004651],[-51.5341081,-15.0652022],[-51.4620029,-15.0479797],[-51.4269632,-15.0076659],[-51.3595787,-15.0023992],[-51.3355323,-14.9717535],[-51.3070507,-14.9809707],[-51.295042,-15.0302486],[-51.2676087,-15.044413],[-51.2190088,-15.0247016],[-51.1983989,-15.0027752],[-51.15705,-14.985611],[-51.1449181,-14.9434106],[-51.0871098,-14.9213487],[-51.0930003,-14.8935438],[-51.0896375,-14.8401805],[-51.0707095,-14.8099634],[-51.0448213,-14.7928386],[-51.0566607,-14.7612964],[-51.0531885,-14.7388819],[-51.029233,-14.7074084],[-51.0266586,-14.6593581],[-51.0100072,-14.6457339],[-50.9928355,-14.6124579],[-50.9962494,-14.5746109],[-50.9642292,-14.5282977],[-50.9680137,-14.4819971],[-50.9889651,-14.4535716],[-50.9978306,-14.4156747],[-50.9844832,-14.3764446],[-50.9882005,-14.3599682],[-50.9693146,-14.3358323],[-50.9781733,-14.2972436],[-50.9548889,-14.2332145],[-50.9402094,-14.2184689],[-50.9100275,-14.148419],[-50.8711194,-14.11793],[-50.8518089,-14.1176257],[-50.8348823,-14.0946837],[-50.8329111,-14.0708596],[-50.8550439,-14.0258773],[-50.8471508,-13.9997948],[-50.8663329,-13.979648],[-50.8626275,-13.9540243],[-50.8402336,-13.9236819],[-50.8406443,-13.8637887],[-50.8590855,-13.8287048],[-50.8543701,-13.7997614],[-50.8583114,-13.7536609],[-50.8690193,-13.7248042],[-50.8062258,-13.6938146],[-50.7715851,-13.6045005],[-50.7589998,-13.5203153],[-50.7148156,-13.4914731],[-50.6835249,-13.445191],[-50.6639456,-13.4349565],[-50.6653237,-13.3755658],[-50.6464959,-13.3619688],[-50.6085957,-13.3175954],[-50.6066294,-13.2789389],[-50.592727,-13.2605582],[-50.5841755,-13.2176963],[-50.6059358,-13.1875102],[-50.5936237,-13.1636575],[-50.5995303,-13.1360913],[-50.5945502,-13.096701],[-50.6103187,-13.0647588],[-50.5690214,-13.0424957],[-50.5935939,-13.0072101],[-50.548804,-12.9928203],[-50.5237278,-12.9711832],[-50.5263757,-12.9339305],[-50.4998954,-12.8678115],[-50.5319858,-12.8436218],[-50.5669545,-12.8434234],[-50.6005434,-12.8244273],[-50.5819162,-12.7993793],[-50.6253595,-12.8000195],[-50.6302565,-12.776069],[-50.6229618,-12.7346385],[-50.6347107,-12.7253575],[-50.6547658,-12.6791794],[-50.6562041,-12.6459931],[-50.6963941,-12.649685],[-50.7064888,-12.609701],[-50.6637105,-12.5374332],[-50.6470935,-12.4855232],[-50.6530391,-12.4600739],[-50.6235737,-12.4552838],[-50.618255,-12.4289922],[-50.6326753,-12.4171039],[-50.6268725,-12.384032],[-50.6445669,-12.345909],[-50.6378161,-12.325286],[-50.6489155,-12.2990896],[-50.6312602,-12.284883],[-50.6464236,-12.2560953],[-50.6437098,-12.222965],[-50.6813773,-12.2169497],[-50.6790353,-12.1553342],[-50.6676227,-12.0645602],[-50.6870762,-12.0356338],[-50.6778492,-12.0195134],[-50.682238,-11.9908876],[-50.6568339,-11.9668494],[-50.6678955,-11.9277674],[-50.640571,-11.9026897],[-50.6392882,-11.8845665],[-50.6863045,-11.8589954],[-50.6880448,-11.825041],[-50.7005871,-11.8034665],[-50.7215915,-11.7317126],[-50.6637021,-11.6775273],[-50.6574739,-11.5928064],[-50.7159867,-11.5789533],[-50.740958,-11.5348813],[-50.7347961,-11.5118226],[-50.742064,-11.4603495],[-50.7281426,-11.4169059],[-50.7285111,-11.3825659],[-50.7122605,-11.3598453],[-50.6968135,-11.3046578],[-50.6713266,-11.2867414],[-50.6560371,-11.2402367],[-50.6547324,-11.2150298],[-50.6644814,-11.1515989],[-50.6576348,-11.1278124],[-50.6094574,-11.0674457],[-50.6174251,-11.0320006],[-50.6202415,-10.9689077],[-50.6326193,-10.9318615],[-50.6007891,-10.9006838],[-50.6049528,-10.8724723],[-50.6220066,-10.8394178],[-50.6121984,-10.8103215],[-50.5968989,-10.8047216],[-50.5705877,-10.7525041],[-50.5876039,-10.6860094],[-50.6028977,-10.658234],[-50.5825666,-10.6440813],[-50.5631719,-10.6113215],[-50.541428,-10.6093227],[-50.5197293,-10.5624786],[-50.5161464,-10.5039094],[-50.4826205,-10.4900386],[-50.4878673,-10.4679723],[-50.4737254,-10.4049055],[-50.4482858,-10.3915721],[-50.4182853,-10.3562814],[-50.4230666,-10.3274417],[-50.3980942,-10.2544301],[-50.3815645,-10.2189129],[-50.3982581,-10.1554697],[-50.3778102,-10.1107158],[-50.3398411,-10.0609382],[-50.3124518,-10.0456588],[-50.2942791,-10.016107],[-50.2779318,-9.9707729],[-50.2642803,-9.9084975],[-50.2248064,-9.8411535],[-50.8428938,-9.8008231],[-51.4881666,-9.7605808],[-52.0003209,-9.7258355],[-53.0004717,-9.6552689],[-54.1066155,-9.5719207],[-54.6134541,-9.5358262],[-55.6041026,-9.4559371],[-56.6718827,-9.3673969],[-56.7083858,-9.3732067],[-56.7542707,-9.4063641],[-56.7723236,-9.3909593],[-56.7755214,-9.3295274],[-56.8034149,-9.2674537],[-56.8201088,-9.2463404],[-56.8603337,-9.2316457],[-56.8723618,-9.2391627],[-56.9381871,-9.2304317],[-56.9522491,-9.2230836],[-56.9955493,-9.2338426],[-57.0226379,-9.2197009],[-57.0601323,-9.1819673],[-57.0524179,-9.1584616],[-57.0604425,-9.1371304],[-57.0392416,-9.09829],[-57.063247,-9.0785757],[-57.0596053,-9.0642778],[-57.0900292,-9.0382179],[-57.0946052,-9.0171114],[-57.1382742,-8.9946121],[-57.1950043,-8.9275137],[-57.2401898,-8.9064918],[-57.2861971,-8.9154972],[-57.3060316,-8.9099045],[-57.3178883,-8.8857123],[-57.3843829,-8.8795574],[-57.4162157,-8.8589951],[-57.4175043,-8.7926085],[-57.4524982,-8.7866128],[-57.5230025,-8.7497337],[-57.5623651,-8.7612518],[-57.5929389,-8.756477],[-57.6010539,-8.741228],[-57.5936149,-8.7074193],[-57.6053024,-8.6628336],[-57.6205597,-8.6477445],[-57.6222457,-8.5911884],[-57.6447781,-8.5819802],[-57.6505026,-8.5533713],[-57.633422,-8.5268109],[-57.6590545,-8.5003866],[-57.6539947,-8.4650723],[-57.6815844,-8.4331259],[-57.6865577,-8.4070078],[-57.6686084,-8.3745527],[-57.6802225,-8.3269407],[-57.6648349,-8.2948832],[-57.6630828,-8.2685022],[-57.6439678,-8.2310878],[-57.6432123,-8.2121753],[-57.6772464,-8.1713961],[-57.7046383,-8.1680236],[-57.7198593,-8.146605],[-57.7284399,-8.0942158],[-57.7765286,-8.0521753],[-57.8039975,-8.0034251],[-57.828833,-7.9728959],[-57.8331651,-7.8948624],[-57.840971,-7.8614777],[-57.8796423,-7.7819074],[-57.896749,-7.6778845],[-57.9161933,-7.6573446],[-57.9343873,-7.6567724],[-57.9520562,-7.5801442],[-57.972582,-7.5345881],[-58.002168,-7.4881303],[-58.0398352,-7.446345],[-58.0613616,-7.3951912],[-58.118602,-7.3530631],[-58.1369999,-7.3564081],[-58.173361,-7.3943672],[-58.21306,-7.4585347],[-58.2131404,-7.493329],[-58.2227233,-7.5240378],[-58.2025237,-7.5967433],[-58.2021706,-7.6208543],[-58.2397897,-7.6536067],[-58.2759903,-7.6996663],[-58.2940558,-7.7715405],[-58.3340604,-7.8044011],[-58.3646072,-7.8167663],[-58.3847417,-7.8439891],[-58.3746655,-7.8647604],[-58.3751355,-7.8990013],[-58.3550493,-7.9439894],[-58.3315026,-7.9687628],[-58.3217286,-8.0249817],[-58.2883921,-8.0795723],[-58.2901673,-8.1356],[-58.3224642,-8.1700394],[-58.3129453,-8.2091049],[-58.3221697,-8.2320657],[-58.3205879,-8.2718688],[-58.3280835,-8.2858292],[-58.3148931,-8.3230601],[-58.3448047,-8.3407363],[-58.3545775,-8.3927541],[-58.3901503,-8.4389649],[-58.4178072,-8.4895196],[-58.4051026,-8.537555],[-58.410469,-8.5703919],[-58.3895183,-8.5947925],[-58.4359716,-8.6954603],[-58.4119558,-8.7206089],[-58.3758508,-8.703714],[-58.3283686,-8.7121787],[-58.3880024,-8.7747864],[-58.4428679,-8.7993991],[-59.0012826,-8.8030976],[-59.4813631,-8.8033209],[-60.0005265,-8.8008853],[-60.4201808,-8.7966226],[-61.5831348,-8.7986891],[-61.5137215,-8.8369518],[-61.5115045,-8.8636406],[-61.469214,-8.9201143],[-61.4895398,-8.9372717],[-61.5110619,-8.9761931],[-61.555755,-9.0924026],[-61.5553819,-9.1314969],[-61.5236433,-9.1790181],[-61.5280945,-9.2311652],[-61.5519857,-9.2438516],[-61.5683872,-9.237088],[-61.5996169,-9.2560351],[-61.6119925,-9.2807016],[-61.6113336,-9.3157281],[-61.6247905,-9.3364251],[-61.6259281,-9.3630117],[-61.5803064,-9.3682219],[-61.5633169,-9.3781567],[-61.5505387,-9.4147035],[-61.55672,-9.435615],[-61.5817187,-9.4591265],[-61.5495654,-9.5152171],[-61.5080429,-9.540463],[-61.5103714,-9.5650911],[-61.4949271,-9.5849287],[-61.5030326,-9.615345],[-61.4768074,-9.628723],[-61.505272,-9.6913819],[-61.5324293,-9.7117765],[-61.5746373,-9.7177933],[-61.5315013,-9.7399119],[-61.547356,-9.7875415],[-61.5249134,-9.7957303],[-61.5079136,-9.8610818],[-61.5110765,-9.8955614],[-61.5249818,-9.9065757],[-61.5233429,-9.9484856],[-61.5402295,-10.0002094]]],"bbox":[-61.6259281,-18.0415807,-50.2248064,-7.3530631]}
