{"type":"Topology","objects":{"geometrias":{"type":"GeometryCollection","geometries":[{"type":"Polygon","arcs":[[0]],"properties":{"code_state":50,"code_region":5,"name_state":"Mato Grosso do Sul","abbrev_state":"MS","name_region":"Centro-Oeste","year":2020}}]}},"arcs":[[[-57.8337061,-20.936281],[-57.8175295,-20.9805825],[-57.8681955,-21.0418754],[-57.865794,-21.0667101],[-57.8458909,-21.0969282],[-57.8649891,-21.1363361],[-57.8489583,-21.1878573],[-57.8530214,-21.2271316],[-57.9064641,-21.265551],[-57.9204283,-21.2846397],[-57.8949626,-21.3071725],[-57.8547358,-21.3168718],[-57.8611244,-21.3506169],[-57.8924513,-21.3779487],[-57.927257,-21.4498314],[-57.9344177,-21.4841208],[-57.9604876,-21.5099208],[-57.9685265,-21.5353372],[-57.9616162,-21.5624435],[-57.918964,-21.5822012],[-57.9145595,-21.5956142],[-57.9422158,-21.6208996],[-57.9300377,-21.6573316],[-57.8871923,-21.6820763],[-57.8985469,-21.7058784],[-57.9408933,-21.7329073],[-57.9402748,-21.7583507],[-57.9084931,-21.7739686],[-57.9311093,-21.824589],[-57.959838,-21.8531695],[-57.9200448,-21.8737491],[-57.947985,-21.9003903],[-57.9369953,-21.9279206],[-57.9650196,-21.9836133],[-57.9749461,-22.015409],[-58.0030598,-22.0292412],[-58.0095925,-22.0452751],[-57.9876849,-22.0591377],[-57.9904763,-22.0909403],[-57.9419989,-22.0829157],[-57.9297197,-22.1202719],[-57.8627107,-22.1309544],[-57.8229884,-22.1228642],[-57.8052315,-22.1500503],[-57.7792735,-22.1251745],[-57.747723,-22.1390495],[-57.7234044,-22.1102015],[-57.6892317,-22.088592],[-57.677376,-22.1015604],[-57.636983,-22.1058067],[-57.6181636,-22.0953892],[-57.607533,-22.1269456],[-57.5864271,-22.1444473],[-57.5807663,-22.175337],[-57.5374703,-22.1803831],[-57.5227071,-22.1684747],[-57.4835499,-22.1922816],[-57.4465672,-22.1873042],[-57.3862672,-22.2044165],[-57.3576889,-22.2264003],[-57.3158021,-22.2361892],[-57.2959932,-22.2191034],[-57.2377612,-22.2512801],[-57.2179698,-22.2410823],[-57.2032521,-22.2117245],[-57.1841904,-22.2293179],[-57.1086453,-22.2314046],[-57.0794982,-22.2495249],[-57.0000043,-22.2229663],[-56.9874526,-22.2426378],[-56.9590973,-22.237984],[-56.9472109,-22.2561111],[-56.9157353,-22.2553976],[-56.8890809,-22.245303],[-56.8798582,-22.2777037],[-56.8423859,-22.3015878],[-56.8026856,-22.2835045],[-56.8019673,-22.2490303],[-56.7724664,-22.2584168],[-56.7441029,-22.2412392],[-56.7203029,-22.2566662],[-56.6824244,-22.2215012],[-56.6789775,-22.2464656],[-56.6385734,-22.2603803],[-56.5570985,-22.1880783],[-56.5570521,-22.1690914],[-56.5226885,-22.1377567],[-56.5188509,-22.1082824],[-56.4708908,-22.0798515],[-56.4345803,-22.0849081],[-56.4022531,-22.080079],[-56.3676632,-22.1368542],[-56.3738377,-22.1499626],[-56.3218538,-22.2143943],[-56.299425,-22.2174598],[-56.26304,-22.2396433],[-56.2374592,-22.2366225],[-56.2335641,-22.2559499],[-56.2090751,-22.2782067],[-56.1743279,-22.2856057],[-56.1305909,-22.2842049],[-56.1245682,-22.2706425],[-56.0866096,-22.2863124],[-56.0635321,-22.2764259],[-56.0078013,-22.2926982],[-55.9799898,-22.2793142],[-55.9459982,-22.2835833],[-55.8431265,-22.2871094],[-55.8209895,-22.3451086],[-55.8037116,-22.372243],[-55.7798183,-22.3843248],[-55.7487056,-22.3834175],[-55.7339153,-22.4415317],[-55.7511166,-22.4746765],[-55.7472827,-22.505515],[-55.7236467,-22.5517823],[-55.698471,-22.5632723],[-55.6828835,-22.5888691],[-55.6251579,-22.6282529],[-55.6144219,-22.6550953],[-55.6133942,-22.717023],[-55.6201529,-22.7533634],[-55.6506364,-22.7933309],[-55.6658547,-22.8524621],[-55.6509664,-22.8872855],[-55.6339058,-22.991781],[-55.6393893,-23.0259092],[-55.6113185,-23.047665],[-55.6113109,-23.0768353],[-55.5958235,-23.1194677],[-55.5967818,-23.1525977],[-55.5733963,-23.1433433],[-55.5418854,-23.1561324],[-55.5430994,-23.1807879],[-55.5232812,-23.197787],[-55.5402337,-23.2208337],[-55.5372784,-23.2512624],[-55.5530803,-23.2795321],[-55.5559125,-23.3163231],[-55.5345664,-23.3333552],[-55.5044807,-23.3784698],[-55.5155897,-23.4095754],[-55.5446944,-23.4493317],[-55.5516965,-23.4894396],[-55.5466839,-23.5226098],[-55.526527,-23.5673511],[-55.5381803,-23.5918935],[-55.5304278,-23.6278216],[-55.4746739,-23.6504699],[-55.462156,-23.6839427],[-55.4634672,-23.7119674],[-55.4362574,-23.7167603],[-55.4486744,-23.7422695],[-55.4301796,-23.7901412],[-55.4538885,-23.8192704],[-55.4415458,-23.8293466],[-55.4355666,-23.8723807],[-55.4463353,-23.9169315],[-55.4278692,-23.9263193],[-55.4199855,-23.9572967],[-55.3875992,-23.9675007],[-55.3454859,-23.9945972],[-55.3177216,-23.9628938],[-55.235373,-24.006622],[-55.1287264,-23.98373],[-55.1069709,-23.9652119],[-55.0903576,-23.9825746],[-55.0623315,-23.9932886],[-54.9985893,-23.9575893],[-54.9666801,-23.9661658],[-54.9252523,-23.9602818],[-54.9268771,-23.924814],[-54.9086879,-23.9113704],[-54.8601131,-23.9052013],[-54.8363205,-23.8839164],[-54.8143204,-23.8904277],[-54.7927967,-23.8680787],[-54.7051834,-23.8646063],[-54.6985731,-23.8419968],[-54.6686473,-23.8171906],[-54.6467748,-23.8337631],[-54.6165884,-23.8350205],[-54.6097366,-23.8513764],[-54.5814792,-23.8458011],[-54.5148814,-23.8851784],[-54.4401395,-23.9042761],[-54.4147006,-23.9581102],[-54.351957,-24.0076726],[-54.3188541,-24.0105075],[-54.3099595,-24.0463149],[-54.2873556,-24.0685836],[-54.2494639,-24.0559018],[-54.1746867,-24.0019728],[-54.1326548,-23.9841923],[-54.101765,-23.9519635],[-54.0799057,-23.8889783],[-54.0881053,-23.8445303],[-54.0804586,-23.7808971],[-54.0526388,-23.7250676],[-54.0446082,-23.6686559],[-54.0322298,-23.6516617],[-54.0240178,-23.5860784],[-54.0084866,-23.5490387],[-54.0043425,-23.51108],[-53.9865967,-23.4647936],[-53.9601976,-23.4434149],[-53.932055,-23.4459488],[-53.8765944,-23.4197884],[-53.8160218,-23.3856449],[-53.7754879,-23.3751314],[-53.7252209,-23.3104334],[-53.699341,-23.2349043],[-53.6679996,-23.1823501],[-53.6547546,-23.1441601],[-53.6365887,-23.1250308],[-53.6298958,-23.0135048],[-53.634125,-22.9984951],[-53.6074235,-22.9513335],[-53.5707711,-22.9284913],[-53.5468271,-22.8900963],[-53.4847612,-22.8638542],[-53.4296507,-22.8329554],[-53.3987296,-22.8067269],[-53.3775322,-22.8032341],[-53.3595079,-22.7795565],[-53.2888938,-22.7495961],[-53.1888907,-22.7219472],[-53.1476084,-22.6780813],[-53.1051872,-22.6219296],[-53.108915,-22.5983165],[-53.0738065,-22.5488576],[-53.039801,-22.5273956],[-53.0143612,-22.5206658],[-52.9985791,-22.4931813],[-52.9796933,-22.4835477],[-52.885837,-22.4528736],[-52.8547612,-22.4391124],[-52.8398869,-22.415311],[-52.7983309,-22.3782734],[-52.6951341,-22.3146106],[-52.6502765,-22.301001],[-52.5869392,-22.2567505],[-52.4877143,-22.217206],[-52.4081883,-22.1416352],[-52.377218,-22.1066782],[-52.3391918,-22.0478264],[-52.3190194,-21.9721319],[-52.3014847,-21.9421686],[-52.2749632,-21.9149419],[-52.2484061,-21.9022804],[-52.1905614,-21.8461447],[-52.1839844,-21.8144605],[-52.1612618,-21.7707737],[-52.147792,-21.7595888],[-52.1037891,-21.7460538],[-52.0764924,-21.7148802],[-52.0507112,-21.6657666],[-52.0520923,-21.6365942],[-52.0688756,-21.5981075],[-52.1021641,-21.5698135],[-52.0959624,-21.5420636],[-52.0777894,-21.5152225],[-52.0570666,-21.5036097],[-52.0003676,-21.5166265],[-51.9679033,-21.5017621],[-51.9523993,-21.4736037],[-51.9286818,-21.4558161],[-51.9075357,-21.3864558],[-51.86196,-21.3416175],[-51.8569297,-21.2895262],[-51.8485145,-21.2666384],[-51.8795737,-21.1994307],[-51.8789848,-21.1481377],[-51.8654739,-21.1305401],[-51.82359,-21.1268398],[-51.7896709,-21.1021195],[-51.7596476,-21.0221968],[-51.7222304,-20.976768],[-51.6596463,-20.9685035],[-51.6281707,-20.9490296],[-51.6189985,-20.9325906],[-51.6150883,-20.886086],[-51.6297015,-20.8614529],[-51.6329772,-20.8215582],[-51.6223983,-20.776872],[-51.6348992,-20.7548484],[-51.6242875,-20.7125187],[-51.5941482,-20.6438477],[-51.5775049,-20.6251725],[-51.5330051,-20.5969939],[-51.5002223,-20.5682163],[-51.4928561,-20.5465063],[-51.4443681,-20.4789171],[-51.4092796,-20.4595706],[-51.3751155,-20.396527],[-51.3508686,-20.3631794],[-51.2956845,-20.3284821],[-51.2399055,-20.3169359],[-51.1780597,-20.3092856],[-51.117583,-20.2869446],[-51.0691631,-20.2500495],[-51.0215848,-20.1333489],[-51.0011911,-20.0963348],[-51.0178884,-20.0483925],[-51.0048071,-19.9992171],[-51.0211489,-19.9640283],[-50.9994713,-19.9063755],[-51.0193069,-19.8704502],[-51.0236289,-19.8039456],[-51.0399394,-19.7771183],[-51.0303071,-19.7514419],[-51.0454329,-19.7375557],[-51.0365743,-19.6870124],[-50.9904676,-19.6054019],[-50.9875546,-19.5895076],[-50.9618022,-19.5817398],[-50.9465426,-19.5916898],[-50.9243946,-19.5808846],[-50.9308813,-19.5422439],[-50.9629462,-19.5005788],[-50.9638634,-19.4863539],[-50.9349978,-19.4674775],[-50.9521315,-19.4426335],[-50.9853022,-19.4313828],[-50.9869467,-19.4121607],[-51.0189384,-19.4010838],[-51.0455374,-19.3433676],[-51.086857,-19.3139993],[-51.1265369,-19.3032868],[-51.1432251,-19.2870724],[-51.1691682,-19.2869631],[-51.1876418,-19.2689996],[-51.2573458,-19.2664855],[-51.2759732,-19.2611265],[-51.3070969,-19.2180815],[-51.3639605,-19.222506],[-51.3701184,-19.1995871],[-51.3926331,-19.1962778],[-51.4053572,-19.175547],[-51.4272881,-19.1651906],[-51.4585146,-19.1677776],[-51.4740732,-19.1537129],[-51.4976479,-19.1614011],[-51.5271028,-19.138922],[-51.5509349,-19.1406521],[-51.592212,-19.1267874],[-51.6084347,-19.1409997],[-51.6338214,-19.1313634],[-51.6599195,-19.1343787],[-51.682563,-19.1209272],[-51.7418615,-19.10057],[-51.751782,-19.0855882],[-51.7910824,-19.0798312],[-51.8168818,-19.0547208],[-51.8576816,-19.0505313],[-51.9067679,-18.9945819],[-51.9400077,-18.968472],[-51.9956616,-18.9742346],[-52.0344708,-18.9580622],[-52.0799944,-18.9508492],[-52.1057927,-18.9259298],[-52.105569,-18.9068189],[-52.1462319,-18.8946598],[-52.1873538,-18.8458754],[-52.2505018,-18.839869],[-52.2632303,-18.8282244],[-52.2933538,-18.8292451],[-52.3051407,-18.8404398],[-52.3442559,-18.8181456],[-52.3539008,-18.8002034],[-52.4096939,-18.7548644],[-52.4480256,-18.6919665],[-52.4741711,-18.6861859],[-52.5315493,-18.6574807],[-52.5666335,-18.6648205],[-52.5886921,-18.6879335],[-52.6404504,-18.6905284],[-52.6873098,-18.6783425],[-52.7161033,-18.6914091],[-52.746015,-18.6924069],[-52.7852626,-18.6815089],[-52.8091012,-18.667215],[-52.8464687,-18.666953],[-52.872214,-18.6461177],[-52.9167596,-18.6402946],[-52.9176575,-18.6152409],[-52.9518167,-18.5766716],[-52.9623514,-18.5408197],[-52.942511,-18.5170307],[-52.9157605,-18.5089029],[-52.8990952,-18.4768327],[-52.8809573,-18.4654927],[-52.8732937,-18.4267916],[-52.8067938,-18.4176957],[-52.7588732,-18.3631404],[-52.7759033,-18.3287534],[-52.814259,-18.3112978],[-52.8732067,-18.3148335],[-52.9352301,-18.2965543],[-52.9652657,-18.2989407],[-53.0147372,-18.3268831],[-53.0278517,-18.351596],[-53.0699358,-18.3428798],[-53.0996557,-18.3136191],[-53.1101876,-18.2195633],[-53.1297381,-18.1607025],[-53.1290165,-18.1384845],[-53.14324,-18.0818367],[-53.1236517,-18.0588283],[-53.0786288,-18.0530295],[-53.0722775,-18.0339753],[-53.1767934,-18.0415807],[-53.1987916,-18.0203061],[-53.2415444,-18.0047098],[-53.307573,-17.9959785],[-53.3356748,-18.0069075],[-53.3807712,-18.0087572],[-53.4057084,-17.9920489],[-53.4350488,-17.9845827],[-53.4572943,-17.999699],[-53.4601554,-18.0220326],[-53.4860712,-18.0404003],[-53.5178768,-18.0206482],[-53.5750192,-18.0126507],[-53.6069948,-17.9954897],[-53.6125462,-17.9780328],[-53.6520434,-17.9763287],[-53.6927188,-18.0069201],[-53.7338219,-17.9953349],[-53.7742172,-18.0007701],[-53.8086091,-17.9722466],[-53.8241628,-17.9487043],[-53.854247,-17.9258343],[-53.8985506,-17.9088024],[-53.9242445,-17.9199634],[-53.9522962,-17.9146877],[-53.9550243,-17.8712438],[-53.9359416,-17.8320981],[-53.910353,-17.8038856],[-53.8883811,-17.7489926],[-53.8609367,-17.7207118],[-53.8546834,-17.7030036],[-53.8002416,-17.6707893],[-53.7569664,-17.6734603],[-53.7046075,-17.6635095],[-53.6934025,-17.5002017],[-53.6800749,-17.2535697],[-53.6944957,-17.2339839],[-53.73321,-17.2309018],[-53.7590784,-17.2431425],[-53.7857133,-17.2875151],[-53.8200727,-17.2946157],[-53.834963,-17.3357604],[-53.8332681,-17.3571102],[-53.8683836,-17.3683775],[-53.9146006,-17.4144145],[-53.9311006,-17.4394503],[-53.9730501,-17.472244],[-54.0232666,-17.4770731],[-54.0580771,-17.5131293],[-54.045908,-17.5372274],[-54.051633,-17.5627701],[-54.0732693,-17.5878013],[-54.0846925,-17.6190348],[-54.1341872,-17.6187264],[-54.1620475,-17.6072396],[-54.1934133,-17.6061271],[-54.2437438,-17.6289046],[-54.2745496,-17.6540482],[-54.3308523,-17.661479],[-54.3877987,-17.6319367],[-54.3770818,-17.607434],[-54.3859105,-17.5814497],[-54.4263032,-17.5370001],[-54.4669149,-17.5290742],[-54.484664,-17.4890941],[-54.536332,-17.4775852],[-54.5541884,-17.4886684],[-54.5886138,-17.4771219],[-54.6360808,-17.4957244],[-54.6955269,-17.503521],[-54.746913,-17.5199422],[-54.7587809,-17.5656964],[-54.8213108,-17.5973862],[-54.8250042,-17.6096759],[-54.8608638,-17.6238535],[-54.8970355,-17.620346],[-54.9143075,-17.6084507],[-55.0473123,-17.640333],[-55.0726482,-17.6316326],[-55.1113648,-17.6312286],[-55.127256,-17.6527223],[-55.2089503,-17.6157483],[-55.2503096,-17.5848767],[-55.2996749,-17.541193],[-55.3518155,-17.5476916],[-55.3537599,-17.531617],[-55.4052044,-17.5123968],[-55.4437374,-17.5117761],[-55.4654475,-17.4868574],[-55.5150329,-17.4836213],[-55.5597307,-17.4396546],[-55.5748727,-17.434666],[-55.5852567,-17.4076463],[-55.5829072,-17.3790709],[-55.6389256,-17.3497901],[-55.6892624,-17.3404395],[-55.7215605,-17.3494956],[-55.7612066,-17.323532],[-55.7876445,-17.3286458],[-55.805011,-17.3094399],[-55.8452305,-17.2986061],[-55.8696498,-17.2753556],[-55.8865622,-17.2847647],[-55.9093871,-17.263146],[-55.9469868,-17.2712912],[-55.9601547,-17.2501906],[-55.9917599,-17.2502234],[-56.0120377,-17.2366818],[-56.0160675,-17.1902288],[-56.0827304,-17.1777458],[-56.1112024,-17.1667958],[-56.1288482,-17.1794232],[-56.1844615,-17.1945709],[-56.2130102,-17.2259386],[-56.2690411,-17.239792],[-56.2865701,-17.2704402],[-56.313541,-17.2694291],[-56.3440177,-17.2852847],[-56.3830663,-17.2879584],[-56.38893,-17.3019463],[-56.4325993,-17.3185875],[-56.442331,-17.3312821],[-56.4773991,-17.305408],[-56.5080719,-17.2952844],[-56.5138734,-17.3128227],[-56.6118524,-17.3319082],[-56.6514596,-17.3265476],[-56.663575,-17.3388297],[-56.6831814,-17.3165664],[-56.7016512,-17.3199384],[-56.7338542,-17.3098602],[-56.7568856,-17.3256863],[-56.7674608,-17.3645847],[-56.7843122,-17.3686531],[-56.7910296,-17.3910659],[-56.8297428,-17.3913258],[-56.824407,-17.4230789],[-56.8409099,-17.4420086],[-56.8502388,-17.4867813],[-56.8759675,-17.5329722],[-56.9449609,-17.5529495],[-56.9734925,-17.5803843],[-56.9882191,-17.65929],[-57.0132748,-17.6724294],[-57.0333769,-17.6947411],[-57.0449146,-17.7303213],[-57.0739121,-17.7354635],[-57.0985808,-17.7704176],[-57.1209426,-17.780164],[-57.1467441,-17.7675051],[-57.2042483,-17.7892519],[-57.2271374,-17.7827847],[-57.2648357,-17.8203496],[-57.2837729,-17.8129128],[-57.3113845,-17.8178245],[-57.3534564,-17.8378584],[-57.3680807,-17.8261992],[-57.4097521,-17.8539153],[-57.4262763,-17.856396],[-57.4619356,-17.8985358],[-57.4852744,-17.8622281],[-57.5347769,-17.8536338],[-57.5763315,-17.8005284],[-57.6093088,-17.7975415],[-57.6231109,-17.736359],[-57.6403039,-17.7173593],[-57.6635542,-17.7298538],[-57.6846131,-17.7164815],[-57.6717799,-17.6641124],[-57.6968904,-17.6206428],[-57.712196,-17.5589094],[-57.7250315,-17.5310124],[-57.7400515,-17.5363052],[-57.7522947,-17.5644631],[-57.7928672,-17.5557418],[-57.7777497,-17.5844599],[-57.7840251,-17.6074213],[-57.7756908,-17.6570178],[-57.7622474,-17.6606126],[-57.730967,-17.7187723],[-57.709642,-17.7298838],[-57.7201344,-17.7717191],[-57.6832259,-17.8080026],[-57.6831673,-17.8281371],[-57.7206673,-17.8278599],[-57.6319187,-17.9856326],[-57.600112,-18.0463673],[-57.5748646,-18.1318873],[-57.5051406,-18.2003416],[-57.4805248,-18.20676],[-57.453919,-18.2311941],[-57.5578344,-18.2403485],[-57.7666753,-18.8992853],[-57.7198374,-18.8990654],[-57.7193149,-18.977049],[-57.6970058,-18.9973912],[-57.7102033,-19.0325932],[-57.7844457,-19.0339013],[-58.1318187,-19.7584974],[-57.8581517,-19.9714168],[-57.8624267,-19.9856452],[-57.902348,-20.0421143],[-57.9277073,-20.0229986],[-57.9579053,-20.0214339],[-57.9875137,-20.0585966],[-58.0228438,-20.0581684],[-58.0439877,-20.0987806],[-58.0931544,-20.110354],[-58.115353,-20.1437452],[-58.1526595,-20.152869],[-58.1671536,-20.167267],[-58.1218462,-20.1943926],[-58.154222,-20.215731],[-58.1664182,-20.2366334],[-58.159397,-20.2638484],[-58.1445503,-20.2717774],[-58.1195235,-20.2495816],[-58.089891,-20.264528],[-58.1030505,-20.3211688],[-58.0763752,-20.3846884],[-58.0246189,-20.4000963],[-58.0043487,-20.4265916],[-57.99856,-20.4555636],[-58.0201755,-20.509763],[-57.9970131,-20.5755259],[-58.0131283,-20.6082964],[-57.9955743,-20.6317264],[-57.970386,-20.6441918],[-57.9882287,-20.6867291],[-57.9810273,-20.7057461],[-57.950181,-20.6982951],[-57.9367946,-20.6700127],[-57.9136749,-20.6707641],[-57.870173,-20.7254706],[-57.8789114,-20.7505168],[-57.9341543,-20.7459545],[-57.9495254,-20.7652765],[-57.9594917,-20.7979086],[-57.9412272,-20.8008159],[-57.8932904,-20.7907824],[-57.8593969,-20.8248557],[-57.8726808,-20.8539],[-57.9289443,-20.8952298],[-57.8865311,-20.9086465],[-57.8636024,-20.9488495],[-57.8337061,-20.936281]]],"bbox":[-58.1671536,-24.0685836,-50.9243946,-17.1667958]}
