{"type":"Topology","objects":{"geometrias":{"type":"GeometryCollection","geometries":[{"type":"MultiPolygon","arcs":[[[0]],[[1]],[[2]],[[3]],[[4]],[[5]]],"properties":{"code_state":15,"code_region":1,"name_state":"Pará","abbrev_state":"PA","name_region":"Norte","year":2020}}]}},"arcs":[[[-51.4236695,-0.4366112],[-51.4324792,-0.4733425],[-51.4577885,-0.513234],[-51.5151162,-0.5660446],[-51.5955362,-0.6504378],[-51.6834486,-0.7940294],[-51.6955135,-0.9212915],[-51.6856469,-1.0128623],[-51.7043365,-1.067741],[-51.7783994,-1.1404123],[-51.8090963,-1.1571011],[-51.8872859,-1.1663971],[-51.9229007,-1.1329634],[-51.9469037,-1.1660067],[-51.9619572,-1.1344374],[-51.9939523,-1.1347229],[-51.9911221,-1.171816],[-52.0409005,-1.1701323],[-52.062961,-1.1928913],[-52.0475632,-1.2142842],[-52.070459,-1.2359841],[-52.1098719,-1.2181159],[-52.1067638,-1.1830679],[-52.1202623,-1.146198],[-52.1467312,-1.1487914],[-52.1789319,-1.1295951],[-52.2147327,-1.1349578],[-52.3329879,-1.1158915],[-52.3581556,-1.0625844],[-52.4167912,-1.0256118],[-52.4199283,-0.9659632],[-52.4376793,-0.9288754],[-52.4047158,-0.9127377],[-52.403158,-0.8771483],[-52.4555179,-0.8302661],[-52.5169334,-0.858616],[-52.5418462,-0.8365449],[-52.5169699,-0.8090464],[-52.5182377,-0.7755192],[-52.4971522,-0.7229462],[-52.5103877,-0.679184],[-52.5131837,-0.6196459],[-52.5322928,-0.5763552],[-52.5763261,-0.5764098],[-52.61299,-0.5948934],[-52.640009,-0.5849061],[-52.6954363,-0.4964017],[-52.70068,-0.4529291],[-52.6810757,-0.415085],[-52.6973482,-0.3929354],[-52.6818497,-0.3399645],[-52.6841716,-0.3143137],[-52.7544268,-0.2621886],[-52.7604398,-0.2375744],[-52.8360989,-0.1861492],[-52.8641028,-0.1447643],[-52.9040129,-0.1549377],[-52.9327437,-0.1423073],[-52.9710222,-0.0431101],[-52.9772926,0.0237963],[-53.0149667,0.0596921],[-53.0111292,0.0950459],[-53.029266,0.1047191],[-53.0521271,0.1573389],[-53.0942925,0.195307],[-53.1058506,0.2373476],[-53.0941268,0.2589577],[-53.131376,0.2962017],[-53.136459,0.3260357],[-53.1753105,0.3817172],[-53.1612041,0.398538],[-53.1677453,0.4457283],[-53.1551284,0.4801797],[-53.1697689,0.4937348],[-53.1520646,0.5318937],[-53.1473221,0.6003346],[-53.1227118,0.6300909],[-53.1057436,0.6794615],[-53.1469379,0.6997862],[-53.1574069,0.7290729],[-53.1902726,0.7683835],[-53.2551477,0.8092116],[-53.2874946,0.8457159],[-53.4114942,0.9293442],[-53.4108033,0.9820425],[-53.4268299,0.992426],[-53.4223294,1.0337374],[-53.4558237,1.0773718],[-53.4591576,1.1336804],[-53.4443579,1.1513192],[-53.4044098,1.1511736],[-53.3960801,1.1792925],[-53.438769,1.232134],[-53.4699094,1.2399701],[-53.5252098,1.2117165],[-53.5463212,1.2285074],[-53.5233275,1.2613389],[-53.5527117,1.2802892],[-53.5626334,1.3065819],[-53.5333853,1.3224288],[-53.5456272,1.3474523],[-53.5706899,1.337302],[-53.5952181,1.3581541],[-53.6332463,1.3473586],[-53.6648539,1.3752498],[-53.7014598,1.3779189],[-53.7837222,1.4028539],[-53.820106,1.3891676],[-53.8877512,1.4077873],[-53.876742,1.4354522],[-53.8959981,1.4551258],[-53.9670765,1.4843951],[-54.0202741,1.5157631],[-54.0519674,1.4944892],[-54.06916,1.5009694],[-54.0987782,1.5505238],[-54.1019449,1.5843053],[-54.1436637,1.640612],[-54.1857503,1.6537353],[-54.2008834,1.6455793],[-54.2627439,1.6883824],[-54.3093044,1.7410503],[-54.3516918,1.7540727],[-54.4571677,1.7583028],[-54.4959444,1.7469426],[-54.528107,1.7649425],[-54.6019171,1.7845734],[-54.6436397,1.7686],[-54.7447791,1.7758008],[-54.7544217,1.797808],[-54.7384599,1.8248356],[-54.7701983,1.9256957],[-54.7559997,1.9742069],[-54.8038049,2.0258228],[-54.8062543,2.1389277],[-54.7678915,2.1809114],[-54.7631109,2.2023191],[-54.8114203,2.266378],[-54.7961664,2.3179651],[-54.80756,2.3416749],[-54.8746964,2.4153254],[-54.8722509,2.4337466],[-54.9354217,2.5185854],[-54.9543067,2.5836924],[-55.0038059,2.591027],[-55.1030864,2.5257359],[-55.1234732,2.5677203],[-55.1728658,2.5594387],[-55.2348061,2.5034753],[-55.3202556,2.5154633],[-55.356226,2.475653],[-55.3456432,2.4480823],[-55.3853987,2.4184543],[-55.4294499,2.4389661],[-55.4997845,2.4433308],[-55.5706752,2.4236096],[-55.577917,2.4354889],[-55.642262,2.416061],[-55.6984185,2.4216359],[-55.7076969,2.4032133],[-55.7470366,2.4105376],[-55.7667045,2.4553296],[-55.8388951,2.4622686],[-55.8808697,2.4889886],[-55.9016722,2.5173189],[-55.9346782,2.5335401],[-55.9783139,2.5274219],[-55.9911983,2.4670974],[-55.989922,2.4173455],[-56.0366734,2.3743199],[-56.0225928,2.3475333],[-56.0506795,2.3350707],[-56.0739543,2.3709085],[-56.0902012,2.372367],[-56.0938401,2.3212589],[-56.1281494,2.2865429],[-56.1325391,2.2637497],[-56.0429581,2.2278718],[-56.0563434,2.1894345],[-56.035145,2.1688853],[-56.0031495,2.16769],[-55.9698121,2.1131213],[-55.9267602,2.0751896],[-55.9021219,2.0294038],[-55.9138152,1.9906055],[-55.9364257,1.9865514],[-55.9206002,1.9190604],[-55.90393,1.8881128],[-55.9564535,1.8451782],[-55.9990386,1.8313637],[-56.0367277,1.8502898],[-56.0987314,1.846612],[-56.1299783,1.8592948],[-56.1527014,1.8907862],[-56.2345387,1.8986942],[-56.2441215,1.878163],[-56.3350139,1.9371836],[-56.4118972,1.928347],[-56.4370969,1.9517867],[-56.4829321,1.9541525],[-56.4956521,1.9380548],[-56.5798431,1.9059607],[-56.6215364,1.9459583],[-56.6735432,1.9127658],[-56.7164288,1.9260721],[-56.7649869,1.888445],[-56.8015176,1.8741551],[-56.8935683,1.8994047],[-56.9197951,1.930438],[-56.9592603,1.9244683],[-56.9761841,1.9030262],[-57.0007912,1.9073698],[-57.0320421,1.9469966],[-57.0712971,1.9687982],[-57.0867653,2.0265193],[-57.1584013,1.9918631],[-57.1791806,1.9902311],[-57.2292123,1.9535859],[-57.2529579,1.9485161],[-57.27732,1.9830715],[-57.3457093,1.9803448],[-57.3677695,1.9237949],[-57.4335208,1.9060482],[-57.4320157,1.8585502],[-57.4509881,1.8064353],[-57.4970403,1.7734931],[-57.5342705,1.7082552],[-57.6294353,1.6985471],[-57.650515,1.682436],[-57.6981342,1.7138108],[-57.7923535,1.7267103],[-57.7984335,1.6971264],[-57.8195983,1.6839094],[-57.8950805,1.6743776],[-57.9136031,1.6476827],[-57.981128,1.6594102],[-57.9786567,1.5728413],[-58.0056003,1.5168355],[-58.0272692,1.5086841],[-58.061026,1.5254018],[-58.1295247,1.4989538],[-58.1496561,1.5100687],[-58.1607434,1.5601738],[-58.1895491,1.571646],[-58.2332732,1.5474707],[-58.2623564,1.5707902],[-58.3172406,1.5684948],[-58.3324767,1.5907334],[-58.3631891,1.5380737],[-58.3896397,1.5354341],[-58.3856898,1.4700439],[-58.4128764,1.4727402],[-58.4485472,1.4560754],[-58.4650766,1.4662859],[-58.5088297,1.4630001],[-58.4981622,1.4301763],[-58.505217,1.4032192],[-58.4716361,1.3742098],[-58.4710517,1.3194013],[-58.4951613,1.2949691],[-58.4963272,1.2680153],[-58.5382704,1.2677183],[-58.5596676,1.290227],[-58.5885556,1.2699497],[-58.6288346,1.2885549],[-58.6613284,1.280485],[-58.6802168,1.2962979],[-58.7104969,1.2899487],[-58.7302207,1.2107166],[-58.7513302,1.2085319],[-58.8213323,1.1710488],[-58.8543928,1.1835071],[-58.8710552,1.2176752],[-58.8954981,1.2287814],[-58.8950359,-0.0109629],[-58.8865816,-0.0591839],[-58.8638839,-0.0780298],[-58.8652551,-0.1689373],[-58.881038,-0.1965794],[-58.8653947,-0.2655488],[-58.8749835,-0.2958234],[-58.8730952,-0.3437211],[-58.8361542,-0.3727456],[-58.7834791,-0.388968],[-58.7252824,-0.4383191],[-58.736521,-0.4717409],[-58.709988,-0.5170359],[-58.7090107,-0.5458643],[-58.7318301,-0.5791878],[-58.7363256,-0.6193516],[-58.7082778,-0.6567789],[-58.7061278,-0.6788638],[-58.6367412,-0.7201017],[-58.6128469,-0.75831],[-58.5602206,-0.7977394],[-58.5559695,-0.8137163],[-58.4605874,-0.862868],[-58.4364854,-0.8859778],[-58.4519752,-0.9240868],[-58.4105876,-0.9822266],[-58.4289115,-1.0286156],[-58.3637272,-1.0711199],[-58.3167203,-1.1476751],[-58.2558849,-1.1308204],[-58.2125916,-1.1665326],[-58.1895279,-1.2033192],[-58.154004,-1.2326797],[-58.1144244,-1.1645785],[-58.0939993,-1.1621358],[-58.0586708,-1.1065398],[-58.0173321,-1.1036085],[-58.0012559,-1.1481148],[-57.9657808,-1.1710272],[-57.9641683,-1.2152881],[-57.9751627,-1.2398121],[-57.9912388,-1.3512663],[-57.95431,-1.3797702],[-57.9597339,-1.3968675],[-57.9114565,-1.4047322],[-57.8771053,-1.4233436],[-57.8228177,-1.438682],[-57.7799886,-1.5100239],[-57.7176873,-1.503283],[-57.6980441,-1.5549136],[-57.7061555,-1.5724492],[-57.6746383,-1.5950156],[-57.6219144,-1.5891542],[-57.6007075,-1.5721561],[-57.5794517,-1.6043938],[-57.5440744,-1.6111343],[-57.4730754,-1.6788804],[-57.4434639,-1.6646183],[-57.3857558,-1.6976848],[-57.3533836,-1.7368071],[-57.292255,-1.7082836],[-57.2308333,-1.7275272],[-57.1996094,-1.7227408],[-57.1616911,-1.7403237],[-57.1580752,-1.7708003],[-57.1268512,-1.766014],[-57.0916449,-1.7779555],[-57.0666755,-1.8571237],[-57.0284152,-1.9180238],[-56.9883509,-1.9071603],[-56.9611252,-1.952972],[-56.9236786,-1.9643087],[-56.8762985,-1.9923486],[-56.8590445,-2.015926],[-56.8167648,-2.0229705],[-56.7669924,-2.0086976],[-56.7266021,-2.0309607],[-56.7213822,-2.0591744],[-56.7327642,-2.0917397],[-56.7694297,-2.1406729],[-56.760959,-2.1740582],[-56.7077679,-2.183902],[-56.6790728,-2.2125642],[-56.6354265,-2.2035988],[-56.6129132,-2.2101713],[-56.5270653,-2.1391952],[-56.4778933,-2.1703764],[-56.4441803,-2.1539257],[-56.4138828,-2.1759496],[-56.367785,-2.1370767],[-56.3511484,-2.1488699],[-56.3167613,-2.140126],[-56.2974569,-2.1008075],[-56.2561526,-2.0883161],[-56.2283772,-2.0562204],[-56.1067261,-2.0270363],[-56.097558,-2.0371332],[-56.1694261,-2.1455081],[-56.2037697,-2.1830802],[-56.2634986,-2.2210564],[-56.3843157,-2.2704754],[-56.4127577,-2.3217155],[-56.42565,-2.3691538],[-56.4655948,-2.4231151],[-56.462267,-2.4339173],[-56.4021072,-2.4565168],[-56.4263006,-2.5015831],[-56.6097644,-2.8963407],[-56.7629193,-3.2322098],[-56.887239,-3.4990467],[-57.0004891,-3.7591296],[-57.2536156,-4.2967522],[-57.5855733,-5.0007431],[-58.033639,-5.9781378],[-58.2552559,-6.4541175],[-58.2931091,-6.493882],[-58.3270562,-6.500374],[-58.3498866,-6.5624011],[-58.4273058,-6.6161675],[-58.4784712,-6.6996136],[-58.4817556,-6.7814217],[-58.4345559,-6.9088065],[-58.3802498,-6.970504],[-58.3354221,-6.9863726],[-58.2882552,-7.061674],[-58.2528349,-7.0834243],[-58.209524,-7.1342626],[-58.1809958,-7.1817367],[-58.1678046,-7.239248],[-58.1700099,-7.3132232],[-58.1384405,-7.3490342],[-58.118602,-7.3530631],[-58.0613616,-7.3951912],[-58.0398352,-7.446345],[-58.002168,-7.4881303],[-57.9520562,-7.5801442],[-57.9343873,-7.6567724],[-57.8989504,-7.6718905],[-57.8796423,-7.7819074],[-57.840971,-7.8614777],[-57.8331651,-7.8948624],[-57.828833,-7.9728959],[-57.7765286,-8.0521753],[-57.7284399,-8.0942158],[-57.7198593,-8.146605],[-57.7046383,-8.1680236],[-57.6772464,-8.1713961],[-57.6456109,-8.2062915],[-57.6439678,-8.2310878],[-57.6620791,-8.264982],[-57.6790555,-8.3335028],[-57.6678008,-8.3639381],[-57.6865577,-8.4070078],[-57.6815844,-8.4331259],[-57.6539947,-8.4650723],[-57.6590545,-8.5003866],[-57.633422,-8.5268109],[-57.6505026,-8.5533713],[-57.6447781,-8.5819802],[-57.6222457,-8.5911884],[-57.6205597,-8.6477445],[-57.6053024,-8.6628336],[-57.5936149,-8.7074193],[-57.5929389,-8.756477],[-57.5623651,-8.7612518],[-57.5230025,-8.7497337],[-57.4524982,-8.7866128],[-57.4175043,-8.7926085],[-57.4162157,-8.8589951],[-57.3843829,-8.8795574],[-57.3178883,-8.8857123],[-57.2861971,-8.9154972],[-57.2401898,-8.9064918],[-57.1950043,-8.9275137],[-57.1382742,-8.9946121],[-57.0946052,-9.0171114],[-57.0900292,-9.0382179],[-57.0596053,-9.0642778],[-57.0392416,-9.09829],[-57.0604425,-9.1371304],[-57.0601323,-9.1819673],[-57.0226379,-9.2197009],[-56.9955493,-9.2338426],[-56.9522491,-9.2230836],[-56.8201088,-9.2463404],[-56.7755214,-9.3295274],[-56.7723236,-9.3909593],[-56.7542707,-9.4063641],[-56.7083858,-9.3732067],[-56.6718827,-9.3673969],[-55.6041026,-9.4559371],[-54.6134541,-9.5358262],[-54.1066155,-9.5719207],[-53.0004717,-9.6552689],[-52.0003209,-9.7258355],[-51.4881666,-9.7605808],[-50.8428938,-9.8008231],[-50.2248064,-9.8411535],[-50.1978964,-9.7588349],[-50.1510053,-9.6956082],[-50.1390049,-9.6274599],[-50.1073697,-9.5942802],[-50.0895623,-9.5456929],[-50.1053376,-9.4754105],[-50.0901168,-9.4315957],[-50.0528335,-9.372673],[-50.055468,-9.3346989],[-50.0377849,-9.2894054],[-50.0050057,-9.2687597],[-49.9969316,-9.2376524],[-49.9661483,-9.2308641],[-49.9054199,-9.1697448],[-49.8968794,-9.1436736],[-49.8516138,-9.0654349],[-49.8425897,-9.0273259],[-49.7936636,-8.9794338],[-49.7676841,-8.9336881],[-49.6843583,-8.8564749],[-49.5924113,-8.8394912],[-49.5434457,-8.761395],[-49.4876063,-8.6885047],[-49.4540257,-8.6153915],[-49.4098882,-8.5800019],[-49.3914974,-8.4897785],[-49.3494094,-8.4183765],[-49.2833241,-8.3795572],[-49.2486603,-8.2553764],[-49.215854,-8.1942117],[-49.2073277,-8.1225007],[-49.193163,-8.0764651],[-49.1767186,-8.0615113],[-49.1737507,-8.0144182],[-49.1820284,-7.9769635],[-49.1696421,-7.9547897],[-49.1627769,-7.9005312],[-49.1607401,-7.791369],[-49.2211632,-7.7615992],[-49.2399968,-7.7407245],[-49.3401424,-7.6604679],[-49.3815774,-7.5691029],[-49.3779974,-7.4964458],[-49.231475,-7.3257861],[-49.1852842,-7.2351718],[-49.193796,-7.1298147],[-49.1952789,-7.0262647],[-49.2174451,-6.9614693],[-49.2095281,-6.9254206],[-49.1719412,-6.8929351],[-49.1504653,-6.8888509],[-49.0437712,-6.8157714],[-49.0188835,-6.7842105],[-48.9637126,-6.7794597],[-48.913853,-6.7573695],[-48.8511291,-6.7486772],[-48.8258553,-6.7546541],[-48.7690982,-6.7307016],[-48.7444027,-6.6985804],[-48.676189,-6.6733797],[-48.6519604,-6.6399512],[-48.6645491,-6.5676742],[-48.6462681,-6.5088892],[-48.607185,-6.4480111],[-48.5405762,-6.4008421],[-48.5002152,-6.3509276],[-48.447707,-6.3511789],[-48.3826793,-6.3796079],[-48.3848765,-6.324503],[-48.4171226,-6.2985866],[-48.4127108,-6.2813296],[-48.436132,-6.2013716],[-48.4082705,-6.1534022],[-48.3245162,-6.1327193],[-48.2880473,-6.0975637],[-48.2984849,-6.0501309],[-48.3351601,-6.0357197],[-48.3347163,-6.0042748],[-48.2968282,-5.9698603],[-48.2316293,-5.9461389],[-48.2301253,-5.9225184],[-48.2919698,-5.8368374],[-48.3000139,-5.7887008],[-48.2902384,-5.7435391],[-48.27571,-5.7265134],[-48.2306488,-5.7292609],[-48.1759831,-5.7122958],[-48.1412274,-5.6543538],[-48.138152,-5.6026901],[-48.1947353,-5.5630933],[-48.2786891,-5.5404233],[-48.328787,-5.4910438],[-48.347241,-5.4353555],[-48.3935104,-5.3942126],[-48.5139025,-5.4298196],[-48.5575365,-5.416711],[-48.5967334,-5.4225444],[-48.6291243,-5.4100587],[-48.6504881,-5.3849182],[-48.7368801,-5.3739624],[-48.7551507,-5.3491654],[-48.3155936,-5.0069924],[-48.0014333,-4.75886],[-47.816153,-4.6147285],[-47.7925691,-4.5864108],[-47.7248128,-4.6064181],[-47.6821203,-4.6063812],[-47.6119419,-4.5573579],[-47.5814777,-4.5199355],[-47.5637242,-4.4745575],[-47.5376001,-4.4525953],[-47.4763146,-4.3564394],[-47.4795412,-4.3284996],[-47.4420493,-4.2874251],[-47.3717681,-4.2455858],[-47.3790018,-4.2205369],[-47.3658287,-4.18064],[-47.3402351,-4.1770458],[-47.3502036,-4.1178207],[-47.3194243,-4.0477745],[-47.2931109,-4.0522709],[-47.2389286,-3.9986308],[-47.1902562,-3.9837047],[-47.1731461,-3.9238234],[-47.1484961,-3.9144898],[-47.128751,-3.8766426],[-47.1066248,-3.8809428],[-47.0852051,-3.85664],[-47.0835715,-3.8244046],[-47.0557157,-3.7735356],[-47.0453679,-3.6238821],[-47.0040617,-3.5426413],[-46.9688798,-3.5144028],[-46.9824151,-3.496162],[-46.9484548,-3.476799],[-46.9563218,-3.4258777],[-46.92974,-3.3738319],[-46.8848342,-3.3351737],[-46.8586432,-3.3429786],[-46.8460364,-3.319271],[-46.8148613,-3.3114659],[-46.802059,-3.2659998],[-46.7791907,-3.2421684],[-46.7715436,-3.2040662],[-46.7226309,-3.159132],[-46.7496037,-3.1244909],[-46.6886218,-3.0929714],[-46.6731808,-3.0673062],[-46.6684899,-2.9927955],[-46.6474296,-2.9698118],[-46.6539285,-2.9310654],[-46.6805554,-2.8827178],[-46.639416,-2.8835578],[-46.6400023,-2.8509089],[-46.6109773,-2.8552524],[-46.5989568,-2.79698],[-46.6252943,-2.8065459],[-46.6313534,-2.7708688],[-46.6696138,-2.7346049],[-46.6631149,-2.6935566],[-46.6380966,-2.6872113],[-46.6060909,-2.6394741],[-46.5068486,-2.616874],[-46.5094384,-2.5906125],[-46.4735724,-2.5465816],[-46.4365825,-2.5152417],[-46.442153,-2.4194111],[-46.4127859,-2.3791338],[-46.4318916,-2.3644873],[-46.4324291,-2.2971111],[-46.3911392,-2.2501412],[-46.3509244,-2.2240678],[-46.3355811,-2.1940389],[-46.2832969,-2.1543901],[-46.2730844,-2.1201116],[-46.2745992,-2.0546288],[-46.2604287,-2.0460831],[-46.2514378,-2.0006193],[-46.2227059,-1.9102252],[-46.2435218,-1.8786276],[-46.2110274,-1.8310593],[-46.2303286,-1.8031233],[-46.2536366,-1.7958462],[-46.3156987,-1.8012559],[-46.3244891,-1.772696],[-46.3118822,-1.7332325],[-46.2658526,-1.7328418],[-46.2475775,-1.7209245],[-46.2112229,-1.7271762],[-46.2035024,-1.705295],[-46.1740864,-1.7005085],[-46.1553227,-1.6754034],[-46.1658773,-1.634375],[-46.1336272,-1.5818183],[-46.1440841,-1.5178302],[-46.1761387,-1.4773849],[-46.1435954,-1.449737],[-46.1534659,-1.4256059],[-46.1145704,-1.351941],[-46.1333341,-1.3097341],[-46.1615773,-1.2818889],[-46.1400773,-1.2476926],[-46.1330409,-1.2103693],[-46.0981694,-1.1960591],[-46.0871388,-1.1344187],[-46.061815,-1.0971945],[-46.0945521,-1.0206273],[-46.1412924,-1.05816],[-46.1605034,-1.0051743],[-46.1754358,-0.9998522],[-46.2047896,-1.0584145],[-46.2177301,-0.9920865],[-46.1758755,-0.9454293],[-46.1802434,-0.912237],[-46.2040482,-0.8849127],[-46.2648307,-0.9134146],[-46.2676913,-0.9651558],[-46.2877317,-0.9994154],[-46.3213602,-1.0246632],[-46.3477572,-1.006757],[-46.3901096,-1.0199488],[-46.4662492,-1.0264336],[-46.4785215,-0.9655577],[-46.4683787,-0.9295292],[-46.4102555,-0.8876399],[-46.4261082,-0.8657539],[-46.4796365,-0.8832979],[-46.4979803,-0.8727207],[-46.5150786,-0.9296538],[-46.5564755,-0.9177489],[-46.5774852,-0.9815032],[-46.601961,-0.9569416],[-46.6420417,-0.9488571],[-46.624984,-0.9211857],[-46.6323874,-0.8954783],[-46.5961262,-0.8419423],[-46.6189755,-0.8054803],[-46.6652932,-0.7912138],[-46.6921945,-0.833858],[-46.7354436,-0.8622322],[-46.739773,-0.8207577],[-46.8063625,-0.8704949],[-46.8072566,-0.8344781],[-46.8335204,-0.8263796],[-46.8241454,-0.7894389],[-46.8360207,-0.7467125],[-46.8836674,-0.7671805],[-46.883672,-0.8076491],[-46.912821,-0.8211231],[-46.9422472,-0.8074709],[-46.9702914,-0.7674795],[-46.9461513,-0.7309943],[-46.974978,-0.7041001],[-47.0026589,-0.7607985],[-47.0314339,-0.7679175],[-47.063378,-0.7922874],[-47.0819055,-0.7645206],[-47.0909027,-0.7184058],[-47.074252,-0.7019957],[-47.0920322,-0.6741364],[-47.1211877,-0.6762125],[-47.140301,-0.6984657],[-47.1372425,-0.7325483],[-47.1669292,-0.7298787],[-47.1769888,-0.6731962],[-47.2183704,-0.6325563],[-47.2619621,-0.6242868],[-47.2873359,-0.6013099],[-47.322479,-0.5914541],[-47.3842549,-0.6024933],[-47.395899,-0.6539644],[-47.4308354,-0.6407959],[-47.4111143,-0.6027782],[-47.4217333,-0.5846346],[-47.4720045,-0.5939981],[-47.4849043,-0.6194248],[-47.4699879,-0.6937537],[-47.5010207,-0.6911149],[-47.5317959,-0.6155547],[-47.5631599,-0.5821939],[-47.5892911,-0.5758006],[-47.5868177,-0.6390544],[-47.6291248,-0.7072738],[-47.6371343,-0.6361046],[-47.6327309,-0.6021061],[-47.6699627,-0.5751776],[-47.7038784,-0.534576],[-47.738597,-0.5367241],[-47.7708552,-0.5658822],[-47.772848,-0.6054593],[-47.8142727,-0.5764182],[-47.8459009,-0.6251847],[-47.8587456,-0.5703664],[-47.9142859,-0.5636079],[-47.9106469,-0.6034915],[-47.921104,-0.6256315],[-47.964621,-0.6420758],[-47.9652235,-0.6737017],[-47.9912195,-0.694686],[-48.0196956,-0.6865582],[-48.0477195,-0.6595742],[-48.0674389,-0.673484],[-48.1584045,-0.7742128],[-48.1777984,-0.8210127],[-48.2211661,-0.8229017],[-48.2369332,-0.8375711],[-48.2684634,-0.9029275],[-48.2937708,-0.9196765],[-48.3658013,-0.9189255],[-48.4238879,-0.9006479],[-48.4747161,-0.8739021],[-48.5060619,-0.810438],[-48.5121803,-0.7596886],[-48.4880288,-0.7339583],[-48.4705945,-0.6140523],[-48.4737255,-0.526714],[-48.4411059,-0.4122095],[-48.3882519,-0.3526907],[-48.3746329,-0.30307],[-48.3969104,-0.2516341],[-48.4402362,-0.2254047],[-48.5051168,-0.2425761],[-48.6335677,-0.2315883],[-48.7119713,-0.2518484],[-48.7437274,-0.2499224],[-48.8100784,-0.2147657],[-48.8347118,-0.2226507],[-48.9470183,-0.2222134],[-48.9972673,-0.1862099],[-49.0126204,-0.1598834],[-49.0394245,-0.1693389],[-49.113368,-0.1606274],[-49.1367384,-0.1682408],[-49.1961676,-0.1313531],[-49.246034,-0.1612027],[-49.3345562,-0.1605218],[-49.3787478,-0.1910237],[-49.4221892,-0.1684469],[-49.4386111,-0.1264927],[-49.4167957,-0.0674722],[-49.3890917,-0.0587664],[-49.3574527,-0.0239332],[-49.3583383,0.0079365],[-49.3749153,0.0443993],[-49.397009,0.0621591],[-49.4789561,0.0810633],[-49.531741,0.0811588],[-49.5769481,0.0907358],[-49.6322276,0.0748934],[-49.6656591,0.096562],[-49.6995784,0.1505051],[-49.6927197,0.1780972],[-49.6444491,0.2166634],[-49.63329,0.2413523],[-49.583738,0.2725382],[-49.5291541,0.2917297],[-49.4950295,0.3186274],[-49.5031751,0.3716787],[-49.5477582,0.3901311],[-49.5819234,0.418674],[-49.618127,0.3920543],[-49.6569138,0.393877],[-49.731086,0.3752833],[-49.7777692,0.3413052],[-49.8077867,0.3320504],[-49.8282806,0.3554297],[-49.8892148,0.3225009],[-49.9384746,0.3652911],[-49.9805094,0.360503],[-49.9929089,0.3384154],[-50.0513843,0.3367464],[-50.0984446,0.3444633],[-50.1316929,0.3306634],[-50.1678189,0.3402908],[-50.1727376,0.397643],[-50.0774344,0.4634433],[-50.036413,0.5341784],[-50.027856,0.5678313],[-50.037307,0.6018789],[-50.0726399,0.635792],[-50.1043542,0.63955],[-50.1334898,0.6196196],[-50.21351,0.6559749],[-50.2260857,0.6962372],[-50.3472365,0.6668437],[-50.4365469,0.600107],[-50.4672645,0.5309222],[-50.4762092,0.4814998],[-50.5039997,0.4350876],[-50.5238924,0.3723908],[-50.556148,0.3067173],[-50.5963071,0.2503658],[-50.6681975,0.1850345],[-50.7264617,0.1416011],[-50.8035185,0.1063234],[-50.9210933,0.0761336],[-50.9654996,0.0493969],[-50.9969123,0.0034511],[-51.0173382,-0.0107236],[-51.0656742,-0.0762263],[-51.1132027,-0.0966079],[-51.1748986,-0.1045348],[-51.2163629,-0.1186128],[-51.3024816,-0.2526427],[-51.3459511,-0.2961077],[-51.3643091,-0.3713156],[-51.4236695,-0.4366112]],[[-48.8796563,-0.1804215],[-48.8796787,-0.1572364],[-48.9156335,-0.1512864],[-48.945854,-0.1980814],[-48.9245512,-0.2139814],[-48.881319,-0.2033437],[-48.8796563,-0.1804215]],[[-49.4497734,0.1126925],[-49.4769071,0.1482064],[-49.5023673,0.1173847],[-49.4497734,0.1126925]],[[-49.6023642,0.1694676],[-49.6328581,0.1945],[-49.6606827,0.1872599],[-49.6774531,0.1557239],[-49.6534572,0.1450355],[-49.6154018,0.1528203],[-49.6023642,0.1694676]],[[-49.6318823,0.2102698],[-49.6180802,0.1992406],[-49.5763181,0.2197068],[-49.6021381,0.2427679],[-49.6318823,0.2102698]],[[-46.3316234,-0.9860782],[-46.305622,-0.997831],[-46.3221321,-0.9364081],[-46.3399791,-0.9598486],[-46.3316234,-0.9860782]]],"bbox":[-58.8954981,-9.8411535,-46.061815,2.591027]}
