{"type":"Topology","objects":{"geometrias":{"type":"GeometryCollection","geometries":[{"type":"Polygon","arcs":[[0]],"properties":{"code_state":29,"code_region":2,"name_state":"Bahia","abbrev_state":"BA","name_region":"Nordeste","year":2020}}]}},"arcs":[[[-46.1985502,-12.5036282],[-46.2244444,-12.528641],[-46.2549312,-12.5398977],[-46.2757846,-12.5944306],[-46.305393,-12.6399891],[-46.2744064,-12.6438603],[-46.2688648,-12.6673292],[-46.301703,-12.6843133],[-46.2946262,-12.7074643],[-46.2728226,-12.7142207],[-46.2824396,-12.7670996],[-46.3097625,-12.7966012],[-46.2735822,-12.815966],[-46.2775822,-12.8435595],[-46.2998758,-12.8563612],[-46.2903724,-12.9003262],[-46.3112453,-12.9090544],[-46.3080359,-12.9399232],[-46.2942225,-12.9529523],[-46.254501,-12.9392031],[-46.2223573,-12.9502317],[-46.1715537,-12.9315481],[-46.1441501,-12.9311485],[-46.1203279,-12.9140436],[-46.104644,-12.9249255],[-46.1246636,-12.9598204],[-46.1663753,-12.977276],[-46.1938118,-12.9967524],[-46.2755338,-13.0202133],[-46.2815629,-13.0451358],[-46.316385,-13.0909773],[-46.3157947,-13.1187347],[-46.2996101,-13.1281286],[-46.3070303,-13.1706718],[-46.3043483,-13.2059795],[-46.3276793,-13.2529237],[-46.3055418,-13.2516639],[-46.2999859,-13.2828818],[-46.317902,-13.3052278],[-46.2924869,-13.3169301],[-46.2202554,-13.2956893],[-46.1748511,-13.2769535],[-46.1032194,-13.2575102],[-46.0802173,-13.2738374],[-46.0733396,-13.3113689],[-46.1354731,-13.3755242],[-46.1622858,-13.3826351],[-46.1917297,-13.4099817],[-46.2319648,-13.4185849],[-46.2373491,-13.4348044],[-46.2101648,-13.4618865],[-46.233156,-13.4817453],[-46.2302613,-13.511774],[-46.2472571,-13.5216887],[-46.2317192,-13.5832136],[-46.1996428,-13.5725394],[-46.1675389,-13.5897333],[-46.1627454,-13.6036421],[-46.2163979,-13.6359857],[-46.2561978,-13.6841624],[-46.23577,-13.7010531],[-46.2510312,-13.7368664],[-46.2229368,-13.7654029],[-46.2774951,-13.7908815],[-46.2324747,-13.8486074],[-46.2568302,-13.8871755],[-46.2641903,-13.9474351],[-46.2530267,-13.9695326],[-46.220066,-13.9754228],[-46.2130884,-14.0305578],[-46.2276801,-14.0442614],[-46.2243922,-14.1050276],[-46.199313,-14.1269406],[-46.1859925,-14.1555917],[-46.1181409,-14.1599493],[-46.0982283,-14.1999275],[-46.0610483,-14.1954846],[-46.0604058,-14.2327006],[-46.0295909,-14.2595295],[-45.9954281,-14.2561577],[-45.9644033,-14.2843113],[-45.9570512,-14.3213986],[-45.9422146,-14.343255],[-45.9071553,-14.3551898],[-45.9326429,-14.4098593],[-46.0000734,-14.4466222],[-46.0190031,-14.4720712],[-45.996085,-14.488406],[-46.0039971,-14.5145895],[-45.9814491,-14.5318979],[-45.9978884,-14.6035777],[-45.9843987,-14.6218787],[-45.989515,-14.658845],[-46.0105164,-14.66219],[-45.9990602,-14.7159387],[-46.007302,-14.7509791],[-46.0025841,-14.795839],[-46.0186719,-14.8185497],[-46.0411979,-14.8264946],[-46.0252869,-14.8557565],[-46.0394858,-14.8719769],[-46.00388,-14.9022898],[-45.9958369,-14.9274706],[-45.9660809,-14.9656455],[-45.9754941,-15.0388816],[-46.0184972,-15.0813013],[-46.0284766,-15.1141102],[-46.0437202,-15.1181296],[-46.0477756,-15.1637296],[-46.0787231,-15.1755061],[-46.1189155,-15.2020783],[-46.0988173,-15.2167858],[-46.0970883,-15.2431113],[-46.058113,-15.2627418],[-46.0295237,-15.2018083],[-45.9845053,-15.195961],[-45.9724701,-15.1547163],[-45.9389562,-15.1356756],[-45.9029162,-15.1403797],[-45.871247,-15.1588109],[-45.8349982,-15.1373624],[-45.8116655,-15.1128378],[-45.7511095,-15.1225822],[-45.7221842,-15.1127719],[-45.7189107,-15.0973973],[-45.6748119,-15.0805426],[-45.6558189,-15.04853],[-45.6570586,-15.0273493],[-45.6246188,-15.0213685],[-45.6027119,-14.9895328],[-45.5670507,-14.9564953],[-45.534729,-14.9382576],[-45.4900515,-14.9607627],[-45.4588234,-14.9542124],[-45.4344688,-14.9217511],[-45.4102964,-14.9234388],[-45.3555693,-14.8775076],[-45.3477947,-14.8625688],[-45.3164204,-14.8512552],[-45.2397938,-14.7818437],[-45.2055737,-14.7447389],[-45.1720166,-14.7346788],[-45.1362896,-14.7474168],[-45.0827727,-14.7487667],[-45.0650718,-14.7308658],[-45.0476938,-14.690537],[-45.0319311,-14.6761701],[-44.9957479,-14.6678154],[-44.9729068,-14.6387713],[-44.9166802,-14.6196603],[-44.8910165,-14.5976553],[-44.8691947,-14.5933847],[-44.8481798,-14.5469245],[-44.8300094,-14.5334442],[-44.8345748,-14.5074923],[-44.8107661,-14.5031012],[-44.7693734,-14.4773383],[-44.7256578,-14.4576492],[-44.6883532,-14.4166809],[-44.6588784,-14.3957573],[-44.5983693,-14.3685005],[-44.5655652,-14.34006],[-44.5427329,-14.3405294],[-44.5108436,-14.3226879],[-44.48314,-14.3221174],[-44.4399007,-14.303662],[-44.4286006,-14.2866355],[-44.3615887,-14.2728126],[-44.3405958,-14.2494003],[-44.3164832,-14.2403492],[-44.302338,-14.2532425],[-44.2091227,-14.2466719],[-44.1703803,-14.268695],[-44.1603345,-14.2577596],[-44.1145298,-14.2600439],[-44.0882868,-14.2780763],[-44.0744512,-14.2706396],[-44.034621,-14.2890284],[-43.9905957,-14.2725945],[-43.9208304,-14.2978039],[-43.8924798,-14.3010168],[-43.8514245,-14.3190739],[-43.8361445,-14.3111487],[-43.8000853,-14.3378272],[-43.7831867,-14.3392337],[-43.8193879,-14.3893051],[-43.8319646,-14.4430072],[-43.8738773,-14.5205836],[-43.8872301,-14.5851792],[-43.8750063,-14.5931974],[-43.8835076,-14.6532322],[-43.8468677,-14.672105],[-43.8005063,-14.6873135],[-43.7262579,-14.6981614],[-43.7198617,-14.7295389],[-43.6971108,-14.7237147],[-43.6590308,-14.7448733],[-43.6112477,-14.7605487],[-43.5907803,-14.7508694],[-43.5416401,-14.7791284],[-43.5391991,-14.805736],[-43.4783768,-14.792051],[-43.4721724,-14.7623647],[-43.4562273,-14.7401572],[-43.4253132,-14.7199792],[-43.3727734,-14.6991056],[-43.3541617,-14.698089],[-43.3112274,-14.6697481],[-43.2981427,-14.6760843],[-43.2450549,-14.6565111],[-43.2076646,-14.6583546],[-43.1763498,-14.6505438],[-43.1514964,-14.6663341],[-43.1011077,-14.6754951],[-43.0839365,-14.6982726],[-43.0663892,-14.6805592],[-43.0383074,-14.6828079],[-43.0109473,-14.7016622],[-42.9773253,-14.6983871],[-42.9526882,-14.7084023],[-42.9121978,-14.7444719],[-42.8423875,-14.796068],[-42.790992,-14.8393791],[-42.7551378,-14.8464214],[-42.7472194,-14.8677547],[-42.7233598,-14.8856124],[-42.7041635,-14.8828283],[-42.648629,-14.9299879],[-42.6207127,-14.9436952],[-42.6042125,-14.9261189],[-42.5855825,-14.9316028],[-42.5606855,-14.9622972],[-42.4957414,-14.9948584],[-42.4759116,-15.0170404],[-42.4435981,-15.0206461],[-42.4443207,-15.0556059],[-42.3964917,-15.0779916],[-42.3718571,-15.0736296],[-42.354907,-15.0982031],[-42.337247,-15.0804663],[-42.2826217,-15.1178927],[-42.2589842,-15.1220829],[-42.2231295,-15.0995589],[-42.1553586,-15.0978508],[-42.1499067,-15.1203495],[-42.1163062,-15.1441201],[-42.0960683,-15.1824421],[-41.9946916,-15.1588745],[-41.9534344,-15.1756645],[-41.8970388,-15.1518993],[-41.8704306,-15.1151801],[-41.8483105,-15.1168421],[-41.8007101,-15.1010971],[-41.4994053,-15.3726109],[-41.3564227,-15.5002861],[-41.3312061,-15.7446734],[-41.2929477,-15.7390055],[-41.2717587,-15.74813],[-41.2153964,-15.7371659],[-41.197049,-15.7503601],[-41.1425302,-15.772047],[-41.1215557,-15.7430118],[-41.0981309,-15.7410515],[-41.0775579,-15.7192879],[-41.0484153,-15.72387],[-41.0060594,-15.7138373],[-40.9780972,-15.6881049],[-40.9631251,-15.6484003],[-40.9143317,-15.6609776],[-40.9025697,-15.6918421],[-40.8554496,-15.6871571],[-40.8313144,-15.6706535],[-40.8190283,-15.646342],[-40.7813104,-15.6789655],[-40.7676637,-15.7140794],[-40.7398608,-15.7036467],[-40.7321546,-15.674899],[-40.7005752,-15.667309],[-40.6823087,-15.6990212],[-40.6611991,-15.7071257],[-40.6449466,-15.7288594],[-40.6260312,-15.7182097],[-40.6010286,-15.7434102],[-40.5930999,-15.7717467],[-40.5674174,-15.7759231],[-40.5649021,-15.8015478],[-40.5398103,-15.7947951],[-40.5063082,-15.7669015],[-40.4841247,-15.7757966],[-40.4614286,-15.7532317],[-40.4324702,-15.7786532],[-40.4281657,-15.8017066],[-40.3779678,-15.8184217],[-40.3567198,-15.8130148],[-40.3210087,-15.82074],[-40.274711,-15.8180443],[-40.2375823,-15.8050556],[-40.2074987,-15.8473114],[-40.1739661,-15.8704902],[-40.1647447,-15.9102313],[-40.1493,-15.9053675],[-40.0748468,-15.9200533],[-40.0611601,-15.9640017],[-40.0457735,-15.9623563],[-40.0136907,-15.9840065],[-40.0044365,-16.0018382],[-39.9699071,-16.0041514],[-39.9557464,-15.9914283],[-39.9147979,-15.9999934],[-39.9221984,-16.0286254],[-39.8820034,-16.068033],[-39.8572736,-16.1156953],[-39.8805142,-16.1437454],[-39.8833906,-16.194693],[-39.898403,-16.2013672],[-39.9365211,-16.2457808],[-39.9201017,-16.2637394],[-39.9522397,-16.2978551],[-39.9604959,-16.3218827],[-39.991102,-16.3127343],[-40.0258067,-16.3664681],[-40.0455701,-16.4220389],[-40.0627169,-16.4319863],[-40.0794094,-16.4642299],[-40.1033027,-16.4370103],[-40.1406657,-16.4967728],[-40.1701688,-16.5312792],[-40.1544457,-16.5654902],[-40.1578974,-16.5794549],[-40.2298106,-16.5614449],[-40.2754901,-16.5734177],[-40.2880446,-16.5996895],[-40.298248,-16.652466],[-40.3129879,-16.6754341],[-40.3030011,-16.7036876],[-40.3101667,-16.7362155],[-40.3358372,-16.7797142],[-40.3236055,-16.8012692],[-40.2700764,-16.7953294],[-40.2508293,-16.8311546],[-40.2521215,-16.8600506],[-40.2719675,-16.8701937],[-40.2816371,-16.9011836],[-40.3027738,-16.8922436],[-40.331523,-16.9080273],[-40.366485,-16.8741723],[-40.3759008,-16.8858723],[-40.4157167,-16.8995006],[-40.4603851,-16.8784552],[-40.4923269,-16.8873987],[-40.4971418,-16.9173327],[-40.5169976,-16.9610515],[-40.5454433,-16.9841997],[-40.559856,-17.0416056],[-40.5714143,-17.0638855],[-40.5567855,-17.089602],[-40.5629147,-17.1263273],[-40.5791587,-17.1482483],[-40.5725269,-17.1823691],[-40.5523839,-17.1991531],[-40.5722499,-17.2513728],[-40.5528438,-17.2875212],[-40.572244,-17.2947661],[-40.5948417,-17.3235648],[-40.6046846,-17.3561943],[-40.5975065,-17.4206333],[-40.5700817,-17.4158915],[-40.5541591,-17.4355679],[-40.520579,-17.4448113],[-40.5209414,-17.4583486],[-40.4824147,-17.4925902],[-40.4890624,-17.5197897],[-40.4604149,-17.5685022],[-40.4106843,-17.5682273],[-40.4182146,-17.5990974],[-40.3968117,-17.6256053],[-40.3799343,-17.6113093],[-40.3614456,-17.6366708],[-40.334049,-17.6321484],[-40.3228247,-17.6613147],[-40.2990206,-17.6745676],[-40.2955147,-17.6994936],[-40.2703222,-17.7270585],[-40.2207966,-17.7372474],[-40.2136573,-17.7536875],[-40.2180757,-17.795659],[-40.1741273,-17.8515612],[-40.2126577,-17.8957941],[-40.2635475,-17.9220233],[-40.2654631,-17.9323213],[-40.2268229,-17.9582598],[-40.2223506,-17.9804174],[-39.6889474,-18.3208315],[-39.6630558,-18.3312954],[-39.636916,-18.2357966],[-39.5859794,-18.1468753],[-39.5489449,-18.1018555],[-39.5416073,-18.0784976],[-39.4976912,-18.0064787],[-39.4564532,-17.9587515],[-39.4273055,-17.9341748],[-39.3619092,-17.9053893],[-39.3644416,-17.890754],[-39.3195987,-17.8916576],[-39.266167,-17.8599909],[-39.2581949,-17.8267608],[-39.2059762,-17.7726664],[-39.1909005,-17.7419167],[-39.1358003,-17.6902527],[-39.1876871,-17.606152],[-39.1918304,-17.4443496],[-39.2166191,-17.3407045],[-39.2210726,-17.3017741],[-39.2129101,-17.2394895],[-39.2120619,-17.1612608],[-39.19803,-17.1271658],[-39.182016,-17.1123553],[-39.1714432,-17.0369372],[-39.1721848,-17.0130467],[-39.155532,-16.9803552],[-39.1514591,-16.9422489],[-39.1236855,-16.9043497],[-39.1419621,-16.8684413],[-39.145462,-16.8088443],[-39.1416455,-16.7614573],[-39.1069849,-16.7089152],[-39.0900501,-16.6284817],[-39.094417,-16.6097047],[-39.0852328,-16.5473059],[-39.0593248,-16.4569464],[-39.0617288,-16.4340665],[-39.0399398,-16.3958624],[-39.0087732,-16.3749211],[-39.0060608,-16.3327553],[-39.0204055,-16.3239733],[-39.0218557,-16.2853373],[-39.0110638,-16.2457858],[-38.9717695,-16.19868],[-38.9481067,-16.1556665],[-38.9566285,-16.1301953],[-38.9520495,-16.0969527],[-38.9025435,-15.9636021],[-38.8528393,-15.8493541],[-38.894601,-15.7644432],[-38.910326,-15.7191784],[-38.9274387,-15.6909923],[-38.9441581,-15.5918158],[-38.9421675,-15.5394209],[-38.9516766,-15.4691144],[-38.9727812,-15.3880162],[-38.9907516,-15.2881607],[-38.9966538,-15.2146172],[-38.9949171,-15.1502154],[-38.9964192,-15.0008721],[-39.0187067,-14.9201762],[-39.0274128,-14.7830074],[-39.0490714,-14.7774283],[-39.0621871,-14.7469531],[-39.0651113,-14.6692704],[-39.0616264,-14.6249854],[-39.0351742,-14.5322678],[-39.0327279,-14.4875026],[-39.0016206,-14.3444811],[-38.9799147,-14.2936579],[-38.9949362,-14.266368],[-38.9899051,-14.199321],[-38.9428314,-14.0146877],[-38.9276929,-13.9398459],[-38.9287859,-13.9068342],[-38.9814637,-13.8286408],[-39.0003368,-13.7757142],[-38.9916572,-13.7248077],[-38.9512386,-13.6706617],[-38.9287308,-13.6575309],[-38.8984879,-13.665992],[-38.8911288,-13.6405308],[-38.9013877,-13.6017516],[-38.9333737,-13.5631951],[-38.9170404,-13.4837908],[-38.8923543,-13.4606089],[-38.9056233,-13.4272646],[-38.9131994,-13.3786407],[-38.9462404,-13.3989233],[-38.9645415,-13.3550754],[-38.9647167,-13.294884],[-38.9468748,-13.2427433],[-38.9291864,-13.218358],[-38.8672058,-13.1862386],[-38.8360504,-13.1564842],[-38.7622769,-13.1189343],[-38.7126181,-13.0611023],[-38.6572126,-13.0335314],[-38.6433387,-13.0153131],[-38.5278289,-13.0099454],[-38.4884231,-13.0172697],[-38.4547273,-13.006586],[-38.3872729,-12.956841],[-38.354003,-12.9571539],[-38.3176276,-12.9285517],[-38.2799207,-12.8803754],[-38.243694,-12.8524768],[-38.1025681,-12.6860058],[-38.0467738,-12.6346095],[-38.0408934,-12.6104278],[-38.001464,-12.5780112],[-37.9730126,-12.5210794],[-37.909356,-12.4278501],[-37.8821514,-12.3941441],[-37.8256041,-12.3096162],[-37.7693535,-12.2383665],[-37.6907662,-12.1082642],[-37.6101041,-11.9556663],[-37.5247061,-11.766242],[-37.4063284,-11.5365898],[-37.3491581,-11.4621022],[-37.3686307,-11.4598165],[-37.4108864,-11.4954325],[-37.4554887,-11.5231383],[-37.5047505,-11.5249101],[-37.5170038,-11.5469251],[-37.5627166,-11.5426752],[-37.590269,-11.5284951],[-37.6157268,-11.538601],[-37.6385012,-11.5184252],[-37.6642002,-11.5319608],[-37.6721037,-11.5578279],[-37.6984173,-11.5634142],[-37.749361,-11.5386277],[-37.7589745,-11.5253783],[-37.8122886,-11.51702],[-37.8235926,-11.4925822],[-37.8534577,-11.4674974],[-37.8823804,-11.4247047],[-37.9044605,-11.411759],[-37.9682775,-11.389536],[-38.0013459,-11.3033025],[-37.9764057,-11.2155386],[-37.9822963,-11.1911066],[-38.0029487,-11.193824],[-38.0233545,-11.177767],[-38.0571807,-11.1720853],[-38.0712201,-11.143546],[-38.0656188,-11.1229761],[-38.0884012,-11.1162559],[-38.0809638,-11.0640434],[-38.1024196,-11.0439829],[-38.1019991,-11.0158945],[-38.1700454,-10.9889955],[-38.1865421,-10.9642065],[-38.1806156,-10.9427672],[-38.2281683,-10.9141839],[-38.2374459,-10.8761491],[-38.2313983,-10.8429341],[-38.238345,-10.8001848],[-38.2093598,-10.7604353],[-38.2165189,-10.7268057],[-38.1833944,-10.7053632],[-38.1435605,-10.7190129],[-38.0983533,-10.7124371],[-38.067792,-10.7156658],[-38.0485734,-10.7034538],[-38.0250319,-10.7255192],[-37.9768025,-10.7579327],[-37.9454812,-10.7565173],[-37.9096224,-10.7155103],[-37.8475103,-10.6992649],[-37.8151346,-10.6848568],[-37.8029907,-10.6521623],[-37.8167229,-10.6313785],[-37.806319,-10.6005274],[-37.8412315,-10.5547936],[-37.8126051,-10.507247],[-37.820987,-10.4836401],[-37.8527055,-10.4387027],[-37.853109,-10.4062775],[-37.839048,-10.3788204],[-37.8076254,-10.3675035],[-37.7786833,-10.3431919],[-37.7433128,-10.3383907],[-37.7503827,-10.2894991],[-37.7470908,-10.2380727],[-37.7656811,-10.1960449],[-37.7822309,-10.1855917],[-37.7779303,-10.1341413],[-37.8020145,-10.1124474],[-37.7826444,-10.0435984],[-37.7909033,-10.0327032],[-37.8270049,-10.0341612],[-37.8520777,-9.9904569],[-37.8625558,-9.9885966],[-37.9134407,-9.9331128],[-37.9554324,-9.9429999],[-37.9754164,-9.9367318],[-38.0000359,-9.9087148],[-37.9921235,-9.8943078],[-38.007183,-9.8687177],[-37.9954442,-9.8460787],[-37.9999705,-9.8143261],[-38.020426,-9.797863],[-38.038619,-9.7500946],[-38.0450383,-9.6974549],[-38.0166551,-9.6388738],[-38.0488721,-9.6323926],[-38.0617097,-9.5909087],[-38.0209014,-9.560914],[-38.0226164,-9.5406648],[-37.9979494,-9.4992833],[-38.0221548,-9.4699909],[-38.0678462,-9.4585026],[-38.0777597,-9.4411067],[-38.1572696,-9.4403982],[-38.2047642,-9.4186743],[-38.1941767,-9.3943858],[-38.205573,-9.3636489],[-38.2395412,-9.3271289],[-38.2505456,-9.2904806],[-38.2875128,-9.2171293],[-38.287601,-9.1738839],[-38.3163219,-9.1445154],[-38.3210421,-9.0700337],[-38.2896758,-9.0363344],[-38.32354,-8.9900092],[-38.3624418,-9.0009412],[-38.4035158,-9.0372331],[-38.4490997,-9.0263588],[-38.5035127,-8.9814111],[-38.5193747,-8.9393497],[-38.4793182,-8.9017437],[-38.4697972,-8.8642411],[-38.5124067,-8.830586],[-38.5550678,-8.8233578],[-38.5899504,-8.8565392],[-38.6075857,-8.893264],[-38.6083358,-8.9498221],[-38.6240985,-8.9800469],[-38.6407103,-8.9872682],[-38.6725158,-8.9739755],[-38.6892326,-8.9473956],[-38.6936588,-8.9029688],[-38.7065435,-8.8622606],[-38.7396837,-8.8448477],[-38.8040699,-8.7891811],[-38.8681044,-8.7838654],[-38.9519332,-8.8046682],[-38.977432,-8.7930867],[-38.9919113,-8.7675519],[-39.0375772,-8.7346909],[-39.1439462,-8.7125191],[-39.1687128,-8.6915045],[-39.200781,-8.7109876],[-39.234268,-8.7053364],[-39.2454926,-8.6841059],[-39.2478833,-8.6249988],[-39.2634051,-8.6152185],[-39.2751598,-8.576825],[-39.2932156,-8.5606292],[-39.3451437,-8.5585006],[-39.3797936,-8.5328206],[-39.4160408,-8.5421279],[-39.4354904,-8.5633018],[-39.4856967,-8.5964458],[-39.5186123,-8.6039111],[-39.5685749,-8.6366513],[-39.6100263,-8.6572107],[-39.6911317,-8.6623129],[-39.6930366,-8.680512],[-39.673824,-8.7454614],[-39.6746292,-8.7871572],[-39.6931964,-8.7986757],[-39.7477853,-8.794041],[-39.7887962,-8.8191096],[-39.8227319,-8.8135158],[-39.8929577,-8.828794],[-39.9012593,-8.8641588],[-39.8794186,-8.9019086],[-39.8734564,-8.9340387],[-39.8888191,-8.9658368],[-39.9580347,-9.0485916],[-39.9960306,-9.0609582],[-40.0655631,-9.0630652],[-40.0735397,-9.0753621],[-40.1298949,-9.1103046],[-40.1597208,-9.1078733],[-40.2011193,-9.0684658],[-40.2478641,-9.0577378],[-40.2788467,-9.0945385],[-40.294012,-9.1520678],[-40.2861727,-9.1856114],[-40.3077871,-9.2713207],[-40.3373376,-9.335068],[-40.3337541,-9.3505383],[-40.3563971,-9.3769943],[-40.3912784,-9.3721668],[-40.4181453,-9.3520533],[-40.4358983,-9.3621587],[-40.4538185,-9.4035174],[-40.4741747,-9.4207922],[-40.5107266,-9.4071789],[-40.5408152,-9.4240433],[-40.5557585,-9.4579381],[-40.6358627,-9.4810228],[-40.6813218,-9.467221],[-40.7221786,-9.4459485],[-40.7672889,-9.4457041],[-40.7649756,-9.4132164],[-40.7430889,-9.4029455],[-40.7464789,-9.3710522],[-40.7372865,-9.3368708],[-40.7564219,-9.3150323],[-40.7394418,-9.2965887],[-40.7200882,-9.3058967],[-40.6800885,-9.2592117],[-40.6945004,-9.2334556],[-40.6698732,-9.1861325],[-40.6673957,-9.1590592],[-40.685094,-9.1376102],[-40.7098893,-9.140881],[-40.7772606,-9.1006684],[-40.804104,-9.0983359],[-40.820067,-9.0812587],[-40.8252311,-9.0381866],[-40.8519585,-8.9825849],[-40.8515959,-8.952499],[-40.8812337,-8.9156278],[-40.9030382,-8.8586189],[-40.9272768,-8.8358909],[-40.9463832,-8.8449969],[-40.9790937,-8.8234171],[-41.0212409,-8.8435609],[-41.0249601,-8.8077274],[-41.0362345,-8.7858759],[-41.1033511,-8.780443],[-41.1289892,-8.7433931],[-41.1329,-8.7043243],[-41.1764047,-8.7111943],[-41.2269785,-8.7047021],[-41.2815376,-8.7361004],[-41.3343516,-8.7276615],[-41.3583362,-8.7076202],[-41.3837701,-8.7094888],[-41.3966571,-8.7296582],[-41.4242667,-8.8025554],[-41.4346841,-8.799096],[-41.4721841,-8.8431145],[-41.4878434,-8.8439034],[-41.5110501,-8.8776121],[-41.531346,-8.9277042],[-41.5700566,-8.9550295],[-41.6057947,-8.9574039],[-41.6334052,-8.9860073],[-41.6694039,-8.9900791],[-41.6887708,-9.0139549],[-41.7236031,-9.0135402],[-41.7308218,-9.0279572],[-41.732659,-9.0877254],[-41.7430468,-9.1038266],[-41.8000703,-9.1480266],[-41.8001263,-9.1651616],[-41.8198734,-9.1890012],[-41.8379658,-9.242272],[-41.8705206,-9.2374314],[-41.9247682,-9.277797],[-41.9722662,-9.2486381],[-41.9999053,-9.2659722],[-42.0186882,-9.250516],[-42.0665857,-9.255986],[-42.0950446,-9.2785611],[-42.1419524,-9.2881292],[-42.1794896,-9.2852662],[-42.2064354,-9.2927815],[-42.2436577,-9.2888567],[-42.2689127,-9.3104468],[-42.3160766,-9.3166123],[-42.3258774,-9.3334115],[-42.357049,-9.3525645],[-42.3646685,-9.3820875],[-42.4184943,-9.4093633],[-42.4282776,-9.4397829],[-42.4517707,-9.4621032],[-42.4890689,-9.4620372],[-42.4930918,-9.4949004],[-42.5222724,-9.503027],[-42.5548256,-9.4963025],[-42.5921064,-9.5002821],[-42.6217206,-9.5413375],[-42.6799174,-9.5491491],[-42.7122225,-9.5302284],[-42.7204159,-9.5605119],[-42.7577491,-9.5892803],[-42.7699572,-9.6191821],[-42.8205528,-9.6192304],[-42.8281932,-9.5605212],[-42.8479725,-9.5496571],[-42.8767235,-9.5616237],[-42.9040163,-9.5267542],[-42.9462488,-9.5184131],[-42.9628922,-9.4570528],[-42.9571153,-9.4324125],[-42.9868297,-9.4016072],[-43.0579143,-9.4147616],[-43.0666099,-9.3940476],[-43.161524,-9.3792501],[-43.1739285,-9.4112239],[-43.1938597,-9.4207223],[-43.2142901,-9.3996483],[-43.2851174,-9.420028],[-43.2997169,-9.3945209],[-43.3363259,-9.3685182],[-43.3535557,-9.3689557],[-43.3764222,-9.3489049],[-43.3951776,-9.3142949],[-43.4381286,-9.2661378],[-43.4690445,-9.2608103],[-43.4975271,-9.2725256],[-43.5371418,-9.3074732],[-43.5790266,-9.3203902],[-43.6216326,-9.3715377],[-43.6891438,-9.4196828],[-43.7514198,-9.4340724],[-43.7842477,-9.4547729],[-43.818433,-9.4942419],[-43.8525813,-9.5621384],[-43.8415459,-9.586048],[-43.8419522,-9.6374276],[-43.8268377,-9.6495304],[-43.7972603,-9.6964973],[-43.7976627,-9.7276804],[-43.7849218,-9.762385],[-43.7615684,-9.7778815],[-43.6972554,-9.8043009],[-43.653245,-9.8390553],[-43.6774485,-9.8865278],[-43.7090353,-9.9132195],[-43.6895646,-9.9390651],[-43.6969008,-9.9740926],[-43.6663439,-9.9895402],[-43.6694806,-10.0307552],[-43.6928587,-10.0523953],[-43.6909514,-10.0727709],[-43.7592285,-10.0746052],[-43.7731135,-10.0987842],[-43.7657611,-10.1275954],[-43.7848162,-10.191678],[-43.8372651,-10.2500682],[-43.8382919,-10.304626],[-43.8950961,-10.3544907],[-43.9147933,-10.3841549],[-43.9143863,-10.419915],[-43.9367348,-10.4361303],[-43.9769335,-10.4313765],[-44.0180676,-10.405147],[-44.0358667,-10.4354256],[-44.0258437,-10.4754707],[-44.0510104,-10.5062386],[-44.0721137,-10.5799277],[-44.1106216,-10.597196],[-44.1282889,-10.6314873],[-44.1655401,-10.6429012],[-44.2086475,-10.6153242],[-44.2495236,-10.62778],[-44.2829095,-10.6070907],[-44.3145472,-10.557363],[-44.3492852,-10.5524812],[-44.3980737,-10.6058781],[-44.4636318,-10.6152568],[-44.4767367,-10.6393046],[-44.5005052,-10.6497019],[-44.5300329,-10.6449345],[-44.5468098,-10.6301286],[-44.5849044,-10.6293509],[-44.6127634,-10.666757],[-44.6666217,-10.6823422],[-44.6613216,-10.7326943],[-44.6676847,-10.7600566],[-44.6872112,-10.7692051],[-44.7145743,-10.7617251],[-44.7574491,-10.7876634],[-44.7589257,-10.8048461],[-44.7880619,-10.8085216],[-44.8103231,-10.8465842],[-44.8083291,-10.8661495],[-44.8471491,-10.901088],[-44.8638008,-10.8852263],[-44.9312179,-10.9287563],[-44.9950448,-10.8838946],[-45.0165971,-10.8845991],[-45.0500021,-10.8521443],[-45.0732357,-10.8404226],[-45.1052963,-10.84682],[-45.2480519,-10.8219674],[-45.268466,-10.7762298],[-45.3223736,-10.7602651],[-45.358219,-10.7322075],[-45.3691162,-10.6799495],[-45.385216,-10.6516326],[-45.4188325,-10.6438196],[-45.4373282,-10.6155663],[-45.436793,-10.5767735],[-45.4461612,-10.5623236],[-45.4390528,-10.5222931],[-45.4472563,-10.507423],[-45.4002689,-10.4630743],[-45.3959943,-10.4450252],[-45.4244966,-10.4264902],[-45.4257722,-10.3702837],[-45.4846518,-10.304898],[-45.5223538,-10.2766536],[-45.5261867,-10.2369276],[-45.5508178,-10.2222808],[-45.5716489,-10.1809398],[-45.5674564,-10.1395225],[-45.6031761,-10.1079822],[-45.6487641,-10.127334],[-45.6693055,-10.1453653],[-45.6995272,-10.1568273],[-45.6995761,-10.2596862],[-45.7268896,-10.3125357],[-45.7981846,-10.3232473],[-45.8206429,-10.457259],[-45.8708973,-10.5032789],[-45.9292229,-10.5216007],[-45.9746323,-10.5518698],[-46.0607652,-10.6001785],[-46.1272996,-10.6204473],[-46.1497049,-10.6359108],[-46.1607629,-10.659439],[-46.1503463,-10.691554],[-46.1651513,-10.7224792],[-46.195922,-10.745224],[-46.206199,-10.8004666],[-46.2264451,-10.7829371],[-46.260537,-10.8120374],[-46.2672663,-10.9348023],[-46.3415579,-10.9390123],[-46.4661796,-11.1337357],[-46.5522029,-11.262799],[-46.5764646,-11.3420207],[-46.5683079,-11.3715657],[-46.5319213,-11.3748773],[-46.5240555,-11.4636343],[-46.4404346,-11.520789],[-46.3481413,-11.5066007],[-46.2504813,-11.536689],[-46.2093463,-11.5853507],[-46.1043079,-11.6079673],[-46.1073456,-11.625734],[-46.1444858,-11.6243474],[-46.1572177,-11.6514962],[-46.2142962,-11.6427527],[-46.2360793,-11.610525],[-46.3043291,-11.6061903],[-46.3506712,-11.6204826],[-46.343791,-11.6551257],[-46.3077347,-11.6864407],[-46.3423999,-11.7374137],[-46.3785453,-11.7485209],[-46.3737917,-11.7663207],[-46.3436773,-11.7600875],[-46.337911,-11.814101],[-46.3721335,-11.8299619],[-46.3807875,-11.8615878],[-46.3706583,-11.8895899],[-46.3530272,-11.8843192],[-46.3067835,-11.9137471],[-46.2880029,-11.9096549],[-46.2477131,-11.9192975],[-46.1951004,-11.904136],[-46.2025928,-11.9233524],[-46.2330576,-11.9364818],[-46.3154903,-11.941993],[-46.3648267,-11.9807722],[-46.3969376,-12.0139181],[-46.4448951,-12.0261783],[-46.4525443,-12.0501117],[-46.3844223,-12.0517563],[-46.3980347,-12.0894981],[-46.3711652,-12.0997193],[-46.3715438,-12.1232291],[-46.3980695,-12.1627045],[-46.3810937,-12.1810752],[-46.366521,-12.215083],[-46.3828769,-12.2552194],[-46.3695687,-12.2674682],[-46.3843873,-12.2945067],[-46.3491463,-12.2991233],[-46.3563495,-12.332222],[-46.3487602,-12.3518799],[-46.3000205,-12.3637318],[-46.2898836,-12.376653],[-46.3248555,-12.4075111],[-46.3370353,-12.4530633],[-46.3155489,-12.4634304],[-46.3100667,-12.4296701],[-46.2904543,-12.416632],[-46.2638259,-12.4602543],[-46.2659518,-12.4827186],[-46.2508606,-12.502217],[-46.1985502,-12.5036282]]],"bbox":[-46.5764646,-18.3312954,-37.3491581,-8.5328206]}
