{"type":"Topology","objects":{"geometrias":{"type":"GeometryCollection","geometries":[{"type":"MultiPolygon","arcs":[[[0]],[[1]]],"properties":{"code_state":32,"code_region":3,"name_state":"Espírito Santo","abbrev_state":"ES","name_region":"Sudeste","year":2020}}]}},"arcs":[[[-41.1895357,-19.7462825],[-41.1746414,-19.7672385],[-41.1641051,-19.8063868],[-41.1840042,-19.8488244],[-41.1851882,-19.8899338],[-41.2066347,-19.9040544],[-41.2280447,-19.9049851],[-41.2444702,-19.9373418],[-41.2726601,-19.9424386],[-41.3008581,-19.9365254],[-41.311799,-19.9724195],[-41.3091067,-20.0163706],[-41.3185297,-20.0415132],[-41.3335563,-20.0588396],[-41.338194,-20.0881176],[-41.349135,-20.1095202],[-41.3519334,-20.1311533],[-41.3618916,-20.1420781],[-41.3821145,-20.1888131],[-41.4090918,-20.1976994],[-41.4111404,-20.2073696],[-41.7567537,-20.206866],[-41.763632,-20.217973],[-41.7805008,-20.2819885],[-41.7799832,-20.292293],[-41.8030864,-20.2992043],[-41.8418651,-20.3265497],[-41.8595116,-20.3728426],[-41.8453797,-20.3862291],[-41.8343104,-20.4114577],[-41.8033904,-20.4222379],[-41.7994356,-20.4772833],[-41.8254228,-20.4832588],[-41.8042989,-20.5384028],[-41.8283912,-20.5572962],[-41.8509385,-20.6212613],[-41.8205019,-20.6277853],[-41.8132318,-20.6532647],[-41.8482132,-20.6869247],[-41.8635136,-20.7419435],[-41.8771177,-20.7646229],[-41.852166,-20.7637593],[-41.8324432,-20.7818772],[-41.8288264,-20.7943438],[-41.7991687,-20.8053185],[-41.7667418,-20.8019956],[-41.7398545,-20.8175037],[-41.7363089,-20.8359131],[-41.7458898,-20.8524366],[-41.7390006,-20.8652135],[-41.715697,-20.8718246],[-41.7223679,-20.9232528],[-41.73389,-20.9431358],[-41.7174055,-20.9530449],[-41.7116275,-20.9805924],[-41.7214215,-21.0020133],[-41.7145453,-21.0154083],[-41.7252015,-21.033078],[-41.7161889,-21.047051],[-41.7362793,-21.1014302],[-41.7183532,-21.1164195],[-41.6884281,-21.1221734],[-41.6125895,-21.1570009],[-41.5867479,-21.1494743],[-41.5782375,-21.1697453],[-41.5560886,-21.1723936],[-41.5482883,-21.1832995],[-41.5115501,-21.1758363],[-41.4603557,-21.2087711],[-41.435249,-21.2157019],[-41.4164778,-21.2001205],[-41.388013,-21.1989007],[-41.3161839,-21.2135457],[-41.303455,-21.2285988],[-41.2767152,-21.2402293],[-41.2413685,-21.2203603],[-41.2148521,-21.2372997],[-41.1937387,-21.2440657],[-41.1633039,-21.2428731],[-41.0892187,-21.2195207],[-41.0593193,-21.2346468],[-41.0445825,-21.2530586],[-41.0249052,-21.2458027],[-41.0047404,-21.2510999],[-40.9957952,-21.2861898],[-40.9776179,-21.2851351],[-40.9579091,-21.301782],[-40.9621732,-21.266684],[-40.9529703,-21.2352966],[-40.9146039,-21.1727357],[-40.8785426,-21.1402824],[-40.8584235,-21.1276302],[-40.8297976,-21.0475971],[-40.8134908,-21.0353602],[-40.8048991,-21.0024585],[-40.8110689,-20.9862362],[-40.8085605,-20.9581746],[-40.7949905,-20.9251957],[-40.7583802,-20.8794797],[-40.7553202,-20.8595262],[-40.739539,-20.8455659],[-40.7202129,-20.8465796],[-40.6533185,-20.8058727],[-40.6291267,-20.8186801],[-40.6078171,-20.8059923],[-40.5833074,-20.8027222],[-40.5760626,-20.7741894],[-40.5567203,-20.7464715],[-40.5341728,-20.7396697],[-40.5118873,-20.6937142],[-40.4693947,-20.6326868],[-40.4552696,-20.6233914],[-40.4344093,-20.6363482],[-40.4037841,-20.5976506],[-40.3935813,-20.5600929],[-40.3520228,-20.4955754],[-40.34656,-20.4762802],[-40.3229425,-20.429427],[-40.3196594,-20.406002],[-40.2966188,-20.3632253],[-40.2832585,-20.3531435],[-40.2713959,-20.3232054],[-40.2900396,-20.3076378],[-40.2891235,-20.2837799],[-40.2584728,-20.2658397],[-40.2343925,-20.2763024],[-40.2157149,-20.2349098],[-40.1989444,-20.2168336],[-40.1838238,-20.1672882],[-40.1815522,-20.1345773],[-40.1719635,-20.1072364],[-40.1738309,-20.0749044],[-40.1919114,-20.0543449],[-40.1836309,-20.0397075],[-40.1589145,-20.0358822],[-40.1350262,-19.9595744],[-40.1360006,-19.9415156],[-40.1022134,-19.9213309],[-40.0829838,-19.8759643],[-40.0691033,-19.8619978],[-40.0576515,-19.8365902],[-40.0536755,-19.8128454],[-40.0299893,-19.7832651],[-39.988981,-19.7437162],[-39.9394519,-19.7046491],[-39.9043311,-19.6828791],[-39.8496964,-19.6601677],[-39.8108024,-19.6496129],[-39.8090039,-19.63416],[-39.7784822,-19.5763782],[-39.7358812,-19.4809558],[-39.7010639,-19.3861555],[-39.692694,-19.3402241],[-39.6891196,-19.295111],[-39.6914533,-19.2732265],[-39.7104011,-19.1670844],[-39.7356351,-18.9775905],[-39.7427941,-18.9360835],[-39.7497524,-18.8380728],[-39.7460078,-18.6962597],[-39.7406804,-18.6504792],[-39.7283871,-18.6110842],[-39.7306515,-18.5857789],[-39.7282224,-18.518274],[-39.7147528,-18.4619453],[-39.6909376,-18.3953446],[-39.6660146,-18.3332183],[-39.6889474,-18.3208315],[-40.2223506,-17.9804174],[-40.2553548,-17.9717994],[-40.2909945,-17.9518495],[-40.3234355,-17.9389442],[-40.3339556,-17.9273598],[-40.3678286,-17.9226325],[-40.3864517,-17.9284381],[-40.4174187,-17.9270343],[-40.4450547,-17.9188255],[-40.462738,-17.9282124],[-40.4841295,-17.9086447],[-40.5033329,-17.9106792],[-40.5168219,-17.8944233],[-40.5679302,-17.9160293],[-40.5847119,-17.9181666],[-40.5871613,-17.9390208],[-40.6095329,-17.9376588],[-40.621884,-17.960566],[-40.6261519,-17.9910539],[-40.6460308,-17.9935612],[-40.6594357,-18.0109292],[-40.6905241,-18.0127127],[-40.7036834,-18.023727],[-40.725769,-18.0012172],[-40.7507676,-18.0099088],[-40.7717685,-18.0033881],[-40.7709306,-17.986422],[-40.8081616,-17.9520472],[-40.8305529,-17.95418],[-40.8631315,-17.9883169],[-40.8778643,-17.9817258],[-40.8869894,-18.000641],[-40.7733033,-18.1075627],[-40.7714961,-18.15594],[-40.7937126,-18.1601538],[-40.8052169,-18.1529703],[-40.8450758,-18.149813],[-40.8775551,-18.1194293],[-40.8890108,-18.1240161],[-40.9092833,-18.1148302],[-40.9322096,-18.1364835],[-40.9500038,-18.1292866],[-40.9545374,-18.1544944],[-40.9741926,-18.142105],[-40.9870344,-18.146774],[-40.9932169,-18.1662347],[-41.0145895,-18.1575794],[-41.0560846,-18.1666211],[-41.0665525,-18.1809131],[-41.0927345,-18.1954013],[-41.1044479,-18.2132768],[-41.0971916,-18.2565812],[-41.1589207,-18.3082435],[-41.1474978,-18.3533812],[-41.1481022,-18.3791507],[-41.1595989,-18.3814586],[-41.160448,-18.4027983],[-41.1807981,-18.4326826],[-41.1730831,-18.4427969],[-41.0230287,-18.4572609],[-41.0158793,-18.4767544],[-41.0419885,-18.6054031],[-41.0508923,-18.634154],[-41.0052269,-18.667277],[-40.9520614,-18.6808293],[-40.9414976,-18.6892947],[-40.9400042,-18.7702862],[-40.9167726,-18.8155434],[-40.9380273,-18.8316986],[-40.9639135,-18.8411701],[-41.0191307,-18.837302],[-41.0837074,-18.8365836],[-41.1105065,-18.8389374],[-41.1341302,-18.7960413],[-41.1474779,-18.7980842],[-41.2325444,-18.7972788],[-41.2454775,-18.8219591],[-41.237822,-18.834765],[-41.2429684,-18.8545365],[-41.2301038,-18.8583706],[-41.2147844,-18.8776398],[-41.1990073,-18.8633344],[-41.1663607,-18.8582317],[-41.1529583,-18.8866091],[-41.1268471,-18.8945065],[-41.1036739,-18.9340607],[-41.0646541,-18.9452654],[-41.0614954,-18.9676902],[-41.0322203,-18.9908474],[-41.0617701,-19.0063175],[-41.0717907,-19.0238478],[-41.0655566,-19.0513321],[-41.0538522,-19.0688643],[-41.0126044,-19.0758017],[-41.0087437,-19.0993299],[-40.9922807,-19.1019206],[-40.9561158,-19.129113],[-40.9405567,-19.1633044],[-40.9383542,-19.1833712],[-40.9264989,-19.1885475],[-40.9310227,-19.2224219],[-40.9415507,-19.2301311],[-40.9217079,-19.2701228],[-40.9439683,-19.2786701],[-40.9327768,-19.296053],[-40.9076927,-19.3088127],[-40.9221602,-19.320177],[-40.9384679,-19.3460655],[-40.9281839,-19.3679063],[-40.9304484,-19.3841516],[-40.9507131,-19.3929999],[-40.96792,-19.4304373],[-40.9502249,-19.4581991],[-40.9535719,-19.4734409],[-40.9882782,-19.5079403],[-41.0190737,-19.5048815],[-41.0466927,-19.4873997],[-41.0409019,-19.5159214],[-41.0449672,-19.5385621],[-41.0368602,-19.570457],[-41.0719177,-19.5844082],[-41.0993102,-19.6042054],[-41.1086014,-19.6394668],[-41.1278053,-19.641611],[-41.1386263,-19.6587247],[-41.1684728,-19.6722227],[-41.1768883,-19.6986979],[-41.1743057,-19.7156371],[-41.1895357,-19.7462825]],[[-29.3384236,-20.486783],[-29.3441611,-20.5102515],[-29.33053,-20.5221671],[-29.2991521,-20.5189343],[-29.3384236,-20.486783]]],"bbox":[-41.8771177,-21.301782,-29.2991521,-17.8944233]}
