{"type":"Topology","objects":{"geometrias":{"type":"GeometryCollection","geometries":[{"type":"Polygon","arcs":[[0]],"properties":{"code_state":11,"code_region":1,"name_state":"Rondônia","abbrev_state":"RO","name_region":"Norte","year":2020}}]}},"arcs":[[[-65.3814996,-10.4290742],[-65.4296351,-10.482896],[-65.3978282,-10.589466],[-65.4164689,-10.6207745],[-65.403468,-10.6429834],[-65.3719659,-10.6481824],[-65.3496676,-10.6705476],[-65.3447432,-10.7695869],[-65.3669649,-10.7962563],[-65.3203903,-10.8223343],[-65.2765513,-10.8693553],[-65.2666125,-10.9218079],[-65.2858299,-10.9276718],[-65.250859,-10.9845455],[-65.2948608,-11.0236146],[-65.2834712,-11.0577945],[-65.2888895,-11.0942523],[-65.3205793,-11.1021881],[-65.3564715,-11.1270703],[-65.3634955,-11.1472658],[-65.3497207,-11.1878909],[-65.3613319,-11.251356],[-65.3377137,-11.3132578],[-65.2986139,-11.3160857],[-65.3354111,-11.3549453],[-65.3049193,-11.5016],[-65.2250032,-11.5164466],[-65.2140254,-11.5480437],[-65.2345274,-11.5704471],[-65.229999,-11.6231694],[-65.2179133,-11.6520886],[-65.2569675,-11.6964013],[-65.2506098,-11.7213743],[-65.2065821,-11.7485675],[-65.1829733,-11.7217035],[-65.1237309,-11.7197437],[-65.0905256,-11.7077774],[-65.0597243,-11.7906782],[-65.0706948,-11.8691097],[-65.0149985,-11.9041545],[-65.0303604,-11.9502463],[-65.0259769,-11.9985952],[-65.0005559,-11.9933727],[-64.9841679,-12.0143712],[-64.9483889,-11.9934266],[-64.9170257,-12.0283831],[-64.8822808,-12.0133457],[-64.8395868,-12.0106793],[-64.8126942,-12.0448715],[-64.8094972,-12.0939515],[-64.7884731,-12.0857891],[-64.7575025,-12.1123057],[-64.7091954,-12.0871034],[-64.6983588,-12.103594],[-64.7177993,-12.1424671],[-64.7129448,-12.1735799],[-64.6162191,-12.2147173],[-64.568609,-12.2198129],[-64.5522433,-12.2419466],[-64.5127895,-12.2228731],[-64.4928593,-12.2942597],[-64.5130783,-12.3438249],[-64.499413,-12.3672952],[-64.4600271,-12.3871505],[-64.4061676,-12.4470481],[-64.3491631,-12.4599362],[-64.294721,-12.4578168],[-64.2844442,-12.5031752],[-64.2355565,-12.456125],[-64.1967732,-12.4728443],[-64.1728845,-12.4665134],[-64.1574457,-12.5138771],[-64.1338805,-12.4764538],[-64.0988867,-12.4855432],[-64.0401616,-12.5151395],[-64.0005519,-12.5030243],[-63.9529725,-12.5317711],[-63.8978016,-12.499692],[-63.9007176,-12.4819207],[-63.873104,-12.4470829],[-63.8339707,-12.4634295],[-63.7863035,-12.427945],[-63.7337167,-12.4386224],[-63.673059,-12.4631851],[-63.6221145,-12.4728773],[-63.613976,-12.4852736],[-63.5504909,-12.508437],[-63.5017385,-12.5673236],[-63.4356905,-12.5653058],[-63.4373021,-12.584658],[-63.4009479,-12.6362102],[-63.2955445,-12.6818567],[-63.2397053,-12.6774259],[-63.1974907,-12.630317],[-63.164479,-12.6157206],[-63.1123223,-12.6590658],[-63.0828512,-12.7119784],[-63.0545785,-12.7311315],[-63.033826,-12.7807152],[-63.0103267,-12.8083057],[-63.0010223,-12.8418668],[-62.9429915,-12.8546105],[-62.9213543,-12.8408615],[-62.8917403,-12.8613746],[-62.8702099,-12.9106179],[-62.8033008,-12.9450797],[-62.8089019,-12.9621374],[-62.7790975,-13.0095735],[-62.7340206,-13.0218668],[-62.6606879,-12.9694718],[-62.6291779,-12.9958121],[-62.6125725,-13.0412954],[-62.5471599,-13.0739935],[-62.5238183,-13.0655029],[-62.5026304,-13.0831629],[-62.4655476,-13.0771978],[-62.4139913,-13.1283821],[-62.3519615,-13.1432941],[-62.3167712,-13.1344681],[-62.2993497,-13.1505528],[-62.2459304,-13.1451627],[-62.2450118,-13.1208414],[-62.2147888,-13.1113449],[-62.1909339,-13.1538296],[-62.1695715,-13.1342045],[-62.1429045,-13.1611636],[-62.1197091,-13.1535328],[-62.1090708,-13.2190394],[-62.1156843,-13.2584652],[-62.0690121,-13.2958589],[-62.0032061,-13.3654125],[-61.9804882,-13.3654943],[-61.9143466,-13.4337319],[-61.887426,-13.4407745],[-61.8832099,-13.4972993],[-61.8688527,-13.5282221],[-61.8336515,-13.5392924],[-61.817124,-13.5274366],[-61.7573476,-13.5405747],[-61.6938441,-13.5080797],[-61.6514522,-13.5187113],[-61.585621,-13.5006257],[-61.5082567,-13.5479382],[-61.4699239,-13.5552502],[-61.4295679,-13.5454079],[-61.3897886,-13.5197691],[-61.3505155,-13.5211574],[-61.2883166,-13.4828576],[-61.2752088,-13.5060564],[-61.2483441,-13.4962741],[-61.2217305,-13.530155],[-61.1712922,-13.5106087],[-61.1532007,-13.5273067],[-61.1034016,-13.5157539],[-61.0877584,-13.4920938],[-61.0411515,-13.5077103],[-61.0149244,-13.4875362],[-61.0056227,-13.5502805],[-60.9674203,-13.5368945],[-60.9338909,-13.5407095],[-60.8798406,-13.6175279],[-60.8285899,-13.629501],[-60.8100666,-13.6552746],[-60.7705337,-13.6651065],[-60.7695385,-13.6842053],[-60.7139468,-13.6759978],[-60.6860379,-13.6252274],[-60.6347881,-13.5745178],[-60.5776508,-13.5652277],[-60.5357855,-13.537301],[-60.5316656,-13.5180899],[-60.4864221,-13.4941821],[-60.4320021,-13.4884356],[-60.3879196,-13.4546951],[-60.3793059,-13.4153231],[-60.3734795,-13.324443],[-60.3248107,-13.2504877],[-60.3297838,-13.2354686],[-60.3038368,-13.1783698],[-60.2786128,-13.1596137],[-60.2829916,-13.0805523],[-60.2413314,-13.0384575],[-60.1833444,-12.967629],[-60.1171653,-12.9595556],[-60.0791962,-12.873926],[-60.0828176,-12.852636],[-60.0587059,-12.786211],[-60.0750583,-12.7332327],[-60.0557303,-12.7036176],[-60.059073,-12.6635501],[-60.0033205,-12.5923372],[-59.9774152,-12.6065175],[-59.9476548,-12.5992652],[-59.8960537,-12.5364446],[-59.8989333,-12.5030734],[-59.84416,-12.4671729],[-59.8425487,-12.424849],[-59.7929413,-12.3457819],[-59.7743574,-12.3409559],[-59.8867969,-12.245087],[-59.9017147,-12.2238791],[-59.8998038,-12.1172227],[-59.9292763,-12.0784547],[-59.9619968,-12.0563674],[-59.9713581,-11.9699456],[-59.9857972,-11.9120801],[-60.0068898,-11.894683],[-60.0503863,-11.8978671],[-60.0766345,-11.8852893],[-60.1033601,-11.8191718],[-60.1073891,-11.7489734],[-60.1216618,-11.7121038],[-60.1148844,-11.591462],[-60.0574695,-11.542096],[-60.0328028,-11.4995521],[-59.9854077,-11.4693409],[-59.9762413,-11.4392225],[-59.9344129,-11.4236675],[-59.9206343,-11.3980076],[-59.9171931,-11.3384346],[-59.9277738,-11.3104346],[-59.9594679,-11.2947339],[-59.9796883,-11.2395295],[-59.9950224,-11.148203],[-60.0750227,-11.1050246],[-60.1776041,-11.0992539],[-60.1914692,-11.1141134],[-60.2808334,-11.0915305],[-60.301248,-11.0571521],[-60.3419726,-11.0826337],[-60.3479707,-11.1090363],[-60.3915541,-11.0937926],[-60.4114906,-11.0467759],[-60.4296987,-11.0374942],[-60.4600501,-10.9898562],[-61.0005934,-10.988351],[-61.0005949,-10.9922393],[-61.5502579,-10.9860947],[-61.5300873,-10.9790195],[-61.5193336,-10.891992],[-61.5251489,-10.8558039],[-61.5099966,-10.8368279],[-61.5108965,-10.7936807],[-61.4764168,-10.7677946],[-61.4763671,-10.722504],[-61.4993935,-10.6986176],[-61.4844843,-10.6737666],[-61.4762363,-10.6076634],[-61.4808157,-10.4877483],[-61.4617928,-10.4199046],[-61.5031111,-10.3759259],[-61.5161645,-10.3344363],[-61.5767244,-10.2485762],[-61.5740051,-10.2089593],[-61.5577505,-10.1823138],[-61.6012364,-10.1500901],[-61.5787102,-10.0792444],[-61.5843749,-10.0596093],[-61.5558735,-10.0389514],[-61.5312021,-9.9898503],[-61.5249818,-9.9065757],[-61.5079136,-9.8610818],[-61.5249134,-9.7957303],[-61.547356,-9.7875415],[-61.5315013,-9.7399119],[-61.5324293,-9.7117765],[-61.505272,-9.6913819],[-61.4768074,-9.628723],[-61.5030326,-9.615345],[-61.4949271,-9.5849287],[-61.5080429,-9.540463],[-61.5495654,-9.5152171],[-61.5817187,-9.4591265],[-61.5505387,-9.4147035],[-61.5633169,-9.3781567],[-61.6259281,-9.3630117],[-61.5996169,-9.2560351],[-61.5683872,-9.237088],[-61.5280945,-9.2311652],[-61.5236433,-9.1790181],[-61.5553819,-9.1314969],[-61.555755,-9.0924026],[-61.5110619,-8.9761931],[-61.469214,-8.9201143],[-61.5115045,-8.8636406],[-61.5137215,-8.8369518],[-61.5683676,-8.8010824],[-61.6060278,-8.794714],[-61.6295527,-8.7529562],[-61.6264691,-8.7288535],[-61.6735812,-8.7050168],[-61.7053617,-8.7075264],[-61.741854,-8.6951929],[-61.7488815,-8.7237702],[-61.7746056,-8.7482289],[-61.8412499,-8.7394106],[-61.8433013,-8.7794091],[-61.8610249,-8.8036155],[-61.8597486,-8.8529733],[-61.9381066,-8.8814117],[-61.97914,-8.8732446],[-62.031061,-8.7997101],[-62.1249717,-8.8016711],[-62.1550309,-8.7396423],[-62.1488018,-8.7183089],[-62.165087,-8.6793938],[-62.2005306,-8.6442928],[-62.1746915,-8.628203],[-62.1837005,-8.5989665],[-62.2688885,-8.5757586],[-62.2943077,-8.6054408],[-62.3357776,-8.6094846],[-62.3258047,-8.5637074],[-62.3373587,-8.5166389],[-62.3660512,-8.4935617],[-62.3692809,-8.4461191],[-62.3608035,-8.3985493],[-62.3840279,-8.3775558],[-62.4245582,-8.374985],[-62.4654746,-8.33974],[-62.5184725,-8.3847382],[-62.539557,-8.3581095],[-62.5853879,-8.2718806],[-62.6000575,-8.2722387],[-62.6550016,-8.2290564],[-62.6598885,-8.1996336],[-62.6866642,-8.1737744],[-62.6730277,-8.1453106],[-62.6922801,-8.0929083],[-62.7439725,-8.0452861],[-62.8099965,-8.0253396],[-62.8328333,-7.9943716],[-62.8666166,-7.9758683],[-63.1183827,-7.9771072],[-63.6212491,-7.9765317],[-63.621779,-8.0296108],[-63.6670003,-8.0816033],[-63.6624486,-8.1011713],[-63.6934211,-8.1583487],[-63.7415348,-8.1900741],[-63.7485628,-8.2078652],[-63.7227614,-8.249499],[-63.7465624,-8.2701692],[-63.7735083,-8.3207328],[-63.7912313,-8.3332153],[-63.8253386,-8.3061526],[-63.8707594,-8.2888196],[-63.9108358,-8.3285248],[-63.9456197,-8.338933],[-63.9453732,-8.3878261],[-63.9769546,-8.4097397],[-63.9408384,-8.452264],[-63.9731772,-8.4784472],[-63.9437881,-8.5266044],[-63.9456204,-8.550498],[-63.9245687,-8.5755254],[-63.9459539,-8.6094853],[-63.9862097,-8.5856339],[-64.0164261,-8.667682],[-64.0431747,-8.7119098],[-64.0947671,-8.7283635],[-64.1245948,-8.7167138],[-64.1430671,-8.7430315],[-64.1447623,-8.7764473],[-64.129459,-8.8051627],[-64.1582033,-8.8431675],[-64.1417669,-8.9450507],[-64.2332051,-8.9923081],[-64.3113185,-8.9964708],[-64.326072,-8.9798321],[-64.3233996,-8.9288606],[-64.3799237,-8.9467351],[-64.446574,-8.9768705],[-64.5501239,-8.9782709],[-64.587961,-9.0095099],[-64.641538,-9.006646],[-64.6713762,-9.0147962],[-64.6833507,-8.9936169],[-64.7136811,-8.9938629],[-64.7611805,-9.0205834],[-64.7839641,-8.9892699],[-64.8164156,-8.98662],[-64.8705663,-9.0121936],[-64.9156801,-9.0746143],[-64.9399298,-9.1245658],[-64.9196828,-9.2202803],[-64.9628795,-9.2927766],[-65.0005153,-9.3046138],[-65.053546,-9.4021423],[-65.0889104,-9.4250804],[-65.1428806,-9.4468123],[-65.1854632,-9.4270317],[-65.1735439,-9.3854485],[-65.1961582,-9.3752629],[-65.1883246,-9.3448525],[-65.2089565,-9.3096433],[-65.2117718,-9.2789934],[-65.2466614,-9.2576636],[-65.3775134,-9.3244261],[-65.4402184,-9.3117453],[-65.4566002,-9.4012087],[-65.4320983,-9.458635],[-65.4566578,-9.4705194],[-65.5031633,-9.4699754],[-65.5556338,-9.4224552],[-65.5881079,-9.4137738],[-65.6794352,-9.4513929],[-65.6809976,-9.5004075],[-65.6960809,-9.5076713],[-65.7299672,-9.5630727],[-65.8000217,-9.5850225],[-65.8250771,-9.5300912],[-65.8482485,-9.5323243],[-65.8809081,-9.4874649],[-65.9126344,-9.4837503],[-65.9318805,-9.4475944],[-65.9703006,-9.4131601],[-66.0424116,-9.4023724],[-66.0597396,-9.4182176],[-66.1238908,-9.4087794],[-66.1736328,-9.4344187],[-66.2434147,-9.4293871],[-66.2596688,-9.4109965],[-66.3747764,-9.4263661],[-66.3924143,-9.5004801],[-66.4235776,-9.5257876],[-66.4389348,-9.55439],[-66.4949168,-9.6015832],[-66.5006134,-9.6335642],[-66.5368884,-9.6435496],[-66.5863066,-9.6735589],[-66.6241659,-9.6808192],[-66.6849453,-9.7146456],[-66.7253897,-9.7560725],[-66.7753636,-9.7530913],[-66.7805792,-9.7913933],[-66.8102531,-9.8180459],[-66.6267197,-9.8981012],[-66.5875826,-9.9003015],[-66.5588611,-9.8809502],[-66.3951909,-9.864176],[-66.313389,-9.8325715],[-66.2550757,-9.8333063],[-66.2376611,-9.8145963],[-66.2133083,-9.8342554],[-66.1950561,-9.8063093],[-66.1529391,-9.785746],[-66.1014448,-9.8033588],[-66.0711099,-9.7842972],[-66.0332195,-9.7889338],[-66.02814,-9.8066732],[-65.9741334,-9.7979149],[-65.9735213,-9.7773322],[-65.9225231,-9.7563988],[-65.9030823,-9.7668253],[-65.8713618,-9.7533886],[-65.8535809,-9.7943418],[-65.8204949,-9.7664367],[-65.80572,-9.788088],[-65.750691,-9.7774574],[-65.7188849,-9.7559534],[-65.6849694,-9.7490081],[-65.6725794,-9.7821248],[-65.6236948,-9.8359798],[-65.5969534,-9.8419106],[-65.5656275,-9.8130935],[-65.5020509,-9.7858367],[-65.5042742,-9.7487262],[-65.4898783,-9.7130291],[-65.4435232,-9.6926521],[-65.4460779,-9.6690549],[-65.3949379,-9.6857732],[-65.3568806,-9.7201732],[-65.3280707,-9.7800172],[-65.3205208,-9.814532],[-65.2873772,-9.8398634],[-65.2958042,-9.8784469],[-65.3318293,-9.9300147],[-65.3330804,-9.9656911],[-65.3200511,-10.0009559],[-65.3261626,-10.0661797],[-65.3005774,-10.1009084],[-65.3070251,-10.1649978],[-65.2899869,-10.2088499],[-65.3194156,-10.2922601],[-65.3918013,-10.3744374],[-65.3814996,-10.4290742]]],"bbox":[-66.8102531,-13.6842053,-59.7743574,-7.9758683]}
