{"type":"Topology","objects":{"geometrias":{"type":"GeometryCollection","geometries":[{"type":"Polygon","arcs":[[0]],"properties":{"code_state":43,"code_region":4,"name_state":"Rio Grande do Sul","abbrev_state":"RS","name_region":"Sul","year":2020}}]}},"arcs":[[[-56.3216425,-28.9233043],[-56.3441939,-28.9400565],[-56.3789902,-28.9480299],[-56.406336,-28.9725956],[-56.4161742,-29.0007364],[-56.3991173,-29.0173516],[-56.4131021,-29.0619185],[-56.4304202,-29.0795035],[-56.5030254,-29.0886616],[-56.5501313,-29.1166534],[-56.5887534,-29.1198128],[-56.6169245,-29.1710693],[-56.645843,-29.200294],[-56.6547606,-29.223794],[-56.6492068,-29.2549564],[-56.6645228,-29.2949909],[-56.6999653,-29.3564409],[-56.7129681,-29.3673526],[-56.758703,-29.3709046],[-56.7731516,-29.3869927],[-56.7795004,-29.4373726],[-56.7969515,-29.4490669],[-56.8220924,-29.4900248],[-56.8608157,-29.5073469],[-56.9019617,-29.5338167],[-56.9678003,-29.6017949],[-56.9711484,-29.6434064],[-57.0009237,-29.6519146],[-57.0211046,-29.6833173],[-57.0997221,-29.7483201],[-57.1319054,-29.7701601],[-57.172021,-29.7806849],[-57.2354002,-29.7807884],[-57.2978169,-29.8347292],[-57.329688,-29.8876354],[-57.3240796,-29.9217294],[-57.3281407,-29.9720368],[-57.3519807,-30.0080586],[-57.3963322,-30.0227942],[-57.4175216,-30.0383726],[-57.4537611,-30.0815588],[-57.4646043,-30.110343],[-57.5256147,-30.1513855],[-57.6033674,-30.1896711],[-57.5578464,-30.2133834],[-57.5679792,-30.252231],[-57.5508317,-30.2726194],[-57.5002731,-30.2888531],[-57.4867597,-30.2668292],[-57.4164045,-30.2779779],[-57.4213809,-30.3008757],[-57.389445,-30.3024616],[-57.3787505,-30.2794207],[-57.352036,-30.284485],[-57.3069794,-30.2623328],[-57.2845645,-30.2937221],[-57.270061,-30.2849845],[-57.2202614,-30.2892854],[-57.1962531,-30.2645065],[-57.1679137,-30.2490263],[-57.1682194,-30.1976361],[-57.1447777,-30.1716128],[-57.129165,-30.1408381],[-57.1144833,-30.1454574],[-57.0806721,-30.0934226],[-57.044805,-30.1057389],[-57.0238981,-30.0875422],[-56.9934426,-30.0857118],[-56.9555809,-30.1011449],[-56.8745412,-30.0862486],[-56.8241669,-30.0956445],[-56.8008819,-30.1211528],[-56.780271,-30.1266304],[-56.7840054,-30.1511656],[-56.7297856,-30.1717041],[-56.7083946,-30.1881321],[-56.6636787,-30.1974266],[-56.6411633,-30.2348189],[-56.6241255,-30.2465843],[-56.6076822,-30.282946],[-56.5370237,-30.3341373],[-56.4913648,-30.3981094],[-56.4621782,-30.3844822],[-56.4399785,-30.4325237],[-56.3981877,-30.4484393],[-56.4062363,-30.4686105],[-56.3892667,-30.4930602],[-56.3504861,-30.4966128],[-56.3312845,-30.5293528],[-56.2973315,-30.5262641],[-56.2789601,-30.5532644],[-56.2379619,-30.5734285],[-56.2140956,-30.6084648],[-56.1876747,-30.6046947],[-56.1718754,-30.6188294],[-56.1666943,-30.6634195],[-56.151942,-30.6804522],[-56.1507922,-30.704701],[-56.1073301,-30.7320019],[-56.0956878,-30.7540221],[-56.0727324,-30.7453832],[-56.0621349,-30.7750214],[-56.0229805,-30.7861433],[-55.9903804,-30.8664108],[-56.0076947,-30.8935271],[-56.005484,-30.9223194],[-56.0152926,-30.9445104],[-56.0070591,-30.9837524],[-56.0176399,-31.0030238],[-56.0184383,-31.0477292],[-56.0076546,-31.071737],[-55.9302837,-31.0862639],[-55.9258535,-31.0768346],[-55.8707577,-31.0715702],[-55.8552817,-31.0451157],[-55.8323066,-31.044374],[-55.807156,-31.016512],[-55.7808851,-31.0171475],[-55.7523329,-30.9985831],[-55.7243594,-30.9660351],[-55.7039537,-30.9552217],[-55.6661864,-30.9539785],[-55.6634682,-30.9331682],[-55.6421179,-30.9116009],[-55.6631488,-30.8718906],[-55.6378614,-30.8462234],[-55.5672775,-30.8454456],[-55.5635603,-30.8686611],[-55.5459085,-30.8905441],[-55.5101745,-30.9017558],[-55.5041596,-30.9247543],[-55.4783597,-30.9538495],[-55.4443563,-30.9584503],[-55.4267274,-30.9812511],[-55.4370495,-31.0047158],[-55.3872421,-31.0205731],[-55.3488292,-31.0428691],[-55.3455474,-31.0755763],[-55.3186327,-31.1451068],[-55.2896985,-31.1452773],[-55.250105,-31.2060085],[-55.2467621,-31.2522405],[-55.1741937,-31.2681749],[-55.1476319,-31.2943357],[-55.1090404,-31.307681],[-55.0744643,-31.3320897],[-55.0432115,-31.3083903],[-55.0318935,-31.2697414],[-55.0024077,-31.2692158],[-54.9828462,-31.3113966],[-54.9530712,-31.3319713],[-54.935053,-31.3564763],[-54.9406467,-31.3806458],[-54.8859789,-31.3772778],[-54.8783856,-31.3980773],[-54.8364553,-31.4419383],[-54.8048848,-31.4289888],[-54.7520227,-31.4244629],[-54.6703379,-31.4540783],[-54.5864586,-31.456553],[-54.5770731,-31.481337],[-54.5156442,-31.5101774],[-54.4729407,-31.570353],[-54.4562268,-31.6517005],[-54.1585091,-31.8735442],[-54.1405204,-31.8948926],[-54.0809081,-31.9294635],[-54.0404409,-31.8968187],[-54.0068824,-31.9125759],[-53.9632615,-31.9219603],[-53.9545796,-31.9570049],[-53.9132435,-31.9656762],[-53.8913995,-31.9956906],[-53.8572436,-31.9966804],[-53.8511367,-32.0268271],[-53.8333169,-32.055143],[-53.8066922,-32.0698594],[-53.7562909,-32.0761537],[-53.7442283,-32.1152625],[-53.7176117,-32.1530026],[-53.7113277,-32.1990057],[-53.6851896,-32.2196225],[-53.677794,-32.2585979],[-53.6428639,-32.2962995],[-53.6449773,-32.3323926],[-53.6341498,-32.34754],[-53.6449488,-32.3843371],[-53.6143752,-32.398404],[-53.6150311,-32.416573],[-53.5840398,-32.4513054],[-53.5435373,-32.479068],[-53.4709373,-32.4806894],[-53.4368959,-32.5481619],[-53.4033945,-32.5799895],[-53.3555381,-32.5905746],[-53.3388153,-32.5846223],[-53.2888051,-32.6210966],[-53.271797,-32.6052235],[-53.2455852,-32.6071117],[-53.2370648,-32.6297685],[-53.1667213,-32.648587],[-53.1283785,-32.6384631],[-53.0846437,-32.6582422],[-53.0769654,-32.6278228],[-53.0629964,-32.6180597],[-53.0201046,-32.6130717],[-53.0007997,-32.5978724],[-52.9781366,-32.4989648],[-52.9399494,-32.4748543],[-52.8924389,-32.4610807],[-52.8023888,-32.4470194],[-52.766388,-32.426221],[-52.7235563,-32.3816226],[-52.7241868,-32.3700112],[-52.7716795,-32.3526357],[-52.7901137,-32.3788209],[-52.8169514,-32.3472802],[-52.7784338,-32.2521706],[-52.7767632,-32.2306006],[-52.736366,-32.1892758],[-52.736739,-32.1686895],[-52.7188884,-32.1541562],[-52.6749516,-32.1640385],[-52.6336521,-32.1466679],[-52.6284941,-32.1620369],[-52.6566138,-32.205916],[-52.6879575,-32.2808999],[-52.6949048,-32.3179361],[-52.614973,-32.4434743],[-52.5882909,-32.5049176],[-52.5864091,-32.5306965],[-52.6116771,-32.620476],[-52.6884998,-32.7577727],[-52.7226639,-32.8328129],[-52.761257,-32.885828],[-52.8077793,-32.9105803],[-52.8674249,-32.9098804],[-52.9077896,-32.8876856],[-52.9484615,-32.8548774],[-52.9987567,-32.8018521],[-53.0041578,-32.7819173],[-53.0414155,-32.8015149],[-53.0700944,-32.8338099],[-53.1012812,-32.8219888],[-53.1239055,-32.7938378],[-53.1413716,-32.8072649],[-53.1556383,-32.8521139],[-53.1591882,-32.9050299],[-53.1544623,-32.9524869],[-53.1744375,-33.0035061],[-53.2074946,-33.0450315],[-53.2411918,-33.0761348],[-53.2601624,-33.1074109],[-53.2773734,-33.1093609],[-53.337157,-33.0825922],[-53.350704,-33.1035121],[-53.4082671,-33.1612805],[-53.4322027,-33.1621027],[-53.4696818,-33.2600809],[-53.4247745,-33.4407202],[-53.440037,-33.5188979],[-53.4656299,-33.5579681],[-53.5011438,-33.5434151],[-53.5146339,-33.5540763],[-53.5125006,-33.6026003],[-53.5339639,-33.6514051],[-53.53235,-33.6888045],[-53.439516,-33.6934614],[-53.4310511,-33.7393548],[-53.3948534,-33.751178],[-53.369913,-33.7438377],[-53.2649755,-33.6713115],[-53.1504134,-33.5853674],[-53.086162,-33.5306713],[-52.802024,-33.3049126],[-52.7266595,-33.2331511],[-52.6410223,-33.1297446],[-52.6034685,-33.0692573],[-52.5561492,-32.9765063],[-52.4909936,-32.8582243],[-52.4578865,-32.7686274],[-52.4232672,-32.6298697],[-52.3864302,-32.5258308],[-52.3407579,-32.4245715],[-52.293031,-32.3383187],[-52.2509215,-32.2798444],[-52.1990058,-32.2266002],[-52.141,-32.1792274],[-52.0994219,-32.1593338],[-52.1048078,-32.1059604],[-52.0992658,-32.0830655],[-52.1577651,-32.1128094],[-52.1498998,-32.0749573],[-52.1341208,-32.0575467],[-52.099535,-32.0472517],[-52.1097285,-32.0241113],[-52.1363413,-32.0457209],[-52.1711627,-32.0554776],[-52.2033568,-32.0387877],[-52.1132543,-32.010722],[-52.0961427,-31.9961824],[-52.1212129,-31.9786897],[-52.1882474,-31.9828594],[-52.2038675,-32.0383895],[-52.2341607,-32.0165357],[-52.2394,-31.9852354],[-52.2186316,-31.9599975],[-52.1875318,-31.9637077],[-52.1669866,-31.9441496],[-52.1420227,-31.9523],[-52.1129189,-31.9430992],[-52.1376202,-31.9192941],[-52.185815,-31.9040422],[-52.2214187,-31.8725091],[-52.2487331,-31.8778427],[-52.2568273,-31.8493499],[-52.2218846,-31.8370124],[-52.2126163,-31.8076394],[-52.2257675,-31.7518981],[-52.1929286,-31.7225792],[-52.1523643,-31.6993368],[-52.1041442,-31.6846629],[-52.0572191,-31.6832052],[-52.030653,-31.6923453],[-52.0099329,-31.5976409],[-52.0179349,-31.5403383],[-52.0011499,-31.4409157],[-51.9870681,-31.3945445],[-51.9672691,-31.3779242],[-51.9601307,-31.3527831],[-51.9194628,-31.3107659],[-51.8750396,-31.3090397],[-51.8439353,-31.3232485],[-51.8339305,-31.3063967],[-51.7945899,-31.2739655],[-51.7571475,-31.2861321],[-51.7066713,-31.2656211],[-51.6642254,-31.2711167],[-51.6282843,-31.2654514],[-51.6425696,-31.2260765],[-51.6413103,-31.1876779],[-51.6286663,-31.1529541],[-51.6019634,-31.1317418],[-51.5672721,-31.1286268],[-51.5544882,-31.11407],[-51.4707147,-31.0981384],[-51.441814,-31.0880529],[-51.4657538,-31.0650351],[-51.4876868,-31.0195494],[-51.4997768,-30.9724141],[-51.5001985,-30.9276953],[-51.4876289,-30.8999113],[-51.4435383,-30.8705558],[-51.3900842,-30.8798935],[-51.3726968,-30.8725352],[-51.3905801,-30.8402937],[-51.4058305,-30.7567506],[-51.391074,-30.6687385],[-51.3809298,-30.6434732],[-51.3346126,-30.6337885],[-51.3176642,-30.6481622],[-51.3165991,-30.7041477],[-51.2930997,-30.7076756],[-51.30223,-30.6344481],[-51.2999424,-30.5639497],[-51.2791548,-30.5104036],[-51.2449136,-30.4427908],[-51.2282114,-30.4230493],[-51.1978793,-30.4080321],[-51.1527572,-30.414158],[-51.131912,-30.4352982],[-51.1196561,-30.3925903],[-51.0985816,-30.3572388],[-51.128588,-30.3592513],[-51.1795471,-30.3864506],[-51.207356,-30.3408157],[-51.211874,-30.2995652],[-51.2385203,-30.3168479],[-51.2571972,-30.3057702],[-51.2952733,-30.3029469],[-51.2987036,-30.2400939],[-51.3297964,-30.2303527],[-51.3148213,-30.1887451],[-51.3245623,-30.1684427],[-51.306971,-30.0972797],[-51.311383,-30.0807074],[-51.301706,-30.0426554],[-51.281123,-30.022104],[-51.2340372,-30.0478013],[-51.2611492,-30.1227041],[-51.2328715,-30.135954],[-51.2229627,-30.1878679],[-51.2066948,-30.1904099],[-51.1780059,-30.2184992],[-51.1839953,-30.2331669],[-51.1282055,-30.2477705],[-51.0764992,-30.2433844],[-51.0307625,-30.2744752],[-51.0198014,-30.2965085],[-51.0316023,-30.3338706],[-51.0498171,-30.3445907],[-51.0474,-30.381496],[-50.9734084,-30.4076171],[-50.930037,-30.4357706],[-50.9385533,-30.3750991],[-50.914836,-30.3263913],[-50.844017,-30.3207571],[-50.79698,-30.3383821],[-50.7820086,-30.2847728],[-50.7507312,-30.2967072],[-50.6732441,-30.2966408],[-50.6549662,-30.2814689],[-50.6688927,-30.2548818],[-50.6588881,-30.1999233],[-50.5982278,-30.1960157],[-50.5773911,-30.2353553],[-50.5459026,-30.2512455],[-50.5377796,-30.2738662],[-50.5553832,-30.3168313],[-50.5453163,-30.3559794],[-50.5656371,-30.387912],[-50.5673294,-30.4548939],[-50.5826612,-30.4901355],[-50.6110979,-30.4857109],[-50.6492172,-30.4536054],[-50.6501842,-30.4135717],[-50.5967321,-30.3910186],[-50.6206633,-30.3567733],[-50.6296377,-30.3915319],[-50.6434419,-30.3959193],[-50.7055849,-30.3476309],[-50.7294942,-30.3681373],[-50.6963756,-30.4410988],[-50.68643,-30.5008003],[-50.6795415,-30.6091725],[-50.6901159,-30.7069243],[-50.7019874,-30.7463272],[-50.7207657,-30.7797483],[-50.7537767,-30.8189372],[-50.7904835,-30.8293965],[-50.8569299,-30.8654119],[-50.8823419,-30.8915879],[-50.9196389,-30.9063873],[-50.9680875,-30.8978204],[-50.9521651,-30.9548699],[-50.9569856,-31.0095653],[-50.9949517,-31.0481032],[-51.0485298,-31.0615924],[-51.1036155,-31.0993805],[-51.1246526,-31.0981745],[-51.1626912,-31.0754245],[-51.1768912,-31.079768],[-51.1785935,-31.1450151],[-51.1633125,-31.1973176],[-51.156479,-31.2680581],[-51.160605,-31.3017131],[-51.1781251,-31.3624249],[-51.1947691,-31.3981701],[-51.2331767,-31.4526447],[-51.282406,-31.4969314],[-51.3611066,-31.5320324],[-51.3993089,-31.5204054],[-51.4281762,-31.4919981],[-51.4551162,-31.5288507],[-51.4621579,-31.5670493],[-51.4984103,-31.5831574],[-51.5298012,-31.6209752],[-51.5614819,-31.6700457],[-51.613264,-31.7294055],[-51.6560543,-31.7649289],[-51.6896312,-31.7813386],[-51.7345903,-31.7886855],[-51.8022987,-31.7884648],[-51.8096979,-31.84354],[-51.8578447,-31.8691324],[-51.8787072,-31.8730833],[-51.929573,-31.8603197],[-51.9869115,-31.8265293],[-52.0191464,-31.8160116],[-52.0625298,-31.8161521],[-52.0981237,-31.8359113],[-52.0820162,-31.8660223],[-52.048521,-31.8895458],[-52.0152082,-31.9224186],[-52.0046527,-31.9449178],[-52.0152468,-31.9667097],[-52.0538326,-31.9849292],[-52.0390526,-32.0300227],[-52.0496934,-32.0772102],[-52.0897707,-32.1314027],[-52.0757538,-32.1414871],[-51.9689076,-32.0318384],[-51.9207816,-31.9877447],[-51.8476723,-31.9307776],[-51.7480209,-31.8699809],[-51.6123956,-31.8033063],[-51.4837238,-31.7319325],[-51.4003527,-31.6765205],[-51.2620686,-31.5742878],[-51.2073258,-31.526527],[-51.1040088,-31.4214322],[-51.0400803,-31.3599453],[-50.970369,-31.3048742],[-50.8791407,-31.2270415],[-50.7793161,-31.1238969],[-50.7538364,-31.0920516],[-50.6678539,-30.9629043],[-50.5583124,-30.8181972],[-50.4649102,-30.6807062],[-50.37398,-30.5628916],[-50.3400977,-30.5111926],[-50.3040508,-30.4423891],[-50.2642914,-30.3360488],[-50.1579692,-30.0665181],[-50.1099159,-29.9566682],[-50.0527831,-29.8383021],[-49.9763975,-29.6971509],[-49.91159,-29.5907784],[-49.8285526,-29.4757689],[-49.7127694,-29.3272783],[-49.7435636,-29.3197173],[-49.7420974,-29.2988203],[-49.7759297,-29.2974099],[-49.8173798,-29.2856538],[-49.8522,-29.2536409],[-49.8575699,-29.232622],[-49.912866,-29.2079428],[-49.9650151,-29.1994445],[-49.9965852,-29.2282623],[-50.1154827,-29.2622804],[-50.0995917,-29.2884012],[-50.051215,-29.3241113],[-50.0595088,-29.3412031],[-50.0906541,-29.3108993],[-50.134067,-29.3021625],[-50.1552287,-29.2476875],[-50.1406832,-29.2377834],[-50.1330356,-29.1973491],[-50.0889976,-29.2235466],[-50.0876318,-29.1837495],[-50.0386135,-29.1774386],[-50.0049122,-29.1406371],[-49.9682774,-29.1147769],[-49.9697599,-29.1005732],[-49.9469385,-29.0318308],[-49.9591547,-29.0104812],[-49.9336567,-28.9658216],[-49.9580268,-28.9625515],[-49.9631796,-28.9189189],[-49.9435899,-28.8796583],[-49.9567607,-28.8703633],[-49.9661441,-28.8213279],[-49.9613329,-28.7721804],[-49.9217437,-28.7455426],[-49.9346778,-28.7256765],[-49.9048608,-28.7184784],[-49.8739726,-28.7267655],[-49.8701871,-28.7087247],[-49.8427336,-28.7099406],[-49.8413263,-28.6768597],[-49.8132853,-28.6475568],[-49.8140127,-28.6355045],[-49.6913518,-28.6208914],[-49.7101947,-28.6043446],[-49.7079683,-28.5822272],[-49.7259776,-28.5695039],[-49.7467201,-28.5353911],[-49.7392665,-28.5003347],[-49.7909263,-28.4964202],[-49.8172655,-28.4698688],[-49.8666498,-28.4886323],[-49.8635729,-28.462846],[-49.9284437,-28.4714096],[-49.9525054,-28.4503368],[-49.9886396,-28.4452528],[-50.0138764,-28.4507755],[-50.0258232,-28.4730834],[-50.0728184,-28.4808072],[-50.1261868,-28.4745281],[-50.1113576,-28.4444705],[-50.1780074,-28.4522534],[-50.1990863,-28.4448338],[-50.2226487,-28.4632721],[-50.2468002,-28.4282705],[-50.2729133,-28.4570719],[-50.3038899,-28.437901],[-50.3404469,-28.4409658],[-50.3599941,-28.4198395],[-50.3768372,-28.4436738],[-50.395171,-28.4331574],[-50.4287806,-28.433541],[-50.4704404,-28.4149022],[-50.531594,-28.4078106],[-50.5592689,-28.4173972],[-50.5922669,-28.3819459],[-50.6115593,-28.3932666],[-50.6516748,-28.3434574],[-50.6649077,-28.3127962],[-50.7107406,-28.2665167],[-50.7533452,-28.2456844],[-50.7614854,-28.193141],[-50.782816,-28.175983],[-50.7940761,-28.1386404],[-50.8137868,-28.1415602],[-50.8367577,-28.1194],[-50.858991,-28.1397055],[-50.8813874,-28.0672564],[-50.8753996,-28.0401999],[-50.8923361,-28.021156],[-50.9232384,-28.0119878],[-50.9239682,-27.9716546],[-50.9936288,-27.9460069],[-51.0189557,-27.957048],[-51.0199085,-27.9224875],[-51.0582788,-27.8968387],[-51.0529908,-27.869788],[-51.0721612,-27.8645116],[-51.0765643,-27.8418454],[-51.0982717,-27.8274176],[-51.1289232,-27.8320476],[-51.1346065,-27.8036571],[-51.1577918,-27.8028892],[-51.1912823,-27.7761507],[-51.2262537,-27.7711841],[-51.2704828,-27.7523073],[-51.276128,-27.7240242],[-51.3308702,-27.6709395],[-51.3615622,-27.6780875],[-51.3779345,-27.6600239],[-51.3701089,-27.6366712],[-51.4052908,-27.631861],[-51.4191535,-27.6546386],[-51.457684,-27.6071136],[-51.4767643,-27.5987746],[-51.4773806,-27.5725858],[-51.4928159,-27.5583354],[-51.554876,-27.5639917],[-51.5717093,-27.5826241],[-51.6083281,-27.5413715],[-51.6319435,-27.5326765],[-51.6194935,-27.5002824],[-51.6996498,-27.4790642],[-51.7166827,-27.5103401],[-51.7303892,-27.511502],[-51.75968,-27.4867563],[-51.8017881,-27.4939626],[-51.7984337,-27.5094318],[-51.8370708,-27.522233],[-51.8551292,-27.5154503],[-51.8463267,-27.4793449],[-51.8740397,-27.4797936],[-51.8739134,-27.5114993],[-51.8947903,-27.5170212],[-51.9004867,-27.4640604],[-51.9183845,-27.4584344],[-51.9449946,-27.4730915],[-51.9637942,-27.463136],[-51.9335484,-27.4381325],[-51.9512992,-27.4173062],[-51.9995823,-27.409739],[-52.0064474,-27.3746257],[-52.0383697,-27.3442034],[-52.1073709,-27.3431414],[-52.1076546,-27.3097018],[-52.1263285,-27.3025235],[-52.1612892,-27.3142878],[-52.1593055,-27.2815636],[-52.1889887,-27.2879576],[-52.2056261,-27.3273864],[-52.2778953,-27.2949224],[-52.2597603,-27.2789379],[-52.2545435,-27.256359],[-52.3046707,-27.2626304],[-52.2910463,-27.3068335],[-52.3130843,-27.3092657],[-52.3502253,-27.2882432],[-52.3785034,-27.3026838],[-52.3936592,-27.2851463],[-52.4156089,-27.2852581],[-52.4390853,-27.2644049],[-52.4301649,-27.223725],[-52.4462101,-27.217412],[-52.4798149,-27.2355428],[-52.4763924,-27.2605782],[-52.5291471,-27.2626863],[-52.5438602,-27.2410847],[-52.5874994,-27.2468901],[-52.6178894,-27.2657059],[-52.6767383,-27.2466088],[-52.6809898,-27.2740514],[-52.7072601,-27.2721932],[-52.7122882,-27.2400034],[-52.7397649,-27.2552421],[-52.7639082,-27.2429623],[-52.7635597,-27.2112333],[-52.8075153,-27.2023721],[-52.8339914,-27.2112922],[-52.8430785,-27.1785255],[-52.8599769,-27.1704273],[-52.9033596,-27.1990902],[-52.9293114,-27.2040764],[-52.9360669,-27.1780364],[-52.9566923,-27.1632578],[-52.9681942,-27.2111029],[-52.991719,-27.2176533],[-53.0025644,-27.1976227],[-52.9837257,-27.156503],[-53.0030057,-27.1356146],[-53.0375501,-27.1577479],[-53.0413939,-27.1249055],[-53.0213514,-27.1057905],[-53.0298341,-27.0825743],[-53.0590423,-27.0882454],[-53.0790453,-27.1184736],[-53.069718,-27.1515543],[-53.0774788,-27.1631158],[-53.1321831,-27.1802287],[-53.1545929,-27.1406169],[-53.1723622,-27.1480209],[-53.1811367,-27.1882679],[-53.1972164,-27.1926527],[-53.2320857,-27.1711117],[-53.3225818,-27.2115049],[-53.2929369,-27.1408089],[-53.3122408,-27.119688],[-53.3533047,-27.1153807],[-53.3810406,-27.0941147],[-53.4116985,-27.1413842],[-53.4576158,-27.1571519],[-53.4911955,-27.1323251],[-53.5051496,-27.1614501],[-53.4917069,-27.1766918],[-53.4930806,-27.2034785],[-53.518249,-27.2021778],[-53.5540029,-27.173178],[-53.5914418,-27.1874727],[-53.6182319,-27.1873364],[-53.6307258,-27.2133786],[-53.6508192,-27.2155074],[-53.6501258,-27.1788221],[-53.6750504,-27.1606825],[-53.7352636,-27.1907901],[-53.7510579,-27.1890231],[-53.7620333,-27.1571237],[-53.7778656,-27.1481458],[-53.8148466,-27.1758898],[-53.8415965,-27.1656115],[-53.8612782,-27.1284814],[-53.8835199,-27.1318638],[-53.8977469,-27.1703311],[-53.9168985,-27.1747524],[-53.9465845,-27.1512593],[-53.9607107,-27.1651098],[-53.9601656,-27.1953363],[-54.0080173,-27.1983946],[-54.0277768,-27.2548537],[-54.0564013,-27.2650766],[-54.0722781,-27.2909545],[-54.1010469,-27.303263],[-54.1548951,-27.2968585],[-54.1620894,-27.2560912],[-54.1865574,-27.2649093],[-54.1933396,-27.3084602],[-54.2133115,-27.3512444],[-54.2144362,-27.3815781],[-54.2675105,-27.4042904],[-54.2678077,-27.4313537],[-54.2942248,-27.4459101],[-54.3106418,-27.4219623],[-54.341542,-27.4043517],[-54.3350661,-27.4512946],[-54.3572144,-27.4649427],[-54.3987584,-27.411613],[-54.4114043,-27.405286],[-54.4391199,-27.4247486],[-54.4720566,-27.4344595],[-54.4426327,-27.4649219],[-54.4495063,-27.4754245],[-54.5005991,-27.4803532],[-54.520919,-27.5033165],[-54.5733512,-27.4536101],[-54.5893943,-27.4581845],[-54.59495,-27.4873672],[-54.6157921,-27.532241],[-54.6480251,-27.5402344],[-54.6567412,-27.5132169],[-54.680116,-27.526641],[-54.6716648,-27.5664167],[-54.6808563,-27.5745014],[-54.7448607,-27.5626414],[-54.7587251,-27.5815035],[-54.7877189,-27.5701781],[-54.7951866,-27.5349829],[-54.8265535,-27.5540257],[-54.8477222,-27.6213131],[-54.903167,-27.6363877],[-54.9021982,-27.7024887],[-54.9066386,-27.7297869],[-54.9494242,-27.7792846],[-54.9776622,-27.77086],[-55.0002662,-27.7923566],[-55.0243129,-27.7941998],[-55.0579123,-27.7680858],[-55.0827106,-27.7968583],[-55.0246941,-27.835311],[-55.0363835,-27.8577803],[-55.0853093,-27.8430957],[-55.1262762,-27.8598184],[-55.124006,-27.8814864],[-55.1393124,-27.8950654],[-55.1715604,-27.861276],[-55.2026827,-27.8578592],[-55.2322671,-27.8840687],[-55.2664617,-27.9297895],[-55.3093708,-27.9222498],[-55.3303065,-27.9314514],[-55.3399894,-27.9665261],[-55.3871865,-27.9861896],[-55.369395,-28.0272605],[-55.4139679,-28.0546489],[-55.4479225,-28.0973822],[-55.4878785,-28.0764551],[-55.5132429,-28.1146478],[-55.5305813,-28.1154587],[-55.5641642,-28.1635054],[-55.6107303,-28.1174554],[-55.6342309,-28.1778382],[-55.6530168,-28.1821016],[-55.69258,-28.2187903],[-55.7712461,-28.2414545],[-55.7731786,-28.2742401],[-55.7329098,-28.2859753],[-55.6802024,-28.3222263],[-55.6707807,-28.3456874],[-55.6887689,-28.3881561],[-55.6907378,-28.4132957],[-55.7197035,-28.4186791],[-55.7343525,-28.3812095],[-55.7565667,-28.3694314],[-55.8710892,-28.3572625],[-55.9003859,-28.3983461],[-55.9009504,-28.4187544],[-55.8826016,-28.4638382],[-55.884006,-28.4791631],[-55.9492936,-28.4945927],[-55.9882152,-28.4981152],[-56.0232301,-28.522765],[-56.0208968,-28.5531966],[-56.0023709,-28.5782987],[-56.017674,-28.6129435],[-56.0562722,-28.6292036],[-56.1191509,-28.6812475],[-56.1606775,-28.7396514],[-56.1941555,-28.775198],[-56.2609311,-28.7790068],[-56.2997424,-28.8081133],[-56.2981677,-28.8844444],[-56.3216425,-28.9233043]]],"bbox":[-57.6033674,-33.751178,-49.6913518,-27.0825743]}
