{"type":"Topology","objects":{"geometrias":{"type":"GeometryCollection","geometries":[{"type":"Polygon","arcs":[[0]],"properties":{"code_state":12,"code_region":1,"name_state":"Acre","abbrev_state":"AC","name_region":"Norte","year":2020}}]}},"arcs":[[[-71.0777201,-9.8277404],[-71.0505177,-9.8155678],[-70.9941792,-9.8172051],[-70.990172,-9.7902831],[-70.9710559,-9.7556799],[-70.9528115,-9.741955],[-70.9251955,-9.7419391],[-70.8960949,-9.7090652],[-70.8891319,-9.6895719],[-70.8535363,-9.6554078],[-70.8351417,-9.6461212],[-70.7986019,-9.6419141],[-70.7675071,-9.6007422],[-70.7548766,-9.5965848],[-70.7579879,-9.5787724],[-70.7474603,-9.563128],[-70.7255064,-9.5673678],[-70.7145817,-9.5469538],[-70.6609778,-9.5217984],[-70.6460674,-9.496821],[-70.6366931,-9.4982098],[-70.6085862,-9.4572031],[-70.5978305,-9.4604838],[-70.5873029,-9.4438947],[-70.5617307,-9.4287362],[-70.5489205,-9.4345044],[-70.5095108,-9.42296],[-70.494367,-9.4388252],[-70.5091943,-9.4453975],[-70.5154814,-9.5021727],[-70.5323256,-9.4997177],[-70.5477215,-9.5192722],[-70.5377008,-9.5342547],[-70.5642439,-9.5397036],[-70.570531,-9.554844],[-70.5907871,-9.5483795],[-70.6002714,-9.5629799],[-70.5856748,-9.5752813],[-70.5850337,-9.5906183],[-70.598485,-9.6074383],[-70.5912511,-9.6267883],[-70.5666043,-9.6679226],[-70.542164,-9.6798394],[-70.526011,-9.7244768],[-70.5362926,-9.7658027],[-70.5596386,-9.7895497],[-70.578182,-9.777613],[-70.5906986,-9.8036836],[-70.6125744,-9.8050779],[-70.6236405,-9.8203925],[-70.6205864,-9.832251],[-70.6210066,-10.9996411],[-70.5300779,-10.9348139],[-70.4966249,-10.9629798],[-70.4841607,-10.9658158],[-70.4700281,-10.9878814],[-70.4483532,-11.0041163],[-70.437442,-11.0266688],[-70.4064356,-11.04759],[-70.3854822,-11.0475637],[-70.380445,-11.0566194],[-70.3450774,-11.0670857],[-70.3084787,-11.0705972],[-70.265039,-11.0517336],[-70.2117917,-11.0501014],[-70.1722399,-11.0430358],[-70.1308212,-11.0233963],[-70.1147011,-11.0102851],[-70.1091168,-10.9954619],[-70.0894884,-10.9851562],[-70.0631437,-10.9921127],[-70.0401465,-10.980285],[-70.0377593,-10.9707056],[-70.0152341,-10.9701105],[-70.006989,-10.9610785],[-69.9691698,-10.9450099],[-69.9549327,-10.9277605],[-69.9336628,-10.9211132],[-69.9011437,-10.9200124],[-69.8737261,-10.93061],[-69.8429773,-10.9249689],[-69.8327956,-10.9337175],[-69.7999761,-10.9265174],[-69.7558055,-10.9463055],[-69.7392777,-10.9654497],[-69.7187374,-10.9755138],[-69.6589938,-10.9529785],[-69.6337811,-10.9578975],[-69.5964125,-10.9409386],[-69.5671121,-10.9439565],[-69.5506165,-10.9530733],[-69.5402954,-10.9376257],[-69.5224372,-10.9358349],[-69.4781217,-10.9549587],[-69.4539068,-10.9494498],[-69.4526488,-10.9368277],[-69.4168789,-10.925356],[-69.3851376,-10.9429268],[-69.3527741,-10.9359113],[-69.3282855,-10.9497421],[-69.3204642,-10.9444068],[-69.2911637,-10.9503425],[-69.2699475,-10.9412045],[-69.2398155,-10.9513958],[-69.2329759,-10.9398351],[-69.2156113,-10.9583531],[-69.2013446,-10.9481805],[-69.1608191,-10.9650205],[-69.1458685,-10.9623952],[-69.1074834,-10.9727279],[-69.0871925,-10.9697551],[-69.0613547,-10.9857171],[-69.0437782,-10.9811566],[-69.0018848,-11.0089345],[-68.9670107,-10.9874575],[-68.9475433,-11.0122387],[-68.9320615,-11.0061226],[-68.9104537,-11.02213],[-68.8604144,-11.0048298],[-68.8436908,-10.9915045],[-68.8290781,-11.0061884],[-68.8116035,-10.9943192],[-68.7872974,-11.0043111],[-68.7595231,-11.0034739],[-68.7506916,-11.0344076],[-68.7662743,-11.0492778],[-68.7652852,-11.0658626],[-68.7462972,-11.0943616],[-68.7209385,-11.1033739],[-68.7135056,-11.1243007],[-68.7161196,-11.1455615],[-68.5429714,-11.1113555],[-68.5352973,-11.0937719],[-68.5193597,-11.0880893],[-68.5040666,-11.0633302],[-68.4871861,-11.0508753],[-68.4442565,-11.0459125],[-68.4378866,-11.0355241],[-68.4151257,-11.0397093],[-68.394745,-11.0501089],[-68.3846844,-11.0181411],[-68.3465891,-11.003984],[-68.3310409,-11.0125956],[-68.3072081,-10.991933],[-68.276713,-10.9883333],[-68.2372632,-10.9557518],[-68.2242991,-10.9116152],[-68.2072081,-10.9020372],[-68.1961278,-10.8585922],[-68.1789884,-10.8531973],[-68.1538562,-10.8211475],[-68.1435618,-10.8160859],[-68.1182123,-10.7841013],[-68.0970148,-10.7493853],[-68.1088165,-10.7257972],[-68.0760667,-10.6853736],[-68.0551602,-10.6703906],[-68.0337321,-10.6670852],[-68.0128028,-10.6486257],[-67.9818367,-10.6573113],[-67.9615619,-10.6497223],[-67.9410966,-10.6570003],[-67.8942894,-10.648233],[-67.8860148,-10.6396605],[-67.8659244,-10.6406998],[-67.8427796,-10.6533053],[-67.8275098,-10.6514179],[-67.7914957,-10.6784541],[-67.7615891,-10.6846534],[-67.7283968,-10.7134049],[-67.7043972,-10.7000139],[-67.6756111,-10.6051611],[-67.6592208,-10.6147484],[-67.6409033,-10.5993909],[-67.6353495,-10.5803839],[-67.609802,-10.5623786],[-67.6050416,-10.5342543],[-67.5945219,-10.5215719],[-67.5684205,-10.510808],[-67.5456416,-10.4951699],[-67.4781861,-10.4677768],[-67.4658792,-10.4553388],[-67.4439825,-10.4530233],[-67.4318833,-10.4309386],[-67.4132151,-10.4257261],[-67.4138159,-10.4014404],[-67.423791,-10.3913996],[-67.4068489,-10.3726274],[-67.3787272,-10.3832098],[-67.3387362,-10.3760052],[-67.31984,-10.3816222],[-67.3155451,-10.3471588],[-67.3280395,-10.3352829],[-67.3218678,-10.3215879],[-67.2762809,-10.3220206],[-67.2534741,-10.3289203],[-67.2365896,-10.3162225],[-67.2190292,-10.3238117],[-67.1945299,-10.3253712],[-67.1884138,-10.3394276],[-67.1440185,-10.3267348],[-67.1370414,-10.29768],[-67.0991016,-10.286472],[-67.0791594,-10.2893882],[-67.051546,-10.2677655],[-67.0102561,-10.252695],[-67.0061443,-10.2300641],[-66.9918964,-10.2039313],[-66.9762672,-10.193083],[-66.9511711,-10.1862575],[-66.9458066,-10.1583363],[-66.9114046,-10.1389253],[-66.8971997,-10.1141317],[-66.8731617,-10.1014199],[-66.87115,-10.0806639],[-66.8436091,-10.0861937],[-66.8322848,-10.0596477],[-66.8071794,-10.0492104],[-66.8075066,-10.0374628],[-66.7897557,-10.0218056],[-66.7416798,-9.9966068],[-66.7346632,-9.9831349],[-66.7058629,-9.9766524],[-66.6940344,-9.9663102],[-66.6749666,-9.9648731],[-66.663071,-9.9369526],[-66.6465968,-9.9456789],[-66.6264588,-9.930197],[-66.6268906,-9.8980269],[-67.3258172,-9.5923815],[-67.516882,-9.5609067],[-68.6471864,-9.0494166],[-69.2862711,-8.5016401],[-70.0549793,-7.8451491],[-72.5847656,-7.5520042],[-73.8015581,-7.1118244],[-73.7942534,-7.1302174],[-73.7776748,-7.1454895],[-73.7593778,-7.1741528],[-73.7551757,-7.1978728],[-73.7239029,-7.2209364],[-73.7138092,-7.2338586],[-73.7157012,-7.2672167],[-73.7006408,-7.2906307],[-73.6998092,-7.3039087],[-73.7182056,-7.3288278],[-73.7553892,-7.3464998],[-73.7695951,-7.3315391],[-73.7941194,-7.3438],[-73.8171184,-7.3349948],[-73.8522593,-7.3469005],[-73.8598963,-7.3688202],[-73.8764986,-7.3822713],[-73.9095101,-7.3776894],[-73.9308953,-7.3519169],[-73.9507851,-7.3470813],[-73.9661735,-7.3516089],[-73.9586433,-7.3778005],[-73.9313606,-7.4228034],[-73.9274238,-7.4516558],[-73.9193138,-7.4652919],[-73.9475119,-7.5262282],[-73.99045,-7.535961],[-73.9833394,-7.5661919],[-73.96834,-7.5673473],[-73.9423696,-7.5985696],[-73.9085333,-7.6243888],[-73.8862021,-7.6357804],[-73.8851111,-7.655294],[-73.8729444,-7.6711139],[-73.8421729,-7.6777467],[-73.8216727,-7.7174972],[-73.7861504,-7.7224439],[-73.7400384,-7.7337081],[-73.6838099,-7.7760549],[-73.6871278,-7.8540306],[-73.7039513,-7.8726048],[-73.7420295,-7.8727021],[-73.7563651,-7.8581443],[-73.7661231,-7.8702078],[-73.7530311,-7.8895578],[-73.7706702,-7.9049215],[-73.7509177,-7.9233741],[-73.7465002,-7.9525574],[-73.7312567,-7.9680079],[-73.7227555,-7.9600556],[-73.6976112,-7.9601963],[-73.6886696,-7.9713662],[-73.6759694,-8.0078056],[-73.645945,-8.0030157],[-73.6268945,-8.0214883],[-73.623446,-8.0393573],[-73.6334028,-8.0567639],[-73.6155648,-8.0695963],[-73.5939507,-8.0974044],[-73.5853371,-8.1228217],[-73.5912575,-8.1423072],[-73.5864738,-8.1863764],[-73.5716423,-8.229799],[-73.5602516,-8.2352988],[-73.5532889,-8.25385],[-73.540316,-8.2627455],[-73.5401176,-8.295012],[-73.529673,-8.3121486],[-73.5369514,-8.3454823],[-73.504229,-8.3787206],[-73.4820046,-8.3917563],[-73.4479547,-8.4021676],[-73.4335194,-8.4121],[-73.4215646,-8.4069979],[-73.4067255,-8.4191677],[-73.3944472,-8.4672805],[-73.3650614,-8.4633761],[-73.3277309,-8.4815263],[-73.3279826,-8.5170783],[-73.3341776,-8.5400866],[-73.3439737,-8.602084],[-73.3370309,-8.6178205],[-73.3195902,-8.6141031],[-73.2848078,-8.6663586],[-73.2478472,-8.6873417],[-73.2083462,-8.6809506],[-73.1760722,-8.6942972],[-73.1423749,-8.7227033],[-73.1382139,-8.759575],[-73.1116132,-8.7919389],[-73.1118192,-8.8155633],[-73.0942563,-8.8372193],[-73.0779829,-8.8428526],[-73.0774793,-8.8609133],[-73.0562238,-8.9069022],[-73.043231,-8.9152888],[-73.0088988,-8.9127606],[-72.9948074,-8.9198464],[-72.9705916,-8.9748771],[-72.9443695,-8.9840943],[-72.9392044,-8.9968496],[-72.9569198,-9.0106693],[-72.9483443,-9.0256468],[-72.9401503,-9.069016],[-72.946147,-9.0768628],[-72.9438353,-9.1022381],[-72.9643658,-9.1469826],[-73.0086575,-9.1677297],[-73.011172,-9.187591],[-72.9950587,-9.1943182],[-73.0220591,-9.2259439],[-73.0449472,-9.2368663],[-73.0562005,-9.2252964],[-73.0865889,-9.2444833],[-73.0950874,-9.2660936],[-73.1104529,-9.2842916],[-73.1072561,-9.3075126],[-73.1393083,-9.3218],[-73.1566792,-9.3508962],[-73.187952,-9.3612217],[-73.1935366,-9.3928102],[-73.2118972,-9.4116694],[-72.7197435,-9.4116569],[-72.7048975,-9.4336234],[-72.6685267,-9.4373594],[-72.6631408,-9.4477418],[-72.6440864,-9.4420691],[-72.5903242,-9.4551659],[-72.5667208,-9.4659393],[-72.5520545,-9.4651509],[-72.504177,-9.4865433],[-72.4548713,-9.4874481],[-72.4049434,-9.4818818],[-72.3865863,-9.4930565],[-72.3693987,-9.4899031],[-72.3406084,-9.5062036],[-72.3344256,-9.528392],[-72.3188741,-9.5434905],[-72.2904105,-9.5357403],[-72.2815753,-9.5470772],[-72.289005,-9.6023333],[-72.2691567,-9.6203533],[-72.2546728,-9.6150008],[-72.2604556,-9.6448615],[-72.2463043,-9.6564751],[-72.2512388,-9.6930534],[-72.2639276,-9.7131304],[-72.2707329,-9.7422337],[-72.2431985,-9.7657159],[-72.230366,-9.7633194],[-72.2145044,-9.7740119],[-72.1753123,-9.7818892],[-72.1509822,-9.7989274],[-72.165478,-9.8280307],[-72.1550639,-9.8421689],[-72.1550867,-9.8605166],[-72.1406748,-9.8775139],[-72.1740914,-9.9215917],[-72.1607019,-9.9395026],[-72.1558419,-9.9604768],[-72.162365,-9.9741162],[-72.1806755,-9.9847831],[-72.1804528,-10],[-71.3774167,-10],[-71.3529039,-9.976565],[-71.3388735,-9.9719978],[-71.3177325,-9.9912372],[-71.3079593,-9.9919963],[-71.2710942,-9.978271],[-71.2530537,-9.9639181],[-71.2274542,-9.9693398],[-71.210845,-9.9663901],[-71.2057029,-9.9471764],[-71.1813729,-9.9174981],[-71.163009,-9.8753209],[-71.1298706,-9.8525155],[-71.1024273,-9.8518098],[-71.0777201,-9.8277404]]],"bbox":[-73.99045,-11.1455615,-66.6264588,-7.1118244]}
