{"type":"Topology","objects":{"geometrias":{"type":"GeometryCollection","geometries":[{"type":"Polygon","arcs":[[0]],"properties":{"code_state":31,"code_region":3,"name_state":"Minas Gerais","abbrev_state":"MG","name_region":"Sudeste","year":2020}}]}},"arcs":[[[-50.7403721,-19.2131638],[-50.7465327,-19.239907],[-50.770439,-19.2609848],[-50.7859507,-19.2626272],[-50.8188904,-19.2917345],[-50.8415857,-19.3508004],[-50.8753571,-19.4228408],[-50.8290442,-19.467035],[-50.8244739,-19.4802131],[-50.8493869,-19.4981367],[-50.9349978,-19.4674775],[-50.963272,-19.4836378],[-50.9629462,-19.5005788],[-50.9308813,-19.5422439],[-50.9243946,-19.5808846],[-50.9465426,-19.5916898],[-50.9618022,-19.5817398],[-50.9875546,-19.5895076],[-50.9904676,-19.6054019],[-51.0381808,-19.6917675],[-51.0460818,-19.7355829],[-51.0303071,-19.7514419],[-51.0399394,-19.7771183],[-51.0236289,-19.8039456],[-51.0193069,-19.8704502],[-50.9994713,-19.9063755],[-51.0211489,-19.9640283],[-51.0048071,-19.9992171],[-51.0060365,-20.0252998],[-51.0178884,-20.0483925],[-50.9965342,-20.0773146],[-50.9691294,-20.0364452],[-50.9470541,-20.0312523],[-50.9336598,-20.0149292],[-50.8971994,-19.9901552],[-50.8761761,-19.990825],[-50.851583,-19.9697666],[-50.8173362,-19.9583332],[-50.7836015,-19.9372295],[-50.7354129,-19.930189],[-50.661324,-19.909002],[-50.6319448,-19.8709166],[-50.6055452,-19.8560883],[-50.5779488,-19.8163744],[-50.4989703,-19.7957843],[-50.4719182,-19.7796558],[-50.4171328,-19.8011365],[-50.3527589,-19.8646024],[-50.3064103,-19.874086],[-50.285631,-19.8678179],[-50.2451559,-19.8767577],[-50.2156518,-19.8666484],[-50.1624139,-19.8783143],[-50.0972433,-19.875479],[-50.0472392,-19.9153896],[-50.0030529,-19.926447],[-49.9698825,-19.9200484],[-49.9460521,-19.923911],[-49.8883369,-19.9453049],[-49.8555733,-19.946825],[-49.8352745,-19.933315],[-49.7824562,-19.9244631],[-49.7121496,-19.9312615],[-49.6344053,-19.9319321],[-49.6060248,-19.916505],[-49.5514852,-19.905841],[-49.5140049,-19.9143115],[-49.4927862,-19.9504212],[-49.458242,-19.975931],[-49.4345392,-19.9823852],[-49.3564865,-19.9867173],[-49.311622,-19.9648182],[-49.2651731,-19.962038],[-49.249647,-19.9695542],[-49.2483388,-19.999637],[-49.2839236,-20.0047717],[-49.297256,-20.017517],[-49.3072553,-20.0603193],[-49.308538,-20.1038929],[-49.2992464,-20.1670761],[-49.2642762,-20.231263],[-49.259156,-20.2602042],[-49.225294,-20.3053431],[-49.1835625,-20.3146598],[-49.1224111,-20.273545],[-49.0960331,-20.2259446],[-49.0648389,-20.1526071],[-49.0329473,-20.1500559],[-48.9840956,-20.1737217],[-48.9720232,-20.2077903],[-48.9617858,-20.2633012],[-48.965783,-20.2792918],[-48.9630303,-20.4031215],[-48.8998625,-20.4413362],[-48.8786069,-20.4296692],[-48.8672304,-20.4024613],[-48.8784296,-20.3561378],[-48.8756657,-20.3149986],[-48.8887604,-20.2948472],[-48.8865458,-20.2711626],[-48.8592598,-20.2323061],[-48.8527791,-20.1775076],[-48.8257432,-20.1619575],[-48.7811373,-20.1638525],[-48.7313411,-20.1493818],[-48.7071077,-20.1602172],[-48.6421287,-20.1664961],[-48.6006412,-20.1397105],[-48.5546289,-20.130299],[-48.5092316,-20.1387963],[-48.4762218,-20.1347649],[-48.4057768,-20.113511],[-48.3749359,-20.1231032],[-48.3171344,-20.113347],[-48.2749559,-20.1421127],[-48.2546878,-20.1438158],[-48.2177475,-20.1252888],[-48.2534251,-20.0779207],[-48.2441319,-20.0474038],[-48.223658,-20.0293112],[-48.2077715,-20.03937],[-48.1824659,-20.074627],[-48.1820543,-20.0895131],[-48.15566,-20.1053012],[-48.1477216,-20.1241396],[-48.1054874,-20.146356],[-48.0767758,-20.1484296],[-48.024392,-20.124729],[-48.0024175,-20.1039695],[-47.9897482,-20.072963],[-47.991528,-20.0491659],[-47.9759693,-20.0353727],[-47.9460221,-20.0604678],[-47.9341021,-20.1078536],[-47.8954628,-20.1252583],[-47.8750773,-20.0983727],[-47.8699656,-20.0636946],[-47.8593839,-20.0524121],[-47.8758201,-20.0324105],[-47.8597507,-19.9929397],[-47.8346805,-19.9960656],[-47.8056581,-19.9851317],[-47.7336817,-19.9879282],[-47.7126917,-19.978148],[-47.6761499,-20.0019156],[-47.6706264,-20.0225159],[-47.6396561,-20.0472194],[-47.6139901,-20.042109],[-47.5947481,-20.0258915],[-47.5838246,-19.9966646],[-47.5526378,-19.9960259],[-47.5401584,-19.984325],[-47.5085321,-19.9829406],[-47.4682927,-19.9614222],[-47.424428,-20.0153196],[-47.4448424,-20.0303817],[-47.4387084,-20.0510888],[-47.4081335,-20.0801963],[-47.3745709,-20.0836627],[-47.3586764,-20.1039816],[-47.3096734,-20.1244984],[-47.2930069,-20.1486619],[-47.2617804,-20.1599249],[-47.2505709,-20.1996702],[-47.2310736,-20.2191522],[-47.2604338,-20.2775686],[-47.2767287,-20.291638],[-47.2858418,-20.3335586],[-47.2982081,-20.3484357],[-47.2880312,-20.3931778],[-47.2961002,-20.427256],[-47.2910113,-20.4505499],[-47.2532124,-20.4766136],[-47.1856804,-20.5108592],[-47.1545174,-20.5195532],[-47.138234,-20.5545926],[-47.1426277,-20.5660141],[-47.1233226,-20.6127225],[-47.0968958,-20.6445283],[-47.1012353,-20.6831658],[-47.1153008,-20.7072048],[-47.1490655,-20.7076166],[-47.1862607,-20.7311344],[-47.1888183,-20.7706247],[-47.2048158,-20.7743437],[-47.2247543,-20.8000989],[-47.2144844,-20.8272194],[-47.2400443,-20.8852817],[-47.2104581,-20.924139],[-47.1437389,-20.9823857],[-47.1570299,-21.0188247],[-47.1469812,-21.0380418],[-47.1370422,-21.0880229],[-47.1184774,-21.1090533],[-47.1335055,-21.1334556],[-47.1173051,-21.1536959],[-47.1236478,-21.1679094],[-47.0789122,-21.2305951],[-47.0522817,-21.2465187],[-47.029773,-21.2995557],[-47.016527,-21.3423629],[-46.9968389,-21.3576981],[-47.016168,-21.3965034],[-47.0102072,-21.420823],[-46.9843674,-21.4266951],[-46.9647087,-21.4181135],[-46.9342496,-21.4252539],[-46.8933056,-21.4156141],[-46.842084,-21.3891083],[-46.8321491,-21.3665382],[-46.7895373,-21.3729595],[-46.776398,-21.3628248],[-46.7389748,-21.3925723],[-46.7147217,-21.3926621],[-46.6655312,-21.3611582],[-46.6471993,-21.3641931],[-46.6487303,-21.3917213],[-46.6018899,-21.4439608],[-46.5765137,-21.4269572],[-46.5602225,-21.44233],[-46.5210932,-21.4469803],[-46.50889,-21.4891271],[-46.5229777,-21.5299379],[-46.5007767,-21.5497611],[-46.5219942,-21.5845087],[-46.518228,-21.6128219],[-46.5473674,-21.6304338],[-46.5659174,-21.6569384],[-46.5646313,-21.6786794],[-46.5930358,-21.6831783],[-46.6215947,-21.675543],[-46.6308415,-21.7408998],[-46.6260303,-21.7662265],[-46.6512016,-21.7894427],[-46.6909705,-21.8369638],[-46.665285,-21.848788],[-46.6475365,-21.8804608],[-46.6737785,-21.9110527],[-46.6536443,-21.9417049],[-46.6433949,-21.9761066],[-46.6158686,-21.9955445],[-46.685389,-22.0374221],[-46.664786,-22.0688631],[-46.7221634,-22.0749778],[-46.7188373,-22.0886791],[-46.6649482,-22.096362],[-46.646755,-22.0918932],[-46.6227309,-22.1099309],[-46.6130415,-22.1502525],[-46.6404581,-22.1577196],[-46.6464271,-22.1779461],[-46.6708008,-22.1842606],[-46.6781678,-22.2240419],[-46.7104007,-22.2623901],[-46.7052841,-22.295824],[-46.7179524,-22.3169443],[-46.6663078,-22.3809903],[-46.6665163,-22.4151098],[-46.6316074,-22.4358357],[-46.554814,-22.44665],[-46.5421469,-22.494356],[-46.4549551,-22.5217324],[-46.4146427,-22.5579277],[-46.4337254,-22.5745679],[-46.4059705,-22.6221789],[-46.3930589,-22.6629741],[-46.4277141,-22.6613577],[-46.4806366,-22.6783159],[-46.4573342,-22.7070572],[-46.4527231,-22.7275819],[-46.3635472,-22.7556473],[-46.3345415,-22.7603001],[-46.3621404,-22.789877],[-46.3768111,-22.8278195],[-46.3724091,-22.8831304],[-46.3563107,-22.9003033],[-46.314641,-22.88676],[-46.2960609,-22.8981541],[-46.2790257,-22.8783476],[-46.2585307,-22.8905747],[-46.1921979,-22.8652306],[-46.1553279,-22.8641682],[-46.13828,-22.8949706],[-46.1390937,-22.9227553],[-46.0952183,-22.894429],[-46.050675,-22.896975],[-46.026798,-22.884876],[-46.007954,-22.889497],[-45.993092,-22.86981],[-45.951145,-22.845879],[-45.938812,-22.846471],[-45.911829,-22.816293],[-45.887282,-22.87205],[-45.8638522,-22.8687103],[-45.8481273,-22.8378307],[-45.809802,-22.8293866],[-45.7908539,-22.858606],[-45.7669594,-22.8408123],[-45.7709451,-22.8059268],[-45.7118188,-22.7715159],[-45.7325571,-22.7220027],[-45.7564638,-22.72104],[-45.7956339,-22.7390214],[-45.8199278,-22.7227186],[-45.811641,-22.6987077],[-45.7878589,-22.6933565],[-45.7505519,-22.6712425],[-45.6979552,-22.6497703],[-45.7174694,-22.6210098],[-45.73669,-22.6101504],[-45.7267937,-22.587023],[-45.6605737,-22.5778408],[-45.6661076,-22.6126952],[-45.6810783,-22.6363357],[-45.6661848,-22.6512012],[-45.6181281,-22.6379141],[-45.5793868,-22.6053855],[-45.5599393,-22.6276023],[-45.5659653,-22.6565228],[-45.4888005,-22.6287852],[-45.4738566,-22.5888942],[-45.4355472,-22.6183207],[-45.4129317,-22.6222155],[-45.4105211,-22.651671],[-45.3609582,-22.6387614],[-45.332962,-22.6176392],[-45.2614069,-22.6071156],[-45.2545407,-22.5816243],[-45.1645153,-22.5379287],[-45.1600093,-22.5169168],[-45.1284594,-22.4971103],[-45.0826458,-22.4863677],[-45.0549289,-22.470504],[-44.9918141,-22.4661729],[-44.9698484,-22.4719446],[-44.9400702,-22.4526691],[-44.8976822,-22.4491138],[-44.8897308,-22.432124],[-44.8595994,-22.4230432],[-44.8302314,-22.4281434],[-44.8079839,-22.4141112],[-44.804196,-22.3944705],[-44.7302412,-22.3611199],[-44.6592574,-22.3743731],[-44.6274461,-22.3459444],[-44.626141,-22.3353834],[-44.592428,-22.3228686],[-44.555208,-22.3306953],[-44.5302293,-22.3231889],[-44.4633792,-22.2763202],[-44.4563461,-22.2571521],[-44.4332095,-22.2514083],[-44.3768855,-22.2682984],[-44.3524219,-22.2576839],[-44.3170128,-22.2593875],[-44.2845176,-22.2435627],[-44.2635061,-22.2434359],[-44.2498362,-22.2604013],[-44.2236691,-22.2599392],[-44.1807049,-22.2335714],[-44.141684,-22.2203866],[-44.1172885,-22.1899042],[-44.0603543,-22.1602258],[-44.0338174,-22.1522504],[-43.998022,-22.1559339],[-43.9648813,-22.1393525],[-43.8796514,-22.1140214],[-43.8579706,-22.0950507],[-43.8423705,-22.0996411],[-43.7748424,-22.0657263],[-43.7314476,-22.0962232],[-43.7148551,-22.0824404],[-43.6812941,-22.071777],[-43.6720908,-22.0903495],[-43.6464278,-22.0648524],[-43.6128889,-22.0822966],[-43.5923143,-22.0562575],[-43.559605,-22.083812],[-43.5248272,-22.0724075],[-43.4636785,-22.0726508],[-43.3685753,-22.0205074],[-43.3650143,-22.0104667],[-43.3162356,-22.0076697],[-43.2949277,-22.0164932],[-43.245467,-22.0065741],[-43.2215116,-22.0337609],[-43.1776488,-22.0285688],[-43.1441576,-22.0337312],[-43.1333747,-22.0584097],[-43.1537114,-22.0741605],[-43.142258,-22.1044469],[-43.1061821,-22.0826565],[-43.0750405,-22.093392],[-43.0331612,-22.0659049],[-43.0391521,-22.0445945],[-42.9969043,-22.0361104],[-42.9689855,-22.014895],[-42.9091062,-21.9905067],[-42.8814275,-21.9592662],[-42.7877903,-21.9295698],[-42.6849644,-21.8791981],[-42.6143208,-21.8558872],[-42.6043803,-21.8455572],[-42.4491667,-21.7803726],[-42.3956274,-21.7616407],[-42.3590328,-21.7409898],[-42.3334621,-21.7458488],[-42.3065855,-21.7284474],[-42.2701123,-21.7172716],[-42.2649348,-21.6938637],[-42.301341,-21.6549221],[-42.3401909,-21.6592984],[-42.3651522,-21.6464585],[-42.3615684,-21.6023468],[-42.324772,-21.5694436],[-42.3025261,-21.5389146],[-42.2856011,-21.5281202],[-42.2555846,-21.483612],[-42.2921249,-21.4592381],[-42.2753662,-21.4283085],[-42.2550888,-21.4097667],[-42.2519754,-21.3871971],[-42.2300242,-21.3664945],[-42.2379724,-21.3194524],[-42.2286368,-21.2820599],[-42.1897249,-21.250506],[-42.1944335,-21.2017374],[-42.2080744,-21.1782247],[-42.1915706,-21.1471176],[-42.1706476,-21.1286444],[-42.1640269,-21.1010601],[-42.1402155,-21.103472],[-42.1333095,-21.0807075],[-42.1046812,-21.0550927],[-42.0848094,-21.0229899],[-42.1413633,-20.9926409],[-42.15095,-20.974029],[-42.1380367,-20.9600489],[-42.10129,-20.9435143],[-42.0477841,-20.9347277],[-42.0376544,-20.9269847],[-41.9933027,-20.9304709],[-41.9666893,-20.9169515],[-41.9673098,-20.8985727],[-41.926707,-20.8387898],[-41.9287363,-20.7943273],[-41.9019903,-20.7966257],[-41.873357,-20.7706554],[-41.8482132,-20.6869247],[-41.8132318,-20.6532647],[-41.8205019,-20.6277853],[-41.8509385,-20.6212613],[-41.8283912,-20.5572962],[-41.8042989,-20.5384028],[-41.8254228,-20.4832588],[-41.7994356,-20.4772833],[-41.8033904,-20.4222379],[-41.8343104,-20.4114577],[-41.8595116,-20.3728426],[-41.8418651,-20.3265497],[-41.7805008,-20.2819885],[-41.7567537,-20.206866],[-41.4111404,-20.2073696],[-41.3821145,-20.1888131],[-41.338194,-20.0881176],[-41.3335563,-20.0588396],[-41.3091067,-20.0163706],[-41.311799,-19.9724195],[-41.3008581,-19.9365254],[-41.2726601,-19.9424386],[-41.2444702,-19.9373418],[-41.2280447,-19.9049851],[-41.2066347,-19.9040544],[-41.1851882,-19.8899338],[-41.1840042,-19.8488244],[-41.1641051,-19.8063868],[-41.1746414,-19.7672385],[-41.188713,-19.7461752],[-41.1743057,-19.7156371],[-41.1768883,-19.6986979],[-41.1589784,-19.6613765],[-41.1386263,-19.6587247],[-41.1086014,-19.6394668],[-41.0997877,-19.604813],[-41.0741098,-19.5986638],[-41.0719177,-19.5844082],[-41.0368602,-19.570457],[-41.0449672,-19.5385621],[-41.0466927,-19.4873997],[-41.0144828,-19.5063912],[-40.9722382,-19.505295],[-40.9502249,-19.4581991],[-40.96792,-19.4304373],[-40.9507131,-19.3929999],[-40.9304484,-19.3841516],[-40.9384679,-19.3460655],[-40.9076927,-19.3088127],[-40.9327768,-19.296053],[-40.9217079,-19.2701228],[-40.9386484,-19.2493826],[-40.9259317,-19.1896977],[-40.9621344,-19.1394986],[-40.9628916,-19.1215583],[-41.0087437,-19.0993299],[-41.0126044,-19.0758017],[-41.0546229,-19.0684054],[-41.0715757,-19.0256493],[-41.0617701,-19.0063175],[-41.0322203,-18.9908474],[-41.0614954,-18.9676902],[-41.0646541,-18.9452654],[-41.1036739,-18.9340607],[-41.1268471,-18.8945065],[-41.1529583,-18.8866091],[-41.1663607,-18.8582317],[-41.1990073,-18.8633344],[-41.2147844,-18.8776398],[-41.2435824,-18.8527491],[-41.2454775,-18.8219591],[-41.2325444,-18.7972788],[-41.1341302,-18.7960413],[-41.1105065,-18.8389374],[-41.0191307,-18.837302],[-40.9639135,-18.8411701],[-40.9167726,-18.8155434],[-40.9400042,-18.7702862],[-40.9414976,-18.6892947],[-40.9520614,-18.6808293],[-41.0052269,-18.667277],[-41.0508923,-18.634154],[-41.0419885,-18.6054031],[-41.0158793,-18.4767544],[-41.0230287,-18.4572609],[-41.1730831,-18.4427969],[-41.1807981,-18.4326826],[-41.1481022,-18.3791507],[-41.1474978,-18.3533812],[-41.1589207,-18.3082435],[-41.0971916,-18.2565812],[-41.1044479,-18.2132768],[-41.0927345,-18.1954013],[-41.0560846,-18.1666211],[-41.0145895,-18.1575794],[-40.9932169,-18.1662347],[-40.9741926,-18.142105],[-40.9500038,-18.1292866],[-40.9322096,-18.1364835],[-40.9092833,-18.1148302],[-40.8775551,-18.1194293],[-40.8450758,-18.149813],[-40.7714961,-18.15594],[-40.7733033,-18.1075627],[-40.8869894,-18.000641],[-40.8631315,-17.9883169],[-40.8305529,-17.95418],[-40.8081616,-17.9520472],[-40.7507676,-18.0099088],[-40.725769,-18.0012172],[-40.7036834,-18.023727],[-40.6905241,-18.0127127],[-40.6594357,-18.0109292],[-40.6460308,-17.9935612],[-40.6261519,-17.9910539],[-40.621884,-17.960566],[-40.6095329,-17.9376588],[-40.5871613,-17.9390208],[-40.5679302,-17.9160293],[-40.5168219,-17.8944233],[-40.5033329,-17.9106792],[-40.4841295,-17.9086447],[-40.462738,-17.9282124],[-40.4450547,-17.9188255],[-40.4174187,-17.9270343],[-40.3678286,-17.9226325],[-40.3339556,-17.9273598],[-40.3234355,-17.9389442],[-40.2553548,-17.9717994],[-40.2223506,-17.9804174],[-40.2268229,-17.9582598],[-40.2654631,-17.9323213],[-40.2635475,-17.9220233],[-40.2126577,-17.8957941],[-40.1741273,-17.8515612],[-40.2180757,-17.795659],[-40.2136573,-17.7536875],[-40.2207966,-17.7372474],[-40.2703222,-17.7270585],[-40.2955147,-17.6994936],[-40.2990206,-17.6745676],[-40.3228247,-17.6613147],[-40.334049,-17.6321484],[-40.3614456,-17.6366708],[-40.3799343,-17.6113093],[-40.3968117,-17.6256053],[-40.4182146,-17.5990974],[-40.4106843,-17.5682273],[-40.4604149,-17.5685022],[-40.4751989,-17.5337778],[-40.4890624,-17.5197897],[-40.4824147,-17.4925902],[-40.5209414,-17.4583486],[-40.520579,-17.4448113],[-40.5541591,-17.4355679],[-40.5700817,-17.4158915],[-40.5975065,-17.4206333],[-40.6046846,-17.3561943],[-40.5948417,-17.3235648],[-40.572244,-17.2947661],[-40.5528438,-17.2875212],[-40.5722499,-17.2513728],[-40.5583942,-17.2306761],[-40.5523839,-17.1991531],[-40.5725269,-17.1823691],[-40.5791587,-17.1482483],[-40.5629147,-17.1263273],[-40.5567855,-17.089602],[-40.5714143,-17.0638855],[-40.559856,-17.0416056],[-40.5454433,-16.9841997],[-40.5169976,-16.9610515],[-40.4971418,-16.9173327],[-40.4923269,-16.8873987],[-40.4592914,-16.8787617],[-40.4157167,-16.8995006],[-40.3759008,-16.8858723],[-40.366485,-16.8741723],[-40.331523,-16.9080273],[-40.3027738,-16.8922436],[-40.2816371,-16.9011836],[-40.2719675,-16.8701937],[-40.2521215,-16.8600506],[-40.2508293,-16.8311546],[-40.2700764,-16.7953294],[-40.3236055,-16.8012692],[-40.3358372,-16.7797142],[-40.3101667,-16.7362155],[-40.3030011,-16.7036876],[-40.3129879,-16.6754341],[-40.298248,-16.652466],[-40.2880446,-16.5996895],[-40.2754901,-16.5734177],[-40.2298106,-16.5614449],[-40.1578974,-16.5794549],[-40.1544457,-16.5654902],[-40.1701688,-16.5312792],[-40.1406657,-16.4967728],[-40.1033027,-16.4370103],[-40.0794094,-16.4642299],[-40.0657978,-16.4575202],[-40.0627169,-16.4319863],[-40.0455701,-16.4220389],[-40.0258067,-16.3664681],[-39.991102,-16.3127343],[-39.9604959,-16.3218827],[-39.9522397,-16.2978551],[-39.9201017,-16.2637394],[-39.9365211,-16.2457808],[-39.898403,-16.2013672],[-39.8833906,-16.194693],[-39.8805142,-16.1437454],[-39.8568289,-16.1138248],[-39.8746732,-16.0940679],[-39.8820034,-16.068033],[-39.9221984,-16.0286254],[-39.9147979,-15.9999934],[-39.9557464,-15.9914283],[-39.9699071,-16.0041514],[-40.0044365,-16.0018382],[-40.0136907,-15.9840065],[-40.0457735,-15.9623563],[-40.0611601,-15.9640017],[-40.0748468,-15.9200533],[-40.1493,-15.9053675],[-40.1647447,-15.9102313],[-40.1739661,-15.8704902],[-40.2074987,-15.8473114],[-40.2375823,-15.8050556],[-40.274711,-15.8180443],[-40.3210087,-15.82074],[-40.3567198,-15.8130148],[-40.3779678,-15.8184217],[-40.4281657,-15.8017066],[-40.4324702,-15.7786532],[-40.4614286,-15.7532317],[-40.4841247,-15.7757966],[-40.5063082,-15.7669015],[-40.5398103,-15.7947951],[-40.5649021,-15.8015478],[-40.5674174,-15.7759231],[-40.5930999,-15.7717467],[-40.6010286,-15.7434102],[-40.6260312,-15.7182097],[-40.6449466,-15.7288594],[-40.6611991,-15.7071257],[-40.6823087,-15.6990212],[-40.7005752,-15.667309],[-40.7321546,-15.674899],[-40.7398608,-15.7036467],[-40.7676637,-15.7140794],[-40.7859479,-15.6922641],[-40.7803371,-15.680198],[-40.8190283,-15.646342],[-40.8313144,-15.6706535],[-40.8554496,-15.6871571],[-40.9025697,-15.6918421],[-40.9143317,-15.6609776],[-40.9616145,-15.6479315],[-40.9780972,-15.6881049],[-41.0060594,-15.7138373],[-41.0362729,-15.7138165],[-41.0484153,-15.72387],[-41.0775579,-15.7192879],[-41.0981309,-15.7410515],[-41.1215557,-15.7430118],[-41.1425302,-15.772047],[-41.1562845,-15.7613763],[-41.197049,-15.7503601],[-41.2153964,-15.7371659],[-41.2717587,-15.74813],[-41.2929477,-15.7390055],[-41.3312061,-15.7446734],[-41.3564227,-15.5002861],[-41.4994053,-15.3726109],[-41.8034068,-15.0997373],[-41.8483105,-15.1168421],[-41.8704306,-15.1151801],[-41.8970388,-15.1518993],[-41.9534344,-15.1756645],[-41.9946916,-15.1588745],[-42.0960683,-15.1824421],[-42.1163062,-15.1441201],[-42.1499067,-15.1203495],[-42.1553586,-15.0978508],[-42.2231295,-15.0995589],[-42.2589842,-15.1220829],[-42.2826217,-15.1178927],[-42.337247,-15.0804663],[-42.354907,-15.0982031],[-42.3718571,-15.0736296],[-42.3964917,-15.0779916],[-42.4443207,-15.0556059],[-42.4435981,-15.0206461],[-42.4759116,-15.0170404],[-42.4957414,-14.9948584],[-42.5606855,-14.9622972],[-42.5855825,-14.9316028],[-42.6042125,-14.9261189],[-42.6207127,-14.9436952],[-42.648629,-14.9299879],[-42.7041635,-14.8828283],[-42.7233598,-14.8856124],[-42.7472194,-14.8677547],[-42.7551378,-14.8464214],[-42.790992,-14.8393791],[-42.8202472,-14.8206286],[-42.8423875,-14.796068],[-42.8808002,-14.7692902],[-42.9038303,-14.7619561],[-42.9121978,-14.7444719],[-42.9526882,-14.7084023],[-42.9773253,-14.6983871],[-43.0109473,-14.7016622],[-43.0383074,-14.6828079],[-43.0663892,-14.6805592],[-43.0839365,-14.6982726],[-43.1011077,-14.6754951],[-43.1514964,-14.6663341],[-43.1763498,-14.6505438],[-43.2076646,-14.6583546],[-43.2450549,-14.6565111],[-43.2981427,-14.6760843],[-43.3112274,-14.6697481],[-43.3541617,-14.698089],[-43.3727734,-14.6991056],[-43.4253132,-14.7199792],[-43.4562273,-14.7401572],[-43.4721724,-14.7623647],[-43.4783768,-14.792051],[-43.5391991,-14.805736],[-43.5416401,-14.7791284],[-43.5907803,-14.7508694],[-43.6150001,-14.7598926],[-43.6590308,-14.7448733],[-43.6971108,-14.7237147],[-43.7198617,-14.7295389],[-43.7262579,-14.6981614],[-43.8005063,-14.6873135],[-43.8468677,-14.672105],[-43.859201,-14.6742988],[-43.8835365,-14.6525478],[-43.8746779,-14.6221557],[-43.8748336,-14.5245471],[-43.8319646,-14.4430072],[-43.8193879,-14.3893051],[-43.7831867,-14.3392337],[-43.8000853,-14.3378272],[-43.8361445,-14.3111487],[-43.8514245,-14.3190739],[-43.8924798,-14.3010168],[-43.9208304,-14.2978039],[-44.0061526,-14.2673641],[-44.034621,-14.2890284],[-44.0744512,-14.2706396],[-44.0882868,-14.2780763],[-44.1145298,-14.2600439],[-44.1603345,-14.2577596],[-44.1703803,-14.268695],[-44.2091227,-14.2466719],[-44.2544262,-14.2520572],[-44.2720059,-14.2466422],[-44.302338,-14.2532425],[-44.3164832,-14.2403492],[-44.3405958,-14.2494003],[-44.3615887,-14.2728126],[-44.4286006,-14.2866355],[-44.4399007,-14.303662],[-44.48314,-14.3221174],[-44.5108436,-14.3226879],[-44.5427329,-14.3405294],[-44.5655652,-14.34006],[-44.5983693,-14.3685005],[-44.6255951,-14.3761099],[-44.6588784,-14.3957573],[-44.6742097,-14.4244958],[-44.6883532,-14.4166809],[-44.7256578,-14.4576492],[-44.7567426,-14.4783805],[-44.7693734,-14.4773383],[-44.8107661,-14.5031012],[-44.8345748,-14.5074923],[-44.8300094,-14.5334442],[-44.8481798,-14.5469245],[-44.8691947,-14.5933847],[-44.8910165,-14.5976553],[-44.9166802,-14.6196603],[-44.9729068,-14.6387713],[-44.9957479,-14.6678154],[-45.0319311,-14.6761701],[-45.0476938,-14.690537],[-45.0650718,-14.7308658],[-45.0827727,-14.7487667],[-45.1362896,-14.7474168],[-45.1720166,-14.7346788],[-45.2055737,-14.7447389],[-45.2397938,-14.7818437],[-45.3164204,-14.8512552],[-45.3477947,-14.8625688],[-45.3555693,-14.8775076],[-45.4102964,-14.9234388],[-45.4344688,-14.9217511],[-45.4588234,-14.9542124],[-45.4900515,-14.9607627],[-45.534729,-14.9382576],[-45.5667394,-14.944853],[-45.5670507,-14.9564953],[-45.6027119,-14.9895328],[-45.6246188,-15.0213685],[-45.6570586,-15.0273493],[-45.6558189,-15.04853],[-45.6748119,-15.0805426],[-45.7189107,-15.0973973],[-45.72163,-15.1122288],[-45.7511095,-15.1225822],[-45.8116655,-15.1128378],[-45.8343296,-15.1366657],[-45.871247,-15.1588109],[-45.9029162,-15.1403797],[-45.9559093,-15.1406663],[-45.9845053,-15.195961],[-46.0295237,-15.2018083],[-46.0385625,-15.2309154],[-46.058113,-15.2627418],[-46.0991099,-15.238269],[-46.0988173,-15.2167858],[-46.1189155,-15.2020783],[-46.0787231,-15.1755061],[-46.0477756,-15.1637296],[-46.0437202,-15.1181296],[-46.0284766,-15.1141102],[-46.0184972,-15.0813013],[-45.9754941,-15.0388816],[-45.9748679,-15.0046751],[-45.9660809,-14.9656455],[-45.9958369,-14.9274706],[-46.0056362,-14.900051],[-46.0375749,-14.8746562],[-46.0485611,-14.8782827],[-46.0881416,-14.9363926],[-46.110393,-14.9370152],[-46.1203001,-14.9200586],[-46.1615537,-14.9310482],[-46.1755505,-14.9494252],[-46.2113038,-14.9369656],[-46.2322235,-14.9222961],[-46.2600565,-14.9300408],[-46.2868648,-14.9281457],[-46.29467,-14.9086131],[-46.3193358,-14.900439],[-46.3181674,-14.8832583],[-46.3004725,-14.8580787],[-46.325087,-14.8456231],[-46.3221999,-14.8145803],[-46.3657836,-14.795406],[-46.4045319,-14.7603312],[-46.4238049,-14.7559729],[-46.4473617,-14.7316769],[-46.4631397,-14.7311744],[-46.4765621,-14.7050974],[-46.5097242,-14.7160762],[-46.5102818,-14.7382606],[-46.5441922,-14.7530124],[-46.5432281,-14.7686732],[-46.5638389,-14.7833849],[-46.5585055,-14.8221536],[-46.5319268,-14.8302984],[-46.521556,-14.8511795],[-46.5465359,-14.9254445],[-46.5408375,-14.9516036],[-46.5210077,-14.967394],[-46.5308107,-15.0052785],[-46.502722,-15.0508979],[-46.5513197,-15.0638756],[-46.5753084,-15.0836319],[-46.6280595,-15.0894905],[-46.6515351,-15.0846034],[-46.6816692,-15.0586204],[-46.7264771,-15.0384155],[-46.7818569,-15.0193214],[-46.8205547,-15.0107669],[-46.856899,-15.010266],[-46.8641705,-15.0203851],[-46.9205918,-15.050859],[-46.9260374,-15.0735624],[-46.8977634,-15.0942172],[-46.8884431,-15.1156449],[-46.9373469,-15.2050198],[-46.9408666,-15.2307016],[-46.9276553,-15.2550953],[-46.8914846,-15.2352596],[-46.8893183,-15.2822469],[-46.8753369,-15.2839233],[-46.8356758,-15.3251277],[-46.847957,-15.3467604],[-46.8494784,-15.373164],[-46.9151246,-15.4148348],[-46.9293133,-15.4399397],[-46.9324305,-15.4831717],[-46.9442146,-15.5181869],[-46.948688,-15.5578444],[-46.9177476,-15.5900078],[-46.8548835,-15.6183005],[-46.8557027,-15.6831245],[-46.8424533,-15.714671],[-46.8271475,-15.7299712],[-46.8274702,-15.7512492],[-46.813149,-15.7872043],[-46.8232217,-15.8246331],[-46.8055018,-15.8593948],[-46.8074991,-15.880776],[-46.9843092,-15.9240313],[-47.0603838,-15.9400587],[-47.0768869,-15.9581333],[-47.1149112,-15.9536681],[-47.1386268,-15.9290202],[-47.1717381,-15.9541297],[-47.1672988,-15.9683774],[-47.2095607,-15.9926771],[-47.2217175,-16.0121546],[-47.2447732,-16.017722],[-47.2765091,-16.0093563],[-47.2967716,-16.0153307],[-47.3126323,-16.0416747],[-47.3047149,-16.0598468],[-47.3131586,-16.0856078],[-47.3329111,-16.0867316],[-47.336561,-16.1194875],[-47.3505851,-16.1385341],[-47.3319567,-16.1717392],[-47.3345377,-16.1983935],[-47.3219811,-16.2314256],[-47.334288,-16.2585865],[-47.3516084,-16.2754134],[-47.3524215,-16.3066762],[-47.3654888,-16.3298811],[-47.4030493,-16.3759185],[-47.4201416,-16.3831948],[-47.4269215,-16.4340202],[-47.4461699,-16.4501464],[-47.4595246,-16.5041259],[-47.4442298,-16.5393026],[-47.4060723,-16.5578251],[-47.3744293,-16.584915],[-47.3011068,-16.6249778],[-47.2737876,-16.6619406],[-47.2508621,-16.6648074],[-47.2461895,-16.700457],[-47.2289826,-16.7121525],[-47.2364892,-16.7553454],[-47.2197008,-16.7780734],[-47.2211844,-16.8077662],[-47.2064375,-16.8383888],[-47.2031153,-16.8928856],[-47.1818762,-16.9013299],[-47.1672751,-16.9526489],[-47.1294759,-16.9751591],[-47.1441213,-16.9909364],[-47.146632,-17.032326],[-47.1780595,-17.0407701],[-47.2055403,-17.0706816],[-47.2395492,-17.0836899],[-47.2819575,-17.1148932],[-47.2827101,-17.1440996],[-47.3265203,-17.1541597],[-47.3484877,-17.176223],[-47.3661276,-17.2217757],[-47.4078156,-17.2459561],[-47.4178482,-17.2704629],[-47.4228662,-17.3230893],[-47.4378685,-17.3178782],[-47.4600437,-17.3441505],[-47.5166009,-17.3461032],[-47.5145067,-17.3749523],[-47.5340531,-17.4005259],[-47.5282939,-17.4388645],[-47.4911741,-17.5187779],[-47.4772836,-17.5127848],[-47.4547257,-17.541786],[-47.4314768,-17.5237402],[-47.4004487,-17.5118175],[-47.3744483,-17.5235951],[-47.3254145,-17.5238006],[-47.3066249,-17.5584603],[-47.288674,-17.5707342],[-47.2648038,-17.6113892],[-47.2807997,-17.6476307],[-47.2713657,-17.6658635],[-47.3137022,-17.698963],[-47.3169505,-17.7252432],[-47.3421123,-17.746645],[-47.3329179,-17.7683927],[-47.3532807,-17.7880863],[-47.3507473,-17.8139461],[-47.365876,-17.834548],[-47.3428603,-17.898624],[-47.3412829,-17.9348564],[-47.3129613,-17.9618874],[-47.3230084,-17.9831567],[-47.2830694,-18.0442692],[-47.2841576,-18.0587195],[-47.3576318,-18.0852333],[-47.3700398,-18.1160146],[-47.3918894,-18.1168725],[-47.4286403,-18.1399176],[-47.4629873,-18.1766911],[-47.4806058,-18.1783207],[-47.4969651,-18.1990171],[-47.539358,-18.2150381],[-47.5882303,-18.2264318],[-47.6070005,-18.2462041],[-47.6073287,-18.263959],[-47.63877,-18.2876781],[-47.6106129,-18.313336],[-47.6461849,-18.3402287],[-47.6624567,-18.3350847],[-47.6940404,-18.3749681],[-47.7369631,-18.3626023],[-47.7571061,-18.4098729],[-47.7790168,-18.4241351],[-47.810572,-18.4001154],[-47.829735,-18.4113034],[-47.8387927,-18.4517602],[-47.8579639,-18.4390126],[-47.8879121,-18.4772192],[-47.914274,-18.4665778],[-47.9295493,-18.4878432],[-47.9631962,-18.4937609],[-47.9966664,-18.4535262],[-48.0380723,-18.4347123],[-48.0474563,-18.4176461],[-48.0681178,-18.4267065],[-48.1107876,-18.428594],[-48.1465333,-18.4095445],[-48.1593809,-18.3755081],[-48.2214763,-18.3619685],[-48.2279685,-18.344975],[-48.2567775,-18.342977],[-48.2750115,-18.3291113],[-48.287235,-18.3472136],[-48.318073,-18.3670951],[-48.4000129,-18.3728089],[-48.4111716,-18.3576201],[-48.4420499,-18.3566186],[-48.484114,-18.3785746],[-48.4927768,-18.352975],[-48.5156492,-18.3664159],[-48.5545426,-18.3469494],[-48.5614147,-18.3238865],[-48.6023528,-18.3348221],[-48.6338249,-18.3276484],[-48.6471697,-18.3438906],[-48.7422953,-18.3524984],[-48.7577234,-18.3447611],[-48.7871685,-18.3532014],[-48.8280249,-18.3752488],[-48.8320838,-18.3461352],[-48.8727515,-18.3328468],[-48.8882794,-18.3170959],[-48.9367738,-18.3062076],[-48.9711389,-18.3304868],[-48.9815012,-18.3563742],[-49.0059642,-18.374359],[-49.0296362,-18.36882],[-49.0487005,-18.3974989],[-49.0790512,-18.4166711],[-49.1263129,-18.3843143],[-49.1614616,-18.4182148],[-49.2025283,-18.4292342],[-49.1925855,-18.4497216],[-49.2293182,-18.4803786],[-49.2540865,-18.5259333],[-49.2856353,-18.536312],[-49.2934845,-18.564679],[-49.3274973,-18.5622003],[-49.3438841,-18.5978656],[-49.3850575,-18.6460619],[-49.4057131,-18.645098],[-49.455975,-18.5778985],[-49.4817256,-18.5605478],[-49.4862851,-18.5064576],[-49.499833,-18.4910228],[-49.5353064,-18.4918071],[-49.5470403,-18.5058336],[-49.5422743,-18.5310208],[-49.5570987,-18.546576],[-49.5752534,-18.5423262],[-49.6420083,-18.5552431],[-49.6669645,-18.5906591],[-49.6937324,-18.590641],[-49.7328262,-18.616023],[-49.7721992,-18.6132646],[-49.7848196,-18.6422477],[-49.8197929,-18.6325772],[-49.8361535,-18.6366896],[-49.870211,-18.6143407],[-49.9316515,-18.6239931],[-49.9738163,-18.6143197],[-49.9814547,-18.6046454],[-50.0200643,-18.5993635],[-50.0400977,-18.6138345],[-50.0502051,-18.6435418],[-50.0800431,-18.6722438],[-50.164288,-18.6643525],[-50.1988769,-18.6790799],[-50.2502634,-18.6778911],[-50.31449,-18.7007498],[-50.3523236,-18.7602978],[-50.3656856,-18.7944115],[-50.3862367,-18.819731],[-50.4234927,-18.8326532],[-50.4434358,-18.8941156],[-50.468216,-18.9191611],[-50.5056842,-18.9322003],[-50.5118782,-18.9519649],[-50.5006273,-18.9762627],[-50.4950762,-19.0128685],[-50.5049146,-19.0507551],[-50.5351625,-19.0988871],[-50.5730293,-19.1223828],[-50.5877655,-19.1399476],[-50.6567471,-19.1336973],[-50.6776879,-19.1398107],[-50.671757,-19.1627133],[-50.6838926,-19.1760808],[-50.7341529,-19.187695],[-50.7403721,-19.2131638]]],"bbox":[-51.0460818,-22.9227553,-39.8568289,-14.2403492]}
