{"type":"Topology","objects":{"geometrias":{"type":"GeometryCollection","geometries":[{"type":"Polygon","arcs":[[0]],"properties":{"code_state":53,"code_region":5,"name_state":"Distrito Federal","abbrev_state":"DF","name_region":"Centro-Oeste","year":2020}}]}},"arcs":[[[-47.4184069,-15.5456571],[-47.4184069,-15.5018199],[-48.200009,-15.5022782],[-48.1997298,-15.622914],[-48.2182154,-15.6233359],[-48.2341602,-15.6419091],[-48.2346164,-15.666869],[-48.241331,-15.6867065],[-48.2376815,-15.7085121],[-48.2188077,-15.708974],[-48.2088841,-15.7153612],[-48.2079954,-15.740932],[-48.2096863,-15.754044],[-48.2159886,-15.7662819],[-48.2318914,-15.7784392],[-48.2429068,-15.7973121],[-48.2566151,-15.8018137],[-48.280657,-15.8239459],[-48.2858068,-15.8445339],[-48.2791581,-15.8601453],[-48.2804633,-15.8669385],[-48.2716483,-15.883715],[-48.276424,-15.8924724],[-48.2771091,-15.9074416],[-48.2693196,-15.9131325],[-48.2763642,-15.9312376],[-48.2587351,-15.9296878],[-48.2513341,-15.9378198],[-48.2513944,-15.955654],[-48.2602699,-15.9668678],[-48.2579612,-15.9728194],[-48.2662799,-16.0012797],[-48.2724265,-16.0089627],[-48.2698835,-16.0222086],[-48.278575,-16.0414979],[-48.2778112,-16.0495978],[-47.3085041,-16.0499714],[-47.3224688,-16.026514],[-47.3256782,-16.0296187],[-47.3485985,-16.0062169],[-47.3584408,-16.0085753],[-47.3690542,-16.0032595],[-47.377712,-15.9750638],[-47.3785962,-15.962185],[-47.368462,-15.9469457],[-47.3735671,-15.937078],[-47.3620936,-15.9292016],[-47.3692835,-15.9175727],[-47.3788324,-15.8842243],[-47.3719887,-15.8740795],[-47.3680761,-15.8532481],[-47.368099,-15.8356435],[-47.3630044,-15.8248228],[-47.3394977,-15.7949824],[-47.3376446,-15.7850143],[-47.3274445,-15.7721356],[-47.3259497,-15.7610215],[-47.313691,-15.7448666],[-47.3207455,-15.7230306],[-47.3152244,-15.7153756],[-47.3124896,-15.6972871],[-47.3281031,-15.6889177],[-47.3266032,-15.652618],[-47.3319763,-15.628512],[-47.3222391,-15.5980489],[-47.3208407,-15.5865891],[-47.334538,-15.5877523],[-47.3471881,-15.579354],[-47.3593005,-15.5803663],[-47.3765167,-15.5766676],[-47.3806179,-15.5668999],[-47.3897658,-15.5671883],[-47.4027651,-15.5474564],[-47.4184069,-15.5456571]]],"bbox":[-48.2858068,-16.0499714,-47.3085041,-15.5018199]}
