{"type":"Topology","objects":{"geometrias":{"type":"GeometryCollection","geometries":[{"type":"Polygon","arcs":[[0]],"properties":{"code_state":26,"code_region":2,"name_state":"Pernambuco","abbrev_state":"PE","name_region":"Nordeste","year":2020}}]}},"arcs":[[[-37.9571411,-7.7618093],[-38.003971,-7.7789864],[-38.0395816,-7.7481191],[-38.0694783,-7.7723243],[-38.0770694,-7.8305796],[-38.1161782,-7.8225602],[-38.1391963,-7.7862381],[-38.164219,-7.7799088],[-38.2385707,-7.8307261],[-38.2933511,-7.8230459],[-38.2946014,-7.7779702],[-38.3266856,-7.6937045],[-38.3549779,-7.6784252],[-38.4095078,-7.7304933],[-38.4639757,-7.7308921],[-38.5249571,-7.7546448],[-38.5601296,-7.7570921],[-38.6070728,-7.7402984],[-38.6264385,-7.6947249],[-38.6867416,-7.6350403],[-38.7237265,-7.626884],[-38.7418222,-7.6483733],[-38.8121916,-7.6687972],[-38.8219622,-7.7147944],[-38.8688517,-7.7111798],[-38.8813975,-7.7474323],[-38.9395781,-7.7587726],[-38.9397983,-7.7915557],[-38.9822446,-7.8461256],[-39.0537557,-7.8193046],[-39.0853502,-7.8517125],[-39.1063539,-7.7602263],[-39.1437127,-7.718547],[-39.1710014,-7.7152403],[-39.2083352,-7.6894803],[-39.250388,-7.698443],[-39.2703214,-7.6598973],[-39.3055665,-7.6659316],[-39.376095,-7.6117724],[-39.4196561,-7.6044123],[-39.4349335,-7.5737228],[-39.4716808,-7.5758006],[-39.4851642,-7.534449],[-39.4556775,-7.5018609],[-39.4607476,-7.471219],[-39.5023605,-7.4641484],[-39.5528279,-7.4806568],[-39.5715905,-7.4298313],[-39.6289072,-7.4256285],[-39.6457183,-7.3808781],[-39.7061889,-7.3377612],[-39.7413221,-7.3268166],[-39.8286958,-7.3323702],[-39.8576968,-7.3254287],[-39.926345,-7.3409989],[-40.000707,-7.3744783],[-40.1277543,-7.381915],[-40.1956847,-7.3581487],[-40.2629956,-7.3010209],[-40.3185632,-7.3033404],[-40.3609839,-7.3556007],[-40.3938781,-7.3681684],[-40.4335917,-7.3671782],[-40.5237232,-7.3184505],[-40.5415082,-7.3322691],[-40.5484637,-7.3926915],[-40.7012014,-7.4563563],[-40.713786,-7.4939106],[-40.6940806,-7.5387189],[-40.6491182,-7.5907642],[-40.6265611,-7.6316836],[-40.6277497,-7.6849895],[-40.6718643,-7.7356058],[-40.675657,-7.7526832],[-40.6451665,-7.786799],[-40.5684048,-7.8087586],[-40.538124,-7.8569373],[-40.5442221,-7.9645971],[-40.5987568,-8.0808577],[-40.5896984,-8.1388083],[-40.6435661,-8.1575368],[-40.700588,-8.2026077],[-40.7110611,-8.2250615],[-40.782482,-8.253304],[-40.7798798,-8.3019327],[-40.8178961,-8.3204902],[-40.8193187,-8.3623573],[-40.8585913,-8.3796108],[-40.872523,-8.3574101],[-40.9076155,-8.3989872],[-40.9015354,-8.421627],[-40.925149,-8.4463261],[-40.9813794,-8.3979296],[-41.0389906,-8.4318292],[-41.0575952,-8.477658],[-41.078927,-8.4725032],[-41.0904899,-8.5126255],[-41.1161848,-8.5372691],[-41.1483768,-8.5330293],[-41.1652615,-8.5778868],[-41.1985662,-8.5924771],[-41.2135429,-8.6441555],[-41.2513183,-8.6616086],[-41.287434,-8.6608391],[-41.3343516,-8.7276615],[-41.2815376,-8.7361004],[-41.2269785,-8.7047021],[-41.1764047,-8.7111943],[-41.1329,-8.7043243],[-41.1289892,-8.7433931],[-41.1033511,-8.780443],[-41.0362345,-8.7858759],[-41.0212409,-8.8435609],[-40.9790937,-8.8234171],[-40.9030382,-8.8586189],[-40.8812337,-8.9156278],[-40.8515959,-8.952499],[-40.8519585,-8.9825849],[-40.8252311,-9.0381866],[-40.820067,-9.0812587],[-40.7098893,-9.140881],[-40.685094,-9.1376102],[-40.6698732,-9.1861325],[-40.6945004,-9.2334556],[-40.6800885,-9.2592117],[-40.7200882,-9.3058967],[-40.7464789,-9.3710522],[-40.7430889,-9.4029455],[-40.7649756,-9.4132164],[-40.7672889,-9.4457041],[-40.7221786,-9.4459485],[-40.6358627,-9.4810228],[-40.5557585,-9.4579381],[-40.5408152,-9.4240433],[-40.5107266,-9.4071789],[-40.4741747,-9.4207922],[-40.4538185,-9.4035174],[-40.4358983,-9.3621587],[-40.3563971,-9.3769943],[-40.3077871,-9.2713207],[-40.2861727,-9.1856114],[-40.294012,-9.1520678],[-40.2788467,-9.0945385],[-40.2478641,-9.0577378],[-40.2011193,-9.0684658],[-40.1597208,-9.1078733],[-40.1298949,-9.1103046],[-40.0655631,-9.0630652],[-39.9960306,-9.0609582],[-39.9580347,-9.0485916],[-39.8888191,-8.9658368],[-39.8734564,-8.9340387],[-39.9012593,-8.8641588],[-39.8929577,-8.828794],[-39.8227319,-8.8135158],[-39.7887962,-8.8191096],[-39.7477853,-8.794041],[-39.6931964,-8.7986757],[-39.6746292,-8.7871572],[-39.673824,-8.7454614],[-39.6911317,-8.6623129],[-39.5952263,-8.6512059],[-39.5186123,-8.6039111],[-39.4856967,-8.5964458],[-39.4160408,-8.5421279],[-39.3797936,-8.5328206],[-39.3451437,-8.5585006],[-39.2932156,-8.5606292],[-39.2478833,-8.6249988],[-39.2454926,-8.6841059],[-39.234268,-8.7053364],[-39.200781,-8.7109876],[-39.1687128,-8.6915045],[-39.1439462,-8.7125191],[-39.0375772,-8.7346909],[-38.9519332,-8.8046682],[-38.8681044,-8.7838654],[-38.7969895,-8.7934644],[-38.7396837,-8.8448477],[-38.7065435,-8.8622606],[-38.6892326,-8.9473956],[-38.6725158,-8.9739755],[-38.6407103,-8.9872682],[-38.6083358,-8.9498221],[-38.6075857,-8.893264],[-38.5899504,-8.8565392],[-38.5550678,-8.8233578],[-38.5124067,-8.830586],[-38.4697972,-8.8642411],[-38.4793182,-8.9017437],[-38.5193747,-8.9393497],[-38.5035127,-8.9814111],[-38.4490997,-9.0263588],[-38.4035158,-9.0372331],[-38.3624418,-9.0009412],[-38.32354,-8.9900092],[-38.2896758,-9.0363344],[-38.3210421,-9.0700337],[-38.3186587,-9.1410017],[-38.287601,-9.1738839],[-38.2875128,-9.2171293],[-38.23759,-9.3297945],[-38.1573778,-9.2626192],[-38.1439087,-9.2182047],[-38.0922873,-9.172725],[-38.0639045,-9.1737805],[-38.0257874,-9.1555063],[-37.9785629,-9.147662],[-37.9515962,-9.0973095],[-37.8795981,-9.0154139],[-37.8390986,-8.9783812],[-37.8203593,-8.9087038],[-37.8246288,-8.8859573],[-37.7553619,-8.8463637],[-37.7039225,-8.9219266],[-37.6988417,-8.9447222],[-37.6376667,-9.0037778],[-37.5970513,-8.9690718],[-37.5459722,-8.9609444],[-37.5043893,-8.9653873],[-37.4681995,-8.9985786],[-37.4165025,-9.0065641],[-37.3586391,-9.0538891],[-37.2965722,-9.1209173],[-37.2822858,-9.1488418],[-37.2470816,-9.1790184],[-37.2335552,-9.2065858],[-37.1589467,-9.2391017],[-37.0906725,-9.2463621],[-37.0285115,-9.314017],[-37.0033646,-9.3526135],[-36.9554646,-9.3812511],[-36.9136922,-9.2960556],[-36.8674694,-9.2685315],[-36.8360412,-9.2886286],[-36.7617725,-9.271457],[-36.6446864,-9.3143715],[-36.603625,-9.3415125],[-36.5665761,-9.3314374],[-36.5718396,-9.2925828],[-36.4904055,-9.2612143],[-36.4871653,-9.2402014],[-36.4243709,-9.2260241],[-36.365704,-9.2226273],[-36.3215198,-9.1853806],[-36.2647196,-9.1658626],[-36.2668438,-9.1023818],[-36.2409616,-9.0993929],[-36.202797,-9.0668449],[-36.1985057,-9.0466767],[-36.1272786,-9.0336695],[-36.1043282,-8.9989293],[-36.1268105,-8.9812763],[-36.1224516,-8.9527343],[-36.0864106,-8.9440674],[-36.063935,-8.9153373],[-36.0053839,-8.9130004],[-35.924276,-8.8846275],[-35.9114175,-8.8612891],[-35.8619307,-8.858369],[-35.8257482,-8.8703437],[-35.7950752,-8.8476851],[-35.7769157,-8.8692653],[-35.7829807,-8.8975421],[-35.748399,-8.9171517],[-35.6712041,-8.896634],[-35.517771,-8.8167578],[-35.4598277,-8.8377745],[-35.4112256,-8.836231],[-35.3945703,-8.849836],[-35.2527821,-8.887233],[-35.1682513,-8.8924711],[-35.1505733,-8.905436],[-35.1292056,-8.8665628],[-35.1343094,-8.8426906],[-35.1061176,-8.7731627],[-35.0860612,-8.7467111],[-35.0903289,-8.6949783],[-35.036059,-8.5748767],[-35.0035784,-8.5492436],[-35.0024139,-8.4988527],[-34.9605527,-8.39567],[-34.9742406,-8.384646],[-34.948389,-8.3422626],[-34.9448979,-8.2623846],[-34.9178159,-8.2119826],[-34.9122057,-8.1643792],[-34.8831631,-8.1014769],[-34.8570725,-8.0257188],[-34.8403742,-8.0080928],[-34.8233996,-7.9464312],[-34.8237479,-7.8882217],[-34.8450402,-7.8130659],[-34.8231754,-7.751698],[-34.8336415,-7.6830836],[-34.8066907,-7.6204284],[-34.8279251,-7.5857906],[-34.8358718,-7.5457284],[-34.8673922,-7.5479595],[-34.9326776,-7.5285201],[-34.9607869,-7.538766],[-34.9842275,-7.5078883],[-34.9854187,-7.4620067],[-35.0705208,-7.398761],[-35.107964,-7.405526],[-35.1720667,-7.3880404],[-35.1907413,-7.3978912],[-35.2485947,-7.3747796],[-35.3090486,-7.4090439],[-35.3523559,-7.4223977],[-35.3732703,-7.4436477],[-35.4326034,-7.4723446],[-35.4503698,-7.4534114],[-35.4943121,-7.4822056],[-35.527211,-7.5699614],[-35.5151939,-7.585021],[-35.5316871,-7.6216661],[-35.5196319,-7.6400175],[-35.5595634,-7.66133],[-35.6146193,-7.6563094],[-35.6315236,-7.6812374],[-35.6841139,-7.7077989],[-35.7365494,-7.709599],[-35.7805775,-7.7383514],[-35.828499,-7.751649],[-35.8721183,-7.7495389],[-35.9093578,-7.7925091],[-35.9328815,-7.7844259],[-36.0215873,-7.8102391],[-36.068992,-7.7809736],[-36.1433702,-7.7815622],[-36.1978732,-7.7903806],[-36.2166343,-7.7641042],[-36.254196,-7.7963868],[-36.2613346,-7.832077],[-36.3091315,-7.8066872],[-36.3945385,-7.8076088],[-36.4299642,-7.8271115],[-36.4296952,-7.8865592],[-36.4441096,-7.9152833],[-36.4801364,-7.9247633],[-36.5336306,-7.9021779],[-36.5748119,-7.9075006],[-36.586861,-7.9586561],[-36.6118769,-7.9478967],[-36.6278515,-7.9864066],[-36.6278519,-8.0557493],[-36.6537909,-8.0703841],[-36.6403209,-8.1199106],[-36.6678453,-8.1242659],[-36.7615697,-8.1962939],[-36.7932,-8.1894514],[-36.8125112,-8.2052941],[-36.8999978,-8.2436608],[-36.9602017,-8.3004673],[-36.9911563,-8.3029551],[-37.0402836,-8.2661796],[-37.0822268,-8.2618874],[-37.1229148,-8.2090664],[-37.1264516,-8.173684],[-37.1602253,-8.1704004],[-37.1425578,-8.1179448],[-37.1568452,-8.0645345],[-37.1517946,-8.0094148],[-37.1933946,-7.9828667],[-37.2079199,-7.9518661],[-37.2373419,-7.9733068],[-37.2917793,-7.9653109],[-37.3397846,-7.9798045],[-37.3434534,-7.9470209],[-37.3089764,-7.9341762],[-37.2873944,-7.9038765],[-37.244648,-7.8749],[-37.2471503,-7.8468039],[-37.2228137,-7.8362093],[-37.217416,-7.8066859],[-37.1570323,-7.7729995],[-37.1389447,-7.7455177],[-37.1545429,-7.7064038],[-37.1979462,-7.6352979],[-37.1635694,-7.5747149],[-37.121524,-7.5361189],[-37.0538222,-7.5045686],[-37.0032533,-7.4963885],[-36.9842256,-7.4822617],[-37.0236157,-7.4338675],[-37.0256234,-7.3860442],[-37.0674131,-7.38338],[-37.0856227,-7.3582564],[-37.1353148,-7.3466643],[-37.196674,-7.2946701],[-37.2341788,-7.2738869],[-37.2883328,-7.2882889],[-37.3305857,-7.2882835],[-37.3857137,-7.3566938],[-37.4255124,-7.3529162],[-37.496038,-7.3648223],[-37.4876262,-7.3894195],[-37.5274041,-7.4483824],[-37.5279586,-7.4653107],[-37.6097708,-7.5080308],[-37.6303781,-7.532511],[-37.6558188,-7.5234166],[-37.7287319,-7.5797304],[-37.7558477,-7.6195218],[-37.740368,-7.6360853],[-37.7609745,-7.6668105],[-37.7858276,-7.6257982],[-37.8100395,-7.6438918],[-37.8571589,-7.6519689],[-37.8805967,-7.6836501],[-37.9239349,-7.7151119],[-37.9571411,-7.7618093]]],"bbox":[-41.3343516,-9.4810228,-34.8066907,-7.2738869]}
