{"type":"Topology","objects":{"geometrias":{"type":"GeometryCollection","geometries":[{"type":"Polygon","arcs":[[0]],"properties":{"code_state":27,"code_region":2,"name_state":"Alagoas","abbrev_state":"AL","name_region":"Nordeste","year":2020}}]}},"arcs":[[[-36.6245353,-9.3316658],[-36.6446864,-9.3143715],[-36.7617725,-9.271457],[-36.8360412,-9.2886286],[-36.8674694,-9.2685315],[-36.9136922,-9.2960556],[-36.9554646,-9.3812511],[-37.0033646,-9.3526135],[-37.0285115,-9.314017],[-37.0616712,-9.304162],[-37.0571996,-9.2817884],[-37.0906725,-9.2463621],[-37.1589467,-9.2391017],[-37.2335552,-9.2065858],[-37.2470816,-9.1790184],[-37.2822858,-9.1488418],[-37.2965722,-9.1209173],[-37.3586391,-9.0538891],[-37.4165025,-9.0065641],[-37.4681995,-8.9985786],[-37.5043893,-8.9653873],[-37.5459722,-8.9609444],[-37.5970513,-8.9690718],[-37.6376667,-9.0037778],[-37.6577778,-8.9926667],[-37.6988417,-8.9447222],[-37.7039225,-8.9219266],[-37.7553619,-8.8463637],[-37.8246288,-8.8859573],[-37.8203593,-8.9087038],[-37.8390986,-8.9783812],[-37.8795981,-9.0154139],[-37.9515962,-9.0973095],[-37.9785629,-9.147662],[-38.0257874,-9.1555063],[-38.0639045,-9.1737805],[-38.0922873,-9.172725],[-38.1439087,-9.2182047],[-38.1573778,-9.2626192],[-38.179554,-9.2912502],[-38.2030806,-9.2969016],[-38.23759,-9.3297945],[-38.205573,-9.3636489],[-38.1941767,-9.3943858],[-38.2047642,-9.4186743],[-38.1572696,-9.4403982],[-38.0797087,-9.4403868],[-38.0678462,-9.4585026],[-38.0221548,-9.4699909],[-37.9893302,-9.5273587],[-37.9171436,-9.5489542],[-37.8861699,-9.5501668],[-37.8182483,-9.5928939],[-37.7861268,-9.6389131],[-37.7469947,-9.6249209],[-37.7052049,-9.634498],[-37.670392,-9.6559792],[-37.6540515,-9.6863334],[-37.577684,-9.7368078],[-37.4730916,-9.7463641],[-37.4099011,-9.7626496],[-37.3936189,-9.7792353],[-37.3466157,-9.7911833],[-37.3259371,-9.8169225],[-37.2619127,-9.8491387],[-37.2411061,-9.8954489],[-37.1625382,-9.8938468],[-37.1138859,-9.9256234],[-37.0624048,-9.9825197],[-37.0330877,-9.9875786],[-36.9963712,-9.9723746],[-36.9682085,-9.9869158],[-36.9539332,-10.0185449],[-36.9456955,-10.0873628],[-36.9121838,-10.1382379],[-36.8699454,-10.1471254],[-36.8263467,-10.2111873],[-36.7885611,-10.2280941],[-36.759159,-10.2249199],[-36.7212114,-10.2645986],[-36.6577102,-10.2679123],[-36.6226392,-10.2552517],[-36.5718256,-10.3161472],[-36.5569866,-10.3748876],[-36.5626853,-10.4139182],[-36.5019299,-10.4311324],[-36.4630962,-10.4084796],[-36.4276286,-10.4335147],[-36.403575,-10.486978],[-36.3864339,-10.4967433],[-36.332901,-10.4015672],[-36.2935058,-10.353459],[-36.3016211,-10.3230829],[-36.2760988,-10.2802765],[-36.1703186,-10.174948],[-36.1338498,-10.1597979],[-36.0887945,-10.0943946],[-36.045717,-10.0750793],[-35.9379302,-9.9024339],[-35.9068559,-9.8744655],[-35.8852755,-9.8346976],[-35.8127588,-9.729734],[-35.7603934,-9.682562],[-35.7094416,-9.6657871],[-35.6931137,-9.6241834],[-35.6508767,-9.5686209],[-35.5913367,-9.5288975],[-35.57929,-9.502851],[-35.4999464,-9.4215149],[-35.4834271,-9.369691],[-35.4078878,-9.3073678],[-35.3553075,-9.256888],[-35.2397716,-9.0679966],[-35.222802,-9.0170539],[-35.1810715,-8.9774385],[-35.1519313,-8.9149944],[-35.1682513,-8.8924711],[-35.2527821,-8.887233],[-35.3945703,-8.849836],[-35.4112256,-8.836231],[-35.4598277,-8.8377745],[-35.517771,-8.8167578],[-35.6712041,-8.896634],[-35.748399,-8.9171517],[-35.7829807,-8.8975421],[-35.7769157,-8.8692653],[-35.7950752,-8.8476851],[-35.8257482,-8.8703437],[-35.8619307,-8.858369],[-35.9114175,-8.8612891],[-35.924276,-8.8846275],[-36.0053839,-8.9130004],[-36.063935,-8.9153373],[-36.0864106,-8.9440674],[-36.1224516,-8.9527343],[-36.1268105,-8.9812763],[-36.1043282,-8.9989293],[-36.1272786,-9.0336695],[-36.1985057,-9.0466767],[-36.202797,-9.0668449],[-36.2409616,-9.0993929],[-36.2668438,-9.1023818],[-36.2572548,-9.1401488],[-36.2647196,-9.1658626],[-36.3215198,-9.1853806],[-36.365704,-9.2226273],[-36.4243709,-9.2260241],[-36.4871653,-9.2402014],[-36.4904055,-9.2612143],[-36.5718396,-9.2925828],[-36.5658282,-9.3271056],[-36.605047,-9.3415082],[-36.6245353,-9.3316658]]],"bbox":[-38.23759,-10.4967433,-35.1519313,-8.8167578]}
