{"type":"Topology","objects":{"geometrias":{"type":"GeometryCollection","geometries":[{"type":"Polygon","arcs":[[0]],"properties":{"code_state":14,"code_region":1,"name_state":"Roraima","abbrev_state":"RR","name_region":"Norte","year":2020}}]}},"arcs":[[[-63.9593386,2.467631],[-63.9343736,2.4572606],[-63.9204834,2.4736055],[-63.882144,2.4690924],[-63.8465017,2.493248],[-63.7982228,2.4798593],[-63.7819973,2.4569287],[-63.750449,2.4417992],[-63.7039861,2.4578098],[-63.6891575,2.4470644],[-63.6333676,2.440037],[-63.6035815,2.4571651],[-63.5548233,2.4474208],[-63.5534437,2.430162],[-63.5200257,2.4218666],[-63.4805258,2.4335575],[-63.4656972,2.4017083],[-63.4414557,2.4181702],[-63.4217702,2.4452915],[-63.3984313,2.4283568],[-63.3719118,2.4263796],[-63.3570832,2.3789282],[-63.3754381,2.3617522],[-63.3605217,2.3273935],[-63.3679667,2.2897242],[-63.3604392,2.2691503],[-63.3781226,2.2263227],[-63.3597912,2.1971016],[-63.3107885,2.165004],[-63.2763514,2.1543897],[-63.1941336,2.1812129],[-63.1463394,2.1732586],[-63.1198323,2.0964525],[-63.0772673,2.0460662],[-63.0237762,2.0146794],[-62.9804347,2.0179276],[-62.9484827,2.0310414],[-62.8385715,2.0163864],[-62.8132455,1.9916842],[-62.7295838,1.9605494],[-62.7033106,1.9338206],[-62.7041791,1.8739468],[-62.7310733,1.8182323],[-62.7223724,1.7224945],[-62.7286068,1.7],[-62.7929928,1.6353122],[-62.8052823,1.5913457],[-62.7363493,1.5296296],[-62.7308005,1.499632],[-62.6769036,1.4546309],[-62.6399648,1.4382383],[-62.6202536,1.4037833],[-62.6205211,1.3626934],[-62.6021975,1.3257722],[-62.5974677,1.290221],[-62.5546935,1.1749041],[-62.5452401,1.1207622],[-62.5210879,1.0838159],[-62.4716209,1.0862816],[-62.4791091,1.0479361],[-62.4746958,1.0162997],[-62.4458079,0.9768413],[-62.4427354,0.9585339],[-62.4671893,0.9237996],[-62.4846856,0.8760203],[-62.4810502,0.8426722],[-62.4660739,0.8290772],[-62.4630261,0.7768688],[-62.5004942,0.7479483],[-62.5333109,0.7013007],[-62.5382905,0.6751955],[-62.5188492,0.5937719],[-62.5330086,0.5088084],[-62.5229646,0.485566],[-62.5186613,0.4437009],[-62.485246,0.4540804],[-62.4585682,0.4176914],[-62.4463713,0.3791138],[-62.4668891,0.3329678],[-62.4585849,0.3134941],[-62.4666294,0.2679859],[-62.4544158,0.2435529],[-62.4527436,0.2074142],[-62.4385598,0.1948955],[-62.4241258,0.1532502],[-62.4281258,0.1281387],[-62.4092644,0.0750728],[-62.3658734,0.0557716],[-62.336604,0.021567],[-62.326538,-0.0016922],[-62.3197948,-0.0963412],[-62.2940436,-0.1195515],[-62.2778209,-0.1498469],[-62.241564,-0.1704673],[-62.2530225,-0.2129053],[-62.253389,-0.2700021],[-62.2421259,-0.2992467],[-62.1871572,-0.3278407],[-62.2081686,-0.367615],[-62.2174527,-0.4040666],[-62.232796,-0.4244911],[-62.2804137,-0.4507057],[-62.2927274,-0.5036722],[-62.3072399,-0.5081186],[-62.3123217,-0.5759385],[-62.2906262,-0.5984635],[-62.2867171,-0.632373],[-62.3080217,-0.6577317],[-62.3558105,-0.671608],[-62.3674645,-0.6944991],[-62.4050896,-0.7222027],[-62.4271271,-0.6897596],[-62.4866273,-0.6814673],[-62.5082918,-0.7142492],[-62.4949568,-0.7506342],[-62.5010732,-0.7814661],[-62.4616298,-0.8017453],[-62.4332906,-0.8039684],[-62.3760672,-0.8364693],[-62.3649621,-0.8773045],[-62.3127423,-0.930355],[-62.2721852,-0.9520217],[-62.2591241,-0.9759149],[-62.2274549,-0.9734411],[-62.1999604,-1.0003542],[-62.1719075,-1.0059124],[-62.1430091,-1.0373036],[-62.1255177,-1.0373019],[-62.1113467,-1.0603609],[-62.1182904,-1.0764676],[-62.0996815,-1.0967433],[-62.062179,-1.0997992],[-62.0174603,-1.141744],[-61.966905,-1.2428579],[-61.9499562,-1.2970205],[-61.9274584,-1.3206319],[-61.906898,-1.3561901],[-61.8966239,-1.3953553],[-61.8693993,-1.401745],[-61.8171838,-1.3995172],[-61.7980094,-1.38063],[-61.7407891,-1.3920181],[-61.7180136,-1.4097932],[-61.6049547,-1.4481315],[-61.5596818,-1.4950728],[-61.5446819,-1.5256267],[-61.4827365,-1.5806331],[-61.473291,-1.5278497],[-61.5235688,-1.4906328],[-61.548014,-1.429518],[-61.5738424,-1.4286891],[-61.5819057,-1.409522],[-61.6191215,-1.3947977],[-61.5821752,-1.3534073],[-61.5855081,-1.3386858],[-61.6269031,-1.29397],[-61.6070712,-1.2744238],[-61.6083416,-1.2524404],[-61.5871347,-1.1944035],[-61.5727688,-1.1788682],[-61.5811734,-1.1565909],[-61.5661233,-1.129135],[-61.5786325,-1.1137947],[-61.5727688,-1.0757856],[-61.5428642,-1.0622039],[-61.5438415,-1.0035769],[-61.5509756,-0.9831549],[-61.5807825,-0.9779761],[-61.5764824,-0.9111396],[-61.5523438,-0.8894467],[-61.5567415,-0.86492],[-61.5473596,-0.7951499],[-61.5356323,-0.7544012],[-61.4846186,-0.716877],[-61.4581344,-0.6547267],[-61.4287185,-0.6495475],[-61.4071207,-0.6284885],[-61.3595274,-0.5969244],[-61.3289387,-0.5972175],[-61.3091977,-0.5790412],[-61.2340453,-0.5619397],[-61.2210475,-0.5289093],[-61.2230998,-0.4998854],[-61.168861,-0.516303],[-61.1616292,-0.5017422],[-61.1334836,-0.4969537],[-61.117945,-0.5066283],[-61.0790494,-0.5061397],[-61.0568653,-0.543861],[-60.9836674,-0.5617443],[-60.9336309,-0.5478676],[-60.9213172,-0.5790412],[-60.9276695,-0.6055239],[-60.8915103,-0.6452966],[-60.8714762,-0.6382607],[-60.8576966,-0.6554596],[-60.8551557,-0.6863394],[-60.8185079,-0.6891733],[-60.7926101,-0.7417466],[-60.7712078,-0.7560625],[-60.7779021,-0.7888959],[-60.7631941,-0.8126414],[-60.7622046,-0.862929],[-60.7356472,-0.8521314],[-60.6842669,-0.8654697],[-60.6634998,-0.881202],[-60.6328134,-0.8614633],[-60.5959213,-0.8662514],[-60.5880053,-0.843288],[-60.5581984,-0.8507633],[-60.5362098,-0.869476],[-60.5028602,-0.8406985],[-60.4932341,-0.8114321],[-60.4978273,-0.7806509],[-60.4748613,-0.7615958],[-60.4263396,-0.7711722],[-60.4056702,-0.7515796],[-60.3851963,-0.7535829],[-60.3735668,-0.7318403],[-60.3466917,-0.739609],[-60.3114609,-0.7184527],[-60.3152723,-0.6364651],[-60.3536303,-0.6173605],[-60.3815315,-0.5884836],[-60.3827531,-0.5538409],[-60.4000998,-0.5174879],[-60.3826554,-0.4592444],[-60.3464962,-0.4379405],[-60.3514803,-0.4056424],[-60.3267553,-0.3809179],[-60.3263644,-0.3389936],[-60.2925506,-0.294626],[-60.3034961,-0.2585161],[-60.2688029,-0.1765234],[-60.2211607,-0.1419768],[-60.2360275,-0.1037044],[-60.2108138,-0.0638805],[-60.2042172,-0.0299202],[-60.169133,-0.003778],[-60.1351238,0.0316482],[-60.1213931,0.0880369],[-60.1336091,0.1034778],[-60.0590829,0.1629969],[-60.0379686,0.2635455],[-58.8954648,0.2635103],[-58.8954979,1.2276938],[-58.9046663,1.251024],[-58.8988351,1.2793569],[-58.9238301,1.2935199],[-58.9185494,1.3165785],[-58.9660576,1.3124126],[-59.0210587,1.3310229],[-59.0529979,1.3243534],[-59.1027169,1.3482417],[-59.1527243,1.3488017],[-59.1885555,1.3751884],[-59.2266115,1.3774098],[-59.2693901,1.40047],[-59.2885589,1.4446364],[-59.3216084,1.4821371],[-59.3396677,1.5182487],[-59.3788354,1.5207427],[-59.4316175,1.5679687],[-59.4479988,1.6193534],[-59.4830048,1.6265776],[-59.5263387,1.6913029],[-59.5335541,1.7162965],[-59.5666119,1.7357424],[-59.6174465,1.7151866],[-59.6329989,1.7410184],[-59.6902225,1.7562986],[-59.678838,1.8071276],[-59.6543876,1.8168515],[-59.691892,1.8535252],[-59.7460566,1.8518555],[-59.7593915,1.9004668],[-59.7380084,1.955461],[-59.7323643,2.0364962],[-59.7422491,2.0739135],[-59.7217863,2.1035319],[-59.725256,2.1318849],[-59.7395124,2.1466399],[-59.7367199,2.1889136],[-59.7198717,2.2371735],[-59.7403833,2.2928529],[-59.7799175,2.2858909],[-59.8322018,2.3289215],[-59.85415,2.3315042],[-59.8695937,2.3501596],[-59.8985179,2.3623571],[-59.9092359,2.3894709],[-59.892156,2.4279824],[-59.897091,2.4814364],[-59.9205085,2.5078595],[-59.9183798,2.5261456],[-59.9381664,2.5552148],[-59.9422392,2.5841285],[-59.9725051,2.598906],[-59.9644065,2.616958],[-59.9876032,2.6789331],[-59.9934682,2.7860597],[-59.9913177,2.8410225],[-59.9788256,2.8945568],[-59.9844012,2.9288344],[-59.9482522,3.0036764],[-59.9623846,3.0168937],[-59.9521582,3.0399082],[-59.9567601,3.0753684],[-59.9388462,3.0999233],[-59.9078985,3.113275],[-59.9194699,3.1320797],[-59.9008141,3.1592082],[-59.9124615,3.190621],[-59.9082813,3.2119422],[-59.8745333,3.2284461],[-59.8814824,3.2579154],[-59.8277937,3.3342234],[-59.810182,3.3767517],[-59.8401305,3.443241],[-59.8021629,3.4915378],[-59.805161,3.5098028],[-59.8339612,3.5229483],[-59.8450751,3.5448553],[-59.8688787,3.5589921],[-59.850777,3.6045945],[-59.8172748,3.6181552],[-59.7886492,3.6166511],[-59.7596359,3.6331848],[-59.752221,3.652856],[-59.7240068,3.6638315],[-59.7046953,3.6891395],[-59.6687527,3.7028412],[-59.6732427,3.7610179],[-59.6653939,3.7815736],[-59.6356271,3.7933228],[-59.5963737,3.7941978],[-59.5781961,3.832564],[-59.5936983,3.8605074],[-59.5935482,3.8848972],[-59.5684187,3.8973874],[-59.5159026,3.9455893],[-59.5266792,3.9684979],[-59.5567991,3.978984],[-59.6016522,4.0288799],[-59.6544551,4.0695843],[-59.6199961,4.132464],[-59.6501643,4.145696],[-59.6844961,4.146464],[-59.7311528,4.1810633],[-59.7400384,4.2342243],[-59.7326494,4.2853967],[-59.6761961,4.348164],[-59.6942267,4.3801641],[-59.7364019,4.4241358],[-59.7486154,4.420847],[-59.8040345,4.4670814],[-59.8621961,4.452464],[-59.8630144,4.4714326],[-59.9114267,4.4777639],[-59.9719961,4.509264],[-59.9751604,4.4888547],[-60.0639662,4.495636],[-60.0672961,4.523464],[-60.0890961,4.533464],[-60.1216961,4.501464],[-60.1614961,4.517764],[-60.1310961,4.595164],[-60.0703961,4.616964],[-60.0754961,4.655364],[-60.0255041,4.7062],[-60.0216961,4.781964],[-60.0354961,4.789464],[-59.9935049,4.9341069],[-59.9896962,5.0011077],[-59.9751051,5.0305507],[-59.9719777,5.074879],[-60.0087875,5.0855575],[-60.057925,5.1251611],[-60.0957826,5.1407268],[-60.1068942,5.1940657],[-60.1327301,5.2248938],[-60.1360617,5.2490623],[-60.1724471,5.2265585],[-60.2124535,5.2718411],[-60.2710608,5.2343422],[-60.3043956,5.2265666],[-60.3135614,5.2104549],[-60.3630098,5.2048987],[-60.381067,5.2207253],[-60.4052341,5.2110063],[-60.4344018,5.1812876],[-60.4496755,5.2001775],[-60.5271792,5.207947],[-60.545789,5.1940612],[-60.5771747,5.1979516],[-60.5921717,5.2173913],[-60.6249579,5.2151713],[-60.6521821,5.2304551],[-60.6971772,5.2287837],[-60.7232879,5.2198936],[-60.7281539,5.2009948],[-60.694675,5.197093],[-60.6570614,5.1559755],[-60.6556509,5.1252864],[-60.6426493,5.1171983],[-60.6449596,5.0585127],[-60.5991233,4.999339],[-60.5841242,4.955732],[-60.5918987,4.9268413],[-60.6088415,4.92406],[-60.6288417,4.8887893],[-60.6538405,4.8812868],[-60.6591214,4.8490644],[-60.6960657,4.8104519],[-60.7196789,4.7996234],[-60.7256978,4.7733697],[-60.7570811,4.7537983],[-60.8109736,4.7433058],[-60.8510711,4.7029406],[-60.8994042,4.7181942],[-60.9132911,4.6971539],[-60.919587,4.663349],[-60.947579,4.655541],[-60.9507361,4.6375392],[-60.9333706,4.6161972],[-60.934884,4.584395],[-60.957358,4.577763],[-60.957908,4.545161],[-60.994064,4.532854],[-60.9978797,4.5156047],[-61.0498661,4.5240242],[-61.0940019,4.5228269],[-61.126095,4.5052981],[-61.1451556,4.4833461],[-61.1763519,4.5114819],[-61.2697937,4.5396569],[-61.323211,4.5348887],[-61.3231494,4.5045858],[-61.2788449,4.4779504],[-61.3060691,4.4590661],[-61.3193977,4.4301727],[-61.351623,4.4187867],[-61.3921854,4.4235086],[-61.4482895,4.4390659],[-61.48635,4.4104537],[-61.5135722,4.4054458],[-61.5274597,4.3421189],[-61.5130182,4.309344],[-61.5619014,4.251015],[-61.5907936,4.2440633],[-61.6082915,4.2610047],[-61.6319018,4.2410077],[-61.6563455,4.2604507],[-61.7391227,4.2560081],[-61.7755111,4.2465677],[-61.8024589,4.2282326],[-61.8188506,4.1676728],[-61.8513496,4.1740639],[-61.9230211,4.1557205],[-61.930794,4.1032257],[-61.9932943,4.1748994],[-62.0116301,4.156004],[-62.048292,4.1501791],[-62.0710688,4.1304531],[-62.1071799,4.1148932],[-62.1144089,4.087957],[-62.1480215,4.079067],[-62.2527433,4.1293434],[-62.2894047,4.1401718],[-62.3274602,4.134342],[-62.3535752,4.1651765],[-62.3896861,4.1779587],[-62.4377406,4.182952],[-62.464128,4.1726755],[-62.4607982,4.1426772],[-62.5424667,4.1093394],[-62.5566338,4.0782324],[-62.5344069,4.0510145],[-62.5624636,4.0343421],[-62.5727387,4.0146226],[-62.6096854,4.0440611],[-62.6463535,4.0462845],[-62.6894063,4.0324],[-62.7360743,4.0398967],[-62.766632,4.0123949],[-62.7502282,3.9660263],[-62.7619074,3.9415626],[-62.7866308,3.9293446],[-62.788853,3.8932343],[-62.7538558,3.8496323],[-62.7713485,3.8340685],[-62.7433013,3.8082293],[-62.7310745,3.7076765],[-62.7485729,3.672674],[-62.7849625,3.6996214],[-62.8102383,3.7326761],[-62.838297,3.7360074],[-62.8530142,3.7118462],[-62.9088508,3.6710069],[-62.9363558,3.627952],[-62.9602431,3.6076781],[-63.0032931,3.6246219],[-63.0324655,3.6657298],[-63.0730231,3.6854559],[-63.0635709,3.7048993],[-63.0607966,3.7518393],[-63.1233002,3.8046204],[-63.2044149,3.8115611],[-63.226632,3.8354512],[-63.2335791,3.8815615],[-63.2052478,3.9487902],[-63.2769102,3.9554548],[-63.2866314,3.9726741],[-63.3385744,3.9568414],[-63.3932972,3.9804495],[-63.4288561,3.9771201],[-63.4521907,3.9554506],[-63.411912,3.9132311],[-63.4527513,3.8582333],[-63.4808048,3.8732317],[-63.4991349,3.8698963],[-63.5124696,3.847403],[-63.5810788,3.8862894],[-63.5921946,3.9282267],[-63.6174652,3.9596169],[-63.6435753,3.9785087],[-63.6608031,4.0099055],[-63.6855227,4.0090628],[-63.7005276,3.9443406],[-63.6969141,3.9132281],[-63.7388542,3.9151713],[-63.755246,3.9401777],[-63.7966359,3.9326727],[-63.8502475,3.9499012],[-63.8910768,3.9304584],[-63.9260804,3.9260098],[-63.9380226,3.9012869],[-63.9685837,3.8785051],[-63.9971909,3.9035096],[-64.0019115,3.9329572],[-64.0356965,3.9342612],[-64.0999757,4.0346167],[-64.0963574,4.0535148],[-64.1088643,4.0854566],[-64.1719139,4.128789],[-64.2188581,4.1154546],[-64.276356,4.1437875],[-64.335516,4.129066],[-64.3863665,4.1371235],[-64.4316372,4.1346238],[-64.4577538,4.1212874],[-64.500253,4.1126755],[-64.5444182,4.1137828],[-64.5605044,4.1015668],[-64.5930328,4.1140617],[-64.6274693,4.1385081],[-64.6585876,4.2115662],[-64.6996964,4.25017],[-64.7805303,4.2865645],[-64.7996932,4.284068],[-64.8252537,4.2415597],[-64.8105273,4.1746166],[-64.7321922,4.1201757],[-64.7085843,4.0665584],[-64.6838633,4.0401763],[-64.6738667,4.0046216],[-64.6507269,3.9919033],[-64.6244752,3.9564668],[-64.5802514,3.9282949],[-64.5683615,3.8817554],[-64.5244729,3.8419069],[-64.5055041,3.8098765],[-64.4724771,3.7815673],[-64.428583,3.7799007],[-64.3360848,3.730728],[-64.2891404,3.699622],[-64.281083,3.6693447],[-64.246911,3.6276721],[-64.1962509,3.5788961],[-64.187457,3.5554473],[-64.1844002,3.4893145],[-64.1486018,3.4399133],[-64.1470633,3.3713242],[-64.1179405,3.3374253],[-64.1217169,3.2786525],[-64.1585604,3.2436811],[-64.154009,3.227871],[-64.1814137,3.1704944],[-64.2218373,3.1490086],[-64.2259345,3.1278415],[-64.2138766,3.0904817],[-64.1579073,3.0465045],[-64.1445778,3.0257303],[-64.1608975,2.9871728],[-64.1188802,2.9856429],[-64.0936071,2.9399107],[-64.0705064,2.9175433],[-64.0781338,2.8799086],[-64.0526367,2.8555536],[-64.0413417,2.8315975],[-64.0146932,2.8121699],[-64.0162406,2.7776129],[-63.9870992,2.7155907],[-64.0069566,2.7094874],[-63.9861536,2.6486687],[-64.0077303,2.6277797],[-64.0101372,2.6046557],[-64.0488205,2.5673909],[-64.0430234,2.4959988],[-64.022951,2.4647513],[-64.0078646,2.4807404],[-63.9766171,2.4649662],[-63.9593386,2.467631]]],"bbox":[-64.8252537,-1.5806331,-58.8954648,5.2718411]}
